<?xml version="1.0" encoding="UTF-8"?>
<kml xmlns="http://www.opengis.net/kml/2.2">
  <Document>
    <name>-/ZTRNW - Optimised</name>
    <description><![CDATA[Optimised flight path with 1852 points (decimated from 9259 original points). Source format: Standard KML]]></description>
    
    <Style id="flightPath">
      <LineStyle>
        <color>ff0000ff</color>
        <width>3</width>
      </LineStyle>
    </Style>
    
    <Placemark>
      <name>Flight Path</name>
      <description><![CDATA[<div style="width:220px; text-align:center;">
<div style="width:210px; text-align:center;">
<div style=" background: #000; color: #fff; font-size: 14px; text-align:left; border: 1px solid #000; padding: 2px 6px; text-shadow: 0 1px 0 #000; box-shadow: 0 1px 3px rgba(0,0,0,0.6); background: -webkit-gradient(linear, left top, left bottom, color-stop(0%,#808080), color-stop(2%,#303030), color-stop(100%,#0c0c0c));"><span style="font-size: 14px; font-weight: bold;"><a href="javascript:void(0);" style="color: #fff; cursor: pointer;text-decoration: none;">-</a></span> / ZTRNW<br/>Private owner</div>

<div style="border-top: 1px solid #005c90; color: #fff; padding-bottom: 5px; box-shadow: 0 0 1px #9BE3F6 inset, 0 1px 0 #9BE3F6 inset, 0 -1px 3px rgba(0,0,0,0.4); background:rgba(43,114,173,1); background: -webkit-gradient(linear, left top, left bottom, color-stop(0%,rgba(92,184,229,1)), color-stop(100%,rgba(43,114,173,1)));">
<a style="text-decoration: none; color: rgb(255, 255, 255); font-size: 12px; width:77px; display: inline-block;" title=" Airport" href="javascript:void(0);/departures"><h3 style="padding: 0px; margin: 10px 0px 0px; font-size: 16px; ">?</h3></a>
<span style="background: url(https://www.flightradar24.com/static/images/userUI_sprite.png?14) no-repeat scroll 0 -464px rgba(0, 0, 0, 0); border: medium none; display: inline-block; height: 16px; width: 45px;"></span>
<a style="text-decoration: none; color: rgb(255, 255, 255); font-size: 12px; width:77px; display: inline-block;" title=" Airport" href="javascript:void(0);/arrivals"><h3 style="padding: 0px; margin: 10px 0px 0px; font-size: 16px;">?</h3></a>
<div style=" margin-top:10px;">
<div style="display: inline-block; font-size: 12px; padding: 0 5px;">
<div>
<span style="color: #c1eaff;" title="Actual Time of Departure">ATD </span>
<span title="2025-10-02 07:28">07:28</span> <span title="Coordinated Universal Time">UTC</span>
</div>
</div>
<div style="display: inline-block; font-size: 12px; padding: 0 5px;">
<div>
<span style="color: #c1eaff;" title="Estimated Time of Arrival">ETA </span>
<span title="2025-10-02 07:51">07:51</span> <span title="Coordinated Universal Time">UTC</span>
</div>
</div>
</div>
<br style="clear: both;"/>
</div>

<div style="display: block;">
<table style="border-collapse: collapse; width: 100%;">
<tr style="border-right: 1px solid #dadada; ">
<td style="background: none repeat scroll 0 0 #dadada; padding: 0; width: 31px;">
<span style="background: url(https://www.flightradar24.com/static/images/userUI_sprite.png?14) no-repeat scroll -208px -464px rgba(0, 0, 0, 0); height: 26px; margin: 8px 0 0 4px; width: 23px; display: block;"></span>
</td>
<td colspan="2" style="border-bottom: 1px solid #dadada; border-left: 1px solid #dadada; color: #666; line-height: 1.1em; padding: 3px 6px; vertical-align: top; font-size: 14px;">
Aircraft<span style="float: right; font-size: 12px;">(EC20)</span><br>
<span style="color: #333; font-size: 16px; font-weight: bold; line-height: 1.3em;">Airbus Helicopters H120</span>
</td>
</tr>
<tr style="border-right: 1px solid #dadada; ">
<td style="background: none repeat scroll 0 0 #dadada; padding: 0; width: 31px;">
<td colspan="2" style="border-bottom: 1px solid #dadada; border-left: 1px solid #dadada; color: #666; line-height: 1.1em; padding: 3px 6px; vertical-align: top; font-size: 14px;">
Registration<br>
<span style="color: #333; font-size: 16px; font-weight: bold; line-height: 1.3em;"><a href="https://www.flightradar24.com/reg/zt-rnw" style="text-decoration: none; color: #333;">ZT-RNW</a></span>
</td>
</tr>
</table>
</div>

</div>
</div>]]></description>
      <styleUrl>#flightPath</styleUrl>
      <LineString>
        <extrude>1</extrude>
        <tessellate>1</tessellate>
        <altitudeMode>absolute</altitudeMode>
        <coordinates>
          18.435745,-33.897106,45.72 18.437132,-33.892685,114.3 18.437004,-33.887981,175.26 18.434944,-33.883419,228.6 18.431078,-33.880096,274.32 18.425961,-33.877785,320.04 18.420372,-33.876205,373.38 18.414745,-33.875412,403.86 18.408321,-33.875427,441.96 18.402729,-33.876156,480.06 18.397179,-33.87746,518.16 18.392372,-33.879135,541.02 18.387863,-33.881424,579.12 18.383657,-33.883759,601.98 18.379623,-33.886597,632.46 18.375475,-33.890259,662.94 18.371601,-33.89394,685.8 18.367596,-33.897758,693.42 18.363255,-33.901749,685.8 18.358784,-33.906555,701.04 18.355352,-33.911453,693.42 18.352661,-33.916351,701.04 18.350372,-33.92131,701.04 18.348064,-33.926605,701.04 18.346024,-33.931786,701.04 18.344364,-33.937,708.66 18.342909,-33.942215,693.42 18.341394,-33.947433,693.42 18.339672,-33.952408,685.8 18.337639,-33.957733,678.18 18.335005,-33.963364,670.56 18.32497,-33.980988,662.94 18.315639,-33.997192,655.32 18.308945,-34.00869,655.32 18.306417,-34.013809,647.7 18.304653,-34.018841,640.08 18.303391,-34.023788,655.32 18.302422,-34.028988,640.08 18.302135,-34.034668,624.84 18.303671,-34.040176,601.98 18.306484,-34.044907,579.12 18.309975,-34.049519,563.88 18.313873,-34.05423,541.02 18.317642,-34.058826,533.4 18.322842,-34.064941,533.4 18.328686,-34.07177,533.4 18.331697,-34.076523,525.78 18.334051,-34.081055,525.78 18.33691,-34.085815,533.4 18.340553,-34.090118,533.4 18.344421,-34.093834,518.16 18.348999,-34.097092,525.78 18.354792,-34.099548,518.16 18.360558,-34.101471,518.16 18.366562,-34.103394,510.54 18.382416,-34.108639,518.16 18.38728,-34.110687,518.16 18.392715,-34.113247,502.92 18.397751,-34.115528,502.92 18.407257,-34.119598,502.92 18.413715,-34.122417,502.92 18.418922,-34.124931,502.92 18.423847,-34.12738,502.92 18.428764,-34.130051,510.54 18.433937,-34.132278,502.92 18.440384,-34.133469,510.54 18.446331,-34.13308,510.54 18.452267,-34.130859,510.54 18.457647,-34.12706,502.92 18.462467,-34.12307,510.54 18.467737,-34.118591,502.92 18.472277,-34.113739,495.3 18.474655,-34.108265,502.92 18.475227,-34.101936,502.92 18.475056,-34.095184,502.92 18.474072,-34.088654,518.16 18.472895,-34.082336,518.16 18.472054,-34.076294,518.16 18.471493,-34.069794,525.78 18.471157,-34.063156,525.78 18.471212,-34.056335,533.4 18.471508,-34.03923,472.44 18.472996,-34.016651,365.76 18.474598,-33.999939,358.14 18.475342,-33.993839,358.14 18.476313,-33.987625,365.76 18.477602,-33.9814,373.38 18.480492,-33.969215,342.9 18.482494,-33.956413,320.04 18.482143,-33.949677,297.18 18.480854,-33.943085,281.94 18.478611,-33.936813,259.08 18.475304,-33.930542,228.6 18.471279,-33.924942,220.98 18.46653,-33.919777,220.98 18.46129,-33.914749,213.36 18.456402,-33.909489,236.22 18.452339,-33.904133,220.98 18.448792,-33.898865,205.74 18.445484,-33.894699,182.88 18.440945,-33.892822,144.78 18.43646,-33.8936,91.44 18.433153,-33.895248,45.72 18.431864,-33.895981,7.62 18.430367,-33.897011,0 18.428724,-33.89827,0 18.427492,-33.899643,0 18.427322,-33.90065,0 18.428936,-33.900688,0 18.430967,-33.900284,0 18.432598,-33.899899,0 18.434443,-33.899139,15.24 18.4359,-33.897949,30.48 18.437634,-33.895195,60.96 18.438091,-33.891148,114.3 18.436909,-33.886551,160.02 18.433456,-33.882626,205.74 18.428837,-33.880325,251.46 18.422951,-33.878952,304.8 18.416897,-33.878357,335.28 18.411123,-33.878357,381 18.405132,-33.879044,426.72 18.399521,-33.880692,457.2 18.394547,-33.883091,472.44 18.389797,-33.885559,495.3 18.384947,-33.888428,525.78 18.379784,-33.89175,556.26 18.374405,-33.895523,594.36 18.369814,-33.899597,624.84 18.365891,-33.90358,632.46 18.361797,-33.907791,640.08 18.357925,-33.912048,647.7 18.354492,-33.916378,647.7 18.351933,-33.920929,662.94 18.349747,-33.925644,655.32 18.347784,-33.930817,647.7 18.346495,-33.936264,640.08 18.345509,-33.941143,632.46 18.344814,-33.946289,617.22 18.344925,-33.951462,579.12 18.349915,-33.956085,541.02 18.355865,-33.955017,525.78 18.360157,-33.950081,510.54 18.362274,-33.944218,518.16 18.364096,-33.938232,510.54 18.365765,-33.932579,510.54 18.367481,-33.927223,518.16 18.369814,-33.92189,525.78 18.373289,-33.916763,518.16 18.377151,-33.912373,510.54 18.381248,-33.907516,502.92 18.384991,-33.902924,495.3 18.389282,-33.898361,480.06 18.394203,-33.894917,457.2 18.400726,-33.891937,426.72 18.406734,-33.889843,396.24 18.41217,-33.888073,381 18.417963,-33.886414,350.52 18.423119,-33.885269,312.42 18.427963,-33.885654,266.7 18.43111,-33.887562,220.98 18.432537,-33.889893,182.88 18.43277,-33.892544,121.92 18.431911,-33.894638,60.96 18.430653,-33.896267,15.24 18.429165,-33.897758,0 18.427792,-33.899292,0 18.427044,-33.900604,0 18.428501,-33.900787,0 18.430069,-33.900787,30.48 18.432426,-33.900642,99.06 18.435003,-33.899826,144.78 18.437244,-33.896988,220.98 18.438206,-33.893379,289.56 18.437462,-33.889797,335.28 18.435001,-33.886166,381 18.431282,-33.883045,441.96 18.427048,-33.880531,495.3 18.42239,-33.87854,548.64 18.416977,-33.876854,594.36 18.411348,-33.875702,640.08 18.40535,-33.874969,670.56 18.399073,-33.874649,693.42 18.392658,-33.875134,723.9 18.386068,-33.876205,746.76 18.379959,-33.878632,739.14 18.374018,-33.88266,723.9 18.369083,-33.886864,777.24 18.365192,-33.890495,800.1 18.36153,-33.894497,830.58 18.357925,-33.89864,853.44 18.354206,-33.902969,853.44 18.350544,-33.908092,822.96 18.347281,-33.912964,807.72 18.344135,-33.917587,830.58 18.343105,-33.922012,845.82 18.345655,-33.924545,830.58 18.349298,-33.923355,830.58 18.35289,-33.924057,845.82 18.352829,-33.927795,876.3 18.350588,-33.931595,883.92 18.34774,-33.935928,853.44 18.344925,-33.940933,815.34 18.342123,-33.946014,807.72 18.3391,-33.95134,800.1 18.332005,-33.964233,853.44 18.329454,-33.969223,861.06 18.327026,-33.974613,845.82 18.325251,-33.979797,822.96 18.324018,-33.985657,822.96 18.323593,-33.99128,822.96 18.32365,-33.996586,815.34 18.324131,-34.00145,822.96 18.325195,-34.006439,815.34 18.326626,-34.011204,792.48 18.328514,-34.015812,777.24 18.330517,-34.02047,792.48 18.332291,-34.024937,792.48 18.333664,-34.028988,800.1 18.335285,-34.033264,815.34 18.336411,-34.037228,830.58 18.337078,-34.041962,853.44 18.337471,-34.04686,853.44 18.337555,-34.052124,838.2 18.337612,-34.057476,830.58 18.337246,-34.062561,822.96 18.336575,-34.067734,784.86 18.335901,-34.073135,731.52 18.335621,-34.078537,685.8 18.335678,-34.083572,670.56 18.336697,-34.088249,640.08 18.338873,-34.092682,601.98 18.34259,-34.096489,571.5 18.347336,-34.100052,548.64 18.352146,-34.102818,548.64 18.357296,-34.105053,548.64 18.363132,-34.106636,533.4 18.368299,-34.108612,541.02 18.373344,-34.110718,548.64 18.378838,-34.113144,556.26 18.383938,-34.115387,571.5 18.389263,-34.117767,556.26 18.394775,-34.120182,541.02 18.407425,-34.125504,525.78 18.414516,-34.128517,541.02 18.419437,-34.130798,541.02 18.424129,-34.132706,533.4 18.436403,-34.137589,518.16 18.443813,-34.140202,518.16 18.449127,-34.141708,525.78 18.455429,-34.141457,533.4 18.461037,-34.138153,525.78 18.465786,-34.133125,510.54 18.46962,-34.127819,510.54 18.47323,-34.122482,525.78 18.475922,-34.116531,548.64 18.476372,-34.110222,571.5 18.475304,-34.103531,556.26 18.474369,-34.096535,541.02 18.473736,-34.089432,525.78 18.470989,-34.066681,541.02 18.470484,-34.05954,533.4 18.470364,-34.052032,525.78 18.470535,-34.045048,518.16 18.471157,-34.035233,510.54 18.472221,-34.028275,502.92 18.473454,-34.021355,502.92 18.4758,-34.011578,480.06 18.477379,-34.003464,472.44 18.477995,-33.996597,457.2 18.47805,-33.989594,419.1 18.478107,-33.982086,388.62 18.478718,-33.974567,373.38 18.479576,-33.967632,373.38 18.480663,-33.960556,373.38 18.481464,-33.953758,350.52 18.481693,-33.946404,327.66 18.480606,-33.939468,281.94 18.4785,-33.932144,259.08 18.475685,-33.925503,251.46 18.472252,-33.919449,236.22 18.467102,-33.913586,228.6 18.461851,-33.90834,243.84 18.456415,-33.903397,266.7 18.451309,-33.898689,259.08 18.446325,-33.894058,220.98 18.441505,-33.890076,167.64 18.436571,-33.887741,91.44 18.431808,-33.88797,83.82 18.428535,-33.889843,53.34 18.426876,-33.892357,38.1 18.426651,-33.89447,22.86 18.426762,-33.89608,7.62 18.426991,-33.897476,0 18.427219,-33.899292,0 18.427391,-33.900551,0 18.428993,-33.901062,0 18.430882,-33.901295,30.48 18.433857,-33.901062,99.06 18.437302,-33.899139,175.26 18.439655,-33.895386,259.08 18.439878,-33.890442,327.66 18.438421,-33.885818,403.86 18.434778,-33.881927,480.06 18.42979,-33.878998,533.4 18.423904,-33.876755,586.74 18.417835,-33.875225,632.46 18.411255,-33.874386,662.94 18.403782,-33.873779,685.8 18.39571,-33.8741,685.8 18.388596,-33.875645,701.04 18.381557,-33.877785,708.66 18.375263,-33.880581,716.28 18.369534,-33.884354,708.66 18.364824,-33.888748,708.66 18.360901,-33.893799,716.28 18.357874,-33.898682,701.04 18.354904,-33.904083,685.8 18.352261,-33.909813,662.94 18.34997,-33.915253,647.7 18.348198,-33.920567,655.32 18.347055,-33.925186,662.94 18.346046,-33.930817,655.32 18.344994,-33.935696,624.84 18.343077,-33.94162,609.6 18.341217,-33.946777,617.22 18.339264,-33.952103,640.08 18.336966,-33.957184,662.94 18.334499,-33.96199,662.94 18.325024,-33.978573,662.94 18.314882,-33.995178,617.22 18.311966,-34.000259,624.84 18.309402,-34.005058,632.46 18.30677,-34.010086,632.46 18.303909,-34.016232,640.08 18.301277,-34.021587,655.32 18.298906,-34.026535,655.32 18.2967,-34.031643,655.32 18.294926,-34.036762,647.7 18.294926,-34.041462,647.7 18.29958,-34.042282,617.22 18.304512,-34.038162,563.88 18.308716,-34.032852,510.54 18.312416,-34.027817,457.2 18.319534,-34.018982,411.48 18.324509,-34.005898,388.62 18.327084,-33.994957,381 18.336294,-33.984055,373.38 18.347454,-33.973778,350.52 18.355127,-33.961761,411.48 18.35849,-33.94931,381 18.360271,-33.943146,373.38 18.363592,-33.930313,381 18.365993,-33.924759,381 18.369028,-33.919464,388.62 18.372223,-33.914429,403.86 18.376091,-33.909256,403.86 18.380013,-33.904831,388.62 18.384991,-33.900131,411.48 18.389626,-33.896641,411.48 18.394981,-33.893784,403.86 18.400669,-33.891891,365.76 18.406864,-33.890579,320.04 18.413486,-33.889191,297.18 18.41938,-33.887749,259.08 18.424688,-33.886826,198.12 18.428307,-33.888538,137.16 18.42865,-33.891567,76.2 18.427828,-33.894058,38.1 18.427448,-33.895477,15.24 18.427212,-33.896988,0 18.427155,-33.898499,0 18.427212,-33.89978,0 18.42802,-33.900738,0 18.429451,-33.900551,0 18.431339,-33.900223,15.24 18.433857,-33.898968,60.96 18.434778,-33.894562,106.68 18.432941,-33.888538,152.4 18.430252,-33.883141,190.5 18.424931,-33.878624,213.36 18.417795,-33.875931,243.84 18.411293,-33.87529,266.7 18.404398,-33.876572,281.94 18.397751,-33.878811,297.18 18.391787,-33.881149,312.42 18.386364,-33.883793,327.66 18.381304,-33.886597,327.66 18.376408,-33.88961,335.28 18.371832,-33.893188,327.66 18.367481,-33.897152,327.66 18.36359,-33.901062,335.28 18.359585,-33.905251,335.28 18.356266,-33.909348,335.28 18.352718,-33.913818,335.28 18.34837,-33.919266,350.52 18.345205,-33.923492,350.52 18.342178,-33.927841,342.9 18.339157,-33.932205,373.38 18.336067,-33.936348,388.62 18.332462,-33.941006,403.86 18.32943,-33.945427,411.48 18.326797,-33.949989,419.1 18.324018,-33.954849,441.96 18.316452,-33.965973,441.96 18.308716,-33.980576,403.86 18.300756,-33.99852,434.34 18.292866,-34.015442,472.44 18.292011,-34.026352,426.72 18.29319,-34.034088,419.1 18.294125,-34.038532,411.48 18.295784,-34.043697,411.48 18.298122,-34.048508,388.62 18.300644,-34.052536,373.38 18.303566,-34.056408,358.14 18.307034,-34.060364,335.28 18.310118,-34.063797,327.66 18.313145,-34.067001,320.04 18.316383,-34.070419,320.04 18.31959,-34.073639,304.8 18.322849,-34.077309,304.8 18.326036,-34.081238,297.18 18.329029,-34.084942,297.18 18.332291,-34.088993,304.8 18.335438,-34.092625,312.42 18.338642,-34.096024,320.04 18.342068,-34.098999,327.66 18.346024,-34.102074,342.9 18.350601,-34.104683,342.9 18.35524,-34.106689,342.9 18.359928,-34.108547,358.14 18.364601,-34.110352,358.14 18.371439,-34.112823,365.76 18.377838,-34.115204,358.14 18.382359,-34.117111,381 18.386909,-34.119003,381 18.392178,-34.120834,373.38 18.397522,-34.122604,373.38 18.402267,-34.124084,381 18.407879,-34.125908,373.38 18.423679,-34.131271,342.9 18.435574,-34.135265,350.52 18.441124,-34.135406,350.52 18.447189,-34.134197,358.14 18.452911,-34.131916,365.76 18.45829,-34.128704,365.76 18.463898,-34.124699,358.14 18.468801,-34.121017,365.76 18.474014,-34.116714,358.14 18.478146,-34.111618,358.14 18.480206,-34.105614,358.14 18.480349,-34.09845,350.52 18.480206,-34.091274,350.52 18.480263,-34.084476,342.9 18.481064,-34.071674,335.28 18.482208,-34.063343,327.66 18.483376,-34.056427,327.66 18.484049,-34.049423,327.66 18.484442,-34.042511,327.66 18.485069,-34.03532,342.9 18.485561,-34.028961,335.28 18.486099,-34.018654,320.04 18.487816,-34.001942,304.8 18.488308,-33.995041,289.56 18.488253,-33.988129,297.18 18.488028,-33.980988,289.56 18.487644,-33.973404,281.94 18.486963,-33.964691,274.32 18.485584,-33.953571,304.8 18.483982,-33.946171,289.56 18.481865,-33.938908,266.7 18.479116,-33.931915,259.08 18.475416,-33.925232,236.22 18.470148,-33.918823,220.98 18.464598,-33.913422,220.98 18.459385,-33.907974,243.84 18.454514,-33.902691,236.22 18.448448,-33.8965,205.74 18.44313,-33.892502,167.64 18.43792,-33.892868,121.92 18.434715,-33.894962,68.58 18.432257,-33.896576,30.48 18.430687,-33.897583,0 18.428669,-33.898865,0 18.427105,-33.900223,0 18.427563,-33.901062,0 18.429737,-33.900551,0 18.431854,-33.899944,22.86 18.435003,-33.89772,99.06 18.436068,-33.89296,144.78 18.435675,-33.887466,205.74 18.433743,-33.88179,251.46 18.429794,-33.8769,289.56 18.423958,-33.873222,312.42 18.416786,-33.871948,342.9 18.40971,-33.872807,342.9 18.40353,-33.874527,342.9 18.39756,-33.876663,342.9 18.391571,-33.87923,365.76 18.386068,-33.881744,358.14 18.380968,-33.884537,350.52 18.375755,-33.888062,381 18.371315,-33.89138,373.38 18.367081,-33.894917,396.24 18.362974,-33.898911,411.48 18.359444,-33.902847,411.48 18.355579,-33.906879,411.48 18.351988,-33.910583,441.96 18.348345,-33.914337,441.96 18.345337,-33.918053,441.96 18.342291,-33.921844,472.44 18.338648,-33.925919,487.68 18.335609,-33.92918,502.92 18.332119,-33.933182,510.54 18.328838,-33.937134,502.92 18.32571,-33.941189,510.54 18.322784,-33.945374,502.92 18.320038,-33.950089,487.68 18.317699,-33.954597,457.2 18.312136,-33.967163,449.58 18.304653,-33.986996,411.48 18.296127,-34.010181,373.38 18.293781,-34.024937,358.14 18.294868,-34.033363,342.9 18.295879,-34.037659,350.52 18.299847,-34.046585,350.52 18.305408,-34.052765,358.14 18.308945,-34.056126,358.14 18.312584,-34.059311,350.52 18.316675,-34.062836,350.52 18.319757,-34.065857,358.14 18.322952,-34.069199,381 18.32654,-34.072906,396.24 18.329399,-34.077118,403.86 18.331604,-34.081173,403.86 18.333778,-34.085083,388.62 18.336697,-34.088947,381 18.338984,-34.092865,381 18.341045,-34.097,388.62 18.342739,-34.101059,396.24 18.343637,-34.105453,403.86 18.343678,-34.109661,403.86 18.343468,-34.113876,419.1 18.342304,-34.118553,434.34 18.3391,-34.122372,434.34 18.333099,-34.126007,441.96 18.32737,-34.129448,426.72 18.321533,-34.133217,411.48 18.316727,-34.137501,403.86 18.314322,-34.142578,381 18.314323,-34.147465,358.14 18.316612,-34.152493,335.28 18.319473,-34.156818,304.8 18.322336,-34.161026,304.8 18.352158,-34.192154,304.8 18.357067,-34.198902,312.42 18.35907,-34.202721,342.9 18.36113,-34.207424,358.14 18.362806,-34.211838,350.52 18.364391,-34.215988,342.9 18.366001,-34.220398,327.66 18.367571,-34.225388,335.28 18.368969,-34.22963,320.04 18.370342,-34.233955,320.04 18.371487,-34.238659,320.04 18.372896,-34.24324,297.18 18.37429,-34.247688,297.18 18.375149,-34.252205,304.8 18.376036,-34.256927,304.8 18.377045,-34.261459,297.18 18.378389,-34.266037,297.18 18.390888,-34.292267,304.8 18.394833,-34.301132,304.8 18.397579,-34.305553,289.56 18.410454,-34.319241,266.7 18.418186,-34.32605,274.32 18.422447,-34.329483,259.08 18.426764,-34.332779,251.46 18.430855,-34.335571,251.46 18.435452,-34.33873,266.7 18.441124,-34.342888,274.32 18.448679,-34.348846,289.56 18.452602,-34.352005,289.56 18.457203,-34.355087,297.18 18.461796,-34.357864,304.8 18.466784,-34.360199,297.18 18.471998,-34.361755,297.18 18.477266,-34.363037,304.8 18.483208,-34.364456,297.18 18.488789,-34.3657,304.8 18.493996,-34.366444,312.42 18.499743,-34.365326,320.04 18.503836,-34.361801,327.66 18.505611,-34.356064,350.52 18.504925,-34.349453,327.66 18.50305,-34.34317,320.04 18.50069,-34.335533,312.42 18.499889,-34.32748,320.04 18.499546,-34.320591,312.42 18.499464,-34.31131,320.04 18.498917,-34.301689,335.28 18.498344,-34.294754,342.9 18.497257,-34.28791,350.52 18.495651,-34.281326,350.52 18.49369,-34.273682,358.14 18.492064,-34.265259,365.76 18.491077,-34.258305,381 18.489933,-34.251183,381 18.486515,-34.236145,403.86 18.483824,-34.229095,411.48 18.480742,-34.222687,419.1 18.477001,-34.21608,419.1 18.472614,-34.209,434.34 18.46813,-34.203186,434.34 18.462637,-34.197235,434.34 18.457546,-34.1922,449.58 18.45137,-34.188766,472.44 18.446217,-34.184006,449.58 18.4445,-34.177071,411.48 18.445652,-34.17041,388.62 18.448162,-34.16399,381 18.450809,-34.158279,365.76 18.454113,-34.152256,358.14 18.457832,-34.14616,365.76 18.461515,-34.140793,365.76 18.465326,-34.135483,358.14 18.476032,-34.120468,358.14 18.480516,-34.112274,373.38 18.481415,-34.105957,381 18.481007,-34.098957,381 18.480909,-34.091766,373.38 18.481134,-34.084579,381 18.48147,-34.076981,381 18.482143,-34.07016,381 18.48304,-34.062927,396.24 18.484497,-34.053223,403.86 18.486443,-34.03746,411.48 18.487358,-34.030525,411.48 18.487816,-34.023354,403.86 18.488253,-34.016418,403.86 18.489037,-34.008865,396.24 18.489597,-34.001816,388.62 18.489655,-33.995041,373.38 18.489655,-33.987671,358.14 18.489876,-33.972893,365.76 18.488903,-33.965584,365.76 18.486958,-33.958553,373.38 18.484783,-33.951057,396.24 18.481863,-33.940796,396.24 18.475922,-33.924362,289.56 18.471451,-33.917866,243.84 18.466112,-33.912552,220.98 18.460281,-33.907471,160.02 18.454788,-33.902298,228.6 18.449535,-33.897152,205.74 18.4445,-33.892914,175.26 18.439064,-33.891239,152.4 18.435802,-33.892963,99.06 18.433743,-33.895336,53.34 18.431696,-33.897034,22.86 18.430252,-33.897896,0 18.428892,-33.898682,0 18.427391,-33.899899,0 18.42794,-33.900742,0 18.429958,-33.900375,0 18.431808,-33.899963,7.62 18.43405,-33.899368,38.1 18.436796,-33.897949,76.2 18.438759,-33.894058,137.16 18.437977,-33.888821,182.88 18.434778,-33.883942,228.6 18.429846,-33.880646,274.32 18.423615,-33.8783,312.42 18.417458,-33.87735,350.52 18.4109,-33.877396,381 18.404621,-33.878311,411.48 18.399298,-33.879639,449.58 18.393805,-33.881332,502.92 18.388647,-33.883255,548.64 18.383154,-33.885773,586.74 18.37801,-33.88868,609.6 18.372784,-33.891724,647.7 18.367882,-33.894638,662.94 18.363018,-33.897896,685.8 18.358555,-33.901714,701.04 18.354399,-33.906052,693.42 18.350868,-33.910767,693.42 18.348083,-33.915169,701.04 18.345509,-33.920197,701.04 18.343019,-33.925003,701.04 18.340666,-33.929672,701.04 18.338699,-33.934162,701.04 18.336407,-33.93956,701.04 18.334293,-33.944496,708.66 18.332691,-33.949245,708.66 18.330744,-33.954208,701.04 18.327549,-33.959656,708.66 18.323593,-33.964046,693.42 18.315554,-33.973572,693.42 18.311005,-33.981365,701.04 18.30883,-33.986206,685.8 18.305454,-33.994122,655.32 18.303337,-33.998917,662.94 18.300648,-34.003757,655.32 18.297615,-34.009109,670.56 18.295208,-34.01445,670.56 18.298531,-34.018467,609.6 18.304653,-34.019165,594.36 18.310547,-34.018143,586.74 18.318958,-34.013626,548.64 18.323765,-34.006783,525.78 18.326511,-34.001942,518.16 18.334808,-33.988113,525.78 18.346552,-33.971558,518.16 18.353222,-33.956955,510.54 18.355576,-33.949905,518.16 18.358042,-33.942719,525.78 18.360386,-33.936859,533.4 18.362864,-33.930725,525.78 18.365364,-33.925037,541.02 18.368511,-33.919403,541.02 18.372116,-33.914471,541.02 18.376293,-33.909721,525.78 18.3808,-33.905182,533.4 18.384991,-33.901016,548.64 18.389626,-33.896732,525.78 18.394421,-33.893005,518.16 18.399578,-33.890076,495.3 18.404621,-33.888062,464.82 18.409424,-33.886818,449.58 18.414574,-33.885746,419.1 18.419363,-33.884995,381 18.424072,-33.88472,312.42 18.427603,-33.88591,251.46 18.429285,-33.888107,205.74 18.429852,-33.89045,160.02 18.42968,-33.892776,106.68 18.429165,-33.894917,60.96 18.428593,-33.896641,22.86 18.428108,-33.897903,0 18.427492,-33.899368,0 18.427322,-33.900604,0 18.428764,-33.900875,0 18.430195,-33.900784,0 18.431639,-33.900604,7.62 18.433285,-33.900223,30.48 18.435675,-33.899277,53.34 18.438421,-33.896027,99.06 18.439007,-33.890774,152.4 18.436964,-33.885544,198.12 18.432999,-33.881416,228.6 18.428108,-33.878036,266.7 18.421783,-33.875877,304.8 18.415833,-33.87561,335.28 18.409611,-33.876526,350.52 18.404675,-33.87788,381 18.399239,-33.879368,388.62 18.393412,-33.880966,381 18.387526,-33.883255,381 18.38237,-33.88623,381 18.37801,-33.889191,388.62 18.373569,-33.892639,396.24 18.369656,-33.896126,388.62 18.366051,-33.899666,388.62 18.362583,-33.903214,396.24 18.358995,-33.90715,388.62 18.355579,-33.911209,381 18.352604,-33.915306,373.38 18.350143,-33.919403,365.76 18.348232,-33.923584,358.14 18.34631,-33.927876,350.52 18.344702,-33.931686,350.52 18.342991,-33.935978,350.52 18.340645,-33.94175,358.14 18.338699,-33.945614,358.14 18.33704,-33.949478,358.14 18.335381,-33.95348,365.76 18.328857,-33.965584,403.86 18.320656,-33.975174,403.86 18.311806,-33.987137,419.1 18.301989,-33.999023,426.72 18.297329,-34.007389,441.96 18.30496,-34.013351,411.48 18.316227,-34.007217,426.72 18.321327,-34.001175,411.48 18.33338,-33.984146,411.48 18.343525,-33.969681,419.1 18.350363,-33.956039,411.48 18.353977,-33.948174,426.72 18.356438,-33.942635,411.48 18.359667,-33.935303,419.1 18.362274,-33.929832,411.48 18.364677,-33.924618,396.24 18.36771,-33.919216,403.86 18.371271,-33.914474,403.86 18.375137,-33.91008,411.48 18.379286,-33.905823,388.62 18.383209,-33.90184,373.38 18.38719,-33.897995,373.38 18.392429,-33.893845,365.76 18.396999,-33.891083,358.14 18.401875,-33.888931,350.52 18.407089,-33.887329,342.9 18.412245,-33.886047,274.32 18.417458,-33.884995,320.04 18.422012,-33.884583,312.42 18.425617,-33.885422,274.32 18.428249,-33.887188,236.22 18.429394,-33.889378,198.12 18.430023,-33.891613,137.16 18.42979,-33.893555,83.82 18.428837,-33.895889,30.48 18.427963,-33.897942,0 18.427391,-33.899479,0 18.427435,-33.90065,0 18.429909,-33.900597,0 18.431911,-33.900551,22.86 18.433743,-33.90041,53.34 18.437119,-33.899853,106.68 18.440208,-33.897385,160.02 18.440609,-33.891472,190.5 18.43792,-33.8857,220.98 18.433994,-33.88028,251.46 18.428936,-33.875134,274.32 18.42256,-33.87236,289.56 18.41404,-33.870941,297.18 18.406809,-33.87085,312.42 18.399181,-33.871548,327.66 18.392347,-33.87323,327.66 18.386181,-33.875885,335.28 18.38047,-33.87923,335.28 18.375664,-33.882626,342.9 18.370653,-33.886826,342.9 18.365993,-33.890541,342.9 18.361629,-33.894516,335.28 18.35804,-33.898689,342.9 18.354549,-33.903252,335.28 18.35146,-33.907997,320.04 18.34857,-33.912827,312.42 18.345934,-33.917542,320.04 18.343506,-33.92215,320.04 18.340988,-33.927319,304.8 18.338757,-33.931881,320.04 18.336349,-33.936676,320.04 18.342123,-33.940155,320.04 18.349571,-33.932159,312.42 18.353634,-33.926899,342.9 18.357582,-33.921497,350.52 18.361013,-33.916626,335.28 18.365021,-33.911491,335.28 18.36937,-33.906509,327.66 18.373718,-33.901669,320.04 18.378557,-33.896896,304.8 18.383675,-33.892311,274.32 18.388996,-33.888584,266.7 18.394924,-33.88559,259.08 18.401484,-33.883347,251.46 18.407873,-33.882156,243.84 18.413982,-33.881699,243.84 18.42001,-33.881927,243.84 18.425217,-33.882999,167.64 18.429173,-33.88559,205.74 18.431168,-33.889378,144.78 18.432537,-33.89296,83.82 18.433546,-33.895477,38.1 18.433208,-33.896805,15.24 18.431511,-33.897804,0 18.42923,-33.898636,0 18.42794,-33.899323,0 18.426991,-33.900784,0 18.428192,-33.900829,0 18.42968,-33.901249,38.1 18.43111,-33.901249,99.06 18.432705,-33.901474,144.78 18.435394,-33.901199,160.02 18.439236,-33.898224,175.26 18.439768,-33.891998,205.74 18.436947,-33.885189,198.12 18.432592,-33.878952,198.12 18.42581,-33.873917,198.12 18.417906,-33.871674,205.74 18.409824,-33.871826,205.74 18.402901,-33.873642,205.74 18.396835,-33.876202,220.98 18.390888,-33.878998,220.98 18.384819,-33.882069,228.6 18.37944,-33.885559,213.36 18.374691,-33.889145,220.98 18.370571,-33.892635,251.46 18.36668,-33.896034,289.56 18.362806,-33.89978,304.8 18.359444,-33.903809,312.42 18.356361,-33.908112,327.66 18.353519,-33.912422,342.9 18.350307,-33.917084,350.52 18.347569,-33.921127,373.38 18.344925,-33.925827,358.14 18.342018,-33.931042,365.76 18.339153,-33.935989,350.52 18.336067,-33.941471,358.14 18.337135,-33.945602,365.76 18.342762,-33.944496,350.52 18.347,-33.940247,350.52 18.353977,-33.930809,350.52 18.360443,-33.921406,327.66 18.366058,-33.913742,320.04 18.370342,-33.908512,312.42 18.374521,-33.903671,312.42 18.379063,-33.898315,297.18 18.382988,-33.89394,297.18 18.387974,-33.889481,289.56 18.393131,-33.886002,297.18 18.399296,-33.883045,297.18 18.405476,-33.881462,297.18 18.411427,-33.880905,281.94 18.417206,-33.881092,266.7 18.422585,-33.881836,251.46 18.427603,-33.88353,243.84 18.42979,-33.886826,220.98 18.431303,-33.890396,198.12 18.432598,-33.893196,160.02 18.433041,-33.895798,83.82 18.431454,-33.89743,22.86 18.429852,-33.898174,0 18.428389,-33.898773,0 18.427219,-33.900085,0 18.435745,-33.897106,45.72 18.43646,-33.895615,76.2 18.437132,-33.892685,114.3 18.437244,-33.891495,137.16 18.437004,-33.887981,175.26 18.436796,-33.887009,182.88 18.434944,-33.883419,228.6 18.434372,-33.882721,236.22 18.431078,-33.880096,274.32 18.430069,-33.879547,281.94 18.425961,-33.877785,320.04 18.425045,-33.87746,327.66 18.420372,-33.876205,373.38 18.419209,-33.875969,373.38 18.414745,-33.875412,403.86 18.4132,-33.87532,411.48 18.408321,-33.875427,441.96 18.407192,-33.875553,449.58 18.402729,-33.876156,480.06 18.40147,-33.876389,487.68 18.397179,-33.87746,518.16 18.396214,-33.877762,525.78 18.392372,-33.879135,541.02 18.391562,-33.879501,548.64 18.387863,-33.881424,579.12 18.387077,-33.881836,579.12 18.383657,-33.883759,601.98 18.382759,-33.88435,609.6 18.379623,-33.886597,632.46 18.378754,-33.887329,640.08 18.375475,-33.890259,662.94 18.374802,-33.8909,670.56 18.371601,-33.89394,685.8 18.370934,-33.894608,685.8 18.367596,-33.897758,693.42 18.366507,-33.898727,685.8 18.363255,-33.901749,685.8 18.362246,-33.902756,693.42 18.358784,-33.906555,701.04 18.358042,-33.907516,701.04 18.355352,-33.911453,693.42 18.354836,-33.912327,693.42 18.352661,-33.916351,701.04 18.352268,-33.917267,701.04 18.350372,-33.92131,701.04 18.349915,-33.922256,701.04 18.348064,-33.926605,701.04 18.347683,-33.927551,708.66 18.346024,-33.931786,701.04 18.345711,-33.932648,708.66 18.344364,-33.937,708.66 18.344021,-33.938072,708.66 18.342909,-33.942215,693.42 18.34259,-33.943237,693.42 18.341394,-33.947433,693.42 18.341103,-33.948265,685.8 18.339672,-33.952408,685.8 18.339264,-33.953476,678.18 18.337639,-33.957733,678.18 18.337191,-33.958786,678.18 18.335005,-33.963364,670.56 18.332762,-33.967163,662.94 18.32497,-33.980988,662.94 18.322849,-33.984436,655.32 18.315639,-33.997192,655.32 18.313873,-34.000351,662.94 18.308945,-34.00869,655.32 18.308315,-34.009853,655.32 18.306417,-34.013809,647.7 18.306026,-34.014744,647.7 18.304653,-34.018841,640.08 18.304367,-34.019817,640.08 18.303391,-34.023788,655.32 18.303165,-34.024799,655.32 18.302422,-34.028988,640.08 18.30225,-34.030243,640.08 18.302135,-34.034668,624.84 18.302269,-34.035553,624.84 18.303671,-34.040176,601.98 18.304119,-34.041,601.98 18.306484,-34.044907,579.12 18.307091,-34.045761,571.5 18.309975,-34.049519,563.88 18.310776,-34.050495,548.64 18.313873,-34.05423,541.02 18.314438,-34.054962,541.02 18.317642,-34.058826,533.4 18.318525,-34.05986,533.4 18.322842,-34.064941,533.4 18.323683,-34.065857,533.4 18.328686,-34.07177,533.4 18.329258,-34.072514,533.4 18.331697,-34.076523,525.78 18.332176,-34.07745,525.78 18.334051,-34.081055,525.78 18.334557,-34.082016,525.78 18.33691,-34.085815,533.4 18.337498,-34.08662,533.4 18.340553,-34.090118,533.4 18.341227,-34.090805,533.4 18.344421,-34.093834,518.16 18.344994,-34.094345,518.16 18.348999,-34.097092,525.78 18.350086,-34.097652,525.78 18.354792,-34.099548,518.16 18.355743,-34.099915,518.16 18.360558,-34.101471,518.16 18.361874,-34.101887,518.16 18.366562,-34.103394,510.54 18.369814,-34.104401,510.54 18.382416,-34.108639,518.16 18.383602,-34.109116,510.54 18.38728,-34.110687,518.16 18.388422,-34.111221,518.16 18.392715,-34.113247,502.92 18.393692,-34.113693,502.92 18.397751,-34.115528,502.92 18.398952,-34.116039,510.54 18.407257,-34.119598,502.92 18.409555,-34.12056,502.92 18.413715,-34.122417,502.92 18.414879,-34.122986,502.92 18.418922,-34.124931,502.92 18.420067,-34.125492,502.92 18.423847,-34.12738,502.92 18.424913,-34.127975,510.54 18.428764,-34.130051,510.54 18.429852,-34.130611,510.54 18.433937,-34.132278,502.92 18.435284,-34.13269,502.92 18.440384,-34.133469,510.54 18.441639,-34.133499,510.54 18.446331,-34.13308,510.54 18.447615,-34.132782,510.54 18.452267,-34.130859,510.54 18.453388,-34.130173,510.54 18.457647,-34.12706,502.92 18.458544,-34.126328,502.92 18.462467,-34.12307,510.54 18.463669,-34.122093,510.54 18.467737,-34.118591,502.92 18.468634,-34.117813,502.92 18.472277,-34.113739,495.3 18.472939,-34.11269,495.3 18.474655,-34.108265,502.92 18.474913,-34.106827,502.92 18.475227,-34.101936,502.92 18.475248,-34.100464,502.92 18.475056,-34.095184,502.92 18.474968,-34.093964,502.92 18.474072,-34.088654,518.16 18.473854,-34.087456,518.16 18.472895,-34.082336,518.16 18.472727,-34.081055,518.16 18.472054,-34.076294,518.16 18.471909,-34.074841,518.16 18.471493,-34.069794,525.78 18.471394,-34.068325,525.78 18.471157,-34.063156,525.78 18.471107,-34.061714,525.78 18.471212,-34.056335,533.4 18.471212,-34.055191,533.4 18.471508,-34.03923,472.44 18.471622,-34.035133,449.58 18.472996,-34.016651,365.76 18.473396,-34.012508,358.14 18.474598,-33.999939,358.14 18.474712,-33.99873,358.14 18.475342,-33.993839,358.14 18.475456,-33.992722,358.14 18.476313,-33.987625,365.76 18.476543,-33.98658,373.38 18.477602,-33.9814,373.38 18.478107,-33.979065,365.76 18.480492,-33.969215,342.9 18.481636,-33.963955,350.52 18.482494,-33.956413,320.04 18.482494,-33.955341,320.04 18.482143,-33.949677,297.18 18.481979,-33.948498,297.18 18.480854,-33.943085,281.94 18.480434,-33.94175,274.32 18.478611,-33.936813,259.08 18.477995,-33.935486,251.46 18.475304,-33.930542,228.6 18.474632,-33.929489,228.6 18.471279,-33.924942,220.98 18.470249,-33.923779,220.98 18.46653,-33.919777,220.98 18.465385,-33.918705,213.36 18.46129,-33.914749,213.36 18.460064,-33.91354,228.6 18.456402,-33.909489,236.22 18.455429,-33.908325,228.6 18.452339,-33.904133,220.98 18.451706,-33.903168,220.98 18.448792,-33.898865,205.74 18.448219,-33.898037,205.74 18.445484,-33.894699,182.88 18.4445,-33.893894,175.26 18.440945,-33.892822,144.78 18.440094,-33.892822,137.16 18.43646,-33.8936,91.44 18.43586,-33.893845,83.82 18.433153,-33.895248,45.72 18.432928,-33.895386,38.1 18.431864,-33.895981,7.62 18.431568,-33.896175,7.62 18.430367,-33.897011,0 18.429909,-33.897385,0 18.428724,-33.89827,0 18.428389,-33.89859,0 18.427492,-33.899643,0 18.427334,-33.899853,0 18.427322,-33.90065,0 18.427563,-33.900784,0 18.428936,-33.900688,0 18.42934,-33.90065,0 18.430967,-33.900284,0 18.431282,-33.900223,0 18.432598,-33.899899,0 18.432999,-33.899757,0 18.434443,-33.899139,15.24 18.434723,-33.898956,22.86 18.4359,-33.897949,30.48 18.436203,-33.897663,30.48 18.437634,-33.895195,60.96 18.437748,-33.894638,68.58 18.438091,-33.891148,114.3 18.43803,-33.890213,121.92 18.436909,-33.886551,160.02 18.436432,-33.885746,167.64 18.433456,-33.882626,205.74 18.432598,-33.882023,220.98 18.428837,-33.880325,251.46 18.42766,-33.879959,266.7 18.422951,-33.878952,304.8 18.421783,-33.878765,304.8 18.416897,-33.878357,335.28 18.415375,-33.878345,350.52 18.411123,-33.878357,381 18.409891,-33.878403,388.62 18.405132,-33.879044,426.72 18.403702,-33.879368,434.34 18.399521,-33.880692,457.2 18.398609,-33.881092,457.2 18.394547,-33.883091,472.44 18.393805,-33.883484,480.06 18.389797,-33.885559,495.3 18.388939,-33.886024,495.3 18.384947,-33.888428,525.78 18.383883,-33.889114,525.78 18.379784,-33.89175,556.26 18.378389,-33.892685,579.12 18.374405,-33.895523,594.36 18.373375,-33.896358,609.6 18.369814,-33.899597,624.84 18.369083,-33.900318,632.46 18.365891,-33.90358,632.46 18.365021,-33.904507,624.84 18.361797,-33.907791,640.08 18.361015,-33.908558,640.08 18.357925,-33.912048,647.7 18.357201,-33.912827,647.7 18.354492,-33.916378,647.7 18.35392,-33.917309,655.32 18.351933,-33.920929,662.94 18.351597,-33.921661,662.94 18.349747,-33.925644,655.32 18.349354,-33.926514,647.7 18.347784,-33.930817,647.7 18.347504,-33.931824,647.7 18.346495,-33.936264,640.08 18.346272,-33.93718,640.08 18.345509,-33.941143,632.46 18.345263,-33.94249,632.46 18.344814,-33.946289,617.22 18.344765,-33.947197,609.6 18.344925,-33.951462,579.12 18.345165,-33.952503,571.5 18.349915,-33.956085,541.02 18.351345,-33.956181,533.4 18.355865,-33.955017,525.78 18.356895,-33.954411,518.16 18.360157,-33.950081,510.54 18.360676,-33.948807,510.54 18.362274,-33.944218,518.16 18.362638,-33.943176,518.16 18.364096,-33.938232,510.54 18.364431,-33.937134,518.16 18.365765,-33.932579,510.54 18.366169,-33.93132,510.54 18.367481,-33.927223,518.16 18.367882,-33.926247,518.16 18.369814,-33.92189,525.78 18.370399,-33.92094,525.78 18.373289,-33.916763,518.16 18.374018,-33.915939,518.16 18.377151,-33.912373,510.54 18.378164,-33.911224,510.54 18.381248,-33.907516,502.92 18.382015,-33.906555,502.92 18.384991,-33.902924,495.3 18.385845,-33.901886,495.3 18.389282,-33.898361,480.06 18.390141,-33.897617,480.06 18.394203,-33.894917,457.2 18.395372,-33.894287,449.58 18.400726,-33.891937,426.72 18.401651,-33.891586,426.72 18.406734,-33.889843,396.24 18.407818,-33.889481,396.24 18.41217,-33.888073,381 18.413486,-33.887703,373.38 18.417963,-33.886414,350.52 18.418972,-33.886139,281.94 18.423119,-33.885269,312.42 18.424244,-33.885189,304.8 18.427963,-33.885654,266.7 18.428707,-33.885933,259.08 18.43111,-33.887562,220.98 18.431416,-33.887878,220.98 18.432537,-33.889893,182.88 18.432705,-33.890442,167.64 18.43277,-33.892544,121.92 18.432592,-33.893097,106.68 18.431911,-33.894638,60.96 18.431639,-33.894974,45.72 18.430653,-33.896267,15.24 18.430367,-33.896545,0 18.429165,-33.897758,0 18.428892,-33.898087,0 18.427792,-33.899292,0 18.42762,-33.899525,0 18.427044,-33.900604,0 18.427267,-33.900742,0 18.428501,-33.900787,0 18.428837,-33.900787,0 18.430069,-33.900787,30.48 18.430309,-33.900784,38.1 18.432426,-33.900642,99.06 18.432928,-33.900558,106.68 18.435003,-33.899826,144.78 18.435675,-33.899277,167.64 18.437244,-33.896988,220.98 18.43758,-33.896255,236.22 18.438206,-33.893379,289.56 18.438198,-33.892731,297.18 18.437462,-33.889797,335.28 18.437061,-33.888866,342.9 18.435001,-33.886166,381 18.4342,-33.885326,396.24 18.431282,-33.883045,441.96 18.430424,-33.882488,449.58 18.427048,-33.880531,495.3 18.426035,-33.880051,502.92 18.42239,-33.87854,548.64 18.421211,-33.878113,563.88 18.416977,-33.876854,594.36 18.415945,-33.876572,601.98 18.411348,-33.875702,640.08 18.410227,-33.875519,647.7 18.40535,-33.874969,670.56 18.40423,-33.874832,670.56 18.399073,-33.874649,693.42 18.39756,-33.874695,693.42 18.392658,-33.875134,723.9 18.391171,-33.875271,731.52 18.386068,-33.876205,746.76 18.384724,-33.876617,746.76 18.379959,-33.878632,739.14 18.378868,-33.87923,739.14 18.374018,-33.88266,723.9 18.372974,-33.88356,731.52 18.369083,-33.886864,777.24 18.36834,-33.887562,784.86 18.365192,-33.890495,800.1 18.364431,-33.89122,807.72 18.36153,-33.894497,830.58 18.360846,-33.895294,830.58 18.357925,-33.89864,853.44 18.357239,-33.899433,853.44 18.354206,-33.902969,853.44 18.353405,-33.904041,853.44 18.350544,-33.908092,822.96 18.349915,-33.908981,815.34 18.347281,-33.912964,807.72 18.346825,-33.913631,807.72 18.344135,-33.917587,830.58 18.343735,-33.918427,830.58 18.343105,-33.922012,845.82 18.343334,-33.92271,845.82 18.345655,-33.924545,830.58 18.346596,-33.924572,838.2 18.349298,-33.923355,830.58 18.350027,-33.923126,830.58 18.35289,-33.924057,845.82 18.353222,-33.924683,853.44 18.352829,-33.927795,876.3 18.352432,-33.928528,876.3 18.350588,-33.931595,883.92 18.350082,-33.932373,876.3 18.34774,-33.935928,853.44 18.347113,-33.937042,845.82 18.344925,-33.940933,815.34 18.344309,-33.942078,815.34 18.342123,-33.946014,807.72 18.34145,-33.947159,807.72 18.3391,-33.95134,800.1 18.337212,-33.954552,815.34 18.332005,-33.964233,853.44 18.331305,-33.965607,861.06 18.329454,-33.969223,861.06 18.328838,-33.970551,861.06 18.327026,-33.974613,845.82 18.326569,-33.975685,838.2 18.325251,-33.979797,822.96 18.324966,-33.980854,822.96 18.324018,-33.985657,822.96 18.323879,-33.986813,822.96 18.323593,-33.99128,822.96 18.32357,-33.992523,822.96 18.32365,-33.996586,815.34 18.323708,-33.997471,822.96 18.324131,-34.00145,822.96 18.32428,-34.002544,822.96 18.325195,-34.006439,815.34 18.325476,-34.007355,807.72 18.326626,-34.011204,792.48 18.327045,-34.012207,784.86 18.328514,-34.015812,777.24 18.328972,-34.016884,777.24 18.330517,-34.02047,792.48 18.330917,-34.021446,792.48 18.332291,-34.024937,792.48 18.332594,-34.025848,800.1 18.333664,-34.028988,800.1 18.333996,-34.029877,807.72 18.335285,-34.033264,815.34 18.335566,-34.034134,822.96 18.336411,-34.037228,830.58 18.336575,-34.038162,838.2 18.337078,-34.041962,853.44 18.337135,-34.042786,853.44 18.337471,-34.04686,853.44 18.337498,-34.047562,853.44 18.337555,-34.052124,838.2 18.337612,-34.053333,830.58 18.337612,-34.057476,830.58 18.337584,-34.058624,830.58 18.337246,-34.062561,822.96 18.337154,-34.063622,815.34 18.336575,-34.067734,784.86 18.336411,-34.068836,777.24 18.335901,-34.073135,731.52 18.335789,-34.074234,723.9 18.335621,-34.078537,685.8 18.335609,-34.079311,685.8 18.335678,-34.083572,670.56 18.335789,-34.084534,662.94 18.336697,-34.088249,640.08 18.337097,-34.089272,632.46 18.338873,-34.092682,601.98 18.339376,-34.093414,594.36 18.34259,-34.096489,571.5 18.343525,-34.097214,571.5 18.347336,-34.100052,548.64 18.348255,-34.100632,548.64 18.352146,-34.102818,548.64 18.353445,-34.103439,556.26 18.357296,-34.105053,548.64 18.35849,-34.105453,548.64 18.363132,-34.106636,533.4 18.364321,-34.107056,533.4 18.368299,-34.108612,541.02 18.36937,-34.109058,548.64 18.373344,-34.110718,548.64 18.374462,-34.111198,548.64 18.378838,-34.113144,556.26 18.379734,-34.11351,556.26 18.383938,-34.115387,571.5 18.385105,-34.115902,571.5 18.389263,-34.117767,556.26 18.390484,-34.118275,556.26 18.394775,-34.120182,541.02 18.398064,-34.121567,533.4 18.407425,-34.125504,525.78 18.410507,-34.12674,525.78 18.414516,-34.128517,541.02 18.41572,-34.12912,533.4 18.419437,-34.130798,541.02 18.420485,-34.131271,541.02 18.424129,-34.132706,533.4 18.424969,-34.133057,533.4 18.436403,-34.137589,518.16 18.439598,-34.138824,518.16 18.443813,-34.140202,518.16 18.4447,-34.140518,518.16 18.449127,-34.141708,525.78 18.450336,-34.141922,525.78 18.455429,-34.141457,533.4 18.456802,-34.140945,525.78 18.461037,-34.138153,525.78 18.462132,-34.137177,525.78 18.465786,-34.133125,510.54 18.466505,-34.132233,510.54 18.46962,-34.127819,510.54 18.470316,-34.126785,510.54 18.47323,-34.122482,525.78 18.473797,-34.121532,533.4 18.475922,-34.116531,548.64 18.476086,-34.115574,556.26 18.476372,-34.110222,571.5 18.4762,-34.108593,563.88 18.475304,-34.103531,556.26 18.475056,-34.101936,556.26 18.474369,-34.096535,541.02 18.474255,-34.09523,533.4 18.473736,-34.089432,525.78 18.473282,-34.085037,541.02 18.470989,-34.066681,541.02 18.470821,-34.065113,541.02 18.470484,-34.05954,533.4 18.470428,-34.057983,533.4 18.470364,-34.052032,525.78 18.470371,-34.050934,525.78 18.470535,-34.045048,518.16 18.470592,-34.043793,518.16 18.471157,-34.035233,510.54 18.471336,-34.033875,510.54 18.472221,-34.028275,502.92 18.472389,-34.027267,502.92 18.473454,-34.021355,502.92 18.473682,-34.020096,495.3 18.4758,-34.011578,480.06 18.476429,-34.008785,480.06 18.477379,-34.003464,472.44 18.477547,-34.002228,472.44 18.477995,-33.996597,457.2 18.47805,-33.995316,449.58 18.47805,-33.989594,419.1 18.47805,-33.988037,411.48 18.478107,-33.982086,388.62 18.478163,-33.980759,381 18.478718,-33.974567,373.38 18.478836,-33.973343,373.38 18.479576,-33.967632,373.38 18.479805,-33.966141,381 18.480663,-33.960556,373.38 18.480909,-33.958969,373.38 18.481464,-33.953758,350.52 18.481583,-33.952148,342.9 18.481693,-33.946404,327.66 18.481525,-33.944824,320.04 18.480606,-33.939468,281.94 18.480293,-33.938141,274.32 18.4785,-33.932144,259.08 18.47805,-33.931046,259.08 18.475685,-33.925503,251.46 18.47517,-33.924339,251.46 18.472252,-33.919449,236.22 18.471212,-33.918137,236.22 18.467102,-33.913586,228.6 18.4659,-33.912373,236.22 18.461851,-33.90834,243.84 18.460922,-33.90744,259.08 18.456415,-33.903397,266.7 18.455294,-33.902344,266.7 18.451309,-33.898689,259.08 18.450193,-33.897629,259.08 18.446325,-33.894058,220.98 18.445372,-33.893234,213.36 18.441505,-33.890076,167.64 18.440832,-33.889618,160.02 18.436571,-33.887741,91.44 18.435574,-33.887562,114.3 18.431808,-33.88797,83.82 18.430967,-33.88829,76.2 18.428535,-33.889843,53.34 18.427996,-33.890442,45.72 18.426876,-33.892357,38.1 18.426819,-33.892681,30.48 18.426651,-33.89447,22.86 18.426651,-33.894974,15.24 18.426762,-33.89608,7.62 18.426819,-33.896393,7.62 18.426991,-33.897476,0 18.427044,-33.897995,0 18.427219,-33.899292,0 18.427219,-33.899525,0 18.427391,-33.900551,0 18.42762,-33.900688,0 18.428993,-33.901062,0 18.429337,-33.901154,0 18.430882,-33.901295,30.48 18.431248,-33.901337,38.1 18.433857,-33.901062,99.06 18.434715,-33.900784,121.92 18.437302,-33.899139,175.26 18.43792,-33.898548,190.5 18.439655,-33.895386,259.08 18.439808,-33.894684,274.32 18.439878,-33.890442,327.66 18.439751,-33.889519,342.9 18.438421,-33.885818,403.86 18.43775,-33.884811,419.1 18.434778,-33.881927,480.06 18.433769,-33.881241,495.3 18.42979,-33.878998,533.4 18.428535,-33.878437,548.64 18.423904,-33.876755,586.74 18.422838,-33.876434,594.36 18.417835,-33.875225,632.46 18.416462,-33.874947,647.7 18.411255,-33.874386,662.94 18.40971,-33.874294,662.94 18.403782,-33.873779,685.8 18.402157,-33.873737,693.42 18.39571,-33.8741,685.8 18.394432,-33.87434,693.42 18.388596,-33.875645,701.04 18.38719,-33.876022,693.42 18.381557,-33.877785,708.66 18.380182,-33.878311,716.28 18.375263,-33.880581,716.28 18.374018,-33.881287,708.66 18.369534,-33.884354,708.66 18.36858,-33.885132,701.04 18.364824,-33.888748,708.66 18.363762,-33.889889,701.04 18.360901,-33.893799,716.28 18.360117,-33.89502,716.28 18.357874,-33.898682,701.04 18.357239,-33.899853,693.42 18.354904,-33.904083,685.8 18.354286,-33.905319,670.56 18.352261,-33.909813,662.94 18.35186,-33.910698,655.32 18.34997,-33.915253,647.7 18.349689,-33.916122,655.32 18.348198,-33.920567,655.32 18.347969,-33.921497,655.32 18.347055,-33.925186,662.94 18.346825,-33.926247,662.94 18.346046,-33.930817,655.32 18.345879,-33.931732,647.7 18.344994,-33.935696,624.84 18.344593,-33.936954,609.6 18.343077,-33.94162,609.6 18.342648,-33.942726,609.6 18.341217,-33.946777,617.22 18.340891,-33.9478,617.22 18.339264,-33.952103,640.08 18.338816,-33.953201,647.7 18.336966,-33.957184,662.94 18.336525,-33.958042,662.94 18.334499,-33.96199,662.94 18.333828,-33.963181,662.94 18.325024,-33.978573,662.94 18.322048,-33.983086,647.7 18.314882,-33.995178,617.22 18.314323,-33.99612,617.22 18.311966,-34.000259,624.84 18.311518,-34.001083,624.84 18.309402,-34.005058,632.46 18.308771,-34.006165,632.46 18.30677,-34.010086,632.46 18.306255,-34.01125,640.08 18.303909,-34.016232,640.08 18.303335,-34.017334,647.7 18.301277,-34.021587,655.32 18.300819,-34.022469,647.7 18.298906,-34.026535,655.32 18.298403,-34.027725,655.32 18.2967,-34.031643,655.32 18.296413,-34.032387,655.32 18.294926,-34.036762,647.7 18.29464,-34.03788,647.7 18.294926,-34.041462,647.7 18.295712,-34.042191,640.08 18.29958,-34.042282,617.22 18.300934,-34.041557,609.6 18.304512,-34.038162,563.88 18.305185,-34.037292,556.26 18.308716,-34.032852,510.54 18.309517,-34.03178,502.92 18.312416,-34.027817,457.2 18.313007,-34.026939,449.58 18.319534,-34.018982,411.48 18.32119,-34.016838,411.48 18.324509,-34.005898,388.62 18.324635,-34.004791,388.62 18.327084,-33.994957,381 18.328615,-33.992432,381 18.336294,-33.984055,373.38 18.33848,-33.98204,373.38 18.347454,-33.973778,350.52 18.349689,-33.971603,350.52 18.355127,-33.961761,411.48 18.356192,-33.95874,396.24 18.35849,-33.94931,381 18.358841,-33.947987,388.62 18.360271,-33.943146,373.38 18.360844,-33.941097,365.76 18.363592,-33.930313,381 18.363876,-33.929459,381 18.365993,-33.924759,381 18.366394,-33.924011,381 18.369028,-33.919464,388.62 18.369713,-33.918285,388.62 18.372223,-33.914429,403.86 18.373089,-33.913212,411.48 18.376091,-33.909256,403.86 18.37698,-33.908184,396.24 18.380013,-33.904831,388.62 18.380985,-33.903854,388.62 18.384991,-33.900131,411.48 18.385849,-33.899387,411.48 18.389626,-33.896641,411.48 18.390884,-33.895893,411.48 18.394981,-33.893784,403.86 18.39599,-33.893372,396.24 18.400669,-33.891891,365.76 18.402157,-33.891567,350.52 18.406864,-33.890579,320.04 18.408108,-33.890308,312.42 18.413486,-33.889191,297.18 18.414574,-33.888912,289.56 18.41938,-33.887749,259.08 18.42041,-33.887516,251.46 18.424688,-33.886826,198.12 18.425617,-33.886909,190.5 18.428307,-33.888538,137.16 18.428612,-33.889069,114.3 18.42865,-33.891567,76.2 18.428501,-33.89209,68.58 18.427828,-33.894058,38.1 18.427773,-33.894287,30.48 18.427448,-33.895477,15.24 18.427391,-33.895802,15.24 18.427212,-33.896988,0 18.427162,-33.897339,0 18.427155,-33.898499,0 18.427162,-33.898781,0 18.427212,-33.89978,0 18.427219,-33.90004,0 18.42802,-33.900738,0 18.428307,-33.900688,0 18.429451,-33.900551,0 18.429737,-33.900505,0 18.431339,-33.900223,15.24 18.431639,-33.900146,15.24 18.433857,-33.898968,60.96 18.434315,-33.898315,68.58 18.434778,-33.894562,106.68 18.434498,-33.89328,121.92 18.432941,-33.888538,152.4 18.432537,-33.887466,167.64 18.430252,-33.883141,190.5 18.429453,-33.882202,190.5 18.424931,-33.878624,213.36 18.4235,-33.87788,220.98 18.417795,-33.875931,243.84 18.416561,-33.875656,251.46 18.411293,-33.87529,266.7 18.409666,-33.875427,274.32 18.404398,-33.876572,281.94 18.40313,-33.876949,289.56 18.397751,-33.878811,297.18 18.396551,-33.879227,297.18 18.391787,-33.881149,312.42 18.390778,-33.881561,312.42 18.386364,-33.883793,327.66 18.38562,-33.884209,327.66 18.381304,-33.886597,327.66 18.380407,-33.8871,335.28 18.376408,-33.88961,335.28 18.375362,-33.89035,335.28 18.371832,-33.893188,327.66 18.370972,-33.893894,335.28 18.367481,-33.897152,327.66 18.366842,-33.897812,327.66 18.36359,-33.901062,335.28 18.362846,-33.90176,335.28 18.359585,-33.905251,335.28 18.358841,-33.906181,335.28 18.356266,-33.909348,335.28 18.355465,-33.910374,335.28 18.352718,-33.913818,335.28 18.351974,-33.914749,335.28 18.34837,-33.919266,350.52 18.347784,-33.920059,342.9 18.345205,-33.923492,350.52 18.344589,-33.924316,342.9 18.342178,-33.927841,342.9 18.34145,-33.928894,342.9 18.339157,-33.932205,373.38 18.338535,-33.93306,381 18.336067,-33.936348,388.62 18.335508,-33.937088,396.24 18.332462,-33.941006,403.86 18.33181,-33.941895,403.86 18.32943,-33.945427,411.48 18.328896,-33.946335,411.48 18.326797,-33.949989,419.1 18.326317,-33.950867,426.72 18.324018,-33.954849,441.96 18.32329,-33.955902,441.96 18.316452,-33.965973,441.96 18.315125,-33.968376,434.34 18.308716,-33.980576,403.86 18.307114,-33.983601,403.86 18.300756,-33.99852,434.34 18.299019,-34.00209,457.2 18.292866,-34.015442,472.44 18.292292,-34.017426,472.44 18.292011,-34.026352,426.72 18.292351,-34.028709,426.72 18.29319,-34.034088,419.1 18.293358,-34.034958,419.1 18.294125,-34.038532,411.48 18.294367,-34.039352,411.48 18.295784,-34.043697,411.48 18.296013,-34.044304,403.86 18.298122,-34.048508,388.62 18.298645,-34.049377,381 18.300644,-34.052536,373.38 18.301334,-34.053474,365.76 18.303566,-34.056408,358.14 18.304232,-34.057205,350.52 18.307034,-34.060364,335.28 18.307539,-34.060959,335.28 18.310118,-34.063797,327.66 18.310678,-34.064392,327.66 18.313145,-34.067001,320.04 18.313873,-34.06778,320.04 18.316383,-34.070419,320.04 18.316956,-34.070976,312.42 18.31959,-34.073639,304.8 18.32016,-34.074188,304.8 18.322849,-34.077309,304.8 18.323479,-34.078098,304.8 18.326036,-34.081238,297.18 18.32654,-34.081879,297.18 18.329029,-34.084942,297.18 18.329679,-34.08577,297.18 18.332291,-34.088993,304.8 18.332932,-34.089706,304.8 18.335438,-34.092625,312.42 18.336126,-34.093369,312.42 18.338642,-34.096024,320.04 18.339386,-34.096722,327.66 18.342068,-34.098999,327.66 18.343048,-34.099747,335.28 18.346024,-34.102074,342.9 18.346775,-34.10257,335.28 18.350601,-34.104683,342.9 18.35154,-34.105087,342.9 18.35524,-34.106689,342.9 18.356081,-34.10701,350.52 18.359928,-34.108547,358.14 18.360733,-34.108887,358.14 18.364601,-34.110352,358.14 18.365721,-34.110764,358.14 18.371439,-34.112823,365.76 18.374353,-34.113922,365.76 18.377838,-34.115204,358.14 18.378639,-34.115528,358.14 18.382359,-34.117111,381 18.383102,-34.117485,381 18.386909,-34.119003,381 18.387751,-34.119324,381 18.392178,-34.120834,373.38 18.393131,-34.121201,381 18.397522,-34.122604,373.38 18.39838,-34.122883,373.38 18.402267,-34.124084,381 18.403358,-34.12442,381 18.407879,-34.125908,373.38 18.41114,-34.127026,373.38 18.423679,-34.131271,342.9 18.427492,-34.13269,342.9 18.435574,-34.135265,350.52 18.436628,-34.135437,342.9 18.441124,-34.135406,350.52 18.44244,-34.135265,358.14 18.447189,-34.134197,358.14 18.448288,-34.133835,358.14 18.452911,-34.131916,365.76 18.453836,-34.131409,365.76 18.45829,-34.128704,365.76 18.459497,-34.127884,365.76 18.463898,-34.124699,358.14 18.464642,-34.124142,358.14 18.468801,-34.121017,365.76 18.469923,-34.120193,358.14 18.474014,-34.116714,358.14 18.474913,-34.115891,358.14 18.478146,-34.111618,358.14 18.478836,-34.110352,358.14 18.480206,-34.105614,358.14 18.48032,-34.104218,358.14 18.480349,-34.09845,350.52 18.48032,-34.097141,350.52 18.480206,-34.091274,350.52 18.480238,-34.090073,350.52 18.480263,-34.084476,342.9 18.480349,-34.08316,342.9 18.481064,-34.071674,335.28 18.481247,-34.070251,335.28 18.482208,-34.063343,327.66 18.482437,-34.061993,327.66 18.483376,-34.056427,327.66 18.483543,-34.055054,320.04 18.484049,-34.049423,327.66 18.484154,-34.04784,266.7 18.484442,-34.042511,327.66 18.484552,-34.041046,335.28 18.485069,-34.03532,342.9 18.485184,-34.034153,342.9 18.485561,-34.028961,335.28 18.485699,-34.027451,335.28 18.486099,-34.018654,320.04 18.486328,-34.014557,320.04 18.487816,-34.001942,304.8 18.48793,-34.000824,297.18 18.488308,-33.995041,289.56 18.488331,-33.993793,289.56 18.488253,-33.988129,297.18 18.488216,-33.98653,297.18 18.488028,-33.980988,289.56 18.487972,-33.979431,281.94 18.487644,-33.973404,281.94 18.487579,-33.972061,266.7 18.486963,-33.964691,274.32 18.486328,-33.959064,297.18 18.485584,-33.953571,304.8 18.485281,-33.951736,297.18 18.483982,-33.946171,289.56 18.483601,-33.944595,289.56 18.481865,-33.938908,266.7 18.48135,-33.937557,274.32 18.479116,-33.931915,259.08 18.478546,-33.930622,251.46 18.475416,-33.925232,236.22 18.474464,-33.923859,236.22 18.470148,-33.918823,220.98 18.469027,-33.917679,213.36 18.464598,-33.913422,220.98 18.463326,-33.91214,220.98 18.459385,-33.907974,243.84 18.458519,-33.907021,243.84 18.454514,-33.902691,236.22 18.453556,-33.901703,228.6 18.448448,-33.8965,205.74 18.44739,-33.895432,198.12 18.44313,-33.892502,167.64 18.441525,-33.892124,160.02 18.43792,-33.892868,121.92 18.43729,-33.893196,114.3 18.434715,-33.894962,68.58 18.43405,-33.895386,60.96 18.432257,-33.896576,30.48 18.431976,-33.896759,22.86 18.430687,-33.897583,0 18.430424,-33.897758,0 18.428669,-33.898865,0 18.428276,-33.899094,0 18.427105,-33.900223,0 18.427048,-33.900505,0 18.427563,-33.901062,0 18.428135,-33.900921,0 18.429737,-33.900551,0 18.430023,-33.900455,0 18.431854,-33.899944,22.86 18.432198,-33.899853,38.1 18.435003,-33.89772,99.06 18.435452,-33.896896,106.68 18.436068,-33.89296,144.78 18.436068,-33.892044,152.4 18.435675,-33.887466,205.74 18.435345,-33.886257,220.98 18.433743,-33.88179,251.46 18.433096,-33.880692,259.08 18.429794,-33.8769,289.56 18.428879,-33.87611,297.18 18.423958,-33.873222,312.42 18.422813,-33.872852,320.04 18.416786,-33.871948,342.9 18.415104,-33.871994,342.9 18.40971,-33.872807,342.9 18.40868,-33.873085,342.9 18.40353,-33.874527,342.9 18.402155,-33.874969,342.9 18.39756,-33.876663,342.9 18.396263,-33.877182,342.9 18.391571,-33.87923,365.76 18.390541,-33.879646,365.76 18.386068,-33.881744,358.14 18.384836,-33.882385,350.52 18.380968,-33.884537,350.52 18.379847,-33.885269,350.52 18.375755,-33.888062,381 18.375092,-33.888493,381 18.371315,-33.89138,373.38 18.370375,-33.892181,373.38 18.367081,-33.894917,396.24 18.36628,-33.895615,403.86 18.362974,-33.898911,411.48 18.362303,-33.899643,403.86 18.359444,-33.902847,411.48 18.358658,-33.903717,411.48 18.355579,-33.906879,411.48 18.355007,-33.907532,419.1 18.351988,-33.910583,441.96 18.351288,-33.911304,441.96 18.348345,-33.914337,441.96 18.347797,-33.914982,441.96 18.345337,-33.918053,441.96 18.344702,-33.918823,449.58 18.342291,-33.921844,472.44 18.34145,-33.92276,480.06 18.338648,-33.925919,487.68 18.338032,-33.926559,487.68 18.335609,-33.92918,502.92 18.334948,-33.929947,495.3 18.332119,-33.933182,510.54 18.33153,-33.933884,510.54 18.328838,-33.937134,502.92 18.328222,-33.937912,510.54 18.32571,-33.941189,510.54 18.325024,-33.942028,510.54 18.322784,-33.945374,502.92 18.322277,-33.946171,510.54 18.320038,-33.950089,487.68 18.319534,-33.950958,480.06 18.317699,-33.954597,457.2 18.316841,-33.956367,457.2 18.312136,-33.967163,449.58 18.311295,-33.969177,449.58 18.304653,-33.986996,411.48 18.303055,-33.991425,388.62 18.296127,-34.010181,373.38 18.295383,-34.013115,373.38 18.293781,-34.024937,358.14 18.293919,-34.026947,350.52 18.294868,-34.033363,342.9 18.29504,-34.034248,342.9 18.295879,-34.037659,350.52 18.2971,-34.041183,350.52 18.299847,-34.046585,350.52 18.301317,-34.048508,350.52 18.305408,-34.052765,358.14 18.305798,-34.053146,365.76 18.308945,-34.056126,358.14 18.30978,-34.056885,358.14 18.312584,-34.059311,350.52 18.313293,-34.059898,350.52 18.316675,-34.062836,350.52 18.317348,-34.063431,358.14 18.319757,-34.065857,358.14 18.320503,-34.066601,365.76 18.322952,-34.069199,381 18.323906,-34.070068,373.38 18.32654,-34.072906,396.24 18.327213,-34.073822,396.24 18.329399,-34.077118,403.86 18.32983,-34.077866,403.86 18.331604,-34.081173,403.86 18.332005,-34.081963,403.86 18.333778,-34.085083,388.62 18.334236,-34.085735,388.62 18.336697,-34.088947,381 18.337097,-34.0896,381 18.338984,-34.092865,381 18.339321,-34.093552,381 18.341045,-34.097,388.62 18.341389,-34.097698,388.62 18.342739,-34.101059,396.24 18.342964,-34.101837,396.24 18.343637,-34.105453,403.86 18.343678,-34.106312,403.86 18.343678,-34.109661,403.86 18.343637,-34.110626,411.48 18.343468,-34.113876,419.1 18.343334,-34.11483,419.1 18.342304,-34.118553,434.34 18.341961,-34.119347,434.34 18.3391,-34.122372,434.34 18.337841,-34.123161,434.34 18.333099,-34.126007,441.96 18.332005,-34.126656,441.96 18.32737,-34.129448,426.72 18.326054,-34.130238,426.72 18.321533,-34.133217,411.48 18.320389,-34.134056,403.86 18.316727,-34.137501,403.86 18.316002,-34.138504,396.24 18.314322,-34.142578,381 18.314095,-34.143738,373.38 18.314323,-34.147465,358.14 18.314552,-34.148209,350.52 18.316612,-34.152493,335.28 18.317291,-34.153519,327.66 18.319473,-34.156818,304.8 18.320038,-34.157684,304.8 18.322336,-34.161026,304.8 18.322735,-34.161613,304.8 18.352158,-34.192154,304.8 18.352716,-34.192795,304.8 18.357067,-34.198902,312.42 18.357426,-34.199524,320.04 18.35907,-34.202721,342.9 18.359556,-34.203781,350.52 18.36113,-34.207424,358.14 18.361517,-34.208405,350.52 18.362806,-34.211838,350.52 18.363087,-34.212616,342.9 18.364391,-34.215988,342.9 18.364769,-34.216919,335.28 18.366001,-34.220398,327.66 18.36628,-34.221203,327.66 18.367571,-34.225388,335.28 18.367851,-34.226166,327.66 18.368969,-34.22963,320.04 18.369253,-34.230469,320.04 18.370342,-34.233955,320.04 18.370686,-34.235168,327.66 18.371487,-34.238659,320.04 18.371773,-34.239681,320.04 18.372896,-34.24324,297.18 18.373232,-34.244339,297.18 18.37429,-34.247688,297.18 18.374466,-34.248322,297.18 18.375149,-34.252205,304.8 18.375307,-34.25322,304.8 18.376036,-34.256927,304.8 18.376236,-34.257839,297.18 18.377045,-34.261459,297.18 18.377325,-34.262512,297.18 18.378389,-34.266037,297.18 18.37867,-34.266861,289.56 18.390888,-34.292267,304.8 18.392122,-34.295151,304.8 18.394833,-34.301132,304.8 18.395485,-34.302383,304.8 18.397579,-34.305553,289.56 18.398344,-34.306641,289.56 18.410454,-34.319241,266.7 18.415159,-34.323669,266.7 18.418186,-34.32605,274.32 18.419094,-34.326782,266.7 18.422447,-34.329483,259.08 18.423288,-34.33017,251.46 18.426764,-34.332779,251.46 18.427492,-34.333282,251.46 18.430855,-34.335571,251.46 18.432083,-34.336372,259.08 18.435452,-34.33873,266.7 18.436146,-34.339211,266.7 18.441124,-34.342888,274.32 18.44347,-34.344612,281.94 18.448679,-34.348846,289.56 18.449364,-34.349453,289.56 18.452602,-34.352005,289.56 18.453388,-34.3526,297.18 18.457203,-34.355087,297.18 18.458004,-34.355598,297.18 18.461796,-34.357864,304.8 18.462469,-34.358231,304.8 18.466784,-34.360199,297.18 18.46785,-34.360565,297.18 18.471998,-34.361755,297.18 18.47295,-34.361984,297.18 18.477266,-34.363037,304.8 18.478724,-34.363403,297.18 18.483208,-34.364456,297.18 18.484325,-34.364723,304.8 18.488789,-34.3657,304.8 18.489822,-34.365875,312.42 18.493996,-34.366444,312.42 18.495312,-34.366444,312.42 18.499743,-34.365326,320.04 18.50069,-34.364815,320.04 18.503836,-34.361801,327.66 18.50441,-34.360764,327.66 18.505611,-34.356064,350.52 18.505669,-34.354668,350.52 18.504925,-34.349453,327.66 18.504677,-34.348297,320.04 18.50305,-34.34317,320.04 18.502378,-34.341385,320.04 18.50069,-34.335533,312.42 18.500519,-34.334324,312.42 18.499889,-34.32748,320.04 18.4998,-34.32605,320.04 18.499546,-34.320591,312.42 18.499519,-34.319412,312.42 18.499464,-34.31131,320.04 18.499317,-34.307278,327.66 18.498917,-34.301689,335.28 18.498802,-34.300156,335.28 18.498344,-34.294754,342.9 18.498175,-34.293365,342.9 18.497257,-34.28791,350.52 18.496971,-34.286469,350.52 18.495651,-34.281326,350.52 18.495197,-34.279438,350.52 18.49369,-34.273682,358.14 18.493353,-34.272125,358.14 18.492064,-34.265259,365.76 18.491879,-34.263752,373.38 18.491077,-34.258305,381 18.490791,-34.256489,381 18.489933,-34.251183,381 18.489206,-34.247223,388.62 18.486515,-34.236145,403.86 18.48587,-34.234283,411.48 18.483824,-34.229095,411.48 18.483067,-34.227486,419.1 18.480742,-34.222687,419.1 18.479958,-34.221268,419.1 18.477001,-34.21608,419.1 18.476257,-34.214813,419.1 18.472614,-34.209,434.34 18.471661,-34.207672,434.34 18.46813,-34.203186,434.34 18.466873,-34.20179,434.34 18.462637,-34.197235,434.34 18.461908,-34.196457,434.34 18.457546,-34.1922,449.58 18.456459,-34.19136,449.58 18.45137,-34.188766,472.44 18.450026,-34.188034,472.44 18.446217,-34.184006,449.58 18.445541,-34.182495,441.96 18.4445,-34.177071,411.48 18.4445,-34.175861,403.86 18.445652,-34.17041,388.62 18.446045,-34.169342,388.62 18.448162,-34.16399,381 18.448677,-34.162872,381 18.450809,-34.158279,365.76 18.451538,-34.15686,365.76 18.454113,-34.152256,358.14 18.454958,-34.150726,358.14 18.457832,-34.14616,365.76 18.458576,-34.145088,358.14 18.461515,-34.140793,365.76 18.462299,-34.139648,365.76 18.465326,-34.135483,358.14 18.467045,-34.133125,358.14 18.476032,-34.120468,358.14 18.47826,-34.11702,358.14 18.480516,-34.112274,373.38 18.480909,-34.11113,381 18.481415,-34.105957,381 18.48135,-34.104401,381 18.481007,-34.098957,381 18.480967,-34.097031,381 18.480909,-34.091766,373.38 18.480909,-34.090439,381 18.481134,-34.084579,381 18.481178,-34.083221,381 18.48147,-34.076981,381 18.481638,-34.075424,381 18.482143,-34.07016,381 18.482323,-34.06879,381 18.48304,-34.062927,396.24 18.483263,-34.061462,396.24 18.484497,-34.053223,403.86 18.485012,-34.049099,403.86 18.486443,-34.03746,411.48 18.486628,-34.03624,411.48 18.487358,-34.030525,411.48 18.487469,-34.029053,411.48 18.487816,-34.023354,403.86 18.48793,-34.02182,403.86 18.488253,-34.016418,403.86 18.488308,-34.014954,403.86 18.489037,-34.008865,396.24 18.489132,-34.007622,396.24 18.489597,-34.001816,388.62 18.489647,-34.000404,388.62 18.489655,-33.995041,373.38 18.489655,-33.993439,373.38 18.489655,-33.987671,358.14 18.489597,-33.986069,350.52 18.489876,-33.972893,365.76 18.489765,-33.9711,373.38 18.488903,-33.965584,365.76 18.48856,-33.964142,365.76 18.486958,-33.958553,373.38 18.48646,-33.956909,381 18.484783,-33.951057,396.24 18.48444,-33.949802,403.86 18.481863,-33.940796,396.24 18.480148,-33.935604,381 18.475922,-33.924362,289.56 18.475193,-33.922897,281.94 18.471451,-33.917866,243.84 18.470364,-33.916752,236.22 18.466112,-33.912552,220.98 18.464935,-33.911545,220.98 18.460281,-33.907471,160.02 18.459049,-33.906326,220.98 18.454788,-33.902298,228.6 18.453712,-33.901249,167.64 18.449535,-33.897152,205.74 18.448563,-33.896267,198.12 18.4445,-33.892914,175.26 18.443298,-33.89217,167.64 18.439064,-33.891239,152.4 18.438091,-33.891472,144.78 18.435802,-33.892963,99.06 18.435339,-33.893463,83.82 18.433743,-33.895336,53.34 18.433285,-33.895847,45.72 18.431696,-33.897034,22.86 18.431339,-33.897293,15.24 18.430252,-33.897896,0 18.430023,-33.898037,0 18.428892,-33.898682,0 18.428593,-33.898872,0 18.427391,-33.899899,0 18.427155,-33.900146,0 18.42794,-33.900742,0 18.428364,-33.900688,0 18.429958,-33.900375,0 18.430239,-33.90033,0 18.431808,-33.899963,7.62 18.432426,-33.899807,15.24 18.43405,-33.899368,38.1 18.434486,-33.899246,38.1 18.436796,-33.897949,76.2 18.437405,-33.897385,83.82 18.438759,-33.894058,137.16 18.438814,-33.89328,144.78 18.437977,-33.888821,182.88 18.437525,-33.887787,198.12 18.434778,-33.883942,228.6 18.43405,-33.883301,236.22 18.429846,-33.880646,274.32 18.428501,-33.880005,281.94 18.423615,-33.8783,312.42 18.422356,-33.878017,320.04 18.417458,-33.87735,350.52 18.416281,-33.877258,350.52 18.4109,-33.877396,381 18.409824,-33.877506,381 18.404621,-33.878311,411.48 18.403557,-33.87854,419.1 18.399298,-33.879639,449.58 18.398119,-33.880005,457.2 18.393805,-33.881332,502.92 18.392601,-33.881744,518.16 18.388647,-33.883255,548.64 18.38768,-33.883652,548.64 18.383154,-33.885773,586.74 18.381977,-33.886414,594.36 18.37801,-33.88868,609.6 18.376865,-33.889378,609.6 18.372784,-33.891724,647.7 18.371719,-33.892319,647.7 18.367882,-33.894638,662.94 18.367023,-33.895195,662.94 18.363018,-33.897896,685.8 18.36219,-33.89859,685.8 18.358555,-33.901714,701.04 18.357582,-33.902645,693.42 18.354399,-33.906052,693.42 18.353577,-33.907066,693.42 18.350868,-33.910767,693.42 18.350258,-33.911674,693.42 18.348083,-33.915169,701.04 18.347336,-33.916489,701.04 18.345509,-33.920197,701.04 18.344936,-33.92131,701.04 18.343019,-33.925003,701.04 18.342571,-33.925873,693.42 18.340666,-33.929672,701.04 18.340273,-33.930496,701.04 18.338699,-33.934162,701.04 18.338144,-33.93544,708.66 18.336407,-33.93956,701.04 18.335953,-33.940632,693.42 18.334293,-33.944496,708.66 18.333996,-33.945374,708.66 18.332691,-33.949245,708.66 18.332348,-33.950176,708.66 18.330744,-33.954208,701.04 18.330353,-33.955078,693.42 18.327549,-33.959656,708.66 18.326878,-33.96048,716.28 18.323593,-33.964046,693.42 18.322617,-33.965057,693.42 18.315554,-33.973572,693.42 18.314724,-33.974754,701.04 18.311005,-33.981365,701.04 18.310509,-33.982407,701.04 18.30883,-33.986206,685.8 18.308323,-33.987396,685.8 18.305454,-33.994122,655.32 18.305128,-33.994858,655.32 18.303337,-33.998917,662.94 18.302887,-33.999802,662.94 18.300648,-34.003757,655.32 18.30014,-34.004745,655.32 18.297615,-34.009109,670.56 18.297043,-34.009995,662.94 18.295208,-34.01445,670.56 18.295383,-34.015766,655.32 18.298531,-34.018467,609.6 18.29958,-34.018753,609.6 18.304653,-34.019165,594.36 18.305914,-34.019073,586.74 18.310547,-34.018143,586.74 18.311977,-34.017723,571.5 18.318958,-34.013626,548.64 18.319988,-34.012463,541.02 18.323765,-34.006783,525.78 18.324337,-34.005806,525.78 18.326511,-34.001942,518.16 18.327101,-34.000854,525.78 18.334808,-33.988113,525.78 18.336582,-33.985649,518.16 18.346552,-33.971558,518.16 18.347969,-33.968937,525.78 18.353222,-33.956955,510.54 18.35367,-33.955627,510.54 18.355576,-33.949905,518.16 18.356024,-33.948532,525.78 18.358042,-33.942719,525.78 18.358498,-33.941563,533.4 18.360386,-33.936859,533.4 18.360846,-33.93576,533.4 18.362864,-33.930725,525.78 18.36348,-33.929214,533.4 18.365364,-33.925037,541.02 18.366051,-33.923733,541.02 18.368511,-33.919403,541.02 18.369141,-33.918411,541.02 18.372116,-33.914471,541.02 18.373089,-33.913258,541.02 18.376293,-33.909721,525.78 18.377268,-33.908752,525.78 18.3808,-33.905182,533.4 18.381672,-33.904366,518.16 18.384991,-33.901016,548.64 18.385956,-33.900055,548.64 18.389626,-33.896732,525.78 18.390656,-33.895847,525.78 18.394421,-33.893005,518.16 18.395348,-33.892403,510.54 18.399578,-33.890076,495.3 18.400475,-33.889618,487.68 18.404621,-33.888062,464.82 18.40559,-33.887749,457.2 18.409424,-33.886818,449.58 18.410507,-33.886551,441.96 18.414574,-33.885746,419.1 18.415661,-33.885559,411.48 18.419363,-33.884995,381 18.420429,-33.884811,373.38 18.424072,-33.88472,312.42 18.424759,-33.884769,297.18 18.427603,-33.88591,251.46 18.428078,-33.886307,243.84 18.429285,-33.888107,205.74 18.429453,-33.888565,198.12 18.429852,-33.89045,160.02 18.429909,-33.891006,152.4 18.42968,-33.892776,106.68 18.429623,-33.893101,99.06 18.429165,-33.894917,60.96 18.429062,-33.895203,53.34 18.428593,-33.896641,22.86 18.428535,-33.896873,22.86 18.428108,-33.897903,0 18.427963,-33.898224,0 18.427492,-33.899368,0 18.42738,-33.899597,0 18.427322,-33.900604,0 18.427563,-33.900738,0 18.428764,-33.900875,0 18.428993,-33.900875,0 18.430195,-33.900784,0 18.430424,-33.900738,0 18.431639,-33.900604,7.62 18.431919,-33.900513,15.24 18.433285,-33.900223,30.48 18.433657,-33.900101,30.48 18.435675,-33.899277,53.34 18.436403,-33.898773,68.58 18.438421,-33.896027,99.06 18.438721,-33.894962,114.3 18.439007,-33.890774,152.4 18.438835,-33.889702,160.02 18.436964,-33.885544,198.12 18.436489,-33.884907,198.12 18.432999,-33.881416,228.6 18.432312,-33.880859,243.84 18.428108,-33.878036,266.7 18.426876,-33.877365,281.94 18.421783,-33.875877,304.8 18.420652,-33.875748,304.8 18.415833,-33.87561,335.28 18.414431,-33.875702,342.9 18.409611,-33.876526,350.52 18.40868,-33.876762,358.14 18.404675,-33.87788,381 18.403759,-33.878204,388.62 18.399239,-33.879368,388.62 18.398064,-33.879639,381 18.393412,-33.880966,381 18.392029,-33.881416,381 18.387526,-33.883255,381 18.386404,-33.88385,381 18.38237,-33.88623,381 18.381361,-33.886917,381 18.37801,-33.889191,388.62 18.377037,-33.889889,388.62 18.373569,-33.892639,396.24 18.372688,-33.893333,396.24 18.369656,-33.896126,388.62 18.368797,-33.896965,388.62 18.366051,-33.899666,388.62 18.365307,-33.900364,396.24 18.362583,-33.903214,396.24 18.361759,-33.904087,396.24 18.358995,-33.90715,388.62 18.358322,-33.907883,388.62 18.355579,-33.911209,381 18.354893,-33.912094,381 18.352604,-33.915306,373.38 18.352268,-33.915848,373.38 18.350143,-33.919403,365.76 18.349859,-33.920013,373.38 18.348232,-33.923584,358.14 18.347841,-33.924408,358.14 18.34631,-33.927876,350.52 18.345934,-33.928711,350.52 18.344702,-33.931686,350.52 18.344196,-33.932831,342.9 18.342991,-33.935978,350.52 18.342705,-33.936909,350.52 18.340645,-33.94175,358.14 18.340244,-33.942539,358.14 18.338699,-33.945614,358.14 18.338356,-33.946358,365.76 18.33704,-33.949478,358.14 18.336742,-33.95018,365.76 18.335381,-33.95348,365.76 18.334866,-33.954456,365.76 18.328857,-33.965584,403.86 18.327438,-33.967529,411.48 18.320656,-33.975174,403.86 18.318974,-33.977051,403.86 18.311806,-33.987137,419.1 18.310566,-33.988724,419.1 18.301989,-33.999023,426.72 18.301735,-33.999428,426.72 18.297329,-34.007389,441.96 18.297215,-34.009529,434.34 18.30496,-34.013351,411.48 18.307171,-34.012833,411.48 18.316227,-34.007217,426.72 18.318245,-34.005066,426.72 18.321327,-34.001175,411.48 18.322105,-34.00008,419.1 18.33338,-33.984146,411.48 18.337023,-33.979431,411.48 18.343525,-33.969681,419.1 18.345205,-33.966888,419.1 18.350363,-33.956039,411.48 18.351631,-33.953293,411.48 18.353977,-33.948174,426.72 18.354607,-33.946869,419.1 18.356438,-33.942635,411.48 18.356953,-33.941376,419.1 18.359667,-33.935303,419.1 18.360271,-33.934113,419.1 18.362274,-33.929832,411.48 18.362675,-33.928902,403.86 18.364677,-33.924618,396.24 18.365192,-33.923687,396.24 18.36771,-33.919216,403.86 18.368454,-33.918053,403.86 18.371271,-33.914474,403.86 18.372168,-33.913422,403.86 18.375137,-33.91008,411.48 18.376036,-33.909164,403.86 18.379286,-33.905823,388.62 18.380127,-33.905018,388.62 18.383209,-33.90184,373.38 18.383883,-33.901245,373.38 18.38719,-33.897995,373.38 18.388142,-33.897171,381 18.392429,-33.893845,365.76 18.393356,-33.893188,365.76 18.396999,-33.891083,358.14 18.397951,-33.890625,358.14 18.401875,-33.888931,350.52 18.403015,-33.888493,350.52 18.407089,-33.887329,342.9 18.408041,-33.8871,342.9 18.412245,-33.886047,274.32 18.413198,-33.885818,335.28 18.417458,-33.884995,320.04 18.418354,-33.884857,259.08 18.422012,-33.884583,312.42 18.422728,-33.884628,304.8 18.425617,-33.885422,274.32 18.426075,-33.885605,274.32 18.428249,-33.887188,236.22 18.428501,-33.887604,228.6 18.429394,-33.889378,198.12 18.429565,-33.889893,182.88 18.430023,-33.891613,137.16 18.430014,-33.891998,129.54 18.42979,-33.893555,83.82 18.429621,-33.894104,68.58 18.428837,-33.895889,30.48 18.428535,-33.8965,22.86 18.427963,-33.897942,0 18.427792,-33.898315,0 18.427391,-33.899479,0 18.427277,-33.899757,0 18.427435,-33.90065,0 18.42794,-33.900742,0 18.429909,-33.900597,0 18.430195,-33.900597,0 18.431911,-33.900551,22.86 18.432198,-33.900551,30.48 18.433743,-33.90041,53.34 18.434544,-33.900364,60.96 18.437119,-33.899853,106.68 18.43775,-33.899597,114.3 18.440208,-33.897385,160.02 18.440609,-33.896408,167.64 18.440609,-33.891472,190.5 18.440266,-33.8904,190.5 18.43792,-33.8857,220.98 18.437357,-33.884857,228.6 18.433994,-33.88028,251.46 18.433208,-33.879272,259.08 18.428936,-33.875134,274.32 18.427734,-33.874386,274.32 18.42256,-33.87236,289.56 18.420485,-33.871811,297.18 18.41404,-33.870941,297.18 18.412571,-33.87085,304.8 18.406809,-33.87085,312.42 18.405075,-33.870941,312.42 18.399181,-33.871548,327.66 18.398008,-33.871719,327.66 18.392347,-33.87323,327.66 18.390827,-33.873737,335.28 18.386181,-33.875885,335.28 18.385059,-33.87648,335.28 18.38047,-33.87923,335.28 18.379511,-33.879868,335.28 18.375664,-33.882626,342.9 18.374859,-33.883301,342.9 18.370653,-33.886826,342.9 18.369701,-33.887604,350.52 18.365993,-33.890541,342.9 18.365105,-33.891266,335.28 18.361629,-33.894516,335.28 18.360958,-33.895245,342.9 18.35804,-33.898689,342.9 18.357313,-33.899551,342.9 18.354549,-33.903252,335.28 18.353838,-33.904312,327.66 18.35146,-33.907997,320.04 18.350979,-33.908752,320.04 18.34857,-33.912827,312.42 18.348232,-33.913376,312.42 18.345934,-33.917542,320.04 18.345451,-33.918472,320.04 18.343506,-33.92215,320.04 18.342991,-33.923176,312.42 18.340988,-33.927319,304.8 18.340498,-33.928345,312.42 18.338757,-33.931881,320.04 18.338299,-33.932858,320.04 18.336349,-33.936676,320.04 18.337784,-33.940536,335.28 18.342123,-33.940155,320.04 18.345991,-33.936447,320.04 18.349571,-33.932159,312.42 18.350475,-33.931046,327.66 18.353634,-33.926899,342.9 18.354174,-33.926193,342.9 18.357582,-33.921497,350.52 18.358154,-33.920609,342.9 18.361013,-33.916626,335.28 18.361685,-33.915665,335.28 18.365021,-33.911491,335.28 18.365778,-33.910629,327.66 18.36937,-33.906509,327.66 18.370342,-33.905437,327.66 18.373718,-33.901669,320.04 18.374634,-33.900738,312.42 18.378557,-33.896896,304.8 18.379566,-33.895935,304.8 18.383675,-33.892311,274.32 18.384611,-33.891586,274.32 18.388996,-33.888584,266.7 18.390083,-33.887981,274.32 18.394924,-33.88559,259.08 18.396091,-33.885139,259.08 18.401484,-33.883347,251.46 18.40238,-33.883163,243.84 18.407873,-33.882156,243.84 18.409252,-33.881977,243.84 18.413982,-33.881699,243.84 18.415216,-33.881699,243.84 18.42001,-33.881927,243.84 18.420868,-33.882069,251.46 18.425217,-33.882999,167.64 18.426189,-33.883278,167.64 18.429173,-33.88559,205.74 18.429621,-33.88623,190.5 18.431168,-33.889378,144.78 18.431511,-33.890217,129.54 18.432537,-33.89296,83.82 18.43277,-33.893475,76.2 18.433546,-33.895477,38.1 18.433571,-33.895756,38.1 18.433208,-33.896805,15.24 18.432985,-33.896988,15.24 18.431511,-33.897804,0 18.431168,-33.897942,0 18.42923,-33.898636,0 18.428949,-33.898773,0 18.42794,-33.899323,0 18.427715,-33.899551,0 18.426991,-33.900784,0 18.426876,-33.901016,0 18.428192,-33.900829,0 18.428535,-33.900921,0 18.42968,-33.901249,38.1 18.429958,-33.901245,45.72 18.43111,-33.901249,99.06 18.431471,-33.901291,106.68 18.432705,-33.901474,144.78 18.43317,-33.901527,152.4 18.435394,-33.901199,160.02 18.43626,-33.900875,160.02 18.439236,-33.898224,175.26 18.439823,-33.896942,182.88 18.439768,-33.891998,205.74 18.439375,-33.890717,190.5 18.436947,-33.885189,198.12 18.43618,-33.883804,198.12 18.432592,-33.878952,198.12 18.431454,-33.877739,198.12 18.42581,-33.873917,198.12 18.424129,-33.873222,198.12 18.417906,-33.871674,205.74 18.416225,-33.871536,205.74 18.409824,-33.871826,205.74 18.408451,-33.872059,198.12 18.402901,-33.873642,205.74 18.401596,-33.874146,213.36 18.396835,-33.876202,220.98 18.395485,-33.876801,220.98 18.390888,-33.878998,220.98 18.389568,-33.879646,220.98 18.384819,-33.882069,228.6 18.383827,-33.882614,228.6 18.37944,-33.885559,213.36 18.378582,-33.886211,220.98 18.374691,-33.889145,220.98 18.373737,-33.889938,220.98 18.370571,-33.892635,251.46 18.369534,-33.893509,274.32 18.36668,-33.896034,289.56 18.365879,-33.896824,289.56 18.362806,-33.89978,304.8 18.362246,-33.900375,297.18 18.359444,-33.903809,312.42 18.358938,-33.904404,320.04 18.356361,-33.908112,327.66 18.355751,-33.909023,327.66 18.353519,-33.912422,342.9 18.352942,-33.91333,342.9 18.350307,-33.917084,350.52 18.349915,-33.917679,350.52 18.347569,-33.921127,373.38 18.346882,-33.922195,365.76 18.344925,-33.925827,358.14 18.344479,-33.926666,358.14 18.342018,-33.931042,365.76 18.341389,-33.932114,365.76 18.339153,-33.935989,350.52 18.338593,-33.936996,342.9 18.336067,-33.941471,358.14 18.335781,-33.942585,365.76 18.337135,-33.945602,365.76 18.3382,-33.946014,358.14 18.342762,-33.944496,350.52 18.344078,-33.943378,350.52 18.347,-33.940247,350.52 18.350868,-33.935165,358.14 18.353977,-33.930809,350.52 18.354664,-33.929783,350.52 18.360443,-33.921406,327.66 18.362846,-33.918007,327.66 18.366058,-33.913742,320.04 18.366909,-33.912701,320.04 18.370342,-33.908512,312.42 18.371143,-33.907578,312.42 18.374521,-33.903671,312.42 18.375492,-33.902554,312.42 18.379063,-33.898315,297.18 18.379841,-33.897385,297.18 18.382988,-33.89394,297.18 18.383827,-33.893097,297.18 18.387974,-33.889481,289.56 18.38887,-33.888794,289.56 18.393131,-33.886002,297.18 18.39426,-33.885372,297.18 18.399296,-33.883045,297.18 18.400587,-33.882614,297.18 18.405476,-33.881462,297.18 18.406563,-33.881279,289.56 18.411427,-33.880905,281.94 18.412685,-33.880905,281.94 18.417206,-33.881092,266.7 18.418299,-33.881195,259.08 18.422585,-33.881836,251.46 18.4235,-33.882069,251.46 18.427603,-33.88353,243.84 18.428221,-33.884033,236.22 18.42979,-33.886826,220.98 18.430069,-33.887466,213.36 18.431303,-33.890396,198.12 18.431568,-33.891006,190.5 18.432598,-33.893196,160.02 18.432884,-33.893799,152.4 18.433041,-33.895798,83.82 18.432816,-33.896255,68.58 18.431454,-33.89743,22.86 18.431023,-33.897675,15.24 18.429852,-33.898174,0 18.42951,-33.89827,0 18.428389,-33.898773,0 18.427996,-33.899094,0 18.427219,-33.900085,0 18.426931,-33.900284,0
        </coordinates>
      </LineString>
    </Placemark>
  </Document>
</kml>