<?xml version="1.0" encoding="UTF-8"?>
<kml xmlns="http://www.opengis.net/kml/2.2">
  <Document>
    <name>-/ZTHOT - Optimised</name>
    <description><![CDATA[Optimised flight path with 1615 points (decimated from 8075 original points). Source format: Standard KML]]></description>
    
    <Style id="flightPath">
      <LineStyle>
        <color>ff0000ff</color>
        <width>3</width>
      </LineStyle>
    </Style>
    
    <Placemark>
      <name>Flight Path</name>
      <description><![CDATA[<div style="width:220px; text-align:center;">
<div style="width:210px; text-align:center;">
<div style=" background: #000; color: #fff; font-size: 14px; text-align:left; border: 1px solid #000; padding: 2px 6px; text-shadow: 0 1px 0 #000; box-shadow: 0 1px 3px rgba(0,0,0,0.6); background: -webkit-gradient(linear, left top, left bottom, color-stop(0%,#808080), color-stop(2%,#303030), color-stop(100%,#0c0c0c));"><span style="font-size: 14px; font-weight: bold;"><a href="javascript:void(0);" style="color: #fff; cursor: pointer;text-decoration: none;">-</a></span> / ZTHOT<br/>Cape Town Helicopters</div>

<div style="border-top: 1px solid #005c90; color: #fff; padding-bottom: 5px; box-shadow: 0 0 1px #9BE3F6 inset, 0 1px 0 #9BE3F6 inset, 0 -1px 3px rgba(0,0,0,0.4); background:rgba(43,114,173,1); background: -webkit-gradient(linear, left top, left bottom, color-stop(0%,rgba(92,184,229,1)), color-stop(100%,rgba(43,114,173,1)));">
<a style="text-decoration: none; color: rgb(255, 255, 255); font-size: 12px; width:77px; display: inline-block;" title=" Airport" href="javascript:void(0);/departures"><h3 style="padding: 0px; margin: 10px 0px 0px; font-size: 16px; ">?</h3></a>
<span style="background: url(https://www.flightradar24.com/static/images/userUI_sprite.png?14) no-repeat scroll 0 -464px rgba(0, 0, 0, 0); border: medium none; display: inline-block; height: 16px; width: 45px;"></span>
<a style="text-decoration: none; color: rgb(255, 255, 255); font-size: 12px; width:77px; display: inline-block;" title=" Airport" href="javascript:void(0);/arrivals"><h3 style="padding: 0px; margin: 10px 0px 0px; font-size: 16px;">?</h3></a>
<div style=" margin-top:10px;">
<div style="display: inline-block; font-size: 12px; padding: 0 5px;">
<div>
<span style="color: #c1eaff;" title="Actual Time of Departure">ATD </span>
<span title="2025-04-13 14:22">14:22</span> <span title="Coordinated Universal Time">UTC</span>
</div>
</div>
<div style="display: inline-block; font-size: 12px; padding: 0 5px;">
<div>
<span style="color: #c1eaff;" title="Estimated Time of Arrival">ETA </span>
<span title="2025-04-13 14:46">14:46</span> <span title="Coordinated Universal Time">UTC</span>
</div>
</div>
</div>
<br style="clear: both;"/>
</div>

<div style="display: block;">
<table style="border-collapse: collapse; width: 100%;">
<tr style="border-right: 1px solid #dadada; ">
<td style="background: none repeat scroll 0 0 #dadada; padding: 0; width: 31px;">
<span style="background: url(https://www.flightradar24.com/static/images/userUI_sprite.png?14) no-repeat scroll -208px -464px rgba(0, 0, 0, 0); height: 26px; margin: 8px 0 0 4px; width: 23px; display: block;"></span>
</td>
<td colspan="2" style="border-bottom: 1px solid #dadada; border-left: 1px solid #dadada; color: #666; line-height: 1.1em; padding: 3px 6px; vertical-align: top; font-size: 14px;">
Aircraft<span style="float: right; font-size: 12px;">(AS50)</span><br>
<span style="color: #333; font-size: 16px; font-weight: bold; line-height: 1.3em;">Airbus Helicopters H125</span>
</td>
</tr>
<tr style="border-right: 1px solid #dadada; ">
<td style="background: none repeat scroll 0 0 #dadada; padding: 0; width: 31px;">
<td colspan="2" style="border-bottom: 1px solid #dadada; border-left: 1px solid #dadada; color: #666; line-height: 1.1em; padding: 3px 6px; vertical-align: top; font-size: 14px;">
Registration<br>
<span style="color: #333; font-size: 16px; font-weight: bold; line-height: 1.3em;"><a href="https://www.flightradar24.com/reg/zt-hot" style="text-decoration: none; color: #333;">ZT-HOT</a></span>
</td>
</tr>
</table>
</div>

</div>
</div>]]></description>
      <styleUrl>#flightPath</styleUrl>
      <LineString>
        <extrude>1</extrude>
        <tessellate>1</tessellate>
        <altitudeMode>absolute</altitudeMode>
        <coordinates>
          18.42968,-33.901527,60.96 18.436852,-33.901016,152.4 18.440781,-33.898968,182.88 18.444363,-33.895615,213.36 18.44627,-33.890717,274.32 18.445484,-33.885178,304.8 18.441296,-33.880394,335.28 18.435452,-33.877945,335.28 18.428221,-33.876709,365.76 18.421213,-33.87616,396.24 18.414543,-33.876343,396.24 18.406809,-33.877167,396.24 18.400249,-33.878311,426.72 18.394028,-33.880005,457.2 18.387852,-33.882069,487.68 18.38209,-33.884674,548.64 18.376652,-33.887787,579.12 18.371552,-33.891312,579.12 18.367081,-33.895012,579.12 18.362389,-33.899666,579.12 18.358669,-33.904366,609.6 18.355408,-33.909485,609.6 18.352325,-33.915115,640.08 18.349634,-33.920151,640.08 18.340834,-33.937088,701.04 18.335173,-33.948532,731.52 18.33338,-33.953888,731.52 18.324299,-33.960068,762 18.336014,-33.963364,701.04 18.345318,-33.953659,640.08 18.349857,-33.946964,640.08 18.353165,-33.940979,640.08 18.356266,-33.934628,609.6 18.360729,-33.925457,579.12 18.365553,-33.91745,579.12 18.369427,-33.912003,548.64 18.373232,-33.907288,548.64 18.377781,-33.902225,548.64 18.3822,-33.897766,548.64 18.38665,-33.893566,518.16 18.392178,-33.889481,548.64 18.397728,-33.886642,518.16 18.404343,-33.884079,518.16 18.410788,-33.882477,457.2 18.417345,-33.881424,396.24 18.422985,-33.882347,304.8 18.426762,-33.885513,243.84 18.429062,-33.888748,182.88 18.430653,-33.892403,91.44 18.42951,-33.896164,60.96 18.427435,-33.899368,0 18.427048,-33.900921,0 18.430595,-33.901852,60.96 18.4338,-33.902225,121.92 18.437977,-33.901386,182.88 18.441896,-33.898865,243.84 18.444307,-33.894287,274.32 18.443871,-33.888493,304.8 18.440271,-33.883484,335.28 18.434887,-33.879368,396.24 18.429165,-33.876949,426.72 18.423008,-33.875519,426.72 18.416674,-33.874786,487.68 18.410969,-33.87476,487.68 18.404217,-33.875412,518.16 18.397896,-33.876434,518.16 18.3918,-33.877972,548.64 18.385735,-33.880161,548.64 18.380352,-33.882889,579.12 18.375149,-33.886257,579.12 18.369942,-33.890076,609.6 18.365891,-33.893738,609.6 18.361965,-33.897949,640.08 18.357983,-33.902317,640.08 18.350082,-33.911865,701.04 18.346046,-33.917542,762 18.341562,-33.924637,792.48 18.3395,-33.928669,822.96 18.337807,-33.932968,853.44 18.336126,-33.938232,883.92 18.334694,-33.943565,914.4 18.331089,-33.956039,975.36 18.326626,-33.96833,1066.8 18.322964,-33.976383,1066.8 18.320375,-33.981171,1066.8 18.314438,-33.993004,1066.8 18.311518,-34.000534,1066.8 18.307285,-34.00869,1036.32 18.304512,-34.01326,1036.32 18.300934,-34.017258,1005.84 18.2971,-34.024052,975.36 18.295498,-34.029034,1005.84 18.295263,-34.033997,1005.84 18.297955,-34.038483,975.36 18.299692,-34.04306,975.36 18.301878,-34.048737,975.36 18.305111,-34.055244,975.36 18.307539,-34.05954,975.36 18.313866,-34.072002,944.88 18.317404,-34.077621,914.4 18.320675,-34.08094,883.92 18.325195,-34.083359,853.44 18.330128,-34.084488,822.96 18.335609,-34.083176,822.96 18.338928,-34.07917,822.96 18.339882,-34.074783,853.44 18.33807,-34.070885,822.96 18.333883,-34.070114,822.96 18.331203,-34.072792,792.48 18.329544,-34.076519,762 18.328951,-34.080505,762 18.328558,-34.084351,792.48 18.32839,-34.088379,792.48 18.328571,-34.092766,822.96 18.328056,-34.099979,792.48 18.32634,-34.104916,822.96 18.324074,-34.109299,792.48 18.321327,-34.113693,792.48 18.317642,-34.11832,792.48 18.313694,-34.122417,762 18.309109,-34.126831,762 18.304081,-34.135174,762 18.303394,-34.139923,762 18.304081,-34.144764,762 18.306585,-34.149628,731.52 18.309288,-34.154121,731.52 18.313293,-34.161335,731.52 18.318693,-34.16922,762 18.322334,-34.173347,762 18.327026,-34.178791,762 18.33807,-34.191593,792.48 18.342361,-34.197506,792.48 18.344994,-34.202164,762 18.347336,-34.207123,731.52 18.349743,-34.212448,701.04 18.356609,-34.228092,670.56 18.363876,-34.244991,609.6 18.365421,-34.249924,609.6 18.366562,-34.254913,640.08 18.367081,-34.259979,640.08 18.367424,-34.26524,609.6 18.369421,-34.273315,609.6 18.371607,-34.278625,609.6 18.37429,-34.283348,609.6 18.376923,-34.287678,609.6 18.385227,-34.299408,579.12 18.392796,-34.309891,579.12 18.400269,-34.317703,609.6 18.404274,-34.320915,609.6 18.421898,-34.335861,640.08 18.429173,-34.337952,640.08 18.43523,-34.339443,640.08 18.439064,-34.343216,640.08 18.441673,-34.348206,670.56 18.444157,-34.352432,701.04 18.448334,-34.358952,701.04 18.451706,-34.363449,731.52 18.455544,-34.367329,731.52 18.460003,-34.370544,731.52 18.464935,-34.373291,762 18.471107,-34.37571,762 18.477098,-34.377182,731.52 18.483124,-34.377804,701.04 18.489037,-34.377869,701.04 18.49411,-34.377525,670.56 18.499203,-34.376827,609.6 18.503555,-34.375717,609.6 18.506985,-34.373707,609.6 18.50853,-34.370819,640.08 18.507198,-34.367523,640.08 18.503275,-34.366837,640.08 18.499126,-34.366882,609.6 18.494396,-34.366817,609.6 18.487188,-34.367249,609.6 18.481525,-34.367889,579.12 18.477715,-34.369766,579.12 18.481464,-34.373753,518.16 18.486235,-34.373154,457.2 18.491306,-34.371704,426.72 18.496157,-34.369537,426.72 18.501148,-34.366306,426.72 18.504639,-34.361835,426.72 18.505686,-34.356537,396.24 18.503838,-34.351456,396.24 18.499889,-34.346752,365.76 18.495596,-34.341522,365.76 18.48999,-34.334152,396.24 18.487579,-34.328842,426.72 18.486122,-34.322891,426.72 18.485641,-34.316959,457.2 18.485281,-34.310989,457.2 18.485241,-34.303272,457.2 18.485731,-34.296432,457.2 18.486347,-34.290024,457.2 18.488028,-34.274368,487.68 18.489246,-34.256443,396.24 18.488846,-34.250252,365.76 18.487988,-34.243874,335.28 18.488503,-34.235912,304.8 18.488216,-34.228512,304.8 18.485731,-34.224197,304.8 18.48175,-34.223621,274.32 18.479284,-34.225662,182.88 18.478556,-34.228271,152.4 18.477688,-34.230606,91.44 18.476593,-34.232895,30.48 18.475584,-34.234543,0 18.47665,-34.236237,30.48 18.481583,-34.238525,182.88 18.48587,-34.23745,243.84 18.487225,-34.233299,335.28 18.487383,-34.227535,396.24 18.485458,-34.222202,426.72 18.483522,-34.216465,487.68 18.481827,-34.209969,487.68 18.475897,-34.197605,548.64 18.474752,-34.191109,548.64 18.473705,-34.184692,579.12 18.47324,-34.177372,579.12 18.472832,-34.170788,579.12 18.472528,-34.164196,579.12 18.47294,-34.151772,548.64 18.473652,-34.144913,548.64 18.474977,-34.137867,548.64 18.476419,-34.131401,548.64 18.481001,-34.108746,548.64 18.482325,-34.099007,548.64 18.482727,-34.091766,548.64 18.481409,-34.082733,518.16 18.48222,-34.058109,518.16 18.482996,-34.0341,548.64 18.483725,-34.018856,518.16 18.483915,-34.00346,426.72 18.485331,-33.987572,365.76 18.486214,-33.963257,304.8 18.485756,-33.956505,304.8 18.484554,-33.949848,335.28 18.482927,-33.943588,335.28 18.480778,-33.936954,304.8 18.477345,-33.930389,274.32 18.47267,-33.92514,243.84 18.467289,-33.920059,243.84 18.461628,-33.915024,243.84 18.451145,-33.904587,243.84 18.446999,-33.899139,243.84 18.441467,-33.892681,182.88 18.435284,-33.891037,152.4 18.43008,-33.892357,91.44 18.42762,-33.895569,60.96 18.427267,-33.898132,30.48 18.427334,-33.89962,0 18.427792,-33.900784,0 18.432648,-33.902115,121.92 18.436123,-33.902252,182.88 18.439865,-33.900597,213.36 18.442612,-33.897339,274.32 18.443699,-33.892635,304.8 18.442122,-33.88765,365.76 18.438034,-33.883091,426.72 18.432827,-33.880299,487.68 18.426987,-33.878311,518.16 18.421438,-33.876709,548.64 18.415329,-33.875336,548.64 18.408852,-33.874481,548.64 18.402773,-33.874283,579.12 18.39632,-33.874992,609.6 18.389168,-33.876667,640.08 18.38349,-33.878769,640.08 18.377605,-33.881744,640.08 18.372112,-33.885223,670.56 18.366955,-33.889114,701.04 18.361874,-33.893242,701.04 18.357582,-33.897106,731.52 18.353725,-33.901382,731.52 18.350588,-33.905411,731.52 18.347504,-33.909622,762 18.344936,-33.913723,762 18.342909,-33.917862,792.48 18.341002,-33.922394,792.48 18.339386,-33.926899,822.96 18.337955,-33.931461,853.44 18.335678,-33.940109,883.92 18.335508,-33.944092,914.4 18.336697,-33.947708,975.36 18.339321,-33.950592,1036.32 18.343412,-33.952148,1066.8 18.348625,-33.951691,1097.28 18.35339,-33.948807,1127.76 18.355911,-33.943771,1127.76 18.355236,-33.938023,1158.24 18.351002,-33.933929,1188.72 18.344702,-33.935257,1158.24 18.341114,-33.939697,1127.76 18.338425,-33.944412,1127.76 18.336182,-33.949059,1127.76 18.330015,-33.961075,1097.28 18.321104,-33.977966,1005.84 18.311687,-33.995956,944.88 18.306923,-34.003784,944.88 18.303738,-34.008553,914.4 18.295767,-34.02095,853.44 18.293861,-34.025986,853.44 18.293095,-34.031269,822.96 18.293266,-34.036388,822.96 18.294411,-34.041603,792.48 18.296299,-34.046631,792.48 18.298702,-34.051517,792.48 18.301563,-34.055893,792.48 18.30471,-34.060177,792.48 18.30838,-34.064713,792.48 18.311855,-34.068604,792.48 18.315666,-34.072403,792.48 18.319815,-34.077072,792.48 18.325024,-34.081963,822.96 18.33024,-34.083069,822.96 18.33601,-34.081264,822.96 18.339558,-34.076611,822.96 18.339386,-34.071117,853.44 18.336294,-34.066864,853.44 18.330454,-34.064335,883.92 18.325367,-34.067997,853.44 18.324186,-34.072769,853.44 18.323307,-34.078007,853.44 18.322735,-34.082893,853.44 18.322449,-34.088104,822.96 18.322001,-34.098679,792.48 18.320766,-34.108658,822.96 18.318443,-34.113945,792.48 18.315722,-34.118912,792.48 18.312263,-34.124279,762 18.307228,-34.133778,701.04 18.306026,-34.139595,670.56 18.30574,-34.145088,670.56 18.306541,-34.150349,640.08 18.30843,-34.155472,640.08 18.311005,-34.16003,670.56 18.313929,-34.164505,670.56 18.317348,-34.169037,670.56 18.320879,-34.173294,640.08 18.324915,-34.17746,640.08 18.328972,-34.181305,640.08 18.333323,-34.184875,640.08 18.341675,-34.192852,609.6 18.345566,-34.197414,609.6 18.348598,-34.202301,609.6 18.351091,-34.207123,609.6 18.35339,-34.212296,609.6 18.355808,-34.218174,609.6 18.360846,-34.232986,579.12 18.361797,-34.238525,579.12 18.362413,-34.243378,579.12 18.364563,-34.257278,609.6 18.367235,-34.269379,579.12 18.369534,-34.274734,579.12 18.372448,-34.279404,579.12 18.375778,-34.283909,579.12 18.393745,-34.311234,579.12 18.399353,-34.318314,579.12 18.410969,-34.330086,609.6 18.41692,-34.334743,609.6 18.428053,-34.343582,670.56 18.443523,-34.356262,762 18.458265,-34.369125,792.48 18.466335,-34.374435,792.48 18.472595,-34.376778,792.48 18.479397,-34.378235,792.48 18.486443,-34.378502,762 18.493023,-34.378036,731.52 18.498566,-34.377228,731.52 18.503948,-34.376083,701.04 18.509045,-34.374081,701.04 18.512356,-34.370819,701.04 18.511963,-34.367516,701.04 18.510281,-34.363907,701.04 18.506414,-34.363632,670.56 18.500805,-34.364769,609.6 18.495258,-34.365829,579.12 18.487244,-34.366817,548.64 18.481806,-34.370956,548.64 18.487129,-34.372124,487.68 18.493309,-34.370216,487.68 18.499632,-34.367569,487.68 18.504957,-34.363632,487.68 18.50687,-34.358112,487.68 18.504524,-34.351456,487.68 18.500862,-34.345402,457.2 18.497221,-34.339417,457.2 18.492289,-34.329987,518.16 18.490158,-34.324173,548.64 18.488846,-34.318218,579.12 18.488646,-34.312042,609.6 18.488789,-34.305786,579.12 18.489094,-34.298676,579.12 18.489647,-34.275482,579.12 18.489094,-34.250153,548.64 18.488216,-34.243546,548.64 18.486729,-34.236656,518.16 18.484726,-34.229813,518.16 18.482494,-34.223202,518.16 18.479229,-34.214401,518.16 18.472939,-34.199974,518.16 18.468246,-34.188477,518.16 18.466816,-34.181587,487.68 18.46653,-34.174976,518.16 18.46653,-34.16827,518.16 18.467121,-34.161072,518.16 18.468933,-34.154491,518.16 18.47105,-34.147835,518.16 18.473568,-34.139038,518.16 18.478432,-34.125027,487.68 18.481525,-34.119186,518.16 18.483467,-34.110592,518.16 18.482723,-34.104168,518.16 18.482311,-34.097763,518.16 18.48238,-34.085594,518.16 18.482552,-34.069489,518.16 18.48332,-34.06311,548.64 18.484442,-34.04718,518.16 18.48444,-34.035225,518.16 18.484945,-34.010925,518.16 18.485113,-33.986618,396.24 18.486067,-33.962402,274.32 18.485527,-33.948639,274.32 18.484211,-33.94175,274.32 18.482094,-33.935139,274.32 18.479347,-33.928993,243.84 18.47414,-33.923267,243.84 18.468691,-33.918915,274.32 18.46241,-33.914562,274.32 18.454901,-33.9077,304.8 18.450623,-33.902225,304.8 18.446846,-33.896732,304.8 18.441296,-33.890682,274.32 18.435802,-33.889423,213.36 18.430367,-33.891472,152.4 18.426933,-33.89473,60.96 18.426594,-33.897125,30.48 18.427105,-33.898968,30.48 18.427448,-33.900505,0 18.433376,-33.902206,121.92 18.436796,-33.902069,182.88 18.440552,-33.900455,243.84 18.443579,-33.896942,304.8 18.444307,-33.892181,335.28 18.442326,-33.887421,396.24 18.437805,-33.883575,396.24 18.432592,-33.880646,457.2 18.426426,-33.878311,487.68 18.420092,-33.876709,518.16 18.413982,-33.87561,518.16 18.407421,-33.874851,548.64 18.401146,-33.874603,579.12 18.394756,-33.875061,609.6 18.388767,-33.876297,609.6 18.382759,-33.878391,609.6 18.376707,-33.881195,609.6 18.371384,-33.884125,640.08 18.366169,-33.887512,640.08 18.361759,-33.891052,640.08 18.357874,-33.894882,670.56 18.354679,-33.898682,701.04 18.351574,-33.902786,701.04 18.34868,-33.907104,731.52 18.346424,-33.911304,731.52 18.344196,-33.915756,762 18.341904,-33.921032,762 18.335173,-33.938782,822.96 18.33046,-33.951942,944.88 18.327438,-33.958694,1036.32 18.324738,-33.966656,1097.28 18.323906,-33.971191,1097.28 18.322001,-33.977463,1097.28 18.318558,-33.981598,1097.28 18.31358,-33.98439,1097.28 18.308659,-33.986019,1097.28 18.309052,-33.989685,1097.28 18.313705,-33.990967,1066.8 18.319416,-33.99049,1066.8 18.325081,-33.988396,1036.32 18.330688,-33.984192,1005.84 18.335228,-33.97879,975.36 18.338928,-33.972565,914.4 18.342934,-33.965771,853.44 18.347912,-33.955994,822.96 18.353748,-33.943565,731.52 18.364882,-33.922394,609.6 18.369026,-33.916519,579.12 18.373375,-33.911072,548.64 18.377953,-33.90609,518.16 18.382648,-33.901291,518.16 18.38768,-33.897106,518.16 18.392738,-33.893326,518.16 18.398209,-33.890076,487.68 18.404343,-33.887741,457.2 18.410732,-33.886414,457.2 18.417206,-33.885326,396.24 18.423214,-33.884537,335.28 18.42865,-33.884441,335.28 18.430824,-33.886353,304.8 18.431078,-33.888931,243.84 18.430967,-33.891541,182.88 18.430309,-33.894077,121.92 18.428724,-33.896576,60.96 18.42762,-33.898548,30.48 18.427448,-33.900177,0 18.42923,-33.901199,0 18.432873,-33.901566,60.96 18.436571,-33.901245,152.4 18.439823,-33.899094,213.36 18.440832,-33.894928,274.32 18.439808,-33.890121,304.8 18.43786,-33.885132,335.28 18.434217,-33.880692,396.24 18.428837,-33.878082,457.2 18.423176,-33.877533,518.16 18.420597,-33.880692,609.6 18.42247,-33.884071,670.56 18.425446,-33.887096,701.04 18.42738,-33.889572,731.52 18.424816,-33.891518,670.56 18.417458,-33.890167,640.08 18.410912,-33.888447,670.56 18.402615,-33.88747,670.56 18.395176,-33.888771,670.56 18.388996,-33.891472,670.56 18.383675,-33.894497,670.56 18.378181,-33.898224,670.56 18.372728,-33.902527,670.56 18.368111,-33.906464,670.56 18.363876,-33.910557,701.04 18.359779,-33.914932,731.52 18.356667,-33.918846,762 18.354006,-33.923126,762 18.351688,-33.927689,762 18.349241,-33.932968,792.48 18.346552,-33.940292,853.44 18.347729,-33.94281,975.36 18.350716,-33.941982,1066.8 18.353222,-33.939148,1127.76 18.35552,-33.935989,1188.72 18.358669,-33.934208,1249.68 18.362526,-33.935944,1219.2 18.363535,-33.94075,1188.72 18.362413,-33.946106,1188.72 18.360844,-33.951992,1158.24 18.358938,-33.957779,1158.24 18.35701,-33.962978,1127.76 18.353109,-33.971466,1097.28 18.349457,-33.98262,1036.32 18.350544,-33.987881,1005.84 18.351803,-33.993423,975.36 18.352213,-34.001358,914.4 18.351574,-34.007015,914.4 18.351259,-34.012482,883.92 18.351173,-34.021538,853.44 18.351517,-34.027405,853.44 18.352203,-34.033176,853.44 18.353004,-34.038437,822.96 18.356438,-34.05566,822.96 18.359051,-34.064621,792.48 18.362103,-34.069347,792.48 18.365665,-34.074005,762 18.369312,-34.078659,762 18.376091,-34.088654,731.52 18.382425,-34.096527,731.52 18.386364,-34.100819,731.52 18.390942,-34.105427,701.04 18.397055,-34.110672,670.56 18.402996,-34.114334,640.08 18.40933,-34.117676,640.08 18.416061,-34.120789,609.6 18.422813,-34.123489,579.12 18.42968,-34.125908,579.12 18.438086,-34.128616,579.12 18.450794,-34.131821,548.64 18.457947,-34.129261,548.64 18.462469,-34.123718,518.16 18.465719,-34.117401,518.16 18.468018,-34.11134,548.64 18.469791,-34.105381,548.64 18.470936,-34.09877,579.12 18.470484,-34.092361,579.12 18.469105,-34.08569,579.12 18.467331,-34.079681,579.12 18.465158,-34.073364,579.12 18.462692,-34.067047,579.12 18.459549,-34.061016,579.12 18.455854,-34.055466,548.64 18.452379,-34.050018,548.64 18.450108,-34.042442,548.64 18.449968,-34.035599,548.64 18.450026,-34.029556,548.64 18.450394,-34.023167,548.64 18.451258,-34.016922,548.64 18.452053,-34.010693,579.12 18.454628,-33.997101,579.12 18.457928,-33.98378,548.64 18.460407,-33.976337,518.16 18.463783,-33.970005,487.68 18.469448,-33.965488,457.2 18.475809,-33.960892,457.2 18.481464,-33.954502,426.72 18.482323,-33.947567,335.28 18.481121,-33.940121,304.8 18.479677,-33.932739,304.8 18.476715,-33.926292,274.32 18.471325,-33.920883,274.32 18.465157,-33.915958,243.84 18.458601,-33.911041,243.84 18.444843,-33.899292,243.84 18.439465,-33.893845,213.36 18.436604,-33.888214,243.84 18.430182,-33.883392,243.84 18.427996,-33.887054,213.36 18.430252,-33.891148,182.88 18.432425,-33.894333,182.88 18.432369,-33.896919,152.4 18.427677,-33.898224,30.48 18.426991,-33.900364,0 18.429117,-33.900696,0 18.431078,-33.901199,30.48 18.433769,-33.901886,91.44 18.43786,-33.900009,182.88 18.439207,-33.895523,243.84 18.438549,-33.890633,274.32 18.437004,-33.8857,335.28 18.433857,-33.880859,396.24 18.42802,-33.878902,457.2 18.422928,-33.880253,518.16 18.422167,-33.884537,579.12 18.424969,-33.887238,670.56 18.426764,-33.889343,731.52 18.425674,-33.891518,762 18.420485,-33.889755,731.52 18.414688,-33.887283,701.04 18.407257,-33.885406,670.56 18.399857,-33.885406,640.08 18.393345,-33.887142,640.08 18.388424,-33.890961,640.08 18.384075,-33.895847,640.08 18.378502,-33.900284,640.08 18.373604,-33.903809,670.56 18.368076,-33.909119,670.56 18.36404,-33.913284,670.56 18.360271,-33.91745,670.56 18.357201,-33.922073,670.56 18.354231,-33.926559,670.56 18.348793,-33.934525,701.04 18.34837,-33.939468,792.48 18.352547,-33.939747,914.4 18.356024,-33.936813,975.36 18.358326,-33.933697,1066.8 18.360844,-33.932064,1158.24 18.363928,-33.932693,1188.72 18.367235,-33.935669,1158.24 18.367882,-33.940445,1158.24 18.366909,-33.945614,1158.24 18.365273,-33.95105,1127.76 18.363132,-33.956551,1127.76 18.358379,-33.968948,1066.8 18.353291,-33.980804,975.36 18.351917,-33.986393,944.88 18.351091,-33.992615,883.92 18.350945,-33.997936,853.44 18.351091,-34.00296,853.44 18.34997,-34.010788,822.96 18.350029,-34.021122,792.48 18.350924,-34.026398,792.48 18.351877,-34.032074,762 18.353405,-34.041836,762 18.353462,-34.048401,731.52 18.353348,-34.053707,731.52 18.351765,-34.06398,731.52 18.347111,-34.067764,701.04 18.34734,-34.072655,731.52 18.353334,-34.074417,731.52 18.359444,-34.075836,731.52 18.365936,-34.07917,731.52 18.370094,-34.082886,762 18.373569,-34.087051,762 18.378725,-34.090118,792.48 18.381958,-34.095978,762 18.383209,-34.10202,701.04 18.38871,-34.108078,670.56 18.394756,-34.111496,640.08 18.401426,-34.114746,609.6 18.407986,-34.11763,579.12 18.414936,-34.120468,579.12 18.421551,-34.122757,579.12 18.428135,-34.124977,579.12 18.446661,-34.131592,579.12 18.4548,-34.131355,548.64 18.461895,-34.128239,548.64 18.468018,-34.123947,548.64 18.471107,-34.117809,548.64 18.471661,-34.111176,548.64 18.471998,-34.104309,548.64 18.471828,-34.097717,548.64 18.470478,-34.0909,548.64 18.469048,-34.084385,548.64 18.466167,-34.071762,518.16 18.462637,-34.061508,518.16 18.458769,-34.056198,548.64 18.454399,-34.051102,548.64 18.450222,-34.046211,548.64 18.443413,-34.036297,579.12 18.442154,-34.02964,579.12 18.442726,-34.022984,579.12 18.443813,-34.016418,579.12 18.445072,-34.009575,548.64 18.447279,-34.001999,579.12 18.44799,-33.992863,579.12 18.445932,-33.986938,609.6 18.449072,-33.979752,579.12 18.455854,-33.976318,548.64 18.462299,-33.971558,487.68 18.468634,-33.966797,487.68 18.472652,-33.96088,487.68 18.477434,-33.954849,457.2 18.486179,-33.94487,396.24 18.486347,-33.937775,365.76 18.482704,-33.931366,365.76 18.478088,-33.925873,335.28 18.472595,-33.921032,304.8 18.465719,-33.916809,274.32 18.457031,-33.910324,243.84 18.452339,-33.904785,213.36 18.444923,-33.897995,213.36 18.439178,-33.891659,213.36 18.435732,-33.886276,213.36 18.42923,-33.887375,182.88 18.429222,-33.891846,152.4 18.430653,-33.895336,121.92 18.429508,-33.89785,30.48 18.427155,-33.900009,0 18.427849,-33.900829,0 18.435507,-33.902252,121.92 18.439823,-33.901474,152.4 18.443859,-33.899048,213.36 18.445988,-33.895012,274.32 18.445204,-33.890396,304.8 18.442211,-33.886074,335.28 18.437634,-33.882767,365.76 18.432144,-33.880234,396.24 18.426247,-33.878391,457.2 18.420485,-33.877213,487.68 18.414431,-33.876526,518.16 18.408337,-33.876343,548.64 18.401871,-33.876667,548.64 18.395233,-33.877552,579.12 18.389376,-33.879227,609.6 18.384108,-33.881516,640.08 18.379269,-33.884396,640.08 18.374353,-33.887695,640.08 18.368973,-33.891724,640.08 18.364824,-33.895523,640.08 18.36113,-33.899387,670.56 18.357819,-33.903168,701.04 18.354893,-33.907394,701.04 18.352375,-33.911629,701.04 18.350029,-33.916191,701.04 18.347729,-33.921158,701.04 18.343805,-33.930084,701.04 18.335733,-33.951508,853.44 18.329679,-33.969772,914.4 18.326054,-33.977688,1005.84 18.323994,-33.983601,1066.8 18.320274,-33.991978,1066.8 18.317684,-33.996597,1036.32 18.313808,-34.003429,1036.32 18.308029,-34.012463,1036.32 18.303726,-34.016327,1036.32 18.299074,-34.019897,1036.32 18.294535,-34.023331,1036.32 18.288803,-34.024982,1066.8 18.286743,-34.027588,1097.28 18.288517,-34.030476,1097.28 18.292923,-34.031826,1066.8 18.298645,-34.031315,1066.8 18.30468,-34.029282,1066.8 18.310547,-34.0261,1036.32 18.315926,-34.021214,944.88 18.319983,-34.015411,883.92 18.323906,-34.008499,822.96 18.327606,-34.001633,792.48 18.338984,-33.980438,731.52 18.353405,-33.951153,670.56 18.356781,-33.941841,640.08 18.363144,-33.926697,640.08 18.367195,-33.920242,640.08 18.371716,-33.914005,609.6 18.376122,-33.908371,609.6 18.381248,-33.902481,579.12 18.386797,-33.896896,548.64 18.392658,-33.891846,548.64 18.399073,-33.887512,518.16 18.405476,-33.883976,518.16 18.41217,-33.881603,518.16 18.418579,-33.880417,487.68 18.424187,-33.880718,457.2 18.428307,-33.882858,396.24 18.431969,-33.8857,304.8 18.43483,-33.888771,243.84 18.43646,-33.892181,152.4 18.433685,-33.89394,91.44 18.429794,-33.895382,60.96 18.427677,-33.898407,30.48 18.427492,-33.900238,0 18.434258,-33.901527,91.44 18.434944,-33.901482,121.92 18.438549,-33.900318,152.4 18.439318,-33.899872,152.4 18.442457,-33.897629,182.88 18.44313,-33.897034,213.36 18.445372,-33.894012,243.84 18.445873,-33.892822,243.84 18.446325,-33.888336,274.32 18.4461,-33.887054,304.8 18.444195,-33.882935,304.8 18.443186,-33.881836,335.28 18.438982,-33.879181,335.28 18.437469,-33.878586,335.28 18.432083,-33.877228,365.76 18.430519,-33.876984,365.76 18.425417,-33.876434,365.76 18.423958,-33.876297,396.24 18.418411,-33.87616,365.76 18.417122,-33.876205,396.24 18.41118,-33.876617,396.24 18.409498,-33.876801,396.24 18.404343,-33.877579,426.72 18.402843,-33.877785,426.72 18.397783,-33.878952,426.72 18.396549,-33.879276,457.2 18.391449,-33.880783,457.2 18.390312,-33.881184,457.2 18.385452,-33.883072,518.16 18.384247,-33.883606,518.16 18.379955,-33.885792,548.64 18.37867,-33.886551,548.64 18.374969,-33.888885,579.12 18.373737,-33.889709,579.12 18.369814,-33.892685,579.12 18.368748,-33.893555,579.12 18.365385,-33.896576,579.12 18.364208,-33.89772,579.12 18.361073,-33.901203,579.12 18.36006,-33.902481,609.6 18.357239,-33.906464,609.6 18.356642,-33.907425,609.6 18.354006,-33.912003,609.6 18.353462,-33.913025,640.08 18.351259,-33.917175,640.08 18.350756,-33.918045,640.08 18.346272,-33.926239,670.56 18.344366,-33.930084,670.56 18.337416,-33.942947,701.04 18.335667,-33.946545,701.04 18.335005,-33.950272,731.52 18.334808,-33.95134,731.52 18.331923,-33.955261,762 18.330917,-33.956039,762 18.323458,-33.96611,792.48 18.329086,-33.966606,731.52 18.341446,-33.958183,670.56 18.342876,-33.956646,670.56 18.347223,-33.95105,640.08 18.348177,-33.949631,640.08 18.351173,-33.944683,640.08 18.352045,-33.943176,640.08 18.354624,-33.938187,609.6 18.355127,-33.937134,609.6 18.357594,-33.931778,579.12 18.358154,-33.930576,609.6 18.363476,-33.920662,579.12 18.364162,-33.919544,579.12 18.367081,-33.915169,579.12 18.367907,-33.914062,579.12 18.370914,-33.910141,548.64 18.371658,-33.909161,548.64 18.374969,-33.905273,548.64 18.376036,-33.904083,548.64 18.379398,-33.900604,548.64 18.380239,-33.899734,548.64 18.383961,-33.89608,548.64 18.384892,-33.895157,518.16 18.388815,-33.891769,518.16 18.389769,-33.891037,518.16 18.39426,-33.888351,548.64 18.395576,-33.887703,518.16 18.400362,-33.885498,518.16 18.401871,-33.884907,518.16 18.407021,-33.883327,487.68 18.408279,-33.883045,487.68 18.413647,-33.881927,426.72 18.414656,-33.88179,426.72 18.419588,-33.881332,365.76 18.420811,-33.881512,335.28 18.424644,-33.883419,274.32 18.425362,-33.883987,274.32 18.427883,-33.886963,213.36 18.428364,-33.887653,182.88 18.429958,-33.890305,152.4 18.430239,-33.8909,121.92 18.430574,-33.893784,91.44 18.430481,-33.894314,60.96 18.428444,-33.89772,30.48 18.427906,-33.898548,30.48 18.427155,-33.900055,0 18.427048,-33.900364,0 18.427492,-33.901199,0 18.428421,-33.901436,30.48 18.431625,-33.902039,91.44 18.432598,-33.90218,91.44 18.435516,-33.902039,152.4 18.436203,-33.901901,152.4 18.439543,-33.900696,213.36 18.440439,-33.900146,213.36 18.44313,-33.897125,243.84 18.443579,-33.896347,243.84 18.444614,-33.892078,274.32 18.444557,-33.891098,274.32 18.442783,-33.88649,335.28 18.441925,-33.885281,335.28 18.438148,-33.881512,365.76 18.437176,-33.880814,365.76 18.432655,-33.8783,396.24 18.431511,-33.877785,396.24 18.426764,-33.876251,426.72 18.425388,-33.875923,426.72 18.420429,-33.875153,457.2 18.41938,-33.875038,457.2 18.414598,-33.874695,487.68 18.413143,-33.874668,487.68 18.408108,-33.874947,487.68 18.406752,-33.875107,487.68 18.401585,-33.875786,518.16 18.400362,-33.875977,518.16 18.39543,-33.877029,518.16 18.394032,-33.877365,518.16 18.389397,-33.878765,548.64 18.387966,-33.87923,548.64 18.383503,-33.881184,579.12 18.38237,-33.88179,579.12 18.378222,-33.884216,579.12 18.377094,-33.884907,579.12 18.373177,-33.887604,609.6 18.371775,-33.888611,609.6 18.368225,-33.891567,609.6 18.367348,-33.892319,609.6 18.364208,-33.895432,640.08 18.363476,-33.896221,640.08 18.360453,-33.899597,640.08 18.35947,-33.900688,640.08 18.356667,-33.903809,640.08 18.354492,-33.906322,670.56 18.347672,-33.915161,731.52 18.347168,-33.915848,762 18.344925,-33.919235,762 18.343468,-33.921524,792.48 18.340611,-33.926285,822.96 18.340162,-33.9272,822.96 18.338814,-33.930298,822.96 18.338413,-33.931416,822.96 18.337212,-33.934628,853.44 18.336742,-33.936172,883.92 18.335724,-33.939838,914.4 18.335381,-33.941051,914.4 18.333715,-33.947113,944.88 18.332987,-33.949631,975.36 18.329399,-33.960663,1005.84 18.328457,-33.963211,1036.32 18.32428,-33.973869,1066.8 18.323851,-33.974716,1066.8 18.321945,-33.978333,1066.8 18.321495,-33.979202,1066.8 18.318214,-33.985321,1066.8 18.316675,-33.988358,1066.8 18.313694,-33.99482,1066.8 18.313408,-33.995655,1066.8 18.308716,-34.00613,1036.32 18.308268,-34.006943,1036.32 18.306198,-34.010601,1036.32 18.305569,-34.011715,1036.32 18.303108,-34.014881,1036.32 18.302307,-34.015766,1036.32 18.299503,-34.019073,1005.84 18.297897,-34.021957,975.36 18.296413,-34.026054,975.36 18.29607,-34.026985,975.36 18.295038,-34.031021,1005.84 18.294926,-34.031967,1005.84 18.296328,-34.035736,975.36 18.297001,-34.036743,975.36 18.298645,-34.040161,975.36 18.299019,-34.041092,975.36 18.300308,-34.0448,975.36 18.301105,-34.046909,975.36 18.303671,-34.052536,975.36 18.304119,-34.053406,975.36 18.306084,-34.057011,975.36 18.306541,-34.057804,975.36 18.309444,-34.06311,975.36 18.311062,-34.066696,975.36 18.315834,-34.075424,914.4 18.316395,-34.076248,914.4 18.318558,-34.079033,883.92 18.319302,-34.079731,883.92 18.322334,-34.082012,853.44 18.323307,-34.082523,853.44 18.326988,-34.083939,853.44 18.328114,-34.084198,822.96 18.332577,-34.084385,822.96 18.33366,-34.084076,822.96 18.337269,-34.081779,822.96 18.337975,-34.080917,822.96 18.339489,-34.077438,822.96 18.339729,-34.076611,822.96 18.339615,-34.07312,822.96 18.339321,-34.072311,822.96 18.336407,-34.069977,822.96 18.335609,-34.069859,822.96 18.332634,-34.07093,792.48 18.332146,-34.071442,792.48 18.330296,-34.07428,762 18.330002,-34.074936,762 18.329258,-34.077961,762 18.329144,-34.078846,762 18.3288,-34.082195,762 18.328743,-34.082893,762 18.328445,-34.08609,792.48 18.32839,-34.086823,792.48 18.328503,-34.090164,792.48 18.328558,-34.091125,792.48 18.328571,-34.094395,822.96 18.328615,-34.095428,822.96 18.327494,-34.101929,792.48 18.327213,-34.102798,792.48 18.325424,-34.106731,792.48 18.325027,-34.107559,792.48 18.322906,-34.111244,792.48 18.322334,-34.112175,792.48 18.319927,-34.11557,792.48 18.319141,-34.116577,792.48 18.315947,-34.120193,792.48 18.315218,-34.120926,762 18.311749,-34.124233,762 18.310776,-34.125164,762 18.305744,-34.131317,762 18.304905,-34.132965,762 18.303616,-34.136902,762 18.303503,-34.137909,792.48 18.303509,-34.141644,762 18.303623,-34.142761,762 18.304939,-34.146763,762 18.305511,-34.147881,731.52 18.3078,-34.151608,731.52 18.308268,-34.15242,731.52 18.310398,-34.156219,731.52 18.310846,-34.156998,731.52 18.316727,-34.166691,762 18.317236,-34.167389,762 18.320045,-34.170784,762 18.320675,-34.171532,762 18.32365,-34.174881,762 18.324337,-34.175674,762 18.332033,-34.18428,792.48 18.334064,-34.186661,792.48 18.340588,-34.194855,792.48 18.341227,-34.19577,792.48 18.343449,-34.199368,762 18.343918,-34.200165,762 18.345909,-34.203976,762 18.346384,-34.205109,762 18.348255,-34.209236,731.52 18.34877,-34.210403,731.52 18.353462,-34.220455,670.56 18.35524,-34.224289,670.56 18.361126,-34.238159,640.08 18.361574,-34.239212,640.08 18.364544,-34.246902,609.6 18.364882,-34.247955,609.6 18.365891,-34.251755,609.6 18.366114,-34.252533,609.6 18.366787,-34.256836,640.08 18.366898,-34.257751,640.08 18.367178,-34.262146,609.6 18.367252,-34.263054,609.6 18.368467,-34.270111,609.6 18.368805,-34.271301,609.6 18.370205,-34.275513,609.6 18.370653,-34.276566,609.6 18.372574,-34.280369,609.6 18.373032,-34.281208,609.6 18.375206,-34.284885,609.6 18.375868,-34.28595,609.6 18.382874,-34.296387,579.12 18.383789,-34.297592,579.12 18.390026,-34.305832,579.12 18.390656,-34.306812,579.12 18.397465,-34.315144,579.12 18.398344,-34.316025,579.12 18.401756,-34.318867,609.6 18.402884,-34.319778,609.6 18.414173,-34.329853,640.08 18.417122,-34.332275,640.08 18.425388,-34.337303,640.08 18.426476,-34.337536,640.08 18.431797,-34.33828,640.08 18.43277,-34.338512,640.08 18.437302,-34.340973,640.08 18.437973,-34.341751,640.08 18.440266,-34.345356,670.56 18.440781,-34.346333,670.56 18.442625,-34.349854,701.04 18.443073,-34.350677,701.04 18.446331,-34.355972,701.04 18.446829,-34.356674,701.04 18.44952,-34.360657,701.04 18.450249,-34.361618,701.04 18.453197,-34.365093,731.52 18.453892,-34.365829,731.52 18.457144,-34.36853,731.52 18.458004,-34.36919,731.52 18.462009,-34.37175,762 18.463039,-34.372311,762 18.467503,-34.374405,762 18.468475,-34.374779,762 18.473396,-34.376362,731.52 18.47477,-34.376732,731.52 18.479519,-34.377525,701.04 18.480721,-34.377617,701.04 18.485527,-34.37785,701.04 18.486729,-34.37785,701.04 18.490963,-34.377804,670.56 18.491936,-34.377712,670.56 18.496284,-34.377293,640.08 18.497372,-34.377151,640.08 18.500977,-34.376453,609.6 18.501892,-34.376221,609.6 18.505013,-34.375076,609.6 18.505796,-34.374619,609.6 18.507843,-34.372684,609.6 18.508207,-34.372147,609.6 18.508375,-34.369446,640.08 18.508095,-34.368622,640.08 18.505629,-34.366928,640.08 18.504868,-34.366863,640.08 18.50172,-34.366863,640.08 18.500919,-34.366863,609.6 18.497257,-34.366863,609.6 18.496437,-34.366837,609.6 18.49205,-34.366909,609.6 18.491112,-34.366974,609.6 18.484955,-34.36747,609.6 18.483713,-34.367569,609.6 18.479733,-34.368439,579.12 18.478779,-34.368942,579.12 18.478775,-34.37352,548.64 18.479633,-34.373707,548.64 18.48341,-34.373615,487.68 18.484272,-34.37352,487.68 18.488197,-34.372696,457.2 18.489206,-34.372421,426.72 18.493252,-34.37096,426.72 18.494249,-34.370499,426.72 18.49823,-34.368393,426.72 18.499203,-34.367794,426.72 18.50275,-34.364677,426.72 18.503498,-34.363724,426.72 18.505325,-34.359974,396.24 18.505629,-34.358734,396.24 18.505268,-34.354435,396.24 18.504925,-34.35355,396.24 18.50235,-34.349499,365.76 18.501492,-34.348568,365.76 18.498343,-34.34491,365.76 18.497501,-34.343903,365.76 18.493801,-34.339325,365.76 18.493017,-34.338364,365.76 18.488846,-34.331951,396.24 18.48842,-34.330948,396.24 18.48674,-34.326508,426.72 18.486443,-34.325291,426.72 18.485899,-34.320602,426.72 18.485813,-34.319427,426.72 18.485506,-34.31488,457.2 18.485413,-34.31319,457.2 18.485184,-34.308067,457.2 18.48517,-34.306915,457.2 18.485394,-34.300552,426.72 18.485506,-34.299088,426.72 18.485985,-34.293869,457.2 18.486099,-34.292332,457.2 18.486683,-34.286041,457.2 18.487129,-34.282047,457.2 18.48896,-34.265659,457.2 18.489262,-34.260361,426.72 18.489132,-34.254066,396.24 18.489094,-34.252808,396.24 18.48856,-34.247784,365.76 18.488388,-34.24662,335.28 18.488102,-34.238983,304.8 18.488216,-34.238007,304.8 18.488617,-34.233631,304.8 18.488674,-34.2327,335.28 18.487524,-34.226578,304.8 18.487131,-34.225754,304.8 18.484272,-34.223602,304.8 18.483295,-34.223434,304.8 18.480349,-34.224289,243.84 18.479977,-34.224648,213.36 18.479004,-34.226669,182.88 18.478832,-34.227348,152.4 18.47826,-34.22916,121.92 18.478088,-34.229675,121.92 18.477345,-34.231441,60.96 18.476986,-34.232162,30.48 18.476257,-34.23349,0 18.476086,-34.233772,0 18.475285,-34.234982,0 18.475084,-34.235146,0 18.479519,-34.23782,121.92 18.480293,-34.238205,152.4 18.483524,-34.238472,213.36 18.484329,-34.238251,213.36 18.486343,-34.236748,274.32 18.48665,-34.236149,304.8 18.488705,-34.229923,365.76 18.488497,-34.228962,365.76 18.487196,-34.224869,396.24 18.486778,-34.223957,426.72 18.484661,-34.21994,457.2 18.484236,-34.2188,457.2 18.482555,-34.214085,487.68 18.482208,-34.212612,487.68 18.479082,-34.204414,518.16 18.477278,-34.201126,548.64 18.47554,-34.194973,548.64 18.475109,-34.193649,548.64 18.47444,-34.188339,579.12 18.474102,-34.187241,579.12 18.472654,-34.182362,579.12 18.472256,-34.180954,579.12 18.473013,-34.174873,579.12 18.472908,-34.173534,579.12 18.472647,-34.168068,579.12 18.472567,-34.166874,579.12 18.472673,-34.157318,548.64 18.472782,-34.154377,548.64 18.473154,-34.149143,548.64 18.473309,-34.147823,548.64 18.474146,-34.142162,548.64 18.474436,-34.140831,548.64 18.475565,-34.135357,548.64 18.475807,-34.134193,548.64 18.478102,-34.12328,548.64 18.479248,-34.118145,548.64 18.481714,-34.103107,548.64 18.481857,-34.101822,548.64 18.482681,-34.095921,548.64 18.48279,-34.094551,548.64 18.4823,-34.089268,548.64 18.481857,-34.088085,548.64 18.481562,-34.072102,548.64 18.48163,-34.068031,548.64 18.482464,-34.048122,518.16 18.482668,-34.043766,518.16 18.483055,-34.027424,518.16 18.4837,-34.021671,518.16 18.48402,-34.014606,487.68 18.484161,-34.013119,487.68 18.484489,-34.00045,426.72 18.484589,-33.99902,426.72 18.486164,-33.978992,335.28 18.485985,-33.971729,304.8 18.486067,-33.960892,304.8 18.48601,-33.95929,304.8 18.485451,-33.954071,304.8 18.485226,-33.952606,304.8 18.483925,-33.947243,335.28 18.483601,-33.945923,335.28 18.482094,-33.940865,304.8 18.48175,-33.939697,304.8 18.479576,-33.934208,304.8 18.478949,-33.933014,304.8 18.475697,-33.928391,274.32 18.474575,-33.927109,274.32 18.470879,-33.923359,243.84 18.469643,-33.922165,243.84 18.465046,-33.918045,243.84 18.463646,-33.916809,274.32 18.457199,-33.910858,243.84 18.453999,-33.907719,243.84 18.449306,-33.902271,243.84 18.448511,-33.901245,243.84 18.445484,-33.897034,243.84 18.444672,-33.895988,213.36 18.439095,-33.891495,182.88 18.43792,-33.891239,182.88 18.43276,-33.891403,121.92 18.431683,-33.891705,121.92 18.428307,-33.893845,91.44 18.427963,-33.894547,60.96 18.427391,-33.896732,30.48 18.427334,-33.897243,30.48 18.427267,-33.898773,30.48 18.427277,-33.899059,0 18.42738,-33.900192,0 18.427435,-33.900421,0 18.430126,-33.901611,60.96 18.431303,-33.901886,91.44 18.4338,-33.902317,152.4 18.434443,-33.90239,152.4 18.437525,-33.90184,182.88 18.438377,-33.901482,213.36 18.441225,-33.899368,243.84 18.441729,-33.898773,274.32 18.443354,-33.895569,304.8 18.443579,-33.894653,304.8 18.443298,-33.890488,335.28 18.443073,-33.889755,335.28 18.44072,-33.88559,396.24 18.439991,-33.884811,396.24 18.43626,-33.881927,457.2 18.435001,-33.881279,457.2 18.430462,-33.87941,487.68 18.429337,-33.879044,487.68 18.424873,-33.877693,518.16 18.423786,-33.877365,518.16 18.418747,-33.876068,548.64 18.417625,-33.875793,548.64 18.412861,-33.874924,548.64 18.411484,-33.87476,548.64 18.406506,-33.87434,579.12 18.405304,-33.874294,579.12 18.400194,-33.874466,609.6 18.398781,-33.874619,609.6 18.393402,-33.875599,609.6 18.391972,-33.875923,609.6 18.386822,-33.877415,640.08 18.385735,-33.877785,640.08 18.381081,-33.879868,640.08 18.380013,-33.88044,640.08 18.375587,-33.88298,670.56 18.374405,-33.883698,670.56 18.370094,-33.886734,670.56 18.368969,-33.887562,670.56 18.364992,-33.890671,701.04 18.363928,-33.891541,701.04 18.360157,-33.894779,731.52 18.35907,-33.89571,731.52 18.355694,-33.899059,731.52 18.355072,-33.899734,731.52 18.352375,-33.903065,731.52 18.351765,-33.903854,731.52 18.349342,-33.907021,731.52 18.348793,-33.907791,762 18.346481,-33.911118,762 18.345909,-33.912048,762 18.344086,-33.915298,762 18.343735,-33.91605,762 18.34201,-33.919739,792.48 18.34173,-33.920517,792.48 18.340385,-33.924271,792.48 18.340073,-33.925129,822.96 18.338814,-33.928715,822.96 18.338528,-33.9296,853.44 18.337526,-33.933289,853.44 18.337303,-33.934113,853.44 18.335381,-33.941704,883.92 18.335381,-33.942635,914.4 18.335896,-33.945705,944.88 18.336126,-33.946381,975.36 18.337555,-33.949009,1005.84 18.338087,-33.949585,1005.84 18.340834,-33.951416,1036.32 18.3419,-33.951828,1036.32 18.345766,-33.95224,1097.28 18.346552,-33.952194,1097.28 18.350811,-33.950684,1097.28 18.351688,-33.950176,1127.76 18.354847,-33.946838,1127.76 18.355295,-33.945969,1127.76 18.356037,-33.94133,1127.76 18.355865,-33.940121,1127.76 18.354006,-33.935944,1158.24 18.352997,-33.934982,1188.72 18.348541,-33.933697,1188.72 18.347454,-33.93388,1188.72 18.343019,-33.936951,1127.76 18.342476,-33.937698,1127.76 18.340105,-33.941345,1127.76 18.339489,-33.942398,1127.76 18.337498,-33.946217,1127.76 18.33704,-33.947197,1127.76 18.334499,-33.952652,1127.76 18.333042,-33.95549,1097.28 18.32626,-33.968399,1036.32 18.324738,-33.97131,1036.32 18.317291,-33.985199,975.36 18.315779,-33.98822,944.88 18.308828,-34.000854,944.88 18.308201,-34.001846,944.88 18.305683,-34.005665,944.88 18.305111,-34.006596,944.88 18.299332,-34.014977,883.92 18.297337,-34.018066,883.92 18.294983,-34.022781,853.44 18.294525,-34.02396,853.44 18.293413,-34.028091,822.96 18.293301,-34.029053,822.96 18.293077,-34.03331,822.96 18.293077,-34.034363,822.96 18.29361,-34.038578,792.48 18.293861,-34.039581,792.48 18.295095,-34.043655,792.48 18.295498,-34.044769,792.48 18.297215,-34.048725,792.48 18.297615,-34.049564,792.48 18.299747,-34.053223,792.48 18.300308,-34.054047,792.48 18.302879,-34.057758,792.48 18.303391,-34.058395,792.48 18.306194,-34.062057,792.48 18.306923,-34.062973,792.48 18.30978,-34.066315,792.48 18.310286,-34.06691,792.48 18.313425,-34.070206,792.48 18.314152,-34.07093,792.48 18.317471,-34.074051,792.48 18.318918,-34.075699,792.48 18.321104,-34.078857,822.96 18.323233,-34.080917,822.96 18.326878,-34.082657,822.96 18.327885,-34.082893,822.96 18.332932,-34.082657,822.96 18.333721,-34.082428,822.96 18.337864,-34.079636,822.96 18.33848,-34.078857,822.96 18.339901,-34.074654,822.96 18.339882,-34.073547,853.44 18.33848,-34.069244,853.44 18.337694,-34.068237,853.44 18.334122,-34.065392,883.92 18.333149,-34.064972,883.92 18.327099,-34.064632,853.44 18.326168,-34.066322,853.44 18.324802,-34.069977,853.44 18.324579,-34.070892,853.44 18.323793,-34.074875,853.44 18.323593,-34.075821,853.44 18.323021,-34.080055,853.44 18.322897,-34.080917,853.44 18.322563,-34.084942,853.44 18.322506,-34.085873,853.44 18.322392,-34.090343,822.96 18.322334,-34.091366,822.96 18.321533,-34.105564,792.48 18.321362,-34.106499,792.48 18.319988,-34.110687,792.48 18.319422,-34.111908,792.48 18.317356,-34.116039,792.48 18.316784,-34.117157,792.48 18.314381,-34.121067,762 18.313648,-34.122162,762 18.311069,-34.126099,731.52 18.308544,-34.130566,731.52 18.306698,-34.135757,701.04 18.30653,-34.13649,701.04 18.305798,-34.141785,670.56 18.30574,-34.142853,670.56 18.305914,-34.147064,670.56 18.306084,-34.148209,670.56 18.307091,-34.152283,670.56 18.307514,-34.153423,670.56 18.309345,-34.157238,670.56 18.310005,-34.158371,670.56 18.312023,-34.161621,670.56 18.312696,-34.162628,670.56 18.315353,-34.166458,670.56 18.316002,-34.167297,670.56 18.318861,-34.170868,640.08 18.319477,-34.171646,640.08 18.322449,-34.175034,640.08 18.32325,-34.175861,640.08 18.326317,-34.178833,640.08 18.327198,-34.179676,640.08 18.330744,-34.182816,640.08 18.331753,-34.18364,640.08 18.33691,-34.187988,640.08 18.339386,-34.19043,640.08 18.343245,-34.194626,609.6 18.344021,-34.195503,609.6 18.346832,-34.199249,609.6 18.347504,-34.200348,609.6 18.349747,-34.204468,609.6 18.350307,-34.205521,609.6 18.351988,-34.209137,609.6 18.352375,-34.210075,609.6 18.354679,-34.215317,609.6 18.355122,-34.216408,609.6 18.358267,-34.224609,579.12 18.360443,-34.230976,579.12 18.361294,-34.235504,579.12 18.361416,-34.236423,579.12 18.362078,-34.240677,579.12 18.36219,-34.241547,579.12 18.362961,-34.248062,579.12 18.363367,-34.250885,579.12 18.365946,-34.264389,609.6 18.366562,-34.267181,579.12 18.368019,-34.271484,579.12 18.368525,-34.272675,579.12 18.370598,-34.276657,579.12 18.371201,-34.277622,579.12 18.373833,-34.281345,579.12 18.374466,-34.282196,579.12 18.377436,-34.28595,579.12 18.390427,-34.305786,579.12 18.396439,-34.314835,579.12 18.397865,-34.31654,579.12 18.400898,-34.32008,579.12 18.407593,-34.326965,609.6 18.413589,-34.33223,609.6 18.414631,-34.333065,609.6 18.419495,-34.336651,609.6 18.422642,-34.339165,609.6 18.434946,-34.348984,731.52 18.437691,-34.351223,731.52 18.450108,-34.361931,762 18.452168,-34.363697,792.48 18.463154,-34.37273,792.48 18.464149,-34.373291,792.48 18.468466,-34.375351,792.48 18.470192,-34.375988,822.96 18.475473,-34.377502,792.48 18.476944,-34.377804,792.48 18.482265,-34.378502,762 18.483768,-34.378555,762 18.489132,-34.378361,762 18.490606,-34.378281,731.52 18.495258,-34.377777,731.52 18.49638,-34.377594,731.52 18.500584,-34.376816,701.04 18.50193,-34.376541,701.04 18.506241,-34.375336,701.04 18.506985,-34.375057,701.04 18.510618,-34.372925,701.04 18.511105,-34.372498,701.04 18.512636,-34.3694,701.04 18.512466,-34.368759,701.04 18.511347,-34.365967,701.04 18.511047,-34.365326,701.04 18.508991,-34.363358,701.04 18.508358,-34.363327,701.04 18.50441,-34.364025,640.08 18.503265,-34.364258,640.08 18.498623,-34.365189,609.6 18.497557,-34.365417,579.12 18.490774,-34.36647,548.64 18.48971,-34.366608,548.64 18.483982,-34.367374,548.64 18.482815,-34.367844,548.64 18.483601,-34.372055,518.16 18.48461,-34.372238,518.16 18.489542,-34.371506,487.68 18.490774,-34.371094,487.68 18.495932,-34.369171,487.68 18.497086,-34.368725,487.68 18.501949,-34.366257,487.68 18.502995,-34.365509,487.68 18.506184,-34.361744,487.68 18.506641,-34.360531,487.68 18.506414,-34.355621,487.68 18.505898,-34.354248,487.68 18.503151,-34.349129,457.2 18.502378,-34.347885,457.2 18.499464,-34.343124,457.2 18.498678,-34.341797,457.2 18.494568,-34.334789,487.68 18.493298,-34.33223,518.16 18.491421,-34.327805,548.64 18.490963,-34.326458,548.64 18.489487,-34.32193,579.12 18.489262,-34.32074,579.12 18.488701,-34.315613,609.6 18.488646,-34.314331,609.6 18.488646,-34.309753,609.6 18.488701,-34.308472,609.6 18.488903,-34.303181,579.12 18.48896,-34.301319,579.12 18.489429,-34.290344,548.64 18.48959,-34.286049,548.64 18.489542,-34.264801,579.12 18.489487,-34.260864,579.12 18.488813,-34.247589,548.64 18.488646,-34.246078,548.64 18.487747,-34.24086,548.64 18.487301,-34.239079,548.64 18.485928,-34.233864,518.16 18.48547,-34.232327,518.16 18.48381,-34.227066,518.16 18.483376,-34.2258,518.16 18.481693,-34.220875,518.16 18.481121,-34.219479,548.64 18.474913,-34.203781,518.16 18.474239,-34.202408,518.16 18.471605,-34.19751,518.16 18.469391,-34.192013,518.16 18.467617,-34.185917,518.16 18.467289,-34.184509,518.16 18.466616,-34.178925,518.16 18.466587,-34.177349,518.16 18.46653,-34.172184,518.16 18.46653,-34.171112,518.16 18.466616,-34.165192,518.16 18.466702,-34.163895,518.16 18.467731,-34.158401,518.16 18.468189,-34.156914,518.16 18.469755,-34.151871,518.16 18.470135,-34.150677,518.16 18.471773,-34.145508,518.16 18.472221,-34.144089,518.16 18.4762,-34.129681,487.68 18.477173,-34.127304,487.68 18.479788,-34.122482,487.68 18.480406,-34.121429,487.68 18.48304,-34.114471,518.16 18.483263,-34.113144,518.16 18.483353,-34.1078,518.16 18.483181,-34.10659,518.16 18.48238,-34.101376,518.16 18.482323,-34.100166,518.16 18.482534,-34.092499,518.16 18.482479,-34.088333,518.16 18.481918,-34.07753,518.16 18.482265,-34.07214,518.16 18.482838,-34.067066,518.16 18.482985,-34.065857,518.16 18.483713,-34.060364,548.64 18.484039,-34.056454,548.64 18.484497,-34.044395,518.16 18.484497,-34.040451,518.16 18.484726,-34.024101,518.16 18.48489,-34.020264,518.16 18.484898,-34.001011,487.68 18.485001,-33.996689,457.2 18.485413,-33.976524,335.28 18.485641,-33.972099,304.8 18.48587,-33.952736,274.32 18.485786,-33.951187,274.32 18.485113,-33.945923,274.32 18.484945,-33.945053,274.32 18.483582,-33.939468,274.32 18.483152,-33.938232,274.32 18.481121,-33.932625,274.32 18.480574,-33.931366,243.84 18.477547,-33.926605,243.84 18.476658,-33.925594,243.84 18.472109,-33.921524,243.84 18.47105,-33.920662,274.32 18.466358,-33.917263,274.32 18.464985,-33.916286,274.32 18.459949,-33.912746,274.32 18.456802,-33.909908,274.32 18.453026,-33.905483,304.8 18.452267,-33.904495,304.8 18.448963,-33.899807,304.8 18.448456,-33.899048,304.8 18.445148,-33.894333,274.32 18.443527,-33.892448,274.32 18.439095,-33.889755,243.84 18.438034,-33.889519,243.84 18.433914,-33.889797,213.36 18.432537,-33.890305,182.88 18.428822,-33.892448,121.92 18.42762,-33.893566,91.44 18.426594,-33.896027,60.96 18.426594,-33.89653,30.48 18.426764,-33.897858,30.48 18.426874,-33.898178,30.48 18.427277,-33.899712,0 18.427322,-33.900009,0 18.429222,-33.901203,30.48 18.43119,-33.901749,91.44 18.43483,-33.902317,152.4 18.435459,-33.902271,152.4 18.438309,-33.901566,213.36 18.43915,-33.901199,213.36 18.441982,-33.899292,274.32 18.44257,-33.898636,274.32 18.444195,-33.895203,304.8 18.444307,-33.894104,335.28 18.443802,-33.890305,365.76 18.443354,-33.889114,365.76 18.440609,-33.885654,396.24 18.439768,-33.884949,396.24 18.435787,-33.882339,426.72 18.434658,-33.881695,426.72 18.430481,-33.879696,457.2 18.429173,-33.879181,457.2 18.424244,-33.877739,487.68 18.422895,-33.877396,487.68 18.417721,-33.876251,518.16 18.416348,-33.875969,518.16 18.411293,-33.875244,518.16 18.410053,-33.875134,548.64 18.405014,-33.874649,579.12 18.403557,-33.874603,579.12 18.398666,-33.874668,609.6 18.397503,-33.874741,609.6 18.392347,-33.875473,609.6 18.390945,-33.875748,609.6 18.386593,-33.876949,609.6 18.385284,-33.877396,609.6 18.380241,-33.879509,609.6 18.379097,-33.88002,609.6 18.374802,-33.882202,609.6 18.373489,-33.882908,640.08 18.369026,-33.885559,640.08 18.368111,-33.88612,640.08 18.364264,-33.888931,640.08 18.363419,-33.88961,640.08 18.360271,-33.892403,640.08 18.359528,-33.893196,640.08 18.356585,-33.896347,670.56 18.355968,-33.897079,670.56 18.353502,-33.900192,701.04 18.352886,-33.901062,701.04 18.350307,-33.904587,701.04 18.349686,-33.905483,701.04 18.347841,-33.908569,731.52 18.347672,-33.908798,731.52 18.345451,-33.913166,731.52 18.345051,-33.914005,731.52 18.343245,-33.917862,762 18.342991,-33.918518,762 18.339041,-33.927841,792.48 18.337807,-33.930954,792.48 18.333263,-33.944355,883.92 18.332176,-33.94743,914.4 18.328571,-33.956367,1005.84 18.328171,-33.957203,1036.32 18.32531,-33.964233,1066.8 18.32514,-33.964966,1097.28 18.324411,-33.968445,1097.28 18.324223,-33.969494,1097.28 18.323536,-33.973125,1097.28 18.322849,-33.975639,1097.28 18.320766,-33.979202,1097.28 18.319988,-33.980156,1097.28 18.316563,-33.983231,1097.28 18.315779,-33.983643,1097.28 18.311237,-33.984879,1097.28 18.310286,-33.985107,1097.28 18.307858,-33.987602,1097.28 18.307972,-33.9883,1097.28 18.310509,-33.990417,1097.28 18.311691,-33.990723,1066.8 18.315947,-33.990967,1066.8 18.317181,-33.990875,1066.8 18.32172,-33.989868,1066.8 18.322735,-33.98951,1066.8 18.32737,-33.986904,1036.32 18.328671,-33.985931,1036.32 18.332481,-33.982407,1005.84 18.333492,-33.981224,975.36 18.336697,-33.976429,944.88 18.337498,-33.975079,914.4 18.340416,-33.9701,883.92 18.341045,-33.969074,883.92 18.344021,-33.963722,853.44 18.34487,-33.962036,853.44 18.348942,-33.953712,822.96 18.349628,-33.952225,792.48 18.358784,-33.933369,670.56 18.361349,-33.928345,640.08 18.366566,-33.919868,579.12 18.367458,-33.91864,579.12 18.370743,-33.914238,548.64 18.371716,-33.913025,548.64 18.375206,-33.908978,518.16 18.376007,-33.908138,518.16 18.379623,-33.904221,518.16 18.380688,-33.903122,518.16 18.384499,-33.899689,518.16 18.385733,-33.898682,518.16 18.389626,-33.895615,518.16 18.390833,-33.894745,518.16 18.394756,-33.891953,518.16 18.395977,-33.891239,518.16 18.40053,-33.889069,487.68 18.401699,-33.888584,487.68 18.406752,-33.887192,457.2 18.408051,-33.886909,457.2 18.413086,-33.886047,426.72 18.414598,-33.885773,426.72 18.419838,-33.884907,365.76 18.42071,-33.884811,365.76 18.425446,-33.884396,335.28 18.426594,-33.884308,335.28 18.429901,-33.885086,335.28 18.430294,-33.885452,335.28 18.431053,-33.887238,304.8 18.431078,-33.888016,274.32 18.43111,-33.889935,213.36 18.431053,-33.890495,213.36 18.430824,-33.892498,152.4 18.43063,-33.893143,152.4 18.429623,-33.895245,91.44 18.429394,-33.89566,91.44 18.428249,-33.897339,30.48 18.427963,-33.897804,30.48 18.427448,-33.899387,0 18.42738,-33.899689,0 18.427547,-33.9007,0 18.427792,-33.900784,0 18.431168,-33.901573,30.48 18.431416,-33.901566,30.48 18.434498,-33.901474,121.92 18.435173,-33.901436,121.92 18.438091,-33.900829,182.88 18.438759,-33.900421,182.88 18.440439,-33.897675,243.84 18.440723,-33.896687,243.84 18.440607,-33.893097,274.32 18.440384,-33.891953,274.32 18.439236,-33.888351,304.8 18.438869,-33.887512,304.8 18.436718,-33.883186,365.76 18.436012,-33.882294,365.76 18.432257,-33.879501,396.24 18.431282,-33.879089,426.72 18.426476,-33.877415,487.68 18.425274,-33.877274,487.68 18.421669,-33.878532,579.12 18.421097,-33.879276,579.12 18.420925,-33.88221,640.08 18.42144,-33.882954,640.08 18.423792,-33.885361,701.04 18.424358,-33.885933,701.04 18.426361,-33.888073,731.52 18.426764,-33.888519,731.52 18.427048,-33.890587,731.52 18.426476,-33.891052,731.52 18.422503,-33.891449,640.08 18.421097,-33.891193,609.6 18.414688,-33.889378,640.08 18.413141,-33.888977,640.08 18.407873,-33.887878,670.56 18.406849,-33.887749,670.56 18.399408,-33.887741,670.56 18.397896,-33.888062,670.56 18.392601,-33.889751,670.56 18.391449,-33.890259,670.56 18.386965,-33.892548,670.56 18.385956,-33.893143,670.56 18.381443,-33.895943,670.56 18.38047,-33.896591,670.56 18.376064,-33.899853,670.56 18.375027,-33.90065,670.56 18.370766,-33.904129,670.56 18.369925,-33.904907,670.56 18.366165,-33.90823,670.56 18.365307,-33.909069,670.56 18.362078,-33.912415,701.04 18.361588,-33.912933,701.04 18.358498,-33.916519,731.52 18.357819,-33.917313,731.52 18.355522,-33.920567,762 18.355007,-33.92131,762 18.353165,-33.924683,762 18.352716,-33.925598,762 18.350868,-33.929443,792.48 18.35014,-33.931137,792.48 18.347511,-33.937141,822.96 18.347113,-33.938324,822.96 18.346596,-33.941795,914.4 18.346832,-33.942169,914.4 18.348906,-33.942856,1005.84 18.349514,-33.942726,1005.84 18.351746,-33.941097,1066.8 18.352325,-33.940384,1097.28 18.354174,-33.937775,1127.76 18.354624,-33.937088,1158.24 18.356529,-33.934982,1219.2 18.356977,-33.934708,1219.2 18.360285,-33.934341,1249.68 18.361181,-33.934708,1249.68 18.363312,-33.9375,1219.2 18.363535,-33.938599,1219.2 18.363199,-33.942902,1188.72 18.362961,-33.943935,1188.72 18.361797,-33.948532,1188.72 18.361517,-33.949539,1158.24 18.360157,-33.954269,1158.24 18.359814,-33.95525,1158.24 18.358212,-33.959763,1158.24 18.357874,-33.960663,1158.24 18.356037,-33.965023,1127.76 18.35535,-33.966373,1127.76 18.350195,-33.978973,1066.8 18.349689,-33.980438,1066.8 18.349743,-33.98481,1036.32 18.349972,-33.985832,1036.32 18.351091,-33.989868,1005.84 18.351427,-33.991333,975.36 18.351988,-33.99527,944.88 18.352268,-33.999069,944.88 18.351988,-34.00351,914.4 18.35182,-34.004837,914.4 18.351372,-34.009369,883.92 18.351345,-34.010368,883.92 18.351116,-34.018234,853.44 18.351091,-34.019531,853.44 18.351259,-34.024017,853.44 18.351316,-34.025345,853.44 18.351746,-34.029686,853.44 18.351917,-34.030941,853.44 18.352549,-34.03537,853.44 18.352661,-34.036331,853.44 18.354321,-34.046024,822.96 18.35495,-34.049332,822.96 18.357868,-34.06176,792.48 18.35821,-34.062698,792.48 18.360228,-34.066681,792.48 18.360786,-34.067532,792.48 18.363312,-34.070938,762 18.364096,-34.071899,762 18.36729,-34.076111,762 18.367964,-34.076981,762 18.372116,-34.082756,762 18.372688,-34.083641,762 18.380013,-34.093697,731.52 18.380756,-34.094532,731.52 18.383995,-34.098267,731.52 18.384892,-34.099274,731.52 18.388138,-34.102634,731.52 18.389151,-34.103668,731.52 18.393917,-34.108311,670.56 18.394814,-34.10907,670.56 18.399408,-34.112183,670.56 18.40044,-34.112827,640.08 18.405687,-34.115799,640.08 18.406734,-34.116367,640.08 18.411852,-34.118912,640.08 18.413143,-34.119484,640.08 18.418804,-34.121887,609.6 18.419868,-34.122345,609.6 18.425617,-34.124512,609.6 18.426819,-34.124931,579.12 18.432425,-34.126785,579.12 18.433743,-34.127213,579.12 18.443859,-34.130539,548.64 18.447819,-34.131683,548.64 18.453884,-34.131264,548.64 18.455349,-34.130722,548.64 18.460114,-34.127106,548.64 18.460865,-34.126095,548.64 18.463955,-34.121162,518.16 18.464598,-34.119827,518.16 18.466673,-34.115067,548.64 18.467176,-34.113739,548.64 18.468746,-34.10907,548.64 18.469105,-34.107754,548.64 18.470428,-34.102615,548.64 18.470652,-34.101471,548.64 18.470936,-34.095928,579.12 18.470819,-34.094696,579.12 18.470036,-34.089615,579.12 18.4697,-34.088196,579.12 18.468418,-34.083176,579.12 18.468075,-34.082058,579.12 18.466473,-34.077168,579.12 18.466,-34.075745,579.12 18.464298,-34.071026,579.12 18.46384,-34.069908,579.12 18.461723,-34.064785,579.12 18.460979,-34.063389,579.12 18.458096,-34.058899,548.64 18.457432,-34.05785,548.64 18.454456,-34.053242,548.64 18.453611,-34.051941,548.64 18.450737,-34.046398,548.64 18.450394,-34.044956,548.64 18.450026,-34.039902,548.64 18.449993,-34.038811,548.64 18.449993,-34.033363,548.64 18.449968,-34.032028,548.64 18.450108,-34.026848,548.64 18.450165,-34.025867,548.64 18.45068,-34.020748,548.64 18.450851,-34.019585,548.64 18.451593,-34.014313,548.64 18.451706,-34.013077,548.64 18.452911,-34.005852,579.12 18.453836,-34.000717,579.12 18.455854,-33.991699,548.64 18.457144,-33.986572,548.64 18.459049,-33.980164,518.16 18.459549,-33.978756,518.16 18.461403,-33.973709,487.68 18.462021,-33.972427,487.68 18.465843,-33.968052,487.68 18.467159,-33.967026,457.2 18.472277,-33.963455,457.2 18.473167,-33.962837,457.2 18.47805,-33.959015,426.72 18.480068,-33.956909,426.72 18.482254,-33.952011,396.24 18.482437,-33.950779,396.24 18.48175,-33.944504,335.28 18.48147,-33.942902,335.28 18.480721,-33.937233,335.28 18.480492,-33.935928,304.8 18.478718,-33.930065,304.8 18.478275,-33.92894,304.8 18.474632,-33.923859,274.32 18.473623,-33.922897,274.32 18.46899,-33.918983,243.84 18.467503,-33.91782,243.84 18.462296,-33.913864,243.84 18.461266,-33.913025,243.84 18.449465,-33.903442,243.84 18.447132,-33.901436,243.84 18.442669,-33.897243,213.36 18.441729,-33.896255,213.36 18.437748,-33.891472,213.36 18.437233,-33.890217,213.36 18.433971,-33.88435,243.84 18.43277,-33.883652,243.84 18.42865,-33.884026,243.84 18.427828,-33.885406,213.36 18.428764,-33.888725,213.36 18.42923,-33.889526,213.36 18.431168,-33.892498,182.88 18.431625,-33.893101,182.88 18.433041,-33.89534,182.88 18.433096,-33.896301,182.88 18.430799,-33.897217,91.44 18.429958,-33.897308,91.44 18.427267,-33.899002,30.48 18.427155,-33.899734,30.48 18.427212,-33.900833,0 18.427521,-33.900749,0 18.430023,-33.900875,0 18.430294,-33.90097,0 18.431751,-33.901382,30.48 18.432026,-33.901482,30.48 18.435974,-33.901669,152.4 18.436796,-33.901154,152.4 18.438702,-33.898361,213.36 18.438982,-33.8974,213.36 18.43915,-33.893784,243.84 18.439039,-33.892731,274.32 18.437973,-33.888611,304.8 18.437637,-33.88765,304.8 18.43618,-33.883575,365.76 18.435507,-33.882523,365.76 18.43174,-33.879696,426.72 18.430407,-33.879227,426.72 18.425865,-33.879044,457.2 18.424633,-33.879364,487.68 18.421719,-33.882202,518.16 18.421661,-33.882935,548.64 18.423271,-33.885746,609.6 18.423901,-33.886353,640.08 18.425903,-33.888073,701.04 18.426247,-33.888538,701.04 18.427044,-33.890305,762 18.426874,-33.890808,762 18.423729,-33.891285,731.52 18.422728,-33.890808,731.52 18.418186,-33.888657,731.52 18.416897,-33.888153,701.04 18.411684,-33.886322,670.56 18.410282,-33.885979,670.56 18.404617,-33.885139,670.56 18.402941,-33.885132,670.56 18.397055,-33.885956,640.08 18.395765,-33.886276,640.08 18.390827,-33.88868,640.08 18.389992,-33.889343,640.08 18.386574,-33.893005,640.08 18.385845,-33.893784,640.08 18.38253,-33.897339,640.08 18.381361,-33.89827,640.08 18.376427,-33.901657,640.08 18.375778,-33.902134,640.08 18.371887,-33.905319,670.56 18.369534,-33.907562,670.56 18.366394,-33.910885,670.56 18.365721,-33.911545,670.56 18.362446,-33.914982,670.56 18.361742,-33.915802,670.56 18.358938,-33.919281,670.56 18.358435,-33.920105,670.56 18.356094,-33.923687,670.56 18.35552,-33.924545,670.56 18.353062,-33.928204,701.04 18.352489,-33.928947,701.04 18.348289,-33.935577,701.04 18.347729,-33.938095,762 18.35014,-33.940201,853.44 18.350868,-33.940201,883.92 18.354206,-33.93877,944.88 18.354847,-33.938187,944.88 18.357033,-33.935532,1005.84 18.357538,-33.934799,1036.32 18.359163,-33.932739,1127.76 18.359642,-33.932438,1127.76 18.362135,-33.932098,1188.72 18.362694,-33.932236,1188.72 18.365385,-33.933563,1188.72 18.366051,-33.934113,1188.72 18.367851,-33.937592,1158.24 18.367939,-33.938583,1158.24 18.367628,-33.942581,1158.24 18.367458,-33.943497,1158.24 18.366339,-33.9478,1158.24 18.365993,-33.948826,1158.24 18.364376,-33.95343,1127.76 18.363991,-33.954365,1127.76 18.362274,-33.958927,1097.28 18.361015,-33.962326,1097.28 18.356609,-33.972332,1036.32 18.354792,-33.976501,1005.84 18.352661,-33.983139,944.88 18.352375,-33.984203,944.88 18.35154,-33.988907,914.4 18.351402,-33.989929,914.4 18.350979,-33.994812,883.92 18.350979,-33.995865,883.92 18.351002,-33.999939,853.44 18.351059,-34.001148,853.44 18.351204,-34.005341,822.96 18.350773,-34.008457,822.96 18.349571,-34.013206,822.96 18.349522,-34.016556,792.48 18.350315,-34.023121,792.48 18.350588,-34.024384,792.48 18.351259,-34.028549,792.48 18.351484,-34.029922,762 18.352493,-34.034409,762 18.353165,-34.038437,762 18.353519,-34.044956,731.52 18.353519,-34.046165,731.52 18.35339,-34.050476,731.52 18.353348,-34.051613,731.52 18.353109,-34.060959,731.52 18.352829,-34.062195,731.52 18.349972,-34.065578,701.04 18.348827,-34.066368,701.04 18.346104,-34.069702,731.52 18.346138,-34.070793,731.52 18.349411,-34.073685,701.04 18.350487,-34.073956,701.04 18.355743,-34.074921,731.52 18.357201,-34.075241,731.52 18.361629,-34.07666,762 18.362694,-34.077164,762 18.367516,-34.080414,762 18.368525,-34.081284,762 18.371384,-34.084351,762 18.372288,-34.085407,762 18.375195,-34.088516,792.48 18.376236,-34.089085,792.48 18.381361,-34.092636,792.48 18.381697,-34.093597,762 18.3822,-34.098404,731.52 18.382481,-34.099823,701.04 18.384499,-34.104309,701.04 18.385395,-34.105408,701.04 18.391001,-34.109528,670.56 18.392086,-34.110126,640.08 18.397223,-34.112732,609.6 18.398895,-34.113525,609.6 18.403782,-34.115799,579.12 18.405182,-34.11644,579.12 18.410683,-34.118786,579.12 18.411942,-34.119297,579.12 18.417549,-34.121441,579.12 18.418692,-34.121841,579.12 18.424015,-34.123581,579.12 18.425617,-34.124092,579.12 18.433743,-34.126888,579.12 18.438646,-34.128708,548.64 18.449535,-34.132008,548.64 18.451538,-34.132008,548.64 18.457603,-34.130379,548.64 18.459206,-34.129539,548.64 18.464813,-34.126701,548.64 18.466072,-34.125816,548.64 18.469587,-34.121704,548.64 18.470249,-34.120277,548.64 18.471493,-34.115158,548.64 18.471548,-34.113831,548.64 18.471828,-34.108475,548.64 18.471886,-34.107239,548.64 18.472054,-34.101883,548.64 18.472054,-34.100281,548.64 18.471336,-34.094906,548.64 18.4711,-34.093735,548.64 18.46998,-34.088425,548.64 18.469677,-34.087132,548.64 18.468475,-34.081963,548.64 18.46813,-34.080643,518.16 18.464262,-34.065079,518.16 18.463701,-34.06366,518.16 18.461151,-34.0592,518.16 18.460339,-34.058121,548.64 18.457088,-34.054264,518.16 18.456135,-34.053177,548.64 18.452797,-34.049236,548.64 18.451824,-34.048073,548.64 18.445244,-34.039787,579.12 18.4447,-34.038895,579.12 18.442612,-34.033688,579.12 18.442383,-34.032478,579.12 18.442234,-34.026993,579.12 18.442402,-34.025528,579.12 18.443127,-34.020283,579.12 18.443354,-34.018982,579.12 18.444386,-34.01358,548.64 18.444588,-34.012299,548.64 18.445816,-34.005989,579.12 18.446157,-34.004745,579.12 18.448277,-33.999519,579.12 18.448736,-33.995911,579.12 18.447132,-33.990677,579.12 18.446718,-33.989502,609.6 18.445873,-33.984249,609.6 18.44696,-33.981831,609.6 18.45171,-33.978386,548.64 18.453108,-33.977783,548.64 18.458519,-33.974476,518.16 18.45989,-33.973389,518.16 18.464878,-33.969727,487.68 18.46628,-33.968719,487.68 18.470478,-33.964699,487.68 18.471222,-33.963444,487.68 18.474312,-33.958366,457.2 18.475113,-33.957298,457.2 18.479565,-33.952698,426.72 18.483582,-33.948826,426.72 18.4869,-33.942074,396.24 18.486963,-33.94043,396.24 18.48517,-33.93512,365.76 18.484554,-33.934067,365.76 18.481064,-33.929272,335.28 18.480034,-33.928017,335.28 18.4758,-33.923687,304.8 18.475023,-33.922943,304.8 18.469587,-33.919144,304.8 18.468466,-33.918457,304.8 18.463198,-33.915207,243.84 18.461964,-33.914383,243.84 18.455069,-33.908112,213.36 18.454117,-33.906967,213.36 18.450565,-33.902737,213.36 18.44952,-33.901566,213.36 18.442783,-33.896408,213.36 18.441561,-33.895294,243.84 18.438141,-33.88916,213.36 18.437525,-33.888107,213.36 18.432928,-33.885452,213.36 18.431282,-33.885746,213.36 18.428724,-33.889114,182.88 18.428724,-33.889984,182.88 18.429852,-33.893288,152.4 18.430138,-33.894032,152.4 18.430882,-33.896641,121.92 18.430653,-33.897198,91.44 18.427505,-33.898827,30.48 18.427277,-33.899338,30.48 18.426987,-33.900604,0 18.427212,-33.900787,0 18.431471,-33.901657,60.96 18.433971,-33.902134,91.44 18.43729,-33.90218,121.92 18.438091,-33.902039,121.92 18.441639,-33.900642,182.88 18.44244,-33.900223,182.88 18.445072,-33.897526,213.36 18.445541,-33.896622,243.84 18.445988,-33.893009,274.32 18.445816,-33.89217,304.8 18.444139,-33.888474,335.28 18.443579,-33.88765,335.28 18.440439,-33.884583,335.28 18.439318,-33.883804,365.76 18.435574,-33.881649,396.24 18.4342,-33.881046,396.24 18.429966,-33.879463,426.72 18.428936,-33.879135,426.72 18.424244,-33.877926,487.68 18.422615,-33.877625,487.68 18.417721,-33.876854,518.16 18.416805,-33.876762,518.16 18.412056,-33.876389,518.16 18.411123,-33.876389,518.16 18.406023,-33.876434,548.64 18.404617,-33.876484,548.64 18.399298,-33.876938,548.64 18.398064,-33.877075,548.64 18.392906,-33.878082,579.12 18.391571,-33.878483,579.12 18.386965,-33.880188,609.6 18.385963,-33.880627,609.6 18.382032,-33.882614,640.08 18.381214,-33.883091,640.08 18.377209,-33.8857,640.08 18.37635,-33.886307,640.08 18.372574,-33.888958,640.08 18.371315,-33.889889,640.08 18.367252,-33.893242,640.08 18.36628,-33.894127,640.08 18.363199,-33.897171,670.56 18.362503,-33.897942,670.56 18.359814,-33.900829,670.56 18.359013,-33.901669,701.04 18.356609,-33.904785,701.04 18.35598,-33.905766,701.04 18.354006,-33.908844,701.04 18.353405,-33.909813,701.04 18.351402,-33.913445,701.04 18.350979,-33.9142,701.04 18.349113,-33.918148,701.04 18.34868,-33.919052,701.04 18.346888,-33.922989,701.04 18.346439,-33.924088,701.04 18.340073,-33.939373,731.52 18.33848,-33.943588,792.48 18.33321,-33.959885,883.92 18.331472,-33.965057,914.4 18.328783,-33.971603,914.4 18.328514,-33.97224,914.4 18.324802,-33.981125,1066.8 18.324579,-33.981903,1066.8 18.322561,-33.987305,1066.8 18.321272,-33.990051,1066.8 18.319302,-33.993702,1066.8 18.318748,-33.994766,1066.8 18.316498,-33.998684,1036.32 18.316002,-33.999573,1036.32 18.30995,-34.009827,1036.32 18.309389,-34.010651,1036.32 18.30653,-34.013992,1036.32 18.305569,-34.014881,1036.32 18.301989,-34.0177,1036.32 18.300934,-34.018513,1036.32 18.297281,-34.021317,1036.32 18.296242,-34.022099,1036.32 18.292404,-34.024338,1036.32 18.291206,-34.024567,1066.8 18.287472,-34.025711,1066.8 18.286968,-34.026398,1097.28 18.287136,-34.028732,1097.28 18.287472,-34.029282,1097.28 18.28977,-34.03125,1097.28 18.290977,-34.031593,1097.28 18.294983,-34.031826,1066.8 18.296328,-34.031708,1066.8 18.300934,-34.030708,1066.8 18.302326,-34.030243,1066.8 18.307171,-34.028057,1066.8 18.308201,-34.027496,1036.32 18.31295,-34.024334,1005.84 18.314041,-34.023285,975.36 18.317629,-34.018982,914.4 18.318525,-34.017654,914.4 18.321665,-34.012527,883.92 18.322334,-34.011299,853.44 18.325253,-34.005989,822.96 18.326168,-34.00441,822.96 18.329006,-33.999023,762 18.331089,-33.995003,762 18.345823,-33.967758,701.04 18.34885,-33.96167,701.04 18.354343,-33.948578,670.56 18.354679,-33.947617,670.56 18.359814,-33.933834,640.08 18.361855,-33.929077,640.08 18.364712,-33.924088,640.08 18.365479,-33.922894,640.08 18.368748,-33.918045,640.08 18.36977,-33.916656,640.08 18.373457,-33.911682,609.6 18.37429,-33.910606,609.6 18.37801,-33.906044,609.6 18.379154,-33.904785,579.12 18.383274,-33.900318,579.12 18.38459,-33.899014,579.12 18.389111,-33.894779,548.64 18.390141,-33.893845,548.64 18.395233,-33.89003,518.16 18.396206,-33.889378,518.16 18.401539,-33.886002,518.16 18.402901,-33.885281,518.16 18.408154,-33.882843,518.16 18.409386,-33.882431,518.16 18.414631,-33.881046,487.68 18.41572,-33.880829,487.68 18.420811,-33.880253,457.2 18.422167,-33.880325,457.2 18.426018,-33.881462,426.72 18.426933,-33.881977,396.24 18.43008,-33.884071,335.28 18.430687,-33.884583,335.28 18.433342,-33.887005,274.32 18.433857,-33.887562,274.32 18.435745,-33.890217,213.36 18.436068,-33.890808,182.88 18.435955,-33.893234,152.4 18.435287,-33.893612,121.92 18.431696,-33.894424,91.44 18.43119,-33.894608,60.96 18.428307,-33.896778,30.48 18.427906,-33.897526,30.48 18.427505,-33.899338,0 18.427492,-33.899689,0
        </coordinates>
      </LineString>
    </Placemark>
  </Document>
</kml>