<?xml version="1.0" encoding="UTF-8"?>
<kml xmlns="http://www.opengis.net/kml/2.2">
  <Document>
    <name>-/ZTHOT - Optimised</name>
    <description><![CDATA[Optimised flight path with 465 points (decimated from 2325 original points). Source format: Standard KML]]></description>
    
    <Style id="flightPath">
      <LineStyle>
        <color>ff0000ff</color>
        <width>3</width>
      </LineStyle>
    </Style>
    
    <Placemark>
      <name>Flight Path</name>
      <description><![CDATA[<div style="width:220px; text-align:center;">
<div style="width:210px; text-align:center;">
<div style=" background: #000; color: #fff; font-size: 14px; text-align:left; border: 1px solid #000; padding: 2px 6px; text-shadow: 0 1px 0 #000; box-shadow: 0 1px 3px rgba(0,0,0,0.6); background: -webkit-gradient(linear, left top, left bottom, color-stop(0%,#808080), color-stop(2%,#303030), color-stop(100%,#0c0c0c));"><span style="font-size: 14px; font-weight: bold;"><a href="javascript:void(0);" style="color: #fff; cursor: pointer;text-decoration: none;">-</a></span> / ZTHOT<br/>Cape Town Helicopters</div>

<div style="border-top: 1px solid #005c90; color: #fff; padding-bottom: 5px; box-shadow: 0 0 1px #9BE3F6 inset, 0 1px 0 #9BE3F6 inset, 0 -1px 3px rgba(0,0,0,0.4); background:rgba(43,114,173,1); background: -webkit-gradient(linear, left top, left bottom, color-stop(0%,rgba(92,184,229,1)), color-stop(100%,rgba(43,114,173,1)));">
<a style="text-decoration: none; color: rgb(255, 255, 255); font-size: 12px; width:77px; display: inline-block;" title=" Airport" href="javascript:void(0);/departures"><h3 style="padding: 0px; margin: 10px 0px 0px; font-size: 16px; ">?</h3></a>
<span style="background: url(https://www.flightradar24.com/static/images/userUI_sprite.png?14) no-repeat scroll 0 -464px rgba(0, 0, 0, 0); border: medium none; display: inline-block; height: 16px; width: 45px;"></span>
<a style="text-decoration: none; color: rgb(255, 255, 255); font-size: 12px; width:77px; display: inline-block;" title=" Airport" href="javascript:void(0);/arrivals"><h3 style="padding: 0px; margin: 10px 0px 0px; font-size: 16px;">?</h3></a>
<div style=" margin-top:10px;">
<div style="display: inline-block; font-size: 12px; padding: 0 5px;">
<div>
<span style="color: #c1eaff;" title="Actual Time of Departure">ATD </span>
<span title="2025-07-22 07:36">07:36</span> <span title="Coordinated Universal Time">UTC</span>
</div>
</div>
<div style="display: inline-block; font-size: 12px; padding: 0 5px;">
<div>
<span style="color: #c1eaff;" title="Estimated Time of Arrival">ETA </span>
<span title="2025-07-22 07:55">07:55</span> <span title="Coordinated Universal Time">UTC</span>
</div>
</div>
</div>
<br style="clear: both;"/>
</div>

<div style="display: block;">
<table style="border-collapse: collapse; width: 100%;">
<tr style="border-right: 1px solid #dadada; ">
<td style="background: none repeat scroll 0 0 #dadada; padding: 0; width: 31px;">
<span style="background: url(https://www.flightradar24.com/static/images/userUI_sprite.png?14) no-repeat scroll -208px -464px rgba(0, 0, 0, 0); height: 26px; margin: 8px 0 0 4px; width: 23px; display: block;"></span>
</td>
<td colspan="2" style="border-bottom: 1px solid #dadada; border-left: 1px solid #dadada; color: #666; line-height: 1.1em; padding: 3px 6px; vertical-align: top; font-size: 14px;">
Aircraft<span style="float: right; font-size: 12px;">(AS50)</span><br>
<span style="color: #333; font-size: 16px; font-weight: bold; line-height: 1.3em;">Airbus Helicopters H125</span>
</td>
</tr>
<tr style="border-right: 1px solid #dadada; ">
<td style="background: none repeat scroll 0 0 #dadada; padding: 0; width: 31px;">
<td colspan="2" style="border-bottom: 1px solid #dadada; border-left: 1px solid #dadada; color: #666; line-height: 1.1em; padding: 3px 6px; vertical-align: top; font-size: 14px;">
Registration<br>
<span style="color: #333; font-size: 16px; font-weight: bold; line-height: 1.3em;"><a href="https://www.flightradar24.com/reg/zt-hot" style="text-decoration: none; color: #333;">ZT-HOT</a></span>
</td>
</tr>
</table>
</div>

</div>
</div>]]></description>
      <styleUrl>#flightPath</styleUrl>
      <LineString>
        <extrude>1</extrude>
        <tessellate>1</tessellate>
        <altitudeMode>absolute</altitudeMode>
        <coordinates>
          18.434666,-33.901566,60.96 18.439095,-33.899918,121.92 18.440887,-33.89534,152.4 18.439711,-33.889938,182.88 18.436546,-33.884674,213.36 18.432257,-33.879272,213.36 18.427492,-33.875061,243.84 18.420696,-33.872154,274.32 18.414059,-33.871456,304.8 18.407135,-33.872292,335.28 18.401012,-33.874062,365.76 18.395094,-33.876343,396.24 18.388939,-33.879276,396.24 18.383938,-33.882339,426.72 18.378557,-33.886459,457.2 18.374241,-33.890579,457.2 18.369925,-33.895248,487.68 18.365879,-33.90004,518.16 18.362303,-33.904999,548.64 18.35907,-33.909954,579.12 18.356081,-33.914886,579.12 18.351574,-33.921917,609.6 18.34358,-33.935577,640.08 18.335398,-33.954758,670.56 18.321665,-33.982361,701.04 18.311005,-34.00399,701.04 18.301598,-34.024933,670.56 18.297558,-34.0383,640.08 18.298531,-34.043839,640.08 18.30126,-34.049011,640.08 18.305054,-34.05352,670.56 18.309059,-34.057804,670.56 18.313536,-34.061554,670.56 18.318443,-34.065346,670.56 18.323708,-34.069115,670.56 18.329086,-34.070419,701.04 18.330015,-34.066269,701.04 18.324852,-34.062737,670.56 18.31913,-34.059246,640.08 18.312639,-34.055603,640.08 18.306255,-34.050728,609.6 18.301878,-34.045761,609.6 18.300028,-34.040039,609.6 18.300991,-34.034435,579.12 18.302879,-34.028988,579.12 18.304996,-34.02396,579.12 18.307091,-34.019394,609.6 18.312836,-34.008038,609.6 18.315697,-34.003384,609.6 18.325996,-33.986019,609.6 18.340187,-33.962326,579.12 18.345909,-33.953621,548.64 18.356094,-33.936161,518.16 18.365765,-33.91917,487.68 18.372688,-33.90823,457.2 18.37635,-33.903763,457.2 18.380585,-33.899059,457.2 18.384476,-33.894825,457.2 18.389769,-33.889755,426.72 18.394718,-33.886024,426.72 18.400249,-33.882706,396.24 18.406248,-33.879959,396.24 18.411964,-33.878403,396.24 18.417721,-33.878113,396.24 18.42211,-33.87941,365.76 18.425529,-33.88179,304.8 18.427883,-33.884674,274.32 18.42934,-33.887558,213.36 18.430481,-33.890865,121.92 18.430574,-33.89415,60.96 18.429966,-33.896358,0 18.428837,-33.89827,0 18.427547,-33.899734,0 18.427338,-33.900799,0 18.432928,-33.901337,30.48 18.435619,-33.900375,60.96 18.439121,-33.897198,121.92 18.440552,-33.892403,182.88 18.438606,-33.887421,243.84 18.434315,-33.883141,274.32 18.428612,-33.879959,335.28 18.422356,-33.877785,365.76 18.415216,-33.876251,396.24 18.408222,-33.876251,396.24 18.401819,-33.877487,426.72 18.395823,-33.879776,457.2 18.390026,-33.882721,457.2 18.384611,-33.886139,487.68 18.379555,-33.889984,518.16 18.375149,-33.89394,518.16 18.37071,-33.898544,548.64 18.366619,-33.903442,548.64 18.362694,-33.908569,579.12 18.359528,-33.913445,579.12 18.356323,-33.918751,609.6 18.353577,-33.923779,609.6 18.349113,-33.932716,640.08 18.345566,-33.944168,731.52 18.345655,-33.948212,822.96 18.345934,-33.952011,883.92 18.346539,-33.959064,975.36 18.344982,-33.963959,975.36 18.338356,-33.974197,975.36 18.327549,-33.988998,944.88 18.324337,-33.994167,944.88 18.315639,-34.008366,914.4 18.310341,-34.01857,914.4 18.308212,-34.024246,914.4 18.306082,-34.030701,914.4 18.303896,-34.038528,914.4 18.300705,-34.053101,883.92 18.302326,-34.057388,975.36 18.30677,-34.055012,914.4 18.3074,-34.049934,914.4 18.308155,-34.044342,883.92 18.309837,-34.038345,822.96 18.312304,-34.03244,822.96 18.314953,-34.026798,792.48 18.318844,-34.018932,762 18.327662,-34.003693,701.04 18.341675,-33.980667,579.12 18.354263,-33.957668,518.16 18.357983,-33.947845,518.16 18.362864,-33.934845,518.16 18.368111,-33.923035,518.16 18.371494,-33.916946,518.16 18.374746,-33.912003,518.16 18.378754,-33.907066,518.16 18.382929,-33.902664,518.16 18.388086,-33.899139,487.68 18.393459,-33.896175,457.2 18.399408,-33.893326,457.2 18.405361,-33.890915,426.72 18.411797,-33.888565,365.76 18.418236,-33.886444,335.28 18.424473,-33.885139,304.8 18.430653,-33.885746,274.32 18.434715,-33.888912,213.36 18.436403,-33.892868,182.88 18.435226,-33.895935,121.92 18.432541,-33.897709,30.48 18.429005,-33.899048,0 18.427734,-33.899433,0 18.433399,-33.889935,121.92 18.434666,-33.885681,182.88 18.433514,-33.880997,213.36 18.430367,-33.877132,274.32 18.425642,-33.874649,335.28 18.420525,-33.873642,365.76 18.415089,-33.873642,426.72 18.409824,-33.874619,487.68 18.404217,-33.876434,518.16 18.398849,-33.878769,548.64 18.393635,-33.881744,609.6 18.38871,-33.885139,640.08 18.383938,-33.888794,670.56 18.37944,-33.89259,731.52 18.375418,-33.896164,762 18.371716,-33.900085,792.48 18.368019,-33.904449,822.96 18.364544,-33.908844,853.44 18.36113,-33.913631,853.44 18.358042,-33.91832,853.44 18.354904,-33.923538,853.44 18.351974,-33.928806,853.44 18.34885,-33.935074,853.44 18.341059,-33.952103,822.96 18.330353,-33.97998,853.44 18.323233,-33.999619,822.96 18.317413,-34.015629,822.96 18.315868,-34.02182,792.48 18.314209,-34.028149,792.48 18.312023,-34.040359,762 18.312136,-34.047272,762 18.312893,-34.053379,731.52 18.314209,-34.059174,731.52 18.316154,-34.064972,731.52 18.318443,-34.070374,731.52 18.321419,-34.076191,731.52 18.325481,-34.080566,731.52 18.330521,-34.080276,731.52 18.33366,-34.076981,731.52 18.332932,-34.073593,731.52 18.329315,-34.074329,731.52 18.330402,-34.078098,701.04 18.335152,-34.081314,701.04 18.342018,-34.08271,701.04 18.34868,-34.083893,701.04 18.357986,-34.086868,731.52 18.363535,-34.090714,701.04 18.368454,-34.094486,701.04 18.373661,-34.098351,701.04 18.385735,-34.106499,701.04 18.391399,-34.109615,701.04 18.39695,-34.11264,701.04 18.408794,-34.118416,731.52 18.414768,-34.120972,731.52 18.433601,-34.128387,701.04 18.440151,-34.130192,701.04 18.446941,-34.130951,701.04 18.453611,-34.130402,670.56 18.45989,-34.128983,670.56 18.465843,-34.125675,640.08 18.470306,-34.121254,640.08 18.473791,-34.11644,609.6 18.476257,-34.11092,609.6 18.477745,-34.105194,609.6 18.478432,-34.09919,609.6 18.478556,-34.093277,609.6 18.47826,-34.087551,609.6 18.477745,-34.081451,609.6 18.476257,-34.069115,609.6 18.473797,-34.048168,640.08 18.471851,-34.025124,579.12 18.470316,-34.004517,579.12 18.469252,-33.983322,579.12 18.469276,-33.972332,579.12 18.47002,-33.966423,548.64 18.47105,-33.960556,548.64 18.473343,-33.947662,518.16 18.474352,-33.937408,487.68 18.473959,-33.931183,457.2 18.472424,-33.924942,396.24 18.469219,-33.919216,365.76 18.464767,-33.914246,335.28 18.459263,-33.908978,304.8 18.45266,-33.902664,243.84 18.445873,-33.89785,213.36 18.441582,-33.897198,182.88 18.437973,-33.897629,91.44 18.434601,-33.898174,30.48 18.432655,-33.89864,0 18.428478,-33.900455,0 18.436947,-33.901249,91.44 18.437634,-33.90097,91.44 18.440216,-33.89827,121.92 18.440496,-33.897491,121.92 18.44072,-33.893188,152.4 18.440495,-33.892216,152.4 18.438702,-33.887924,182.88 18.437973,-33.886826,182.88 18.434715,-33.882256,213.36 18.433994,-33.881378,213.36 18.430407,-33.877396,213.36 18.429451,-33.87653,243.84 18.425137,-33.873734,243.84 18.424301,-33.873363,243.84 18.41835,-33.871735,274.32 18.41692,-33.871548,274.32 18.411369,-33.871593,304.8 18.410507,-33.871719,304.8 18.40423,-33.873047,335.28 18.403187,-33.873363,335.28 18.398289,-33.875015,365.76 18.397236,-33.875458,365.76 18.392458,-33.877533,396.24 18.391562,-33.877991,396.24 18.386765,-33.880531,426.72 18.385675,-33.881195,426.72 18.381809,-33.88385,426.72 18.3808,-33.884628,426.72 18.376865,-33.887936,457.2 18.37595,-33.888821,457.2 18.372448,-33.892456,487.68 18.37183,-33.893196,487.68 18.368397,-33.896919,518.16 18.367481,-33.897942,518.16 18.364601,-33.901749,518.16 18.363928,-33.90271,548.64 18.361073,-33.906879,548.64 18.360329,-33.907997,548.64 18.357811,-33.912003,579.12 18.357313,-33.912872,579.12 18.354893,-33.91703,609.6 18.354399,-33.917999,609.6 18.348289,-33.926605,609.6 18.346439,-33.92981,609.6 18.3419,-33.939331,640.08 18.340015,-33.943798,640.08 18.330173,-33.965675,701.04 18.327599,-33.971031,701.04 18.3169,-33.991791,701.04 18.31461,-33.996449,701.04 18.306942,-34.012508,701.04 18.305168,-34.016743,701.04 18.298073,-34.033642,670.56 18.297674,-34.035599,640.08 18.297672,-34.040485,640.08 18.297897,-34.041733,640.08 18.299299,-34.045715,640.08 18.299904,-34.046909,640.08 18.302774,-34.050842,670.56 18.303448,-34.051666,670.56 18.306828,-34.055428,670.56 18.307629,-34.056267,640.08 18.310678,-34.059265,670.56 18.311743,-34.060181,670.56 18.315443,-34.063019,670.56 18.316507,-34.063797,670.56 18.320599,-34.067001,670.56 18.32159,-34.067673,670.56 18.325996,-34.070328,670.56 18.327084,-34.070606,670.56 18.33046,-34.069023,731.52 18.330631,-34.068184,731.52 18.328342,-34.064693,701.04 18.327101,-34.063934,670.56 18.322281,-34.061234,670.56 18.321327,-34.060638,670.56 18.316212,-34.057571,640.08 18.314953,-34.056873,640.08 18.309231,-34.053288,640.08 18.308155,-34.052399,640.08 18.304253,-34.048725,609.6 18.303503,-34.047913,609.6 18.300869,-34.043655,609.6 18.300476,-34.04258,609.6 18.300133,-34.03788,609.6 18.300362,-34.036621,579.12 18.301598,-34.032486,579.12 18.301907,-34.031593,579.12 18.303671,-34.026993,579.12 18.304064,-34.026077,579.12 18.305912,-34.022003,579.12 18.306313,-34.021122,609.6 18.308884,-34.015274,609.6 18.310547,-34.011948,609.6 18.31398,-34.006176,609.6 18.314495,-34.005341,609.6 18.318386,-33.99873,640.08 18.31987,-33.996185,640.08 18.331547,-33.976429,609.6 18.334444,-33.971741,579.12 18.342123,-33.959427,579.12 18.342739,-33.958511,548.64 18.350029,-33.946777,548.64 18.351974,-33.94347,518.16 18.360004,-33.92926,487.68 18.362358,-33.925323,487.68 18.369942,-33.912281,457.2 18.371258,-33.910233,457.2 18.374062,-33.906464,457.2 18.375027,-33.905319,457.2 18.378239,-33.901714,457.2 18.37895,-33.90097,457.2 18.382032,-33.8974,426.72 18.383045,-33.896313,457.2 18.387022,-33.892181,426.72 18.388086,-33.89122,426.72 18.391617,-33.888245,426.72 18.392515,-33.887558,426.72 18.396893,-33.884628,396.24 18.397951,-33.883987,396.24 18.402443,-33.881603,396.24 18.403782,-33.881012,396.24 18.408546,-33.879181,396.24 18.409723,-33.87886,396.24 18.414516,-33.878017,396.24 18.415604,-33.877972,396.24 18.419495,-33.878483,365.76 18.420429,-33.878723,365.76 18.423737,-33.880325,335.28 18.424353,-33.880737,335.28 18.426538,-33.882889,304.8 18.426987,-33.883392,304.8 18.428556,-33.88591,243.84 18.428822,-33.88649,243.84 18.429966,-33.889099,152.4 18.430138,-33.889656,152.4 18.43063,-33.892273,91.44 18.430653,-33.892822,91.44 18.430349,-33.89534,30.48 18.430195,-33.895756,30.48 18.429733,-33.896896,0 18.429337,-33.897526,0 18.428364,-33.898872,0 18.428164,-33.899139,0 18.427099,-33.900192,0 18.426876,-33.900551,0 18.430742,-33.90152,0 18.431911,-33.901527,0 18.4338,-33.901108,30.48 18.434162,-33.901016,30.48 18.436947,-33.899525,91.44 18.437862,-33.898735,121.92 18.439936,-33.89566,152.4 18.44038,-33.894497,182.88 18.440159,-33.890579,213.36 18.439808,-33.88961,213.36 18.437189,-33.885727,243.84 18.436489,-33.885002,274.32 18.432198,-33.88179,304.8 18.430967,-33.881058,304.8 18.426075,-33.878998,335.28 18.424988,-33.878578,335.28 18.419756,-33.877075,365.76 18.418131,-33.876709,396.24 18.412638,-33.876068,396.24 18.41114,-33.876064,396.24 18.405687,-33.876617,426.72 18.404446,-33.876808,426.72 18.399353,-33.878311,426.72 18.398008,-33.87886,426.72 18.393412,-33.880966,457.2 18.392347,-33.881516,457.2 18.387693,-33.884079,487.68 18.386461,-33.884903,487.68 18.382702,-33.887516,487.68 18.381443,-33.888493,487.68 18.377941,-33.891403,518.16 18.376808,-33.892403,518.16 18.373432,-33.89566,518.16 18.372345,-33.896778,518.16 18.369083,-33.900455,548.64 18.368187,-33.90152,548.64 18.364882,-33.905594,548.64 18.364208,-33.906509,548.64 18.361404,-33.910492,579.12 18.360786,-33.911442,579.12 18.35821,-33.915573,609.6 18.357651,-33.916534,609.6 18.355179,-33.920753,609.6 18.354721,-33.921593,609.6 18.352436,-33.925964,609.6 18.350773,-33.929085,640.08 18.347897,-33.935577,640.08 18.345823,-33.941757,670.56 18.345566,-33.945892,792.48 18.345566,-33.946732,792.48 18.345737,-33.949711,853.44 18.345823,-33.950592,883.92 18.346138,-33.953667,914.4 18.346327,-33.954666,914.4 18.346214,-33.960754,975.36 18.34568,-33.962326,975.36 18.343849,-33.966049,975.36 18.342533,-33.968143,975.36 18.334351,-33.979408,975.36 18.332426,-33.981995,975.36 18.32634,-33.990955,944.88 18.325768,-33.991886,944.88 18.322792,-33.996727,944.88 18.320274,-34.000916,944.88 18.311855,-34.014954,914.4 18.311291,-34.016277,914.4 18.309389,-34.02095,914.4 18.308996,-34.021957,914.4 18.307539,-34.02626,914.4 18.307146,-34.027496,914.4 18.304792,-34.035187,914.4 18.304457,-34.036423,914.4 18.302135,-34.045792,914.4 18.30126,-34.049377,914.4 18.300762,-34.055195,944.88 18.30098,-34.055969,944.88 18.304457,-34.057388,944.88 18.305454,-34.056873,914.4 18.307091,-34.053131,914.4 18.307203,-34.051941,914.4 18.307594,-34.047821,883.92 18.307762,-34.046631,883.92 18.308716,-34.041882,853.44 18.309002,-34.040764,853.44 18.310947,-34.035599,822.96 18.311407,-34.0345,822.96 18.313236,-34.030293,792.48 18.313751,-34.029266,792.48 18.315947,-34.024704,762 18.316555,-34.023403,762 18.323009,-34.011429,731.52 18.325024,-34.007946,701.04 18.33189,-33.996773,670.56 18.335037,-33.991608,640.08 18.34857,-33.96904,518.16 18.351597,-33.963409,518.16 18.35598,-33.953293,518.16 18.356361,-33.95224,518.16 18.358715,-33.945786,518.16 18.360043,-33.942215,518.16 18.365665,-33.928162,518.16 18.367178,-33.92482,518.16 18.369757,-33.919876,518.16 18.370317,-33.918869,518.16 18.372803,-33.914841,518.16 18.373512,-33.913788,518.16 18.376259,-33.910034,518.16 18.377151,-33.908928,518.16 18.380413,-33.905205,518.16 18.3811,-33.904366,518.16 18.384724,-33.901291,487.68 18.385849,-33.900551,487.68 18.389969,-33.898083,487.68 18.391113,-33.89743,487.68 18.395691,-33.894962,457.2 18.397121,-33.894314,457.2 18.401642,-33.892448,457.2 18.402958,-33.891891,426.72 18.407873,-33.889984,396.24 18.409105,-33.889526,396.24 18.41432,-33.88765,365.76 18.415665,-33.887238,365.76 18.420597,-33.885818,335.28 18.422335,-33.885452,304.8 18.427322,-33.885086,274.32 18.428444,-33.885178,274.32 18.432648,-33.886826,243.84 18.433514,-33.887562,243.84 18.435688,-33.8904,213.36 18.436012,-33.891174,213.36 18.436293,-33.89415,152.4 18.436089,-33.89473,152.4 18.434105,-33.896896,60.96 18.433546,-33.897217,60.96 18.431339,-33.898174,0 18.42979,-33.898727,0 18.42738,-33.900101,0 18.42738,-33.90033,0 18.430239,-33.895432,30.48 18.431854,-33.892963,91.44 18.43405,-33.88829,152.4 18.434315,-33.887516,152.4 18.434486,-33.883743,182.88 18.4342,-33.882675,213.36 18.432592,-33.879501,243.84 18.431976,-33.878769,243.84 18.428837,-33.876068,304.8 18.427828,-33.875519,304.8 18.423737,-33.874146,335.28 18.422503,-33.873871,365.76 18.418179,-33.873505,396.24 18.417234,-33.873505,426.72 18.4132,-33.87392,457.2 18.411942,-33.874153,457.2 18.407593,-33.875244,487.68 18.40662,-33.875553,518.16 18.401985,-33.877365,548.64 18.400923,-33.877808,548.64 18.396893,-33.879787,579.12 18.395597,-33.880508,579.12 18.391571,-33.883091,609.6 18.390656,-33.883743,609.6 18.386684,-33.886642,670.56 18.385956,-33.887238,670.56 18.38209,-33.890305,701.04 18.381386,-33.890915,701.04 18.377838,-33.89394,762 18.37698,-33.89473,762 18.373947,-33.897663,792.48 18.373064,-33.89859,792.48 18.370399,-33.901619,822.96 18.369541,-33.902645,822.96 18.366507,-33.906281,822.96 18.365879,-33.907066,853.44 18.363199,-33.910629,853.44 18.362583,-33.911545,853.44 18.360043,-33.91526,853.44 18.359356,-33.916332,853.44 18.356865,-33.920242,853.44 18.356266,-33.921173,853.44 18.353725,-33.925552,853.44 18.353176,-33.926525,853.44 18.350544,-33.93174,853.44 18.350029,-33.932766,853.44 18.346327,-33.940384,853.44 18.344707,-33.94389,822.96 18.336742,-33.962906,822.96 18.334522,-33.968842,822.96 18.327255,-33.988346,853.44 18.325756,-33.992523,822.96 18.320543,-34.006668,822.96 18.318806,-34.011108,822.96 18.316843,-34.018112,822.96 18.316555,-34.019165,792.48 18.315182,-34.024334,792.48 18.314896,-34.025402,792.48 18.312435,-34.036621,762 18.312263,-34.037739,762 18.311977,-34.042999,762 18.311977,-34.044209,762 18.312321,-34.049564,731.52 18.312492,-34.050915,731.52 18.313351,-34.055801,731.52 18.31358,-34.056873,731.52 18.31501,-34.061714,731.52 18.315353,-34.062691,731.52 18.316956,-34.067066,731.52 18.317516,-34.068375,731.52 18.319645,-34.072842,731.52 18.320263,-34.074051,731.52 18.322906,-34.078381,731.52 18.323822,-34.079357,731.52 18.327662,-34.081146,762 18.328629,-34.081081,762 18.33189,-34.07917,731.52 18.332462,-34.078613,731.52 18.33395,-34.075539,731.52 18.333883,-34.074875,731.52 18.331318,-34.073074,731.52 18.33046,-34.073257,731.52 18.329201,-34.075867,731.52 18.32943,-34.076611,731.52 18.33209,-34.079773,701.04 18.332863,-34.080334,701.04 18.338013,-34.082012,701.04 18.339209,-34.082245,701.04 18.344366,-34.083069,701.04 18.345823,-34.083344,701.04 18.35146,-34.084526,701.04 18.355463,-34.08577,701.04 18.360271,-34.088203,731.52 18.361473,-34.089085,701.04 18.365307,-34.092113,701.04 18.366507,-34.093002,701.04 18.370543,-34.096024,701.04 18.371662,-34.096893,701.04 18.38047,-34.103191,731.52 18.383377,-34.105087,701.04 18.387806,-34.107651,701.04 18.389095,-34.108337,701.04 18.393635,-34.110855,701.04 18.394924,-34.111588,701.04 18.404217,-34.116367,701.04 18.406639,-34.117447,731.52 18.41114,-34.119438,731.52 18.412399,-34.119949,731.52 18.422615,-34.124176,731.52 18.426203,-34.125595,731.52 18.436235,-34.129211,701.04 18.437637,-34.129623,701.04 18.442905,-34.130676,701.04 18.444363,-34.130814,701.04 18.449821,-34.130844,670.56 18.45109,-34.130768,670.56 18.456001,-34.130051,670.56 18.457479,-34.129715,670.56 18.46258,-34.127792,640.08 18.463646,-34.127151,640.08 18.467846,-34.123909,640.08 18.468647,-34.123116,640.08 18.471886,-34.119324,640.08 18.47267,-34.118225,609.6 18.475056,-34.11404,609.6 18.475513,-34.112968,609.6 18.476944,-34.108639,609.6 18.477287,-34.10738,609.6 18.478107,-34.102798,609.6 18.47826,-34.101421,609.6 18.478556,-34.096664,609.6 18.478546,-34.095604,609.6 18.478443,-34.091034,609.6 18.478388,-34.090027,609.6 18.47805,-34.084991,609.6 18.47794,-34.08371,609.6 18.477516,-34.079079,609.6 18.477379,-34.07785,609.6 18.475304,-34.061234,640.08 18.474855,-34.05748,640.08 18.47295,-34.039673,609.6 18.472481,-34.034622,609.6 18.4711,-34.016693,579.12 18.470709,-34.012024,579.12 18.469849,-33.995609,579.12 18.469643,-33.991791,579.12 18.469082,-33.97728,579.12 18.469082,-33.976227,579.12 18.46953,-33.970001,579.12 18.469677,-33.968842,548.64 18.470421,-33.96386,548.64 18.470652,-33.962723,548.64 18.471548,-33.957825,548.64 18.471794,-33.956551,548.64 18.474184,-33.941345,487.68 18.474255,-33.93998,487.68 18.474312,-33.935043,457.2 18.474239,-33.933746,457.2 18.473568,-33.928902,426.72 18.473282,-33.927505,426.72 18.471279,-33.922337,396.24 18.470709,-33.921341,396.24 18.467445,-33.916985,365.76 18.466505,-33.915985,365.76 18.463039,-33.912605,335.28 18.46174,-33.911362,335.28 18.457367,-33.90715,304.8 18.456303,-33.906143,274.32 18.448734,-33.899387,213.36 18.447727,-33.898819,213.36 18.443985,-33.897293,182.88 18.443186,-33.897217,182.88 18.440104,-33.897354,152.4 18.43943,-33.897446,121.92 18.436546,-33.89785,60.96 18.435955,-33.897949,60.96 18.433601,-33.898361,30.48 18.433321,-33.898453,30.48 18.430855,-33.899368,0 18.430653,-33.899433,0
        </coordinates>
      </LineString>
    </Placemark>
  </Document>
</kml>