<?xml version="1.0" encoding="UTF-8"?>
<kml xmlns="http://www.opengis.net/kml/2.2">
  <Document>
    <name>-/ZTHOT - Optimised</name>
    <description><![CDATA[Optimised flight path with 221 points (decimated from 1101 original points). Source format: Standard KML]]></description>
    
    <Style id="flightPath">
      <LineStyle>
        <color>ff0000ff</color>
        <width>3</width>
      </LineStyle>
    </Style>
    
    <Placemark>
      <name>Flight Path</name>
      <description><![CDATA[<div style="width:220px; text-align:center;">
<div style="width:210px; text-align:center;">
<div style=" background: #000; color: #fff; font-size: 14px; text-align:left; border: 1px solid #000; padding: 2px 6px; text-shadow: 0 1px 0 #000; box-shadow: 0 1px 3px rgba(0,0,0,0.6); background: -webkit-gradient(linear, left top, left bottom, color-stop(0%,#808080), color-stop(2%,#303030), color-stop(100%,#0c0c0c));"><span style="font-size: 14px; font-weight: bold;"><a href="javascript:void(0);" style="color: #fff; cursor: pointer;text-decoration: none;">-</a></span> / ZTHOT<br/>Cape Town Helicopters</div>

<div style="border-top: 1px solid #005c90; color: #fff; padding-bottom: 5px; box-shadow: 0 0 1px #9BE3F6 inset, 0 1px 0 #9BE3F6 inset, 0 -1px 3px rgba(0,0,0,0.4); background:rgba(43,114,173,1); background: -webkit-gradient(linear, left top, left bottom, color-stop(0%,rgba(92,184,229,1)), color-stop(100%,rgba(43,114,173,1)));">
<a style="text-decoration: none; color: rgb(255, 255, 255); font-size: 12px; width:77px; display: inline-block;" title=" Airport" href="javascript:void(0);/departures"><h3 style="padding: 0px; margin: 10px 0px 0px; font-size: 16px; ">?</h3></a>
<span style="background: url(https://www.flightradar24.com/static/images/userUI_sprite.png?14) no-repeat scroll 0 -464px rgba(0, 0, 0, 0); border: medium none; display: inline-block; height: 16px; width: 45px;"></span>
<a style="text-decoration: none; color: rgb(255, 255, 255); font-size: 12px; width:77px; display: inline-block;" title=" Airport" href="javascript:void(0);/arrivals"><h3 style="padding: 0px; margin: 10px 0px 0px; font-size: 16px;">?</h3></a>
<div style=" margin-top:10px;">
<div style="display: inline-block; font-size: 12px; padding: 0 5px;">
<div>
<span style="color: #c1eaff;" title="Scheduled Time of Departure">STD </span>
<span title="2025-11-02 07:20">07:20</span> <span title="Coordinated Universal Time">UTC</span>
</div>
<div>
<span style="color: #c1eaff;" title="Actual Time of Departure">ATD </span>
<span title="2025-11-02 07:20">07:20</span> <span title="Coordinated Universal Time">UTC</span>
</div>
</div>
<div style="display: inline-block; font-size: 12px; padding: 0 5px;">
<div>
<span style="color: #c1eaff;" title="Estimated Time of Arrival">ETA </span>
<span title="2025-11-02 07:43">07:43</span> <span title="Coordinated Universal Time">UTC</span>
</div>
</div>
</div>
<br style="clear: both;"/>
</div>

<div style="display: block;">
<table style="border-collapse: collapse; width: 100%;">
<tr style="border-right: 1px solid #dadada; ">
<td style="background: none repeat scroll 0 0 #dadada; padding: 0; width: 31px;">
<span style="background: url(https://www.flightradar24.com/static/images/userUI_sprite.png?14) no-repeat scroll -208px -464px rgba(0, 0, 0, 0); height: 26px; margin: 8px 0 0 4px; width: 23px; display: block;"></span>
</td>
<td colspan="2" style="border-bottom: 1px solid #dadada; border-left: 1px solid #dadada; color: #666; line-height: 1.1em; padding: 3px 6px; vertical-align: top; font-size: 14px;">
Aircraft<span style="float: right; font-size: 12px;">(AS50)</span><br>
<span style="color: #333; font-size: 16px; font-weight: bold; line-height: 1.3em;">Airbus Helicopters H125</span>
</td>
</tr>
<tr style="border-right: 1px solid #dadada; ">
<td style="background: none repeat scroll 0 0 #dadada; padding: 0; width: 31px;">
<td colspan="2" style="border-bottom: 1px solid #dadada; border-left: 1px solid #dadada; color: #666; line-height: 1.1em; padding: 3px 6px; vertical-align: top; font-size: 14px;">
Registration<br>
<span style="color: #333; font-size: 16px; font-weight: bold; line-height: 1.3em;"><a href="https://www.flightradar24.com/reg/zt-hot" style="text-decoration: none; color: #333;">ZT-HOT</a></span>
</td>
</tr>
</table>
</div>

</div>
</div>]]></description>
      <styleUrl>#flightPath</styleUrl>
      <LineString>
        <extrude>1</extrude>
        <tessellate>1</tessellate>
        <altitudeMode>absolute</altitudeMode>
        <coordinates>
          18.433657,-33.893875,60.96 18.436852,-33.888748,121.92 18.437691,-33.88435,182.88 18.434887,-33.880997,243.84 18.430252,-33.882721,304.8 18.431864,-33.885178,335.28 18.435917,-33.88393,396.24 18.436012,-33.879501,426.72 18.431225,-33.875923,487.68 18.425642,-33.873871,518.16 18.41938,-33.873085,548.64 18.412113,-33.873409,548.64 18.405127,-33.874512,548.64 18.398512,-33.876434,548.64 18.3922,-33.87923,548.64 18.386707,-33.882301,548.64 18.3811,-33.885933,579.12 18.376179,-33.889469,609.6 18.371086,-33.893612,640.08 18.365993,-33.898129,670.56 18.362103,-33.902458,670.56 18.358498,-33.907345,670.56 18.355007,-33.912746,670.56 18.351974,-33.91782,670.56 18.349171,-33.92308,701.04 18.346664,-33.928848,670.56 18.344536,-33.935604,701.04 18.343163,-33.940491,731.52 18.34173,-33.94693,762 18.338814,-33.955387,762 18.326317,-33.980347,792.48 18.317404,-33.994263,792.48 18.313866,-34.000591,792.48 18.311005,-34.006222,822.96 18.304064,-34.022003,792.48 18.302549,-34.027496,792.48 18.301878,-34.032944,792.48 18.302549,-34.038483,792.48 18.304539,-34.04356,792.48 18.307259,-34.048004,792.48 18.310566,-34.05249,792.48 18.314041,-34.057068,792.48 18.319647,-34.063797,792.48 18.323021,-34.068184,822.96 18.325424,-34.072979,792.48 18.329287,-34.076065,822.96 18.332863,-34.073956,853.44 18.331776,-34.070511,822.96 18.32737,-34.071724,762 18.327026,-34.076237,731.52 18.328671,-34.080688,701.04 18.331833,-34.08485,701.04 18.336353,-34.088852,640.08 18.34156,-34.09267,640.08 18.34734,-34.095837,609.6 18.353405,-34.098396,579.12 18.359299,-34.10054,579.12 18.364992,-34.102524,548.64 18.373375,-34.105331,518.16 18.378983,-34.107288,518.16 18.384836,-34.10939,518.16 18.390497,-34.111221,518.16 18.396214,-34.11319,518.16 18.401539,-34.115433,518.16 18.407192,-34.118042,518.16 18.412918,-34.120697,518.16 18.421494,-34.124863,518.16 18.426819,-34.127537,548.64 18.431911,-34.129818,518.16 18.438086,-34.131226,518.16 18.444475,-34.130768,518.16 18.450623,-34.128284,518.16 18.456415,-34.124863,518.16 18.462076,-34.121017,518.16 18.467457,-34.116714,518.16 18.472195,-34.111572,518.16 18.475456,-34.105846,518.16 18.476761,-34.099182,518.16 18.476538,-34.092545,518.16 18.475971,-34.086246,487.68 18.475056,-34.079403,487.68 18.472538,-34.064274,426.72 18.47208,-34.057384,426.72 18.471886,-34.050293,426.72 18.471966,-34.035503,365.76 18.471737,-34.013439,365.76 18.471737,-34.007294,365.76 18.471794,-33.998402,365.76 18.472424,-33.988674,365.76 18.473396,-33.982342,365.76 18.475754,-33.975449,365.76 18.47826,-33.969494,335.28 18.480967,-33.962814,304.8 18.484272,-33.952698,243.84 18.485641,-33.946125,243.84 18.485058,-33.939743,243.84 18.482031,-33.933838,213.36 18.477573,-33.928902,213.36 18.470709,-33.923035,213.36 18.464375,-33.918045,213.36 18.458748,-33.913071,213.36 18.453541,-33.90744,182.88 18.449936,-33.902645,182.88 18.446548,-33.897537,182.88 18.442898,-33.893894,152.4 18.43729,-33.892776,91.44 18.433571,-33.894547,30.48 18.431911,-33.895802,30.48 18.42979,-33.897537,0 18.427715,-33.899597,0 18.427162,-33.900982,0 18.436489,-33.889656,121.92 18.436852,-33.888748,121.92 18.437693,-33.885361,152.4 18.437691,-33.88435,182.88 18.435688,-33.881371,213.36 18.434887,-33.880997,243.84 18.430462,-33.882202,304.8 18.430252,-33.882721,304.8 18.43119,-33.884857,335.28 18.431864,-33.885178,335.28 18.435114,-33.884628,365.76 18.435917,-33.88393,396.24 18.436571,-33.8806,426.72 18.436012,-33.879501,426.72 18.432198,-33.876434,487.68 18.431225,-33.875923,487.68 18.426931,-33.874191,518.16 18.425642,-33.873871,518.16 18.420353,-33.873131,548.64 18.41938,-33.873085,548.64 18.413366,-33.873276,548.64 18.412113,-33.873409,548.64 18.406528,-33.874237,548.64 18.405127,-33.874512,548.64 18.399969,-33.875931,548.64 18.398512,-33.876434,548.64 18.393574,-33.878578,548.64 18.3922,-33.87923,548.64 18.387794,-33.881695,548.64 18.386707,-33.882301,548.64 18.38237,-33.885086,579.12 18.3811,-33.885933,579.12 18.377094,-33.888725,609.6 18.376179,-33.889469,609.6 18.371716,-33.893055,640.08 18.371086,-33.893612,640.08 18.366842,-33.897354,670.56 18.365993,-33.898129,670.56 18.362751,-33.901703,670.56 18.362103,-33.902458,670.56 18.359013,-33.906555,670.56 18.358498,-33.907345,670.56 18.355688,-33.911591,670.56 18.355007,-33.912746,670.56 18.352604,-33.916702,701.04 18.351974,-33.91782,670.56 18.349747,-33.921982,670.56 18.349171,-33.92308,701.04 18.347336,-33.927246,670.56 18.346664,-33.928848,670.56 18.345051,-33.933834,701.04 18.344536,-33.935604,701.04 18.343357,-33.939789,731.52 18.343163,-33.940491,731.52 18.341955,-33.945969,762 18.34173,-33.94693,762 18.3391,-33.954689,762 18.338814,-33.955387,762 18.329201,-33.975407,792.48 18.326317,-33.980347,792.48 18.317871,-33.993423,792.48 18.317404,-33.994263,792.48 18.314264,-33.999802,792.48 18.313866,-34.000591,792.48 18.311518,-34.005203,792.48 18.311005,-34.006222,822.96 18.304539,-34.020794,792.48 18.304064,-34.022003,792.48 18.302765,-34.026566,792.48 18.302549,-34.027496,792.48 18.301878,-34.031937,792.48 18.301878,-34.032944,792.48 18.302307,-34.037319,792.48 18.302549,-34.038483,792.48 18.304024,-34.042534,792.48 18.304539,-34.04356,792.48 18.30677,-34.047237,792.48 18.307259,-34.048004,792.48 18.30986,-34.051567,792.48 18.310566,-34.05249,792.48 18.313425,-34.056244,792.48 18.314041,-34.057068,792.48 18.319016,-34.063065,792.48 18.319647,-34.063797,792.48 18.322392,-34.067112,822.96 18.323021,-34.068184,822.96 18.324966,-34.072002,822.96 18.325424,-34.072979,792.48 18.328167,-34.075745,822.96 18.329287,-34.076065,822.96 18.332577,-34.074471,822.96 18.332863,-34.073956,853.44 18.332462,-34.071026,853.44 18.331776,-34.070511,822.96 18.327997,-34.07103,792.48 18.32737,-34.071724,762 18.326797,-34.075169,762 18.327026,-34.076237,731.52 18.328278,-34.079865,731.52 18.328671,-34.080688,701.04 18.331249,-34.084259,701.04 18.331833,-34.08485,701.04 18.33534,-34.088013,670.56 18.336353,-34.088852,640.08 18.340385,-34.091904,640.08 18.34156,-34.09267,640.08 18.346252,-34.09528,609.6 18.34734,-34.095837,609.6 18.352045,-34.097855,579.12 18.353405,-34.098396,579.12 18.358267,-34.100143,579.12 18.359299,-34.10054,579.12 18.363873,-34.102158,548.64 18.364992,-34.102524,548.64 18.372223,-34.104996,518.16 18.373375,-34.105331,518.16 18.377953,-34.106915,548.64 18.378983,-34.107288,518.16 18.38356,-34.108963,518.16 18.384836,-34.10939,518.16 18.389397,-34.110874,518.16 18.390497,-34.111221,518.16 18.395149,-34.112778,518.16 18.396214,-34.11319,518.16 18.400417,-34.114929,518.16 18.401539,-34.115433,518.16 18.406191,-34.117538,518.16 18.407192,-34.118042,518.16 18.41177,-34.120182,518.16 18.412918,-34.120697,518.16 18.420317,-34.124222,518.16 18.421494,-34.124863,518.16 18.425732,-34.127026,548.64 18.426819,-34.127537,548.64 18.430967,-34.12944,548.64 18.431911,-34.129818,518.16 18.43689,-34.131031,518.16 18.438086,-34.131226,518.16 18.443411,-34.131042,518.16 18.444475,-34.130768,518.16 18.449575,-34.128845,518.16 18.450623,-34.128284,518.16 18.455294,-34.125549,518.16 18.456415,-34.124863,518.16 18.461094,-34.121719,518.16 18.462076,-34.121017,518.16 18.46653,-34.117531,518.16 18.467457,-34.116714,518.16 18.471394,-34.112595,518.16 18.472195,-34.111572,518.16 18.474884,-34.107147,518.16 18.475456,-34.105846,518.16 18.476658,-34.100723,518.16 18.476761,-34.099182,518.16 18.476658,-34.094021,518.16 18.476538,-34.092545,518.16 18.476086,-34.087597,487.68 18.475971,-34.086246,487.68 18.475227,-34.080894,487.68 18.475056,-34.079403,487.68 18.47267,-34.065582,426.72 18.472538,-34.064274,426.72 18.472137,-34.058872,426.72 18.47208,-34.057384,426.72 18.471909,-34.051472,396.24 18.471886,-34.050293,426.72 18.471966,-34.040581,396.24 18.471966,-34.035503,365.76 18.471794,-34.018421,365.76 18.471737,-34.013439,365.76 18.471737,-34.008457,365.76 18.471737,-34.007294,365.76 18.471794,-34.001942,365.76 18.471794,-33.998402,365.76 18.472309,-33.989838,365.76 18.472424,-33.988674,365.76 18.473167,-33.983368,365.76 18.473396,-33.982342,365.76 18.475136,-33.976913,365.76 18.475754,-33.975449,365.76 18.477659,-33.970825,335.28 18.47826,-33.969494,335.28 18.480349,-33.964325,304.8 18.480967,-33.962814,304.8 18.483994,-33.953888,243.84 18.484272,-33.952698,243.84 18.485451,-33.947617,243.84 18.485641,-33.946125,243.84 18.485355,-33.940956,243.84 18.485058,-33.939743,243.84 18.482759,-33.934845,213.36 18.482031,-33.933838,213.36 18.478603,-33.929878,213.36 18.477573,-33.928902,213.36 18.471493,-33.923676,213.36 18.470709,-33.923035,213.36 18.465672,-33.919079,213.36 18.464375,-33.918045,213.36 18.459606,-33.913864,213.36 18.458748,-33.913071,213.36 18.45434,-33.908432,182.88 18.453541,-33.90744,182.88 18.450565,-33.903576,182.88 18.449936,-33.902645,182.88 18.447222,-33.898544,182.88 18.446548,-33.897537,182.88 18.443584,-33.894314,152.4 18.442898,-33.893894,152.4 18.438663,-33.892681,121.92 18.43729,-33.892776,91.44 18.434315,-33.894032,60.96 18.433571,-33.894547,30.48 18.43214,-33.895615,30.48 18.431911,-33.895802,30.48 18.430126,-33.897263,0 18.42979,-33.897537,0 18.42794,-33.899323,0 18.427715,-33.899597,0 18.426949,-33.900772,0 18.427162,-33.900982,0
        </coordinates>
      </LineString>
    </Placemark>
  </Document>
</kml>