<?xml version="1.0" encoding="UTF-8"?>
<kml xmlns="http://www.opengis.net/kml/2.2">
  <Document>
    <name>-/ZTHOT - Optimised</name>
    <description><![CDATA[Optimised flight path with 516 points (decimated from 2579 original points). Source format: Standard KML]]></description>
    
    <Style id="flightPath">
      <LineStyle>
        <color>ff0000ff</color>
        <width>3</width>
      </LineStyle>
    </Style>
    
    <Placemark>
      <name>Flight Path</name>
      <description><![CDATA[<div style="width:220px; text-align:center;">
<div style="width:210px; text-align:center;">
<div style=" background: #000; color: #fff; font-size: 14px; text-align:left; border: 1px solid #000; padding: 2px 6px; text-shadow: 0 1px 0 #000; box-shadow: 0 1px 3px rgba(0,0,0,0.6); background: -webkit-gradient(linear, left top, left bottom, color-stop(0%,#808080), color-stop(2%,#303030), color-stop(100%,#0c0c0c));"><span style="font-size: 14px; font-weight: bold;"><a href="javascript:void(0);" style="color: #fff; cursor: pointer;text-decoration: none;">-</a></span> / ZTHOT<br/>Cape Town Helicopters</div>

<div style="border-top: 1px solid #005c90; color: #fff; padding-bottom: 5px; box-shadow: 0 0 1px #9BE3F6 inset, 0 1px 0 #9BE3F6 inset, 0 -1px 3px rgba(0,0,0,0.4); background:rgba(43,114,173,1); background: -webkit-gradient(linear, left top, left bottom, color-stop(0%,rgba(92,184,229,1)), color-stop(100%,rgba(43,114,173,1)));">
<a style="text-decoration: none; color: rgb(255, 255, 255); font-size: 12px; width:77px; display: inline-block;" title=" Airport" href="javascript:void(0);/departures"><h3 style="padding: 0px; margin: 10px 0px 0px; font-size: 16px; ">?</h3></a>
<span style="background: url(https://www.flightradar24.com/static/images/userUI_sprite.png?14) no-repeat scroll 0 -464px rgba(0, 0, 0, 0); border: medium none; display: inline-block; height: 16px; width: 45px;"></span>
<a style="text-decoration: none; color: rgb(255, 255, 255); font-size: 12px; width:77px; display: inline-block;" title=" Airport" href="javascript:void(0);/arrivals"><h3 style="padding: 0px; margin: 10px 0px 0px; font-size: 16px;">?</h3></a>
<div style=" margin-top:10px;">
<div style="display: inline-block; font-size: 12px; padding: 0 5px;">
<div>
<span style="color: #c1eaff;" title="Actual Time of Departure">ATD </span>
<span title="2025-07-20 08:25">08:25</span> <span title="Coordinated Universal Time">UTC</span>
</div>
</div>
<div style="display: inline-block; font-size: 12px; padding: 0 5px;">
<div>
<span style="color: #c1eaff;" title="Estimated Time of Arrival">ETA </span>
<span title="2025-07-20 08:50">08:50</span> <span title="Coordinated Universal Time">UTC</span>
</div>
</div>
</div>
<br style="clear: both;"/>
</div>

<div style="display: block;">
<table style="border-collapse: collapse; width: 100%;">
<tr style="border-right: 1px solid #dadada; ">
<td style="background: none repeat scroll 0 0 #dadada; padding: 0; width: 31px;">
<span style="background: url(https://www.flightradar24.com/static/images/userUI_sprite.png?14) no-repeat scroll -208px -464px rgba(0, 0, 0, 0); height: 26px; margin: 8px 0 0 4px; width: 23px; display: block;"></span>
</td>
<td colspan="2" style="border-bottom: 1px solid #dadada; border-left: 1px solid #dadada; color: #666; line-height: 1.1em; padding: 3px 6px; vertical-align: top; font-size: 14px;">
Aircraft<span style="float: right; font-size: 12px;">(AS50)</span><br>
<span style="color: #333; font-size: 16px; font-weight: bold; line-height: 1.3em;">Airbus Helicopters H125</span>
</td>
</tr>
<tr style="border-right: 1px solid #dadada; ">
<td style="background: none repeat scroll 0 0 #dadada; padding: 0; width: 31px;">
<td colspan="2" style="border-bottom: 1px solid #dadada; border-left: 1px solid #dadada; color: #666; line-height: 1.1em; padding: 3px 6px; vertical-align: top; font-size: 14px;">
Registration<br>
<span style="color: #333; font-size: 16px; font-weight: bold; line-height: 1.3em;"><a href="https://www.flightradar24.com/reg/zt-hot" style="text-decoration: none; color: #333;">ZT-HOT</a></span>
</td>
</tr>
</table>
</div>

</div>
</div>]]></description>
      <styleUrl>#flightPath</styleUrl>
      <LineString>
        <extrude>1</extrude>
        <tessellate>1</tessellate>
        <altitudeMode>absolute</altitudeMode>
        <coordinates>
          18.427883,-33.901016,60.96 18.433266,-33.900467,121.92 18.437805,-33.898499,152.4 18.440723,-33.894592,213.36 18.441639,-33.890354,243.84 18.440781,-33.885887,274.32 18.43775,-33.881836,304.8 18.433571,-33.87923,335.28 18.427322,-33.876343,365.76 18.421669,-33.874527,396.24 18.41544,-33.873642,426.72 18.409443,-33.873596,457.2 18.403725,-33.874237,487.68 18.398438,-33.875504,548.64 18.393356,-33.87735,579.12 18.388254,-33.87941,609.6 18.383102,-33.881744,640.08 18.377666,-33.884583,640.08 18.372561,-33.887924,640.08 18.367683,-33.891861,640.08 18.363419,-33.896591,609.6 18.359612,-33.90152,609.6 18.355911,-33.906235,640.08 18.350531,-33.914795,670.56 18.348484,-33.919636,701.04 18.346495,-33.924911,701.04 18.341675,-33.938351,701.04 18.335667,-33.954784,701.04 18.349018,-33.960159,701.04 18.353615,-33.954117,640.08 18.356361,-33.947662,579.12 18.359013,-33.941238,579.12 18.364489,-33.928253,579.12 18.369999,-33.917587,579.12 18.373432,-33.912373,579.12 18.377213,-33.907379,579.12 18.381697,-33.902115,579.12 18.386236,-33.897675,579.12 18.3922,-33.893566,548.64 18.399239,-33.890633,518.16 18.406471,-33.888519,457.2 18.413944,-33.887096,426.72 18.420877,-33.886047,365.76 18.427563,-33.885372,274.32 18.432425,-33.888153,213.36 18.432705,-33.892639,152.4 18.428478,-33.898548,60.96 18.426962,-33.900944,0 18.430996,-33.900177,60.96 18.436741,-33.898544,152.4 18.439878,-33.895294,213.36 18.440832,-33.891678,274.32 18.440496,-33.887695,335.28 18.438492,-33.883698,396.24 18.435452,-33.88028,426.72 18.431396,-33.877182,487.68 18.42659,-33.874947,518.16 18.421661,-33.873688,579.12 18.416576,-33.873131,609.6 18.410797,-33.873363,609.6 18.404846,-33.873962,640.08 18.398266,-33.875271,640.08 18.392067,-33.877075,670.56 18.386135,-33.879276,670.56 18.380756,-33.882023,701.04 18.375978,-33.885086,701.04 18.371103,-33.889069,731.52 18.367023,-33.893101,731.52 18.363144,-33.897766,731.52 18.359612,-33.902893,731.52 18.356609,-33.907951,731.52 18.353615,-33.913284,762 18.351036,-33.918594,762 18.347504,-33.926376,762 18.34053,-33.942585,731.52 18.337416,-33.958511,731.52 18.353977,-33.957996,609.6 18.356136,-33.951828,609.6 18.357582,-33.945892,609.6 18.359163,-33.939423,579.12 18.362246,-33.93132,609.6 18.364769,-33.925781,579.12 18.367458,-33.920517,579.12 18.370766,-33.915207,579.12 18.374802,-33.909943,579.12 18.378754,-33.905113,579.12 18.383209,-33.900238,579.12 18.388367,-33.89608,579.12 18.394604,-33.892822,548.64 18.401596,-33.890396,487.68 18.409163,-33.888519,426.72 18.416462,-33.887051,365.76 18.4231,-33.885887,304.8 18.430294,-33.885544,243.84 18.434275,-33.889069,213.36 18.434258,-33.893333,152.4 18.431023,-33.896667,91.44 18.428535,-33.898781,60.96 18.426933,-33.900642,30.48 18.427734,-33.899338,60.96 18.429966,-33.8965,91.44 18.432655,-33.892868,152.4 18.436661,-33.885792,213.36 18.436235,-33.881378,274.32 18.4338,-33.877785,304.8 18.430182,-33.87529,365.76 18.425045,-33.873455,426.72 18.419868,-33.873001,457.2 18.414574,-33.873039,518.16 18.409386,-33.873459,548.64 18.404274,-33.874619,579.12 18.398905,-33.876389,609.6 18.393635,-33.878632,609.6 18.388081,-33.881325,640.08 18.383322,-33.884262,640.08 18.378925,-33.887653,670.56 18.374802,-33.891312,701.04 18.370686,-33.895428,701.04 18.366852,-33.899757,701.04 18.36359,-33.904087,731.52 18.360786,-33.908558,731.52 18.358212,-33.913212,762 18.356024,-33.917862,762 18.353895,-33.923309,762 18.352268,-33.928253,762 18.347969,-33.942726,762 18.343693,-33.955215,731.52 18.335566,-33.974442,762 18.322449,-33.997787,731.52 18.311348,-34.017441,762 18.306698,-34.024063,731.52 18.30143,-34.031616,731.52 18.301933,-34.039719,731.52 18.30468,-34.044891,731.52 18.308144,-34.049377,762 18.312191,-34.053955,762 18.316452,-34.058441,762 18.325424,-34.067162,762 18.331318,-34.067299,762 18.332706,-34.063339,731.52 18.32811,-34.059952,670.56 18.322048,-34.056873,640.08 18.312492,-34.051472,640.08 18.306194,-34.046768,640.08 18.303671,-34.038162,640.08 18.306082,-34.032578,609.6 18.310118,-34.027679,609.6 18.314495,-34.022423,609.6 18.321476,-34.013252,609.6 18.33046,-34.000031,579.12 18.344994,-33.974056,609.6 18.354435,-33.953247,609.6 18.361187,-33.933697,609.6 18.36533,-33.922943,609.6 18.368467,-33.917679,609.6 18.372173,-33.912422,609.6 18.375978,-33.907471,579.12 18.379959,-33.902893,579.12 18.384705,-33.898129,579.12 18.389824,-33.893738,609.6 18.395878,-33.890488,579.12 18.40238,-33.888702,518.16 18.409309,-33.887562,457.2 18.416119,-33.886818,396.24 18.42581,-33.885864,335.28 18.432705,-33.886322,274.32 18.437977,-33.889145,243.84 18.440437,-33.893429,182.88 18.439598,-33.897308,152.4 18.435688,-33.898922,121.92 18.432312,-33.899338,91.44 18.427076,-33.900875,0 18.427563,-33.89962,60.96 18.429222,-33.897243,91.44 18.431696,-33.893692,152.4 18.435574,-33.886909,213.36 18.437918,-33.881882,274.32 18.443298,-33.877319,365.76 18.446548,-33.879547,426.72 18.444099,-33.882023,457.2 18.438759,-33.882523,487.68 18.433096,-33.88147,487.68 18.427099,-33.879456,487.68 18.42071,-33.876755,487.68 18.411068,-33.874512,518.16 18.404961,-33.874947,548.64 18.398905,-33.87648,609.6 18.393635,-33.878494,640.08 18.388538,-33.880581,670.56 18.382425,-33.883209,701.04 18.377495,-33.88612,731.52 18.373289,-33.889252,762 18.367996,-33.893845,762 18.364096,-33.897995,762 18.360117,-33.902664,762 18.356024,-33.908615,762 18.353334,-33.913925,762 18.350924,-33.919098,762 18.348656,-33.924385,792.48 18.346825,-33.929691,762 18.344814,-33.936035,762 18.339209,-33.954254,731.52 18.332201,-33.972977,731.52 18.321419,-33.993889,731.52 18.311977,-34.013718,701.04 18.306313,-34.02615,731.52 18.303337,-34.034805,731.52 18.303726,-34.042969,701.04 18.307457,-34.049099,640.08 18.311575,-34.054825,609.6 18.316956,-34.061295,579.12 18.323021,-34.068092,579.12 18.328783,-34.072174,548.64 18.334751,-34.071815,548.64 18.33086,-34.073864,548.64 18.333548,-34.078629,548.64 18.336525,-34.08392,548.64 18.343506,-34.094345,548.64 18.349634,-34.099594,548.64 18.355801,-34.103806,579.12 18.361965,-34.107513,609.6 18.368805,-34.110992,609.6 18.376091,-34.114243,609.6 18.390497,-34.120193,609.6 18.413927,-34.129715,609.6 18.437469,-34.138962,609.6 18.4461,-34.141342,609.6 18.454456,-34.141876,640.08 18.462696,-34.14006,640.08 18.471661,-34.1353,640.08 18.476257,-34.129349,640.08 18.478489,-34.122696,609.6 18.479462,-34.11655,609.6 18.480068,-34.109344,609.6 18.48032,-34.103333,579.12 18.480091,-34.088108,579.12 18.479061,-34.068371,579.12 18.479452,-34.057526,609.6 18.479977,-34.0518,609.6 18.481522,-34.032757,579.12 18.483376,-34.011154,579.12 18.485058,-33.988586,487.68 18.485451,-33.965424,457.2 18.48489,-33.958557,457.2 18.484211,-33.952782,457.2 18.482927,-33.94519,396.24 18.481178,-33.938492,365.76 18.478891,-33.931549,365.76 18.476145,-33.925552,335.28 18.47105,-33.918472,335.28 18.465157,-33.912373,304.8 18.459835,-33.907299,304.8 18.453949,-33.902527,274.32 18.448219,-33.899246,213.36 18.442289,-33.898087,152.4 18.43586,-33.898594,121.92 18.431976,-33.899368,91.44 18.428249,-33.89999,60.96 18.427883,-33.901016,60.96 18.429852,-33.900921,60.96 18.433266,-33.900467,121.92 18.434086,-33.900272,121.92 18.437805,-33.898499,152.4 18.438606,-33.897758,182.88 18.440723,-33.894592,213.36 18.44101,-33.893799,213.36 18.441639,-33.890354,243.84 18.441582,-33.889469,243.84 18.440781,-33.885887,274.32 18.440271,-33.884811,274.32 18.43775,-33.881836,304.8 18.437061,-33.881279,335.28 18.433571,-33.87923,335.28 18.432598,-33.878811,335.28 18.427322,-33.876343,365.76 18.426247,-33.875923,365.76 18.421669,-33.874527,396.24 18.420652,-33.874329,396.24 18.41544,-33.873642,426.72 18.414488,-33.873596,426.72 18.409443,-33.873596,457.2 18.408279,-33.873642,457.2 18.403725,-33.874237,487.68 18.402716,-33.87442,487.68 18.398438,-33.875504,548.64 18.397522,-33.875786,548.64 18.393356,-33.87735,579.12 18.392458,-33.877716,579.12 18.388254,-33.87941,609.6 18.38728,-33.879833,609.6 18.383102,-33.881744,640.08 18.38192,-33.882294,640.08 18.377666,-33.884583,640.08 18.376865,-33.885094,640.08 18.372561,-33.887924,640.08 18.371607,-33.888611,640.08 18.367683,-33.891861,640.08 18.366787,-33.892731,640.08 18.363419,-33.896591,609.6 18.362638,-33.897537,609.6 18.359612,-33.90152,609.6 18.358784,-33.902554,609.6 18.355911,-33.906235,640.08 18.35392,-33.908928,670.56 18.350531,-33.914795,670.56 18.350086,-33.915726,670.56 18.348484,-33.919636,701.04 18.348026,-33.920845,701.04 18.346495,-33.924911,701.04 18.346081,-33.926014,701.04 18.341675,-33.938351,701.04 18.340302,-33.941982,701.04 18.335667,-33.954784,701.04 18.339544,-33.960663,701.04 18.349018,-33.960159,701.04 18.35043,-33.959064,701.04 18.353615,-33.954117,640.08 18.354286,-33.952652,609.6 18.356361,-33.947662,579.12 18.356953,-33.946171,579.12 18.359013,-33.941238,579.12 18.359299,-33.940445,579.12 18.364489,-33.928253,579.12 18.366562,-33.923767,579.12 18.369999,-33.917587,579.12 18.370598,-33.916672,579.12 18.373432,-33.912373,579.12 18.374062,-33.911491,579.12 18.377213,-33.907379,579.12 18.378054,-33.906235,579.12 18.381697,-33.902115,579.12 18.38253,-33.901154,579.12 18.386236,-33.897675,579.12 18.387451,-33.896687,579.12 18.3922,-33.893566,548.64 18.393631,-33.892868,548.64 18.399239,-33.890633,518.16 18.40081,-33.890076,518.16 18.406471,-33.888519,457.2 18.407936,-33.888214,457.2 18.413944,-33.887096,426.72 18.415604,-33.886864,396.24 18.420877,-33.886047,365.76 18.422447,-33.885864,335.28 18.427563,-33.885372,274.32 18.429117,-33.885544,243.84 18.432425,-33.888153,213.36 18.43277,-33.889099,213.36 18.432705,-33.892639,152.4 18.43214,-33.89394,121.92 18.428478,-33.898548,60.96 18.427505,-33.899807,30.48 18.426962,-33.900944,0 18.427267,-33.900879,30.48 18.430996,-33.900177,60.96 18.431919,-33.900055,91.44 18.436741,-33.898544,152.4 18.437576,-33.897991,152.4 18.439878,-33.895294,213.36 18.440159,-33.894653,243.84 18.440832,-33.891678,274.32 18.440895,-33.891052,304.8 18.440496,-33.887695,335.28 18.440208,-33.886772,335.28 18.438492,-33.883698,396.24 18.43792,-33.882908,396.24 18.435452,-33.88028,426.72 18.434443,-33.87941,457.2 18.431396,-33.877182,487.68 18.430407,-33.876617,487.68 18.42659,-33.874947,518.16 18.425417,-33.874557,548.64 18.421661,-33.873688,579.12 18.420542,-33.873505,579.12 18.416576,-33.873131,609.6 18.415497,-33.873138,609.6 18.410797,-33.873363,609.6 18.409767,-33.873409,609.6 18.404846,-33.873962,640.08 18.40353,-33.874203,640.08 18.398266,-33.875271,640.08 18.397167,-33.875565,640.08 18.392067,-33.877075,670.56 18.391058,-33.877396,670.56 18.386135,-33.879276,670.56 18.385162,-33.879696,701.04 18.380756,-33.882023,701.04 18.379841,-33.882534,701.04 18.375978,-33.885086,701.04 18.374863,-33.885933,701.04 18.371103,-33.889069,731.52 18.37043,-33.889709,731.52 18.367023,-33.893101,731.52 18.36628,-33.893894,731.52 18.363144,-33.897766,731.52 18.362503,-33.89864,731.52 18.359612,-33.902893,731.52 18.358938,-33.904037,731.52 18.356609,-33.907951,731.52 18.35598,-33.909069,731.52 18.353615,-33.913284,762 18.353062,-33.91433,762 18.351036,-33.918594,762 18.350643,-33.919464,762 18.347504,-33.926376,762 18.347055,-33.927383,731.52 18.34053,-33.942585,731.52 18.338593,-33.947067,701.04 18.337416,-33.958511,731.52 18.337751,-33.958969,731.52 18.353977,-33.957996,609.6 18.354435,-33.957111,609.6 18.356136,-33.951828,609.6 18.356417,-33.950729,609.6 18.357582,-33.945892,609.6 18.357874,-33.944412,579.12 18.359163,-33.939423,579.12 18.360329,-33.935978,579.12 18.362246,-33.93132,609.6 18.362694,-33.930267,579.12 18.364769,-33.925781,579.12 18.365217,-33.92482,579.12 18.367458,-33.920517,579.12 18.368168,-33.919312,579.12 18.370766,-33.915207,579.12 18.371662,-33.913971,579.12 18.374802,-33.909943,579.12 18.375643,-33.908936,579.12 18.378754,-33.905113,579.12 18.379454,-33.904312,579.12 18.383209,-33.900238,579.12 18.384247,-33.899292,579.12 18.388367,-33.89608,579.12 18.389511,-33.895382,579.12 18.394604,-33.892822,548.64 18.395878,-33.892273,518.16 18.401596,-33.890396,487.68 18.402958,-33.889984,487.68 18.409163,-33.888519,426.72 18.410675,-33.888199,426.72 18.416462,-33.887051,365.76 18.41785,-33.88678,365.76 18.4231,-33.885887,304.8 18.424644,-33.885654,304.8 18.430294,-33.885544,243.84 18.431303,-33.88591,243.84 18.434275,-33.889069,213.36 18.43461,-33.890121,213.36 18.434258,-33.893333,152.4 18.433657,-33.894287,152.4 18.431023,-33.896667,91.44 18.430481,-33.897106,60.96 18.428535,-33.898781,60.96 18.428276,-33.899048,30.48 18.426933,-33.900642,30.48 18.426987,-33.900845,0 18.427734,-33.899338,60.96 18.428053,-33.898911,60.96 18.429966,-33.8965,91.44 18.430519,-33.895798,121.92 18.432655,-33.892868,152.4 18.43433,-33.89035,182.88 18.436661,-33.885792,213.36 18.436775,-33.885048,213.36 18.436235,-33.881378,274.32 18.435955,-33.880646,274.32 18.4338,-33.877785,304.8 18.433113,-33.877182,335.28 18.430182,-33.87529,365.76 18.429394,-33.874851,365.76 18.425045,-33.873455,426.72 18.424017,-33.873276,426.72 18.419868,-33.873001,457.2 18.418859,-33.872955,487.68 18.414574,-33.873039,518.16 18.413702,-33.873047,518.16 18.409386,-33.873459,548.64 18.408377,-33.873642,579.12 18.404274,-33.874619,579.12 18.402958,-33.875038,609.6 18.398905,-33.876389,609.6 18.397951,-33.876755,609.6 18.393635,-33.878632,609.6 18.3922,-33.879276,609.6 18.388081,-33.881325,640.08 18.387165,-33.881882,640.08 18.383322,-33.884262,640.08 18.382473,-33.884861,640.08 18.378925,-33.887653,670.56 18.378067,-33.888351,670.56 18.374802,-33.891312,701.04 18.37389,-33.892216,701.04 18.370686,-33.895428,701.04 18.369999,-33.896175,701.04 18.366852,-33.899757,701.04 18.366226,-33.900513,701.04 18.36359,-33.904087,731.52 18.362961,-33.905064,731.52 18.360786,-33.908558,731.52 18.360271,-33.909393,762 18.358212,-33.913212,762 18.357819,-33.914017,762 18.356024,-33.917862,762 18.355579,-33.918797,762 18.353895,-33.923309,762 18.353519,-33.92429,762 18.352268,-33.928253,762 18.35186,-33.92955,762 18.347969,-33.942726,762 18.347454,-33.944683,762 18.343693,-33.955215,731.52 18.343132,-33.956497,762 18.335566,-33.974442,762 18.333099,-33.979477,762 18.322449,-33.997787,731.52 18.320503,-34.001148,731.52 18.311348,-34.017441,762 18.30946,-34.020329,762 18.306698,-34.024063,731.52 18.305683,-34.025402,731.52 18.30143,-34.031616,731.52 18.300877,-34.035088,731.52 18.301933,-34.039719,731.52 18.302364,-34.040764,731.52 18.30468,-34.044891,731.52 18.305241,-34.045761,731.52 18.308144,-34.049377,762 18.309002,-34.0504,762 18.312191,-34.053955,762 18.313122,-34.054962,762 18.316452,-34.058441,762 18.317459,-34.059402,762 18.325424,-34.067162,762 18.326653,-34.067642,762 18.331318,-34.067299,762 18.331978,-34.066864,762 18.332706,-34.063339,731.52 18.332119,-34.062504,731.52 18.32811,-34.059952,670.56 18.326765,-34.059265,670.56 18.322048,-34.056873,640.08 18.321047,-34.056335,640.08 18.312492,-34.051472,640.08 18.31049,-34.050308,640.08 18.306194,-34.046768,640.08 18.305634,-34.046082,640.08 18.303671,-34.038162,640.08 18.303896,-34.037018,640.08 18.306082,-34.032578,609.6 18.306999,-34.031406,609.6 18.310118,-34.027679,609.6 18.311005,-34.026661,609.6 18.314495,-34.022423,609.6 18.315443,-34.021317,609.6 18.321476,-34.013252,609.6 18.322334,-34.012043,609.6 18.33046,-34.000031,579.12 18.333435,-33.995178,609.6 18.344994,-33.974056,609.6 18.347855,-33.968517,609.6 18.354435,-33.953247,609.6 18.356081,-33.948853,609.6 18.361187,-33.933697,609.6 18.362675,-33.929413,609.6 18.36533,-33.922943,609.6 18.365833,-33.921982,609.6 18.368467,-33.917679,609.6 18.369141,-33.916702,609.6 18.372173,-33.912422,609.6 18.372974,-33.911304,609.6 18.375978,-33.907471,579.12 18.376751,-33.906509,579.12 18.379959,-33.902893,579.12 18.381023,-33.901794,579.12 18.384705,-33.898129,579.12 18.385563,-33.897339,579.12 18.389824,-33.893738,609.6 18.391058,-33.892914,609.6 18.395878,-33.890488,579.12 18.39695,-33.890121,548.64 18.40238,-33.888702,518.16 18.403612,-33.888428,487.68 18.409309,-33.887562,457.2 18.41062,-33.887421,426.72 18.416119,-33.886818,396.24 18.417795,-33.886688,396.24 18.42581,-33.885864,335.28 18.427448,-33.885746,304.8 18.432705,-33.886322,274.32 18.433994,-33.886734,274.32 18.437977,-33.889145,243.84 18.438892,-33.890121,213.36 18.440437,-33.893429,182.88 18.440495,-33.89436,182.88 18.439598,-33.897308,152.4 18.438778,-33.897991,121.92 18.435688,-33.898922,121.92 18.434891,-33.899048,91.44 18.432312,-33.899338,91.44 18.431696,-33.899414,60.96 18.427076,-33.900875,0 18.426874,-33.901016,30.48 18.427563,-33.89962,60.96 18.427849,-33.8992,60.96 18.429222,-33.897243,91.44 18.429621,-33.896759,121.92 18.431696,-33.893692,152.4 18.43214,-33.893009,152.4 18.435574,-33.886909,213.36 18.436146,-33.8857,243.84 18.437918,-33.881882,274.32 18.438377,-33.880905,274.32 18.443298,-33.877319,365.76 18.444195,-33.877396,365.76 18.446548,-33.879547,426.72 18.446493,-33.880096,426.72 18.444099,-33.882023,457.2 18.443243,-33.882248,457.2 18.438759,-33.882523,487.68 18.437748,-33.882442,487.68 18.433096,-33.88147,487.68 18.432087,-33.881195,487.68 18.427099,-33.879456,487.68 18.42581,-33.878906,487.68 18.42071,-33.876755,487.68 18.419363,-33.876251,487.68 18.411068,-33.874512,518.16 18.409996,-33.874481,518.16 18.404961,-33.874947,548.64 18.40395,-33.875153,579.12 18.398905,-33.87648,609.6 18.397923,-33.876808,609.6 18.393635,-33.878494,640.08 18.392458,-33.878952,640.08 18.388538,-33.880581,670.56 18.387358,-33.881012,670.56 18.382425,-33.883209,701.04 18.381191,-33.88385,701.04 18.377495,-33.88612,731.52 18.376484,-33.886826,731.52 18.373289,-33.889252,762 18.372112,-33.890167,762 18.367996,-33.893845,762 18.36731,-33.894547,762 18.364096,-33.897995,762 18.363361,-33.898781,762 18.360117,-33.902664,762 18.359356,-33.903667,762 18.356024,-33.908615,762 18.355465,-33.909534,762 18.353334,-33.913925,762 18.352776,-33.915073,762 18.350924,-33.919098,762 18.350372,-33.920334,762 18.348656,-33.924385,792.48 18.348289,-33.925323,792.48 18.346825,-33.929691,762 18.346439,-33.931046,762 18.344814,-33.936035,762 18.343735,-33.939747,731.52 18.339209,-33.954254,731.52 18.33744,-33.959717,731.52 18.332201,-33.972977,731.52 18.32996,-33.977463,762 18.321419,-33.993889,731.52 18.319477,-33.997787,731.52 18.311977,-34.013718,701.04 18.310432,-34.016697,731.52 18.306313,-34.02615,731.52 18.305801,-34.027451,731.52 18.303337,-34.034805,731.52 18.303223,-34.036057,731.52 18.303726,-34.042969,701.04 18.304399,-34.044617,670.56 18.307457,-34.049099,640.08 18.308548,-34.050705,609.6 18.311575,-34.054825,609.6 18.312206,-34.05566,609.6 18.316956,-34.061295,579.12 18.317928,-34.062366,579.12 18.323021,-34.068092,579.12 18.324566,-34.069626,579.12 18.328783,-34.072174,548.64 18.330231,-34.072468,548.64 18.334751,-34.071815,548.64 18.336525,-34.070278,548.64 18.33086,-34.073864,548.64 18.331417,-34.074875,548.64 18.333548,-34.078629,548.64 18.334051,-34.079498,548.64 18.336525,-34.08392,548.64 18.337023,-34.084763,548.64 18.343506,-34.094345,548.64 18.344366,-34.0952,548.64 18.349634,-34.099594,548.64 18.351059,-34.100632,548.64 18.355801,-34.103806,579.12 18.35709,-34.104584,579.12 18.361965,-34.107513,609.6 18.363647,-34.108406,609.6 18.368805,-34.110992,609.6 18.370205,-34.111633,609.6 18.376091,-34.114243,609.6 18.377953,-34.115063,609.6 18.390497,-34.120193,609.6 18.395576,-34.12228,609.6 18.413927,-34.129715,609.6 18.418922,-34.131775,609.6 18.437469,-34.138962,609.6 18.439121,-34.139549,609.6 18.4461,-34.141342,609.6 18.447502,-34.141617,609.6 18.454456,-34.141876,640.08 18.456135,-34.141617,640.08 18.462696,-34.14006,640.08 18.464598,-34.13942,640.08 18.471661,-34.1353,640.08 18.47295,-34.134109,640.08 18.476257,-34.129349,640.08 18.476887,-34.127911,640.08 18.478489,-34.122696,609.6 18.478775,-34.121346,609.6 18.479462,-34.11655,609.6 18.479633,-34.115204,609.6 18.480068,-34.109344,609.6 18.480125,-34.108246,579.12 18.48032,-34.103333,579.12 18.48032,-34.102028,579.12 18.480091,-34.088108,579.12 18.479862,-34.083359,579.12 18.479061,-34.068371,579.12 18.479059,-34.06398,579.12 18.479452,-34.057526,609.6 18.479519,-34.056686,609.6 18.479977,-34.0518,609.6 18.480148,-34.050541,609.6 18.481522,-34.032757,579.12 18.481806,-34.028824,579.12 18.483376,-34.011154,579.12 18.483713,-34.00676,548.64 18.485058,-33.988586,487.68 18.485281,-33.984375,487.68 18.485451,-33.965424,457.2 18.485355,-33.964375,457.2 18.48489,-33.958557,457.2 18.484783,-33.957485,457.2 18.484211,-33.952782,457.2 18.483936,-33.950912,426.72 18.482927,-33.94519,396.24 18.482647,-33.944092,396.24 18.481178,-33.938492,365.76 18.480854,-33.937317,365.76 18.478891,-33.931549,365.76 18.478388,-33.930267,365.76 18.476145,-33.925552,335.28 18.475304,-33.924179,335.28 18.47105,-33.918472,335.28 18.470261,-33.917587,335.28 18.465157,-33.912373,304.8 18.463982,-33.911224,304.8 18.459835,-33.907299,304.8 18.458488,-33.906052,304.8 18.453949,-33.902527,274.32 18.45314,-33.901947,274.32 18.448219,-33.899246,213.36 18.447075,-33.898827,213.36 18.442289,-33.898087,152.4 18.440895,-33.898129,152.4 18.43586,-33.898594,121.92 18.435339,-33.898682,121.92 18.431976,-33.899368,91.44 18.431053,-33.89962,91.44 18.428249,-33.89999,60.96 18.427906,-33.90004,60.96
        </coordinates>
      </LineString>
    </Placemark>
  </Document>
</kml>