<?xml version="1.0" encoding="UTF-8"?>
<kml xmlns="http://www.opengis.net/kml/2.2">
  <Document>
    <name>Flight Path - Optimised</name>
    <description><![CDATA[Optimised flight path with 53 points (decimated from 261 original points). Source format: Google Earth Extended (gx:coord)]]></description>
    
    <Style id="flightPath">
      <LineStyle>
        <color>ff0000ff</color>
        <width>3</width>
      </LineStyle>
    </Style>
    
    <Placemark>
      <name>Flight Path</name>
      <description><![CDATA[Optimized flight path]]></description>
      <styleUrl>#flightPath</styleUrl>
      <LineString>
        <extrude>1</extrude>
        <tessellate>1</tessellate>
        <altitudeMode>absolute</altitudeMode>
        <coordinates>
          18.427277,-33.901295,15 18.428078,-33.901574,22 18.430481,-33.901155,38 18.436775,-33.89799,99 18.440151,-33.894219,152 18.441449,-33.888702,205 18.439064,-33.882907,243 18.432312,-33.877258,320 18.422671,-33.873962,380 18.409538,-33.873363,457 18.395176,-33.876157,556 18.381921,-33.881973,647 18.368524,-33.891678,716 18.355179,-33.905857,754 18.344814,-33.922531,815 18.336406,-33.939056,922 18.327084,-33.96158,982 18.324074,-33.974487,1005 18.309613,-33.99614,990 18.297901,-34.014743,998 18.291664,-34.032153,1005 18.291779,-34.044908,937 18.295326,-34.056453,891 18.301149,-34.067505,800 18.317796,-34.084167,708 18.342516,-34.098358,723 18.366165,-34.110082,822 18.38871,-34.120556,815 18.407088,-34.127197,800 18.423958,-34.131728,807 18.434715,-34.13252,784 18.44553,-34.130704,769 18.456078,-34.125641,708 18.467065,-34.116943,640 18.472614,-34.107101,640 18.475473,-34.090118,647 18.475399,-34.061155,632 18.477631,-34.025962,624 18.481358,-33.999847,571 18.482815,-33.966522,495 18.481919,-33.948715,502 18.47517,-33.928621,457 18.462693,-33.909348,419 18.448162,-33.89231,335 18.44128,-33.887878,312 18.43586,-33.888074,251 18.430538,-33.891612,175 18.428078,-33.895848,106 18.427099,-33.899826,45 18.427334,-33.900736,22 18.427505,-33.900922,15 18.427505,-33.900922,15 18.427491,-33.900925,15
        </coordinates>
      </LineString>
    </Placemark>
  </Document>
</kml>