<?xml version="1.0" encoding="UTF-8"?>
<kml xmlns="http://www.opengis.net/kml/2.2">
  <Document>
    <name>-/ZTRNW - Optimised</name>
    <description><![CDATA[Optimised flight path with 1204 points (decimated from 6017 original points). Source format: Standard KML]]></description>
    
    <Style id="flightPath">
      <LineStyle>
        <color>ff0000ff</color>
        <width>3</width>
      </LineStyle>
    </Style>
    
    <Placemark>
      <name>Flight Path</name>
      <description><![CDATA[<div style="width:220px; text-align:center;">
<div style="width:210px; text-align:center;">
<div style=" background: #000; color: #fff; font-size: 14px; text-align:left; border: 1px solid #000; padding: 2px 6px; text-shadow: 0 1px 0 #000; box-shadow: 0 1px 3px rgba(0,0,0,0.6); background: -webkit-gradient(linear, left top, left bottom, color-stop(0%,#808080), color-stop(2%,#303030), color-stop(100%,#0c0c0c));"><span style="font-size: 14px; font-weight: bold;"><a href="javascript:void(0);" style="color: #fff; cursor: pointer;text-decoration: none;">-</a></span> / ZTRNW<br/>Private owner</div>

<div style="border-top: 1px solid #005c90; color: #fff; padding-bottom: 5px; box-shadow: 0 0 1px #9BE3F6 inset, 0 1px 0 #9BE3F6 inset, 0 -1px 3px rgba(0,0,0,0.4); background:rgba(43,114,173,1); background: -webkit-gradient(linear, left top, left bottom, color-stop(0%,rgba(92,184,229,1)), color-stop(100%,rgba(43,114,173,1)));">
<a style="text-decoration: none; color: rgb(255, 255, 255); font-size: 12px; width:77px; display: inline-block;" title=" Airport" href="javascript:void(0);/departures"><h3 style="padding: 0px; margin: 10px 0px 0px; font-size: 16px; ">?</h3></a>
<span style="background: url(https://www.flightradar24.com/static/images/userUI_sprite.png?14) no-repeat scroll 0 -464px rgba(0, 0, 0, 0); border: medium none; display: inline-block; height: 16px; width: 45px;"></span>
<a style="text-decoration: none; color: rgb(255, 255, 255); font-size: 12px; width:77px; display: inline-block;" title="Cape Town Airport" href="https://www.flightradar24.com/airport/cpt/arrivals"><h3 style="padding: 0px; margin: 10px 0px 0px; font-size: 16px;">CPT</h3>Cape Town</a>
<div style=" margin-top:10px;">
<div style="display: inline-block; font-size: 12px; padding: 0 5px;">
<div>
<span style="color: #c1eaff;" title="Actual Time of Departure">ATD </span>
<span title="2025-09-30 07:45">07:45</span> <span title="Coordinated Universal Time">UTC</span>
</div>
</div>
<div style="display: inline-block; font-size: 12px; padding: 0 5px;">
<div>
<span style="color: #c1eaff;" title="Estimated Time of Arrival">ETA </span>
<span title="2025-09-30 08:35">08:35</span> <span title="Coordinated Universal Time">UTC</span>
</div>
</div>
</div>
<br style="clear: both;"/>
</div>

<div style="display: block;">
<table style="border-collapse: collapse; width: 100%;">
<tr style="border-right: 1px solid #dadada; ">
<td style="background: none repeat scroll 0 0 #dadada; padding: 0; width: 31px;">
<span style="background: url(https://www.flightradar24.com/static/images/userUI_sprite.png?14) no-repeat scroll -208px -464px rgba(0, 0, 0, 0); height: 26px; margin: 8px 0 0 4px; width: 23px; display: block;"></span>
</td>
<td colspan="2" style="border-bottom: 1px solid #dadada; border-left: 1px solid #dadada; color: #666; line-height: 1.1em; padding: 3px 6px; vertical-align: top; font-size: 14px;">
Aircraft<span style="float: right; font-size: 12px;">(EC20)</span><br>
<span style="color: #333; font-size: 16px; font-weight: bold; line-height: 1.3em;">Airbus Helicopters H120</span>
</td>
</tr>
<tr style="border-right: 1px solid #dadada; ">
<td style="background: none repeat scroll 0 0 #dadada; padding: 0; width: 31px;">
<td colspan="2" style="border-bottom: 1px solid #dadada; border-left: 1px solid #dadada; color: #666; line-height: 1.1em; padding: 3px 6px; vertical-align: top; font-size: 14px;">
Registration<br>
<span style="color: #333; font-size: 16px; font-weight: bold; line-height: 1.3em;"><a href="https://www.flightradar24.com/reg/zt-rnw" style="text-decoration: none; color: #333;">ZT-RNW</a></span>
</td>
</tr>
</table>
</div>

</div>
</div>]]></description>
      <styleUrl>#flightPath</styleUrl>
      <LineString>
        <extrude>1</extrude>
        <tessellate>1</tessellate>
        <altitudeMode>absolute</altitudeMode>
        <coordinates>
          18.426991,-33.901062,45.72 18.430195,-33.901108,38.1 18.433994,-33.900101,60.96 18.436741,-33.897217,91.44 18.437405,-33.893101,137.16 18.437077,-33.889206,182.88 18.436146,-33.885372,220.98 18.434778,-33.881561,251.46 18.433041,-33.877945,297.18 18.428707,-33.877552,381 18.426874,-33.880966,434.34 18.428936,-33.884583,480.06 18.432941,-33.884956,525.78 18.433743,-33.882393,556.26 18.430767,-33.879929,563.88 18.425922,-33.878586,563.88 18.419981,-33.878494,579.12 18.413927,-33.879639,594.36 18.408394,-33.881325,624.84 18.402716,-33.883392,655.32 18.397465,-33.885654,670.56 18.3922,-33.888725,693.42 18.387108,-33.892498,716.28 18.382538,-33.896255,731.52 18.377829,-33.900375,739.14 18.371159,-33.906647,739.14 18.360443,-33.918053,769.62 18.360729,-33.922848,853.44 18.364656,-33.924225,883.92 18.368299,-33.922256,899.16 18.367571,-33.919006,922.02 18.362526,-33.918869,929.64 18.357754,-33.923313,891.54 18.353004,-33.928619,853.44 18.348009,-33.934341,845.82 18.339214,-33.944962,845.82 18.335209,-33.9505,845.82 18.331305,-33.956635,838.2 18.322056,-33.973709,777.24 18.311966,-33.994583,746.76 18.309402,-34.001194,746.76 18.306141,-34.01046,739.14 18.301678,-34.025822,693.42 18.301563,-34.032291,701.04 18.303391,-34.0383,708.66 18.306885,-34.043743,708.66 18.311237,-34.049149,716.28 18.316383,-34.054359,716.28 18.321327,-34.059265,716.28 18.330803,-34.068138,731.52 18.33663,-34.071899,731.52 18.343449,-34.073677,746.76 18.348345,-34.071213,769.62 18.347855,-34.068604,822.96 18.344702,-34.071991,784.86 18.349171,-34.075493,754.38 18.355751,-34.076286,754.38 18.362303,-34.078262,777.24 18.367138,-34.084152,777.24 18.367739,-34.090393,777.24 18.367882,-34.096813,769.62 18.368748,-34.107193,754.38 18.369925,-34.113831,746.76 18.371487,-34.120743,746.76 18.373232,-34.127106,754.38 18.378811,-34.146019,731.52 18.38562,-34.164734,769.62 18.388538,-34.174881,769.62 18.38904,-34.182037,754.38 18.389854,-34.189034,739.14 18.39257,-34.210602,723.9 18.394432,-34.219246,754.38 18.39695,-34.231724,792.48 18.400154,-34.243454,792.48 18.403187,-34.252113,792.48 18.405762,-34.25835,792.48 18.408657,-34.264847,792.48 18.414574,-34.275902,800.1 18.418692,-34.281693,807.72 18.423214,-34.287445,792.48 18.427963,-34.292614,754.38 18.434105,-34.298172,701.04 18.440271,-34.303665,655.32 18.450809,-34.312042,617.22 18.457256,-34.316483,601.98 18.463783,-34.320545,594.36 18.476202,-34.328613,586.74 18.483295,-34.334232,579.12 18.488981,-34.338959,579.12 18.503666,-34.351269,601.98 18.505796,-34.357178,609.6 18.503208,-34.363979,594.36 18.498062,-34.368851,571.5 18.491783,-34.373199,563.88 18.486271,-34.377106,586.74 18.48444,-34.380829,670.56 18.488216,-34.379852,670.56 18.490677,-34.376312,655.32 18.493538,-34.372078,632.46 18.501377,-34.361744,563.88 18.502882,-34.356537,556.26 18.503151,-34.35178,556.26 18.501144,-34.347107,533.4 18.496113,-34.344193,518.16 18.492508,-34.339676,510.54 18.490677,-34.334511,510.54 18.490158,-34.329529,533.4 18.489935,-34.324951,533.4 18.489935,-34.320557,548.64 18.490047,-34.315796,556.26 18.490103,-34.305496,571.5 18.488846,-34.300667,571.5 18.487301,-34.295639,571.5 18.485699,-34.286934,556.26 18.483524,-34.275528,525.78 18.481922,-34.270641,533.4 18.480068,-34.264297,556.26 18.478775,-34.258209,556.26 18.476772,-34.247131,548.64 18.473396,-34.231956,571.5 18.469027,-34.216095,563.88 18.465328,-34.201138,533.4 18.464823,-34.196136,541.02 18.464699,-34.19141,548.64 18.464813,-34.186287,556.26 18.465326,-34.181625,579.12 18.466335,-34.177048,601.98 18.467445,-34.169342,601.98 18.46813,-34.16217,579.12 18.469643,-34.14537,594.36 18.471622,-34.12833,586.74 18.471622,-34.121067,563.88 18.471773,-34.114975,541.02 18.475399,-34.111664,518.16 18.478546,-34.107986,533.4 18.478611,-34.103348,533.4 18.478661,-34.098537,518.16 18.479059,-34.08847,472.44 18.479677,-34.073868,502.92 18.480406,-34.06723,487.68 18.481415,-34.057663,495.3 18.482479,-34.053177,502.92 18.484154,-34.045422,510.54 18.484612,-34.040951,518.16 18.48484,-34.036297,518.16 18.484777,-34.03157,533.4 18.48444,-34.026848,533.4 18.483925,-34.020142,533.4 18.483881,-34.00589,563.88 18.483824,-33.990601,548.64 18.483713,-33.98259,548.64 18.484049,-33.969589,525.78 18.484097,-33.95953,495.3 18.483601,-33.952148,457.2 18.482479,-33.944916,434.34 18.480892,-33.939838,419.1 18.478388,-33.934845,411.48 18.475248,-33.92981,403.86 18.471508,-33.92527,396.24 18.467289,-33.920563,373.38 18.462299,-33.915344,342.9 18.449295,-33.902206,243.84 18.445204,-33.899597,205.74 18.439751,-33.898315,160.02 18.435507,-33.898682,114.3 18.431683,-33.899155,76.2 18.42802,-33.899712,38.1 18.426933,-33.900551,30.48 18.427435,-33.899643,38.1 18.428879,-33.898224,38.1 18.43111,-33.895615,91.44 18.433489,-33.892273,152.4 18.434944,-33.889423,205.74 18.434946,-33.886368,251.46 18.432884,-33.883232,289.56 18.429451,-33.88044,327.66 18.424969,-33.878769,373.38 18.420036,-33.87854,411.48 18.415049,-33.878952,457.2 18.409105,-33.880508,495.3 18.404285,-33.882797,548.64 18.39941,-33.885468,571.5 18.394718,-33.888168,609.6 18.390217,-33.891266,640.08 18.385788,-33.894791,678.18 18.382015,-33.898361,716.28 18.37801,-33.902271,754.38 18.371658,-33.909023,777.24 18.356752,-33.924866,762 18.343525,-33.941071,754.38 18.329716,-33.960556,739.14 18.313637,-33.987789,754.38 18.309231,-33.99696,754.38 18.30653,-34.003647,746.76 18.302765,-34.014183,731.52 18.298346,-34.028687,716.28 18.297672,-34.034527,830.58 18.301598,-34.033356,777.24 18.30496,-34.029968,723.9 18.308029,-34.026054,685.8 18.31295,-34.019676,655.32 18.319309,-34.01033,640.08 18.332062,-33.991608,617.22 18.346653,-33.969028,624.84 18.355183,-33.953751,632.46 18.360558,-33.941982,609.6 18.366282,-33.930542,594.36 18.370342,-33.923546,601.98 18.377436,-33.912048,586.74 18.380871,-33.907299,579.12 18.384611,-33.90271,563.88 18.388596,-33.898224,487.68 18.392963,-33.894012,548.64 18.397808,-33.890354,563.88 18.402672,-33.887516,563.88 18.408937,-33.88504,556.26 18.414598,-33.883804,525.78 18.420525,-33.88356,480.06 18.425961,-33.884441,426.72 18.430767,-33.886444,373.38 18.434217,-33.889206,320.04 18.436123,-33.892456,259.08 18.435631,-33.89571,205.74 18.433434,-33.897537,152.4 18.430855,-33.898682,99.06 18.428822,-33.899479,53.34 18.426931,-33.900467,30.48 18.426426,-33.899231,76.2 18.428949,-33.896484,91.44 18.431854,-33.893147,129.54 18.434723,-33.888794,167.64 18.435562,-33.885132,220.98 18.434029,-33.882114,274.32 18.431751,-33.879822,312.42 18.428822,-33.877693,350.52 18.424633,-33.876617,388.62 18.419895,-33.876808,419.1 18.41486,-33.87788,457.2 18.409653,-33.879414,495.3 18.40416,-33.881416,533.4 18.398849,-33.883942,571.5 18.393972,-33.886871,609.6 18.388824,-33.890587,647.7 18.384331,-33.89447,685.8 18.380014,-33.898361,716.28 18.375721,-33.902786,746.76 18.371552,-33.907242,762 18.362331,-33.917774,762 18.354378,-33.928062,746.76 18.349859,-33.934479,723.9 18.338528,-33.952641,777.24 18.342876,-33.955204,792.48 18.347912,-33.953247,769.62 18.351631,-33.949711,769.62 18.355015,-33.945694,746.76 18.358603,-33.941391,723.9 18.364849,-33.932812,678.18 18.367739,-33.92807,662.94 18.371607,-33.921387,640.08 18.376465,-33.915585,632.46 18.380072,-33.911407,609.6 18.391897,-33.898178,563.88 18.396378,-33.89436,556.26 18.401932,-33.890945,510.54 18.408508,-33.888306,502.92 18.415432,-33.886444,464.82 18.422728,-33.885544,441.96 18.429794,-33.885933,403.86 18.435631,-33.888073,365.76 18.440439,-33.891312,327.66 18.442514,-33.895706,281.94 18.441582,-33.899525,213.36 18.437805,-33.90065,167.64 18.433857,-33.900597,129.54 18.429901,-33.900558,83.82 18.427906,-33.900738,60.96 18.427162,-33.90004,76.2 18.429005,-33.897537,83.82 18.431416,-33.894379,68.58 18.435226,-33.889114,182.88 18.4359,-33.885452,152.4 18.434275,-33.882156,251.46 18.432367,-33.879318,289.56 18.429285,-33.877213,327.66 18.424856,-33.87648,358.14 18.420238,-33.876995,403.86 18.415718,-33.878578,457.2 18.41118,-33.880646,495.3 18.407032,-33.88298,525.78 18.402716,-33.88559,571.5 18.392143,-33.892448,655.32 18.386421,-33.897011,685.8 18.381901,-33.900875,708.66 18.375263,-33.907299,754.38 18.370766,-33.911911,769.62 18.366966,-33.916519,784.86 18.363087,-33.921707,792.48 18.357468,-33.929272,792.48 18.346495,-33.945007,868.68 18.349228,-33.947056,845.82 18.352261,-33.944916,822.96 18.355465,-33.941563,800.1 18.35947,-33.937233,723.9 18.362904,-33.932671,670.56 18.366169,-33.928345,655.32 18.374805,-33.916889,617.22 18.379566,-33.911453,594.36 18.383389,-33.90744,571.5 18.389797,-33.901203,502.92 18.395542,-33.896301,541.02 18.400784,-33.892498,541.02 18.406105,-33.889889,541.02 18.412571,-33.88784,533.4 18.419151,-33.886631,510.54 18.425732,-33.886211,464.82 18.432592,-33.8871,411.48 18.438663,-33.889984,350.52 18.441696,-33.893799,304.8 18.441616,-33.897629,236.22 18.43775,-33.899048,175.26 18.434486,-33.89962,144.78 18.432032,-33.900009,114.3 18.427492,-33.900833,68.58 18.428724,-33.897446,99.06 18.431683,-33.891148,175.26 18.43276,-33.887604,205.74 18.432083,-33.884026,236.22 18.429846,-33.881149,266.7 18.426651,-33.879044,304.8 18.422356,-33.877834,327.66 18.41795,-33.878483,365.76 18.413141,-33.88028,411.48 18.410912,-33.88393,472.44 18.413759,-33.887054,518.16 18.418299,-33.888016,563.88 18.422241,-33.887329,594.36 18.422447,-33.885086,609.6 18.419037,-33.88356,601.98 18.41423,-33.882908,594.36 18.409105,-33.883163,594.36 18.403244,-33.884209,594.36 18.39756,-33.886093,594.36 18.3918,-33.888725,586.74 18.386593,-33.89175,579.12 18.381191,-33.895569,586.74 18.376036,-33.899918,579.12 18.371258,-33.904366,571.5 18.366852,-33.908882,571.5 18.362638,-33.913925,579.12 18.358841,-33.919266,586.74 18.355637,-33.924759,594.36 18.352833,-33.930435,601.98 18.350372,-33.936211,617.22 18.350201,-33.941376,678.18 18.354435,-33.943192,731.52 18.357353,-33.940536,731.52 18.35947,-33.937374,762 18.360443,-33.934208,807.72 18.357182,-33.933929,845.82 18.354206,-33.938725,838.2 18.35182,-33.945053,830.58 18.349686,-33.950687,822.96 18.338593,-33.977829,746.76 18.330521,-34.000626,624.84 18.329544,-34.007389,617.22 18.330402,-34.015301,609.6 18.334465,-34.02182,678.18 18.339844,-34.027405,624.84 18.346767,-34.035877,708.66 18.349857,-34.042347,708.66 18.351372,-34.049194,716.28 18.351707,-34.05629,739.14 18.351402,-34.063065,739.14 18.350924,-34.070343,731.52 18.350363,-34.090393,701.04 18.350887,-34.104542,739.14 18.353348,-34.110733,746.76 18.354174,-34.118637,754.38 18.352213,-34.125366,754.38 18.349915,-34.131962,769.62 18.347,-34.143494,784.86 18.346046,-34.151001,792.48 18.345451,-34.157986,792.48 18.346439,-34.1651,807.72 18.349628,-34.17181,815.34 18.354063,-34.177917,815.34 18.358955,-34.183636,815.34 18.366508,-34.19355,807.72 18.370514,-34.199833,800.1 18.3811,-34.215614,784.86 18.39426,-34.233585,800.1 18.408266,-34.251434,792.48 18.423176,-34.269974,784.86 18.438492,-34.289772,784.86 18.44767,-34.300735,754.38 18.460226,-34.314011,708.66 18.467569,-34.320511,662.94 18.47374,-34.32576,624.84 18.493824,-34.342377,541.02 18.50322,-34.349121,533.4 18.506918,-34.356079,548.64 18.504009,-34.361511,541.02 18.498175,-34.364502,533.4 18.491993,-34.365234,510.54 18.485813,-34.365143,502.92 18.479284,-34.364548,487.68 18.473511,-34.36322,464.82 18.468185,-34.360657,457.2 18.464527,-34.357136,464.82 18.461609,-34.353596,480.06 18.45686,-34.352386,502.92 18.452625,-34.355412,548.64 18.455238,-34.360519,525.78 18.462357,-34.362946,487.68 18.470036,-34.36409,457.2 18.477688,-34.364628,441.96 18.485355,-34.364491,426.72 18.493746,-34.363907,426.72 18.501034,-34.362953,441.96 18.505669,-34.35965,464.82 18.50647,-34.354622,457.2 18.505497,-34.350105,441.96 18.504066,-34.345169,426.72 18.501818,-34.336853,434.34 18.497446,-34.320786,480.06 18.494225,-34.308113,510.54 18.492336,-34.297688,441.96 18.489876,-34.28228,518.16 18.487076,-34.267181,518.16 18.484211,-34.25528,518.16 18.48238,-34.250763,502.92 18.480629,-34.246582,487.68 18.478203,-34.241405,472.44 18.475641,-34.237381,457.2 18.473398,-34.233536,449.58 18.466055,-34.220032,487.68 18.462244,-34.215042,518.16 18.459263,-34.211517,525.78 18.455181,-34.206985,533.4 18.450642,-34.202545,525.78 18.447304,-34.1996,563.88 18.443523,-34.196594,563.88 18.439823,-34.191833,571.5 18.439207,-34.187622,571.5 18.440495,-34.183308,579.12 18.443184,-34.178745,579.12 18.445316,-34.174301,571.5 18.447279,-34.1689,571.5 18.449879,-34.161987,563.88 18.455143,-34.149231,571.5 18.458376,-34.142807,586.74 18.46146,-34.138229,601.98 18.464487,-34.134384,624.84 18.468761,-34.127819,632.46 18.471045,-34.123627,632.46 18.473623,-34.118912,609.6 18.476257,-34.112923,594.36 18.477211,-34.1082,571.5 18.477715,-34.103851,571.5 18.478163,-34.099457,563.88 18.47962,-34.084488,586.74 18.480854,-34.077438,579.12 18.481865,-34.073212,563.88 18.484726,-34.059525,563.88 18.486443,-34.047562,586.74 18.487076,-34.039398,601.98 18.487076,-34.026901,617.22 18.486963,-34.011887,624.84 18.48657,-33.997375,601.98 18.4869,-33.993095,594.36 18.487188,-33.981583,541.02 18.486795,-33.969589,472.44 18.486179,-33.965332,449.58 18.485113,-33.954941,426.72 18.483656,-33.945053,403.86 18.482609,-33.940956,396.24 18.480406,-33.933151,381 18.478556,-33.929443,373.38 18.475641,-33.925735,373.38 18.472557,-33.922806,373.38 18.469027,-33.919876,358.14 18.464413,-33.916004,358.14 18.45892,-33.910606,381 18.456402,-33.90781,388.62 18.451595,-33.903576,381 18.448219,-33.901295,365.76 18.444811,-33.899414,327.66 18.441067,-33.898735,289.56 18.438148,-33.898922,243.84 18.434946,-33.899185,198.12 18.431683,-33.899525,144.78 18.429398,-33.900009,99.06 18.427563,-33.900505,68.58 18.427155,-33.900375,76.2 18.429062,-33.896301,114.3 18.430882,-33.89259,152.4 18.432655,-33.886864,213.36 18.431023,-33.883621,243.84 18.42802,-33.881279,266.7 18.424301,-33.880299,297.18 18.419724,-33.880344,320.04 18.415318,-33.881046,342.9 18.413366,-33.884491,403.86 18.417149,-33.887608,449.58 18.421719,-33.888382,487.68 18.425755,-33.888428,541.02 18.425674,-33.886955,556.26 18.421942,-33.88591,541.02 18.417458,-33.885406,541.02 18.412628,-33.885094,533.4 18.407078,-33.885605,533.4 18.401814,-33.886723,533.4 18.396492,-33.888493,541.02 18.391281,-33.891083,541.02 18.386574,-33.894424,548.64 18.381361,-33.89827,556.26 18.374859,-33.903534,556.26 18.37043,-33.907654,548.64 18.365822,-33.91256,541.02 18.361874,-33.917683,533.4 18.358603,-33.923264,525.78 18.355751,-33.929134,525.78 18.353233,-33.934765,533.4 18.351036,-33.941025,548.64 18.352774,-33.945557,640.08 18.356642,-33.945053,662.94 18.358883,-33.941391,670.56 18.360672,-33.937557,685.8 18.361855,-33.934067,723.9 18.359299,-33.933743,792.48 18.357481,-33.938828,792.48 18.355295,-33.94455,807.72 18.352268,-33.951553,800.1 18.349628,-33.957344,792.48 18.333828,-33.987717,708.66 18.328838,-34.000488,693.42 18.327213,-34.007492,685.8 18.327999,-34.014557,701.04 18.33209,-34.020859,723.9 18.337526,-34.025665,746.76 18.343105,-34.030849,762 18.348255,-34.037693,777.24 18.351517,-34.044163,762 18.354454,-34.052124,739.14 18.356552,-34.059525,723.9 18.357874,-34.066635,723.9 18.358383,-34.073399,716.28 18.357296,-34.080894,708.66 18.354778,-34.088249,701.04 18.352158,-34.094559,716.28 18.352089,-34.103657,746.76 18.358212,-34.107986,769.62 18.365479,-34.11134,754.38 18.372517,-34.114319,731.52 18.380182,-34.11731,693.42 18.398512,-34.124817,640.08 18.412189,-34.129669,586.74 18.420317,-34.131958,556.26 18.435003,-34.135803,548.64 18.442841,-34.136803,548.64 18.449535,-34.135918,541.02 18.455629,-34.133698,548.64 18.461348,-34.130173,533.4 18.465672,-34.126236,518.16 18.469419,-34.122299,510.54 18.472595,-34.118134,502.92 18.475193,-34.113922,495.3 18.477266,-34.109436,502.92 18.478388,-34.105133,495.3 18.479172,-34.100464,480.06 18.479677,-34.095932,480.06 18.479958,-34.0914,472.44 18.480263,-34.081825,441.96 18.481247,-34.072083,426.72 18.482208,-34.067162,434.34 18.483263,-34.062653,457.2 18.484945,-34.051987,464.82 18.486122,-34.040131,480.06 18.486843,-34.024284,457.2 18.487015,-34.016884,457.2 18.487524,-34.002823,449.58 18.48793,-33.987461,403.86 18.487524,-33.982956,381 18.486843,-33.969402,365.76 18.485641,-33.957298,381 18.483824,-33.944138,358.14 18.482609,-33.939514,342.9 18.480892,-33.935276,320.04 18.479004,-33.93045,297.18 18.476887,-33.926479,289.56 18.473736,-33.922668,266.7 18.470135,-33.919498,259.08 18.46653,-33.916519,259.08 18.459946,-33.910995,243.84 18.455029,-33.906277,236.22 18.44739,-33.89946,243.84 18.44313,-33.897903,243.84 18.438759,-33.897629,228.6 18.435345,-33.898315,190.5 18.431976,-33.899185,137.16 18.429173,-33.900055,91.44 18.427435,-33.900787,68.58 18.427219,-33.901062,30.48 18.427492,-33.901108,30.48 18.430824,-33.901016,38.1 18.431683,-33.900875,45.72 18.43461,-33.89978,68.58 18.435339,-33.899231,76.2 18.437077,-33.896347,106.68 18.43729,-33.895569,106.68 18.437405,-33.892124,152.4 18.437357,-33.891403,160.02 18.436909,-33.888245,198.12 18.436775,-33.887608,205.74 18.436012,-33.884903,228.6 18.435619,-33.883804,236.22 18.434555,-33.881058,251.46 18.4342,-33.880066,259.08 18.432257,-33.877396,312.42 18.431471,-33.877121,327.66 18.428078,-33.878067,388.62 18.427505,-33.878716,396.24 18.426987,-33.881744,441.96 18.427277,-33.882675,449.58 18.429794,-33.885048,487.68 18.43063,-33.885315,502.92 18.433434,-33.884583,533.4 18.433769,-33.884125,541.02 18.433285,-33.881695,556.26 18.432873,-33.881241,556.26 18.430014,-33.879593,563.88 18.428822,-33.87923,571.5 18.424873,-33.878437,571.5 18.423679,-33.878357,571.5 18.418915,-33.878632,579.12 18.417778,-33.878811,579.12 18.412693,-33.879959,601.98 18.411713,-33.880207,609.6 18.407307,-33.881695,632.46 18.405968,-33.882202,640.08 18.40147,-33.883884,662.94 18.400383,-33.884304,662.94 18.396206,-33.886307,678.18 18.395317,-33.886826,678.18 18.390884,-33.889656,701.04 18.390026,-33.890308,708.66 18.386236,-33.893188,723.9 18.385334,-33.893894,723.9 18.381361,-33.897263,731.52 18.38047,-33.897991,731.52 18.376808,-33.90134,746.76 18.375755,-33.902298,746.76 18.367367,-33.910141,746.76 18.364712,-33.912781,746.76 18.360004,-33.919144,784.86 18.359779,-33.920242,800.1 18.361301,-33.923313,861.06 18.36219,-33.923813,868.68 18.365593,-33.924057,883.92 18.366282,-33.923859,891.54 18.368626,-33.921543,906.78 18.368683,-33.920986,906.78 18.366852,-33.918564,929.64 18.365765,-33.91824,929.64 18.361473,-33.91959,922.02 18.3605,-33.920475,914.4 18.356752,-33.9245,883.92 18.355743,-33.925644,876.3 18.352146,-33.9296,853.44 18.351059,-33.930855,845.82 18.344421,-33.938396,838.2 18.341675,-33.941704,838.2 18.338367,-33.946152,838.2 18.337807,-33.946884,845.82 18.334351,-33.951805,853.44 18.333603,-33.952927,853.44 18.330744,-33.957458,838.2 18.326569,-33.964653,815.34 18.318386,-33.981224,762 18.316339,-33.985153,754.38 18.311462,-33.99575,746.76 18.311014,-33.996918,746.76 18.308945,-34.002407,746.76 18.30843,-34.003757,746.76 18.304596,-34.014881,723.9 18.303335,-34.018799,708.66 18.30154,-34.027084,693.42 18.301506,-34.028194,693.42 18.301678,-34.033455,701.04 18.301964,-34.034805,701.04 18.304138,-34.0396,708.66 18.30468,-34.040543,708.66 18.307762,-34.044937,708.66 18.308716,-34.04612,708.66 18.312149,-34.050167,716.28 18.3132,-34.051254,716.28 18.317236,-34.055191,716.28 18.318525,-34.056473,716.28 18.322048,-34.05999,716.28 18.323233,-34.061188,716.28 18.331833,-34.068836,731.52 18.333099,-34.069748,731.52 18.33807,-34.072605,731.52 18.3395,-34.07312,739.14 18.344421,-34.073547,746.76 18.346024,-34.073074,754.38 18.348793,-34.070435,784.86 18.348942,-34.07,800.1 18.347055,-34.068649,815.34 18.346138,-34.069023,807.72 18.345051,-34.072979,777.24 18.345566,-34.073723,777.24 18.350363,-34.075653,754.38 18.35154,-34.07579,754.38 18.35709,-34.076477,754.38 18.358383,-34.076752,762 18.36462,-34.079777,777.24 18.365479,-34.080708,777.24 18.367367,-34.08527,784.86 18.367516,-34.086319,784.86 18.367767,-34.091461,777.24 18.367767,-34.092857,777.24 18.367882,-34.098072,769.62 18.367964,-34.099548,762 18.368912,-34.108311,754.38 18.369196,-34.10994,754.38 18.370205,-34.115021,746.76 18.370598,-34.116806,746.76 18.371773,-34.121906,746.76 18.372116,-34.123257,746.76 18.373625,-34.128479,754.38 18.374802,-34.13269,754.38 18.380127,-34.149979,723.9 18.381529,-34.153656,723.9 18.387165,-34.168503,784.86 18.387909,-34.171017,777.24 18.388653,-34.176418,762 18.388767,-34.177814,762 18.389151,-34.183548,754.38 18.389339,-34.185169,754.38 18.390484,-34.193596,723.9 18.391113,-34.198242,716.28 18.393299,-34.214539,739.14 18.393574,-34.215614,746.76 18.394718,-34.220688,762 18.395037,-34.222092,769.62 18.397951,-34.235733,800.1 18.399017,-34.239441,800.1 18.400612,-34.244804,792.48 18.401012,-34.245968,784.86 18.403612,-34.253265,792.48 18.40423,-34.25473,792.48 18.406334,-34.259655,792.48 18.406963,-34.261097,792.48 18.410395,-34.268692,792.48 18.412342,-34.272362,792.48 18.415318,-34.276924,800.1 18.41629,-34.27832,800.1 18.419533,-34.282883,815.34 18.420467,-34.284092,815.34 18.424072,-34.288376,784.86 18.425026,-34.289474,777.24 18.429565,-34.294147,739.14 18.430767,-34.295265,731.52 18.435284,-34.299225,693.42 18.436546,-34.300388,685.8 18.441786,-34.304947,647.7 18.443069,-34.306065,647.7 18.451763,-34.312729,617.22 18.453598,-34.314026,609.6 18.458937,-34.317581,601.98 18.460058,-34.318268,601.98 18.465042,-34.321289,594.36 18.466616,-34.32225,594.36 18.478779,-34.33049,586.74 18.479748,-34.331253,586.74 18.484039,-34.334881,579.12 18.485355,-34.335953,579.12 18.492512,-34.341705,586.74 18.495712,-34.344284,594.36 18.504467,-34.352386,601.98 18.505125,-34.353699,601.98 18.505669,-34.358624,609.6 18.505325,-34.360161,609.6 18.502321,-34.365051,594.36 18.501202,-34.366196,586.74 18.496914,-34.369751,571.5 18.495596,-34.370682,563.88 18.490606,-34.374069,571.5 18.489418,-34.374916,571.5 18.48547,-34.377663,601.98 18.483994,-34.378876,647.7 18.485126,-34.381016,670.56 18.486156,-34.381016,670.56 18.488789,-34.379154,670.56 18.489304,-34.378456,662.94 18.491249,-34.375477,655.32 18.491783,-34.374664,655.32 18.494307,-34.37114,617.22 18.494968,-34.370308,609.6 18.501835,-34.360859,563.88 18.502266,-34.359604,563.88 18.502922,-34.355598,556.26 18.503036,-34.354527,556.26 18.503094,-34.350616,548.64 18.502939,-34.349716,541.02 18.500193,-34.346329,525.78 18.499317,-34.345821,525.78 18.494911,-34.343216,518.16 18.494307,-34.342621,518.16 18.49165,-34.337814,510.54 18.491364,-34.336979,510.54 18.490448,-34.333019,510.54 18.490391,-34.332184,518.16 18.490105,-34.328785,533.4 18.490046,-34.327927,533.4 18.489878,-34.324265,541.02 18.489878,-34.323212,541.02 18.48999,-34.319687,548.64 18.48999,-34.318916,548.64 18.490105,-34.313889,563.88 18.490158,-34.312958,563.88 18.489933,-34.304577,571.5 18.489647,-34.303318,571.5 18.48842,-34.2995,571.5 18.48814,-34.298676,571.5 18.486729,-34.292614,563.88 18.486443,-34.290703,563.88 18.485561,-34.28627,548.64 18.485394,-34.285034,548.64 18.483208,-34.27446,525.78 18.482927,-34.27359,525.78 18.481636,-34.269756,533.4 18.48135,-34.268917,541.02 18.479507,-34.261871,563.88 18.479347,-34.261097,563.88 18.478661,-34.257278,548.64 18.478489,-34.256069,548.64 18.4762,-34.244011,556.26 18.475473,-34.240906,556.26 18.472538,-34.229069,571.5 18.471886,-34.226486,563.88 18.46796,-34.212124,556.26 18.467176,-34.209091,548.64 18.465214,-34.200161,533.4 18.465103,-34.199203,533.4 18.464813,-34.19532,541.02 18.46471,-34.194168,541.02 18.46471,-34.190323,541.02 18.464767,-34.189545,502.92 18.464878,-34.185425,563.88 18.464928,-34.184566,571.5 18.465557,-34.180607,586.74 18.465719,-34.179886,594.36 18.466473,-34.176277,601.98 18.466644,-34.175255,609.6 18.46756,-34.168365,594.36 18.467625,-34.167206,594.36 18.468418,-34.158916,563.88 18.468578,-34.155762,563.88 18.470091,-34.141388,586.74 18.470535,-34.137825,594.36 18.471828,-34.125458,571.5 18.471773,-34.12413,563.88 18.471565,-34.119999,563.88 18.471493,-34.119049,563.88 18.472252,-34.114132,541.02 18.472782,-34.11351,533.4 18.476482,-34.110992,525.78 18.477459,-34.110176,525.78 18.478661,-34.107056,541.02 18.478718,-34.106033,541.02 18.478611,-34.102615,533.4 18.478603,-34.101471,533.4 18.478724,-34.097626,518.16 18.478779,-34.096756,518.16 18.479061,-34.085407,480.06 18.479061,-34.082382,480.06 18.479788,-34.07309,495.3 18.479977,-34.072002,495.3 18.480434,-34.066231,480.06 18.480434,-34.065346,480.06 18.481638,-34.056656,502.92 18.481865,-34.055847,502.92 18.482759,-34.051941,502.92 18.482985,-34.051071,502.92 18.484272,-34.044617,518.16 18.484383,-34.043652,518.16 18.484669,-34.04002,518.16 18.484722,-34.03894,510.54 18.484833,-34.035187,518.16 18.48484,-34.034389,525.78 18.484722,-34.030655,533.4 18.484665,-34.029602,533.4 18.484329,-34.025757,533.4 18.484211,-34.024612,533.4 18.483936,-34.016968,541.02 18.483868,-34.01302,541.02 18.483982,-34.002079,571.5 18.483936,-33.99852,563.88 18.483713,-33.986618,541.02 18.483713,-33.985474,541.02 18.483656,-33.97966,541.02 18.483696,-33.975964,525.78 18.484104,-33.966934,510.54 18.484097,-33.96265,502.92 18.483994,-33.956451,480.06 18.483936,-33.955307,480.06 18.483238,-33.948963,457.2 18.483095,-33.948074,457.2 18.482199,-33.94368,426.72 18.481979,-33.942959,426.72 18.480377,-33.938725,419.1 18.479788,-33.937546,411.48 18.47777,-33.933609,411.48 18.47723,-33.932766,411.48 18.474426,-33.928715,403.86 18.473682,-33.927876,403.86 18.470652,-33.924271,388.62 18.46981,-33.923309,388.62 18.466673,-33.919922,373.38 18.465729,-33.918938,312.42 18.460464,-33.91349,335.28 18.457603,-33.910606,289.56 18.448624,-33.901703,236.22 18.447615,-33.90097,228.6 18.443859,-33.899048,198.12 18.442795,-33.898727,182.88 18.439039,-33.898315,152.4 18.438086,-33.898361,144.78 18.43483,-33.898781,106.68 18.43405,-33.898911,99.06 18.431135,-33.899231,76.2 18.430653,-33.899292,68.58 18.427773,-33.899826,38.1 18.427505,-33.899944,38.1 18.426991,-33.900829,22.86 18.426931,-33.900558,30.48 18.427715,-33.899368,38.1 18.427906,-33.899155,38.1 18.429398,-33.897675,53.34 18.429794,-33.897243,60.96 18.431396,-33.895195,99.06 18.431919,-33.894562,114.3 18.433857,-33.891705,167.64 18.434105,-33.89122,175.26 18.435059,-33.888958,213.36 18.435171,-33.888245,220.98 18.434715,-33.885838,259.08 18.434372,-33.885139,266.7 18.432369,-33.882675,297.18 18.431683,-33.882023,304.8 18.42865,-33.879974,335.28 18.427963,-33.879696,342.9 18.423958,-33.87867,381 18.422928,-33.878578,396.24 18.418915,-33.878586,419.1 18.417835,-33.87867,434.34 18.413887,-33.879135,457.2 18.412743,-33.879368,464.82 18.408041,-33.880966,510.54 18.407368,-33.881241,518.16 18.403416,-33.883232,548.64 18.402557,-33.883698,556.26 18.39838,-33.886024,586.74 18.397503,-33.886505,586.74 18.393917,-33.888725,617.22 18.392906,-33.889389,624.84 18.389095,-33.89209,647.7 18.388195,-33.892776,662.94 18.385117,-33.895477,685.8 18.384163,-33.896301,693.42 18.3811,-33.899246,723.9 18.380239,-33.900009,731.52 18.3771,-33.903259,762 18.376465,-33.90395,762 18.370823,-33.909988,769.62 18.367252,-33.913677,769.62 18.354092,-33.928017,762 18.351402,-33.931229,762 18.339787,-33.946171,746.76 18.337191,-33.949814,754.38 18.324802,-33.968491,739.14 18.32144,-33.974121,754.38 18.31163,-33.991699,754.38 18.311005,-33.992954,754.38 18.308771,-33.998016,754.38 18.308155,-33.999435,754.38 18.306084,-34.004826,746.76 18.305397,-34.00655,739.14 18.302382,-34.015274,731.52 18.302046,-34.016418,731.52 18.297729,-34.031387,746.76 18.297501,-34.032433,762 18.298403,-34.034958,830.58 18.299332,-34.034946,807.72 18.302193,-34.032757,769.62 18.30283,-34.032166,762 18.305569,-34.029221,723.9 18.306194,-34.028458,716.28 18.308487,-34.025497,678.18 18.310776,-34.02261,662.94 18.313522,-34.018932,655.32 18.314154,-34.017975,655.32 18.321552,-34.006851,632.46 18.323626,-34.00383,632.46 18.334948,-33.987122,609.6 18.337919,-33.982361,601.98 18.349228,-33.964653,647.7 18.350487,-33.962418,647.7 18.356895,-33.950268,624.84 18.35821,-33.947342,617.22 18.361988,-33.938816,601.98 18.363703,-33.935211,601.98 18.366909,-33.929459,594.36 18.367538,-33.928387,594.36 18.372002,-33.920567,601.98 18.373737,-33.917633,594.36 18.378181,-33.910885,586.74 18.378782,-33.91008,579.12 18.381786,-33.906136,571.5 18.382416,-33.905346,563.88 18.38534,-33.901886,563.88 18.386021,-33.901016,556.26 18.389339,-33.897476,548.64 18.39016,-33.896622,548.64 18.393803,-33.893288,548.64 18.39489,-33.892448,502.92 18.398838,-33.889702,563.88 18.399754,-33.889145,563.88 18.40395,-33.886917,563.88 18.405239,-33.886368,563.88 18.410168,-33.884724,548.64 18.411123,-33.884537,548.64 18.415947,-33.883652,510.54 18.417034,-33.88356,502.92 18.421726,-33.883652,464.82 18.422756,-33.883793,457.2 18.426991,-33.884769,411.48 18.427963,-33.885139,403.86 18.431751,-33.887054,358.14 18.432312,-33.887466,350.52 18.434658,-33.889797,304.8 18.435171,-33.890533,297.18 18.436235,-33.893143,243.84 18.43626,-33.893753,236.22 18.435287,-33.896175,190.5 18.434887,-33.896545,182.88 18.432884,-33.897804,144.78 18.432541,-33.897942,137.16 18.430349,-33.898911,83.82 18.429901,-33.899048,76.2 18.428276,-33.899643,45.72 18.427963,-33.899757,38.1 18.426991,-33.900738,30.48 18.426933,-33.90097,15.24 18.426706,-33.898727,76.2 18.427219,-33.898129,76.2 18.42951,-33.895889,99.06 18.430126,-33.895203,106.68 18.432425,-33.892456,137.16 18.432928,-33.891769,144.78 18.435059,-33.888153,182.88 18.435345,-33.88747,190.5 18.435339,-33.884399,236.22 18.435116,-33.883884,243.84 18.433628,-33.881695,281.94 18.433266,-33.881287,289.56 18.431339,-33.879414,320.04 18.43071,-33.878948,327.66 18.427963,-33.877274,358.14 18.427277,-33.877041,358.14 18.423729,-33.876575,388.62 18.422783,-33.876572,396.24 18.418804,-33.876984,426.72 18.41795,-33.877132,434.34 18.413887,-33.878159,464.82 18.412693,-33.878494,480.06 18.408546,-33.879776,510.54 18.407536,-33.880112,518.16 18.403221,-33.88179,541.02 18.402267,-33.882202,548.64 18.398037,-33.884396,571.5 18.396893,-33.885048,586.74 18.393059,-33.88747,617.22 18.391897,-33.888245,624.84 18.387966,-33.891331,662.94 18.387077,-33.89209,662.94 18.383389,-33.895245,693.42 18.382473,-33.89608,693.42 18.379118,-33.899231,716.28 18.378296,-33.900085,731.52 18.374805,-33.903763,754.38 18.37385,-33.90477,754.38 18.370457,-33.908463,762 18.369827,-33.909161,762 18.359499,-33.921249,762 18.356953,-33.924526,754.38 18.353502,-33.92926,739.14 18.352661,-33.93045,739.14 18.347393,-33.938141,716.28 18.343849,-33.943237,693.42 18.338816,-33.95343,784.86 18.339615,-33.954365,784.86 18.344078,-33.955017,784.86 18.34487,-33.954758,777.24 18.348625,-33.952744,762 18.349522,-33.951965,762 18.352213,-33.949036,769.62 18.352947,-33.948174,762 18.355694,-33.944866,739.14 18.356323,-33.944122,739.14 18.360676,-33.938828,708.66 18.362904,-33.935791,693.42 18.36544,-33.931961,670.56 18.366108,-33.930901,670.56 18.368244,-33.927155,655.32 18.368683,-33.926338,655.32 18.373569,-33.918915,640.08 18.37429,-33.918053,640.08 18.3771,-33.914795,632.46 18.377884,-33.913879,624.84 18.382301,-33.908745,601.98 18.385452,-33.904999,579.12 18.39283,-33.897339,563.88 18.393467,-33.896713,563.88 18.397223,-33.893738,487.68 18.398289,-33.893005,518.16 18.403109,-33.890396,533.4 18.404453,-33.889801,533.4 18.409767,-33.887936,495.3 18.41118,-33.887512,487.68 18.416691,-33.886166,464.82 18.41835,-33.885933,464.82 18.424017,-33.885544,434.34 18.425388,-33.885559,426.72 18.431023,-33.886185,396.24 18.432312,-33.886597,388.62 18.436661,-33.888634,358.14 18.437862,-33.889332,350.52 18.44101,-33.891983,320.04 18.441561,-33.892822,304.8 18.442554,-33.896454,266.7 18.442497,-33.897476,243.84 18.44101,-33.900085,205.74 18.440327,-33.900421,190.5 18.436909,-33.90065,160.02 18.436123,-33.90065,152.4 18.433434,-33.900604,129.54 18.432713,-33.900597,121.92 18.42968,-33.900597,76.2 18.429005,-33.900604,76.2 18.427677,-33.900784,60.96 18.427334,-33.900829,53.34 18.42738,-33.899597,76.2 18.427715,-33.899094,76.2 18.429565,-33.896778,91.44 18.429958,-33.896347,99.06 18.431797,-33.893894,137.16 18.432425,-33.893005,83.82 18.435452,-33.888611,129.54 18.435787,-33.887833,190.5 18.435619,-33.884628,228.6 18.435287,-33.88393,213.36 18.433857,-33.881462,259.08 18.433628,-33.881046,266.7 18.431969,-33.878857,297.18 18.431396,-33.878391,304.8 18.428535,-33.876995,335.28 18.427773,-33.876801,335.28 18.424297,-33.87648,365.76 18.423288,-33.87648,373.38 18.419476,-33.877258,411.48 18.418236,-33.877647,426.72 18.414803,-33.878998,464.82 18.413944,-33.879322,472.44 18.410395,-33.881058,502.92 18.409481,-33.881557,518.16 18.406248,-33.883438,533.4 18.405182,-33.884033,541.02 18.401756,-33.886211,586.74 18.401203,-33.886551,586.74 18.389683,-33.894264,670.56 18.388983,-33.894836,678.18 18.385792,-33.897526,693.42 18.384666,-33.898453,693.42 18.381361,-33.901382,708.66 18.380239,-33.902481,723.9 18.374409,-33.908157,762 18.373344,-33.90921,762 18.370037,-33.912735,777.24 18.369308,-33.913559,777.24 18.366058,-33.917725,784.86 18.365364,-33.918705,784.86 18.362446,-33.922569,792.48 18.361702,-33.923592,792.48 18.354321,-33.93351,792.48 18.351484,-33.937408,784.86 18.346439,-33.945786,883.92 18.346775,-33.946518,883.92 18.349857,-33.946823,845.82 18.350315,-33.946545,838.2 18.352942,-33.944229,822.96 18.35339,-33.943817,822.96 18.356136,-33.940842,792.48 18.35701,-33.939888,754.38 18.36006,-33.936539,716.28 18.360786,-33.935558,708.66 18.363535,-33.931824,670.56 18.364105,-33.931087,670.56 18.366852,-33.927456,647.7 18.36874,-33.924942,632.46 18.376808,-33.914516,609.6 18.377436,-33.913834,601.98 18.380463,-33.910492,586.74 18.381157,-33.909676,579.12 18.384108,-33.906738,579.12 18.384991,-33.905857,510.54 18.390385,-33.900696,502.92 18.391399,-33.899807,571.5 18.396606,-33.895477,541.02 18.397636,-33.894684,541.02 18.401819,-33.891907,541.02 18.402828,-33.891403,541.02 18.407707,-33.889332,541.02 18.409081,-33.888866,541.02 18.413715,-33.887516,541.02 18.415216,-33.887192,533.4 18.420925,-33.886444,502.92 18.421829,-33.886414,495.3 18.427212,-33.88623,457.2 18.428444,-33.886276,441.96 18.433628,-33.88747,403.86 18.435003,-33.88797,388.62 18.439465,-33.890587,342.9 18.440208,-33.89138,335.28 18.441954,-33.894699,289.56 18.442097,-33.895523,274.32 18.441055,-33.898178,220.98 18.440104,-33.898636,205.74 18.437077,-33.899139,175.26 18.436432,-33.899246,167.64 18.433937,-33.899689,137.16 18.433434,-33.89978,129.54 18.431471,-33.900146,114.3 18.430138,-33.900318,99.06 18.427277,-33.900829,68.58 18.427048,-33.900921,60.96 18.429623,-33.895802,121.92 18.430855,-33.893143,152.4 18.431911,-33.890633,182.88 18.432255,-33.889656,190.5 18.432816,-33.886826,213.36 18.43276,-33.886322,220.98 18.431808,-33.883438,243.84 18.431358,-33.882751,251.46 18.429062,-33.880508,274.32 18.428612,-33.880188,281.94 18.425846,-33.878624,304.8 18.424969,-33.878311,312.42 18.421268,-33.877926,335.28 18.420372,-33.878036,342.9 18.416954,-33.878769,381 18.415833,-33.879089,388.62 18.412302,-33.88092,434.34 18.411741,-33.881561,441.96 18.411083,-33.884724,487.68 18.411541,-33.885513,495.3 18.414745,-33.887421,525.78 18.415718,-33.887653,541.02 18.419083,-33.888062,571.5 18.420036,-33.888062,571.5 18.422642,-33.886955,601.98 18.422838,-33.886505,609.6 18.421942,-33.884674,609.6 18.42127,-33.884262,609.6 18.418018,-33.883347,601.98 18.417402,-33.883209,601.98 18.413315,-33.882908,594.36 18.412228,-33.882908,594.36 18.407818,-33.883301,594.36 18.406906,-33.883465,594.36 18.402328,-33.884441,594.36 18.401127,-33.884815,594.36 18.396381,-33.886597,594.36 18.39529,-33.887051,594.36 18.39077,-33.889286,586.74 18.389431,-33.89003,586.74 18.385284,-33.892548,579.12 18.384163,-33.893326,579.12 18.38007,-33.896454,586.74 18.379005,-33.897354,586.74 18.375307,-33.900604,579.12 18.374186,-33.901611,579.12 18.370262,-33.905365,571.5 18.369484,-33.906136,571.5 18.365946,-33.909988,579.12 18.365021,-33.911072,579.12 18.361931,-33.914886,579.12 18.361073,-33.915958,579.12 18.358269,-33.920242,579.12 18.357651,-33.921249,579.12 18.355127,-33.92569,594.36 18.354664,-33.926666,594.36 18.352381,-33.931412,601.98 18.351803,-33.932766,601.98 18.349972,-33.937466,624.84 18.349743,-33.938725,632.46 18.351173,-33.942585,701.04 18.351933,-33.943085,716.28 18.355236,-33.942772,723.9 18.355865,-33.942215,723.9 18.357811,-33.939934,731.52 18.358212,-33.939373,739.14 18.359871,-33.936676,769.62 18.360157,-33.936024,777.24 18.36006,-33.933746,815.34 18.359585,-33.93351,830.58 18.356495,-33.934486,845.82 18.355637,-33.935513,845.82 18.353863,-33.939747,838.2 18.353334,-33.941025,838.2 18.351427,-33.946014,830.58 18.350868,-33.947479,830.58 18.349113,-33.952129,822.96 18.347616,-33.956085,807.72 18.336014,-33.984146,723.9 18.333828,-33.989777,701.04 18.330116,-34.002407,685.8 18.329945,-34.003662,685.8 18.329512,-34.009232,617.22 18.329544,-34.010784,609.6 18.330975,-34.016743,617.22 18.331697,-34.018158,609.6 18.335621,-34.02301,678.18 18.336639,-34.024147,685.8 18.340778,-34.028458,693.42 18.341618,-34.029408,693.42 18.347504,-34.037018,708.66 18.348232,-34.038391,701.04 18.350363,-34.043839,708.66 18.350698,-34.045166,708.66 18.351517,-34.050819,723.9 18.351597,-34.052078,723.9 18.351688,-34.057293,739.14 18.351631,-34.058594,739.14 18.351345,-34.064693,739.14 18.351259,-34.065994,739.14 18.350868,-34.071625,731.52 18.350716,-34.075958,708.66 18.350418,-34.091675,701.04 18.350544,-34.094578,701.04 18.351231,-34.105846,739.14 18.351765,-34.10733,739.14 18.353895,-34.112137,746.76 18.354206,-34.113247,754.38 18.353895,-34.119965,746.76 18.353462,-34.121487,754.38 18.351746,-34.126701,754.38 18.351402,-34.127586,754.38 18.349514,-34.133312,769.62 18.349056,-34.134663,769.62 18.346825,-34.144718,784.86 18.346596,-34.146297,792.48 18.345879,-34.152603,792.48 18.345711,-34.153885,792.48 18.34543,-34.159195,792.48 18.345598,-34.161118,800.1 18.346939,-34.166641,807.72 18.347616,-34.168121,815.34 18.350475,-34.173065,815.34 18.351427,-34.174484,815.34 18.354847,-34.178833,815.34 18.355923,-34.18005,815.34 18.359642,-34.184471,815.34 18.360786,-34.185867,815.34 18.367403,-34.195038,807.72 18.368282,-34.196388,800.1 18.371384,-34.201172,800.1 18.372223,-34.202454,792.48 18.383547,-34.219116,784.86 18.386192,-34.222786,792.48 18.397167,-34.237381,807.72 18.399868,-34.240894,807.72 18.411312,-34.255093,792.48 18.414459,-34.258957,784.86 18.426762,-34.274364,784.86 18.429846,-34.278305,784.86 18.441639,-34.293732,784.86 18.444139,-34.296753,769.62 18.448679,-34.301834,754.38 18.449633,-34.302887,746.76 18.462639,-34.316216,693.42 18.463669,-34.317146,685.8 18.468933,-34.321663,655.32 18.470036,-34.322617,647.7 18.477631,-34.329063,601.98 18.482323,-34.332882,579.12 18.496056,-34.34396,533.4 18.497446,-34.344955,533.4 18.50518,-34.351089,533.4 18.506134,-34.352509,541.02 18.506756,-34.357182,548.64 18.506357,-34.358459,548.64 18.502939,-34.36235,541.02 18.501593,-34.363129,533.4 18.497601,-34.364628,533.4 18.495932,-34.36496,525.78 18.491135,-34.36528,510.54 18.48959,-34.36528,510.54 18.484383,-34.365093,502.92 18.483263,-34.365005,495.3 18.478146,-34.364395,480.06 18.476887,-34.364117,472.44 18.472221,-34.362808,464.82 18.47105,-34.362347,457.2 18.467344,-34.35997,457.2 18.46656,-34.359238,457.2 18.464037,-34.356537,464.82 18.463383,-34.35569,472.44 18.460808,-34.353039,480.06 18.45989,-34.352646,487.68 18.455429,-34.352665,510.54 18.45451,-34.353058,525.78 18.452511,-34.356388,548.64 18.45274,-34.357368,548.64 18.45647,-34.361206,518.16 18.457775,-34.361698,510.54 18.463783,-34.363186,480.06 18.465216,-34.363449,480.06 18.471437,-34.364227,457.2 18.47295,-34.364365,449.58 18.479233,-34.364628,434.34 18.480516,-34.364639,434.34 18.487019,-34.364456,426.72 18.488981,-34.364273,426.72 18.495428,-34.363815,426.72 18.497257,-34.363651,426.72 18.502546,-34.36235,449.58 18.50333,-34.361893,449.58 18.506134,-34.358688,464.82 18.506357,-34.35791,464.82 18.506355,-34.353691,449.58 18.506189,-34.353012,449.58 18.505125,-34.348801,434.34 18.504868,-34.347916,434.34 18.50378,-34.344334,426.72 18.503443,-34.343124,426.72 18.500921,-34.332825,449.58 18.500061,-34.329716,457.2 18.496284,-34.317101,487.68 18.495316,-34.313461,502.92 18.494026,-34.307053,510.54 18.493801,-34.306046,510.54 18.491879,-34.295265,510.54 18.49128,-34.29158,510.54 18.489429,-34.279587,518.16 18.488731,-34.275902,525.78 18.4865,-34.2644,518.16 18.485928,-34.261703,518.16 18.483881,-34.254318,518.16 18.483524,-34.25351,510.54 18.482086,-34.250061,502.92 18.481695,-34.249146,502.92 18.480238,-34.245712,487.68 18.479462,-34.243919,480.06 18.477802,-34.240849,464.82 18.477266,-34.239944,464.82 18.475113,-34.236519,457.2 18.474745,-34.235825,449.58 18.472023,-34.231071,441.96 18.470306,-34.227997,457.2 18.464699,-34.218082,495.3 18.463982,-34.217194,495.3 18.461628,-34.214264,518.16 18.460922,-34.213428,525.78 18.458714,-34.210831,525.78 18.458176,-34.210262,533.4 18.453331,-34.205063,525.78 18.452715,-34.204468,525.78 18.449913,-34.201859,533.4 18.449352,-34.201355,548.64 18.446789,-34.199135,571.5 18.446217,-34.198624,571.5 18.441393,-34.194672,563.88 18.440838,-34.194016,563.88 18.439636,-34.190945,579.12 18.439487,-34.190048,579.12 18.439293,-34.186661,579.12 18.439465,-34.185684,579.12 18.441124,-34.182144,579.12 18.441525,-34.181538,579.12 18.443699,-34.177769,571.5 18.444195,-34.176819,579.12 18.445877,-34.172699,571.5 18.446213,-34.171692,571.5 18.447557,-34.168076,571.5 18.447876,-34.167107,571.5 18.45109,-34.158691,563.88 18.452168,-34.155937,563.88 18.455601,-34.148254,571.5 18.456696,-34.146057,579.12 18.458862,-34.141972,594.36 18.45989,-34.140381,601.98 18.462124,-34.137409,609.6 18.462639,-34.136711,617.22 18.465046,-34.133606,624.84 18.465551,-34.132919,632.46 18.469162,-34.127121,632.46 18.469677,-34.126282,640.08 18.471437,-34.122894,632.46 18.471828,-34.122253,632.46 18.474998,-34.116272,609.6 18.475361,-34.115479,601.98 18.476538,-34.111862,586.74 18.476761,-34.110855,579.12 18.477345,-34.107197,571.5 18.477402,-34.106403,563.88 18.477802,-34.102913,571.5 18.477917,-34.101936,571.5 18.4785,-34.096848,571.5 18.478718,-34.09444,579.12 18.480206,-34.080986,579.12 18.48032,-34.080147,586.74 18.481064,-34.076424,571.5 18.481293,-34.075634,571.5 18.482367,-34.070755,563.88 18.482927,-34.068329,563.88 18.48517,-34.05629,579.12 18.485338,-34.055374,579.12 18.486786,-34.04435,594.36 18.486958,-34.042023,594.36 18.487129,-34.036854,601.98 18.487131,-34.036148,601.98 18.487072,-34.023773,609.6 18.487072,-34.021072,609.6 18.486908,-34.008453,624.84 18.486671,-34.005665,624.84 18.486614,-33.996449,601.98 18.486683,-33.995499,609.6 18.487015,-33.990627,586.74 18.487186,-33.987278,579.12 18.487129,-33.979691,533.4 18.487129,-33.976429,510.54 18.486628,-33.968582,464.82 18.4865,-33.967819,464.82 18.486122,-33.964371,449.58 18.48601,-33.963455,449.58 18.48489,-33.952148,419.1 18.484552,-33.949631,411.48 18.483433,-33.944183,403.86 18.483263,-33.943497,403.86 18.482494,-33.940304,396.24 18.481918,-33.937775,388.62 18.480091,-33.932346,381 18.479748,-33.931694,381 18.478031,-33.928619,373.38 18.477573,-33.927971,381 18.47517,-33.925175,373.38 18.474598,-33.924664,373.38 18.471828,-33.922211,365.76 18.470989,-33.92157,365.76 18.468304,-33.919266,365.76 18.467737,-33.918777,365.76 18.462357,-33.914063,365.76 18.460636,-33.912422,373.38 18.458405,-33.910046,381 18.457872,-33.909485,312.42 18.454285,-33.905731,381 18.453541,-33.905064,373.38 18.450865,-33.90303,381 18.450165,-33.902554,373.38 18.447361,-33.900738,358.14 18.446941,-33.900467,350.52 18.444042,-33.899105,320.04 18.443186,-33.898911,304.8 18.440496,-33.898773,281.94 18.43998,-33.898781,274.32 18.43758,-33.899002,236.22 18.436796,-33.899048,228.6 18.433971,-33.899246,182.88 18.433266,-33.899323,175.26 18.431358,-33.899597,137.16 18.430799,-33.899689,129.54 18.428949,-33.900101,91.44 18.428612,-33.900192,83.82 18.427322,-33.900742,68.58 18.427212,-33.90097,60.96 18.427322,-33.899872,76.2 18.427563,-33.899338,83.82 18.429451,-33.895523,121.92 18.429737,-33.894962,129.54 18.431864,-33.890396,182.88 18.432312,-33.889145,190.5 18.43248,-33.886093,220.98 18.432255,-33.885468,228.6 18.430574,-33.883118,251.46 18.430014,-33.88266,251.46 18.427334,-33.880951,274.32 18.426704,-33.880718,281.94 18.423231,-33.880234,304.8 18.422413,-33.880207,304.8 18.418972,-33.880417,320.04 18.418076,-33.880508,327.66 18.414516,-33.881416,358.14 18.413944,-33.881927,365.76 18.41387,-33.885452,419.1 18.414402,-33.886024,419.1 18.417835,-33.88784,449.58 18.418915,-33.888062,464.82 18.422728,-33.888474,502.92 18.4235,-33.888584,510.54 18.426258,-33.888153,556.26 18.426426,-33.887924,556.26 18.425159,-33.886723,548.64 18.424358,-33.886444,548.64 18.421045,-33.885773,548.64 18.420296,-33.8857,548.64 18.416616,-33.885315,541.02 18.415546,-33.885235,533.4 18.411713,-33.885139,533.4 18.410511,-33.885189,533.4 18.406219,-33.885746,533.4 18.405127,-33.886002,533.4 18.400612,-33.887051,533.4 18.399633,-33.887375,541.02 18.395462,-33.888912,541.02 18.394308,-33.889435,541.02 18.390369,-33.891705,541.02 18.389168,-33.892544,541.02 18.385334,-33.89529,548.64 18.384611,-33.895798,548.64 18.38047,-33.898922,556.26 18.379669,-33.89957,556.26 18.374119,-33.904182,556.26 18.373146,-33.905113,556.26 18.369421,-33.908661,548.64 18.368683,-33.909443,548.64 18.365021,-33.91349,541.02 18.364264,-33.914429,541.02 18.361126,-33.918777,533.4 18.360443,-33.919823,533.4 18.357874,-33.924591,518.16 18.357353,-33.925735,518.16 18.355183,-33.93045,525.78 18.354721,-33.931416,533.4 18.352606,-33.936401,533.4 18.352158,-33.937546,533.4 18.350924,-33.941849,563.88 18.351036,-33.94313,586.74 18.353634,-33.945847,647.7 18.354549,-33.945938,655.32 18.357182,-33.94445,662.94 18.357651,-33.943817,662.94 18.359241,-33.940632,670.56 18.359499,-33.939972,678.18 18.361015,-33.936813,685.8 18.361404,-33.935989,685.8 18.361588,-33.93351,746.76 18.361301,-33.933277,762 18.358669,-33.934719,792.48 18.358269,-33.935883,792.48 18.357182,-33.939747,800.1 18.356752,-33.940979,800.1 18.354847,-33.945648,800.1 18.354378,-33.946732,807.72 18.351688,-33.952873,800.1 18.351204,-33.954025,800.1 18.346272,-33.963776,777.24 18.34322,-33.969635,762 18.332258,-33.99115,701.04 18.330975,-33.994305,693.42 18.3284,-34.001987,685.8 18.328054,-34.003235,685.8 18.327101,-34.008682,685.8 18.327084,-34.010227,685.8 18.328629,-34.016045,701.04 18.329231,-34.017197,708.66 18.333042,-34.021729,723.9 18.334236,-34.022842,731.52 18.338703,-34.026672,754.38 18.339657,-34.027451,754.38 18.344193,-34.032013,762 18.346024,-34.034389,769.62 18.348906,-34.038757,777.24 18.349634,-34.040131,777.24 18.352213,-34.045807,754.38 18.352774,-34.047272,754.38 18.354893,-34.05352,739.14 18.355352,-34.054962,739.14 18.356895,-34.060783,723.9 18.357182,-34.062038,731.52 18.357986,-34.067642,723.9 18.358154,-34.06929,716.28 18.358322,-34.075012,716.28 18.358154,-34.076702,716.28 18.356953,-34.08215,701.04 18.356472,-34.083664,701.04 18.354263,-34.089413,701.04 18.353806,-34.090622,701.04 18.351574,-34.095978,716.28 18.350811,-34.099823,723.9 18.353062,-34.104729,746.76 18.354263,-34.105705,754.38 18.359528,-34.108639,769.62 18.361073,-34.109383,762 18.366909,-34.111897,754.38 18.368412,-34.112549,754.38 18.374062,-34.114971,723.9 18.37553,-34.11557,708.66 18.384443,-34.11882,670.56 18.388479,-34.120377,647.7 18.402386,-34.126423,624.84 18.407089,-34.128067,601.98 18.413589,-34.130081,579.12 18.41544,-34.13063,571.5 18.421898,-34.132381,563.88 18.424015,-34.132938,556.26 18.436796,-34.136169,548.64 18.438263,-34.136429,548.64 18.444386,-34.136757,541.02 18.445765,-34.136627,541.02 18.450909,-34.135544,541.02 18.452225,-34.135128,548.64 18.457031,-34.132965,548.64 18.458153,-34.132324,541.02 18.462238,-34.129494,533.4 18.462917,-34.128891,525.78 18.466448,-34.125458,518.16 18.467216,-34.124699,510.54 18.47002,-34.121578,510.54 18.470652,-34.120743,502.92 18.47311,-34.11739,495.3 18.473682,-34.116505,495.3 18.475754,-34.112869,495.3 18.476032,-34.112228,502.92 18.477602,-34.108383,502.92 18.477859,-34.107567,502.92 18.478603,-34.104031,495.3 18.478779,-34.103073,487.68 18.479284,-34.09964,480.06 18.479404,-34.098862,480.06 18.479733,-34.095016,472.44 18.479845,-34.094055,472.44 18.480013,-34.090622,472.44 18.480034,-34.089691,464.82 18.480434,-34.079079,441.96 18.480778,-34.074936,434.34 18.481407,-34.071163,426.72 18.481583,-34.070206,434.34 18.482437,-34.066322,434.34 18.482647,-34.06517,441.96 18.483925,-34.059479,464.82 18.484329,-34.056702,472.44 18.485058,-34.051254,464.82 18.485226,-34.049881,464.82 18.486179,-34.037292,472.44 18.48657,-34.033722,464.82 18.486843,-34.023216,457.2 18.486843,-34.022377,464.82 18.487188,-34.014175,457.2 18.487188,-34.01152,457.2 18.487644,-34.000031,441.96 18.487701,-33.997379,434.34 18.48786,-33.986481,403.86 18.487804,-33.985703,396.24 18.487358,-33.980389,365.76 18.487301,-33.979595,365.76 18.486557,-33.966793,373.38 18.486214,-33.964233,373.38 18.485394,-33.954803,373.38 18.485012,-33.95129,373.38 18.483713,-33.943405,358.14 18.483433,-33.942352,350.52 18.482254,-33.938644,335.28 18.481865,-33.937698,335.28 18.480549,-33.934345,320.04 18.480181,-33.93338,312.42 18.478661,-33.9296,297.18 18.478317,-33.928902,289.56 18.476315,-33.925735,281.94 18.475809,-33.925049,281.94 18.473118,-33.922073,266.7 18.472446,-33.921478,266.7 18.469276,-33.918751,259.08 18.46859,-33.918194,251.46 18.465843,-33.915958,259.08 18.465042,-33.915352,251.46 18.457872,-33.909027,243.84 18.457088,-33.908279,243.84 18.452827,-33.904175,243.84 18.450809,-33.902252,243.84 18.446381,-33.898956,243.84 18.445873,-33.898689,243.84 18.44244,-33.897758,243.84 18.441582,-33.897617,243.84 18.438141,-33.89772,220.98 18.437357,-33.897858,213.36 18.434723,-33.898499,175.26 18.434105,-33.898636,167.64 18.431583,-33.899277,129.54 18.430824,-33.899525,114.3 18.428764,-33.900223,83.82 18.428307,-33.90041,76.2 18.427155,-33.901062,60.96 18.426931,-33.901245,68.58
        </coordinates>
      </LineString>
    </Placemark>
  </Document>
</kml>