<?xml version="1.0" encoding="UTF-8"?>
<kml xmlns="http://www.opengis.net/kml/2.2">
  <Document>
    <name>-/ZTHOT - Optimised</name>
    <description><![CDATA[Optimised flight path with 518 points (decimated from 2587 original points). Source format: Standard KML]]></description>
    
    <Style id="flightPath">
      <LineStyle>
        <color>ff0000ff</color>
        <width>3</width>
      </LineStyle>
    </Style>
    
    <Placemark>
      <name>Flight Path</name>
      <description><![CDATA[<div style="width:220px; text-align:center;">
<div style="width:210px; text-align:center;">
<div style=" background: #000; color: #fff; font-size: 14px; text-align:left; border: 1px solid #000; padding: 2px 6px; text-shadow: 0 1px 0 #000; box-shadow: 0 1px 3px rgba(0,0,0,0.6); background: -webkit-gradient(linear, left top, left bottom, color-stop(0%,#808080), color-stop(2%,#303030), color-stop(100%,#0c0c0c));"><span style="font-size: 14px; font-weight: bold;"><a href="javascript:void(0);" style="color: #fff; cursor: pointer;text-decoration: none;">-</a></span> / ZTHOT<br/>Cape Town Helicopters</div>

<div style="border-top: 1px solid #005c90; color: #fff; padding-bottom: 5px; box-shadow: 0 0 1px #9BE3F6 inset, 0 1px 0 #9BE3F6 inset, 0 -1px 3px rgba(0,0,0,0.4); background:rgba(43,114,173,1); background: -webkit-gradient(linear, left top, left bottom, color-stop(0%,rgba(92,184,229,1)), color-stop(100%,rgba(43,114,173,1)));">
<a style="text-decoration: none; color: rgb(255, 255, 255); font-size: 12px; width:77px; display: inline-block;" title=" Airport" href="javascript:void(0);/departures"><h3 style="padding: 0px; margin: 10px 0px 0px; font-size: 16px; ">?</h3></a>
<span style="background: url(https://www.flightradar24.com/static/images/userUI_sprite.png?14) no-repeat scroll 0 -464px rgba(0, 0, 0, 0); border: medium none; display: inline-block; height: 16px; width: 45px;"></span>
<a style="text-decoration: none; color: rgb(255, 255, 255); font-size: 12px; width:77px; display: inline-block;" title=" Airport" href="javascript:void(0);/arrivals"><h3 style="padding: 0px; margin: 10px 0px 0px; font-size: 16px;">?</h3></a>
<div style=" margin-top:10px;">
<div style="display: inline-block; font-size: 12px; padding: 0 5px;">
<div>
<span style="color: #c1eaff;" title="Actual Time of Departure">ATD </span>
<span title="2025-09-29 07:56">07:56</span> <span title="Coordinated Universal Time">UTC</span>
</div>
</div>
<div style="display: inline-block; font-size: 12px; padding: 0 5px;">
<div>
<span style="color: #c1eaff;" title="Estimated Time of Arrival">ETA </span>
<span title="2025-09-29 08:34">08:34</span> <span title="Coordinated Universal Time">UTC</span>
</div>
</div>
</div>
<br style="clear: both;"/>
</div>

<div style="display: block;">
<table style="border-collapse: collapse; width: 100%;">
<tr style="border-right: 1px solid #dadada; ">
<td style="background: none repeat scroll 0 0 #dadada; padding: 0; width: 31px;">
<span style="background: url(https://www.flightradar24.com/static/images/userUI_sprite.png?14) no-repeat scroll -208px -464px rgba(0, 0, 0, 0); height: 26px; margin: 8px 0 0 4px; width: 23px; display: block;"></span>
</td>
<td colspan="2" style="border-bottom: 1px solid #dadada; border-left: 1px solid #dadada; color: #666; line-height: 1.1em; padding: 3px 6px; vertical-align: top; font-size: 14px;">
Aircraft<span style="float: right; font-size: 12px;">(AS50)</span><br>
<span style="color: #333; font-size: 16px; font-weight: bold; line-height: 1.3em;">Airbus Helicopters H125</span>
</td>
</tr>
<tr style="border-right: 1px solid #dadada; ">
<td style="background: none repeat scroll 0 0 #dadada; padding: 0; width: 31px;">
<td colspan="2" style="border-bottom: 1px solid #dadada; border-left: 1px solid #dadada; color: #666; line-height: 1.1em; padding: 3px 6px; vertical-align: top; font-size: 14px;">
Registration<br>
<span style="color: #333; font-size: 16px; font-weight: bold; line-height: 1.3em;"><a href="https://www.flightradar24.com/reg/zt-hot" style="text-decoration: none; color: #333;">ZT-HOT</a></span>
</td>
</tr>
</table>
</div>

</div>
</div>]]></description>
      <styleUrl>#flightPath</styleUrl>
      <LineString>
        <extrude>1</extrude>
        <tessellate>1</tessellate>
        <altitudeMode>absolute</altitudeMode>
        <coordinates>
          18.432144,-33.900467,60.96 18.437176,-33.897758,152.4 18.438253,-33.893234,213.36 18.436947,-33.887653,274.32 18.433601,-33.88298,335.28 18.427849,-33.880394,396.24 18.421841,-33.879368,457.2 18.415607,-33.879089,518.16 18.409195,-33.87923,548.64 18.4021,-33.880234,579.12 18.394869,-33.882202,579.12 18.387909,-33.884907,579.12 18.381809,-33.88797,609.6 18.376259,-33.891495,640.08 18.370914,-33.89571,670.56 18.366169,-33.900192,670.56 18.361473,-33.905579,670.56 18.357426,-33.910675,701.04 18.352325,-33.917496,731.52 18.347168,-33.925232,731.52 18.344477,-33.930908,731.52 18.342247,-33.937325,731.52 18.337807,-33.948578,731.52 18.334923,-33.954086,731.52 18.338255,-33.9608,762 18.344078,-33.957901,731.52 18.347683,-33.952457,701.04 18.350601,-33.946732,701.04 18.353291,-33.941097,701.04 18.359947,-33.926422,609.6 18.364964,-33.917309,579.12 18.369028,-33.912094,548.64 18.373547,-33.907486,548.64 18.378334,-33.903214,518.16 18.383446,-33.899105,548.64 18.388367,-33.895294,518.16 18.401091,-33.886093,518.16 18.406849,-33.883091,487.68 18.413534,-33.881195,396.24 18.419981,-33.881012,365.76 18.425903,-33.882442,335.28 18.430424,-33.885235,304.8 18.432713,-33.889053,274.32 18.432827,-33.892914,213.36 18.432257,-33.895981,152.4 18.429285,-33.896942,60.96 18.427044,-33.898819,0 18.427099,-33.900101,0 18.430367,-33.901154,30.48 18.432999,-33.900784,60.96 18.436796,-33.898819,121.92 18.438982,-33.894516,182.88 18.438646,-33.889114,243.84 18.436403,-33.883667,274.32 18.432257,-33.878998,335.28 18.427492,-33.87648,396.24 18.423557,-33.878017,518.16 18.423786,-33.879601,579.12 18.423786,-33.880997,609.6 18.419252,-33.882156,579.12 18.412132,-33.881287,609.6 18.404732,-33.880859,609.6 18.396832,-33.881561,609.6 18.389208,-33.88353,609.6 18.383331,-33.885887,640.08 18.377045,-33.889572,640.08 18.371662,-33.893692,670.56 18.367081,-33.897942,670.56 18.362583,-33.902847,701.04 18.358498,-33.907627,731.52 18.354959,-33.912415,731.52 18.351746,-33.917168,762 18.34868,-33.922394,762 18.346195,-33.927505,792.48 18.345879,-33.931915,914.4 18.348484,-33.932766,1005.84 18.350544,-33.931927,1066.8 18.352942,-33.931091,1127.76 18.354959,-33.933838,1158.24 18.353291,-33.938538,1158.24 18.351002,-33.943703,1158.24 18.348141,-33.949478,1158.24 18.341114,-33.962952,1158.24 18.330914,-33.98204,1158.24 18.325481,-33.993607,1127.76 18.322281,-34.00145,1158.24 18.318413,-34.009232,1188.72 18.311966,-34.022598,1127.76 18.305744,-34.036514,1097.28 18.304424,-34.041977,1097.28 18.303223,-34.048279,1097.28 18.302494,-34.054825,1097.28 18.302994,-34.060688,1097.28 18.304735,-34.066269,1066.8 18.307571,-34.07135,1005.84 18.312304,-34.07373,1005.84 18.317459,-34.076019,975.36 18.322224,-34.080368,944.88 18.325367,-34.084198,914.4 18.330173,-34.0896,853.44 18.334007,-34.092716,853.44 18.33807,-34.095791,883.92 18.342876,-34.099281,883.92 18.347683,-34.101887,853.44 18.352718,-34.104122,853.44 18.357983,-34.106125,822.96 18.363873,-34.108429,792.48 18.371384,-34.110809,762 18.376987,-34.111267,762 18.382874,-34.11145,731.52 18.388479,-34.114517,731.52 18.392658,-34.118229,701.04 18.399353,-34.12051,640.08 18.405361,-34.121765,609.6 18.414879,-34.124084,579.12 18.438702,-34.129715,548.64 18.444923,-34.130722,548.64 18.450922,-34.130173,548.64 18.457031,-34.127289,548.64 18.461908,-34.122986,548.64 18.465385,-34.118366,548.64 18.468466,-34.112686,548.64 18.470135,-34.106171,548.64 18.471508,-34.100166,548.64 18.473175,-34.090805,579.12 18.473911,-34.084431,548.64 18.475416,-34.066086,548.64 18.475304,-34.059586,548.64 18.47477,-34.0504,579.12 18.473911,-34.038204,579.12 18.473511,-34.015347,579.12 18.474239,-34.001358,548.64 18.477058,-33.977779,457.2 18.480091,-33.963535,396.24 18.484612,-33.94445,304.8 18.483713,-33.938049,304.8 18.480549,-33.931648,304.8 18.475529,-33.925461,274.32 18.46998,-33.920197,243.84 18.46471,-33.915527,243.84 18.456059,-33.906975,274.32 18.451252,-33.901154,274.32 18.4445,-33.893475,274.32 18.435562,-33.885452,243.84 18.43008,-33.886585,213.36 18.429678,-33.890213,182.88 18.430367,-33.893475,121.92 18.429285,-33.896667,91.44 18.42794,-33.898224,30.48 18.427162,-33.899853,0 18.427063,-33.901192,0 18.429565,-33.901714,0 18.433342,-33.901016,91.44 18.437189,-33.898682,182.88 18.438814,-33.89415,243.84 18.438549,-33.889332,304.8 18.436832,-33.884491,365.76 18.433914,-33.879555,426.72 18.429508,-33.877087,548.64 18.425217,-33.877415,640.08 18.425137,-33.878769,670.56 18.425732,-33.880486,670.56 18.426933,-33.883232,670.56 18.424931,-33.886353,640.08 18.418465,-33.885792,609.6 18.411541,-33.884304,640.08 18.402386,-33.883652,640.08 18.395037,-33.884171,640.08 18.387909,-33.885281,670.56 18.381191,-33.887604,670.56 18.375587,-33.890945,731.52 18.371086,-33.895149,731.52 18.367138,-33.899712,792.48 18.360558,-33.905159,822.96 18.354836,-33.909393,853.44 18.353558,-33.914566,853.44 18.352549,-33.91983,883.92 18.349571,-33.926479,914.4 18.346664,-33.932098,883.92 18.344534,-33.939377,975.36 18.346943,-33.941162,1097.28 18.349131,-33.940201,1158.24 18.350811,-33.939056,1219.2 18.352716,-33.938461,1219.2 18.353462,-33.941887,1158.24 18.351688,-33.947334,1158.24 18.3494,-33.953339,1127.76 18.345394,-33.962883,1127.76 18.338593,-33.979111,1127.76 18.333323,-33.987167,1097.28 18.329201,-33.993095,1097.28 18.320038,-34.006989,1097.28 18.312721,-34.019909,1066.8 18.312696,-34.025528,1097.28 18.313929,-34.031296,1097.28 18.312696,-34.038483,1066.8 18.310789,-34.044479,1036.32 18.308773,-34.050632,1005.84 18.306713,-34.060738,975.36 18.307514,-34.066879,944.88 18.310432,-34.071861,914.4 18.315525,-34.073212,944.88 18.31959,-34.070572,975.36 18.32357,-34.06842,975.36 18.328167,-34.068832,975.36 18.333549,-34.069534,975.36 18.342934,-34.070885,975.36 18.348345,-34.072266,944.88 18.354034,-34.073956,944.88 18.359892,-34.076019,914.4 18.363876,-34.079311,914.4 18.367403,-34.083618,883.92 18.371159,-34.087555,883.92 18.380463,-34.09758,883.92 18.387974,-34.10701,822.96 18.393692,-34.111588,792.48 18.39896,-34.114609,762 18.404503,-34.117111,701.04 18.410059,-34.119415,670.56 18.425217,-34.125675,609.6 18.430882,-34.127167,609.6 18.443527,-34.132099,579.12 18.449968,-34.131638,609.6 18.455544,-34.128422,609.6 18.460506,-34.124496,579.12 18.464823,-34.119553,579.12 18.468521,-34.11438,579.12 18.470709,-34.108475,579.12 18.471909,-34.101982,579.12 18.472366,-34.09565,609.6 18.472195,-34.089134,609.6 18.471661,-34.08284,579.12 18.47065,-34.076145,579.12 18.468466,-34.062332,548.64 18.465843,-34.038532,548.64 18.465664,-34.030884,548.64 18.465786,-34.023075,579.12 18.466244,-34.004269,609.6 18.46756,-33.997845,579.12 18.469307,-33.991653,518.16 18.471222,-33.9856,487.68 18.47723,-33.9674,396.24 18.48461,-33.946976,365.76 18.48517,-33.939285,365.76 18.482592,-33.933517,335.28 18.478724,-33.927841,335.28 18.473959,-33.922577,304.8 18.468361,-33.918007,274.32 18.462524,-33.913353,274.32 18.451653,-33.904739,243.84 18.444843,-33.898083,243.84 18.440327,-33.89296,213.36 18.436317,-33.887238,213.36 18.430239,-33.885086,213.36 18.430014,-33.888382,182.88 18.430653,-33.891567,152.4 18.431168,-33.896126,91.44 18.428421,-33.897896,30.48 18.427048,-33.900318,0 18.43461,-33.899734,91.44 18.435171,-33.89946,121.92 18.43758,-33.897125,182.88 18.437918,-33.896347,182.88 18.438148,-33.892311,243.84 18.43792,-33.891148,243.84 18.436571,-33.886505,274.32 18.435955,-33.885406,304.8 18.432426,-33.88216,365.76 18.431583,-33.881744,365.76 18.426706,-33.880096,426.72 18.425585,-33.879868,426.72 18.420765,-33.879272,487.68 18.419323,-33.879181,487.68 18.414516,-33.879089,518.16 18.413486,-33.879089,518.16 18.408041,-33.879364,548.64 18.406528,-33.879547,548.64 18.400726,-33.880531,579.12 18.399181,-33.880951,579.12 18.393631,-33.882626,548.64 18.39229,-33.883118,579.12 18.386684,-33.885498,579.12 18.385506,-33.886074,579.12 18.380642,-33.888634,640.08 18.379555,-33.889286,640.08 18.37525,-33.892181,640.08 18.374062,-33.893101,640.08 18.369884,-33.896591,670.56 18.368805,-33.897537,670.56 18.365364,-33.901062,670.56 18.364544,-33.901978,670.56 18.360615,-33.906647,670.56 18.359871,-33.907578,701.04 18.356724,-33.911583,701.04 18.356024,-33.912506,701.04 18.351484,-33.918732,731.52 18.349411,-33.921753,731.52 18.346596,-33.926247,731.52 18.346024,-33.927456,731.52 18.344086,-33.932007,731.52 18.343525,-33.933609,731.52 18.341789,-33.938862,731.52 18.341331,-33.940258,731.52 18.337191,-33.949677,731.52 18.33663,-33.950729,731.52 18.334293,-33.955669,731.52 18.334332,-33.958282,762 18.339615,-33.960648,762 18.341002,-33.960159,762 18.344936,-33.956924,731.52 18.345795,-33.955669,731.52 18.348232,-33.951462,701.04 18.348793,-33.950363,701.04 18.351259,-33.945419,701.04 18.351688,-33.94445,701.04 18.354006,-33.93956,670.56 18.354549,-33.938305,670.56 18.36219,-33.922028,579.12 18.362904,-33.920708,579.12 18.36561,-33.916397,548.64 18.366339,-33.915436,548.64 18.369884,-33.911163,548.64 18.370766,-33.910217,548.64 18.374353,-33.906738,548.64 18.375378,-33.905766,548.64 18.37923,-33.902527,548.64 18.380184,-33.901714,518.16 18.384499,-33.898315,548.64 18.385395,-33.897583,548.64 18.391674,-33.892731,518.16 18.394588,-33.890533,518.16 18.4021,-33.885498,518.16 18.403301,-33.884815,518.16 18.407936,-33.882675,487.68 18.409218,-33.882248,457.2 18.414768,-33.881012,396.24 18.416004,-33.880905,396.24 18.421213,-33.881149,365.76 18.422356,-33.881371,365.76 18.426933,-33.882908,335.28 18.427963,-33.883419,335.28 18.431078,-33.88591,304.8 18.431751,-33.886826,304.8 18.432827,-33.889984,243.84 18.432884,-33.890495,243.84 18.43276,-33.893692,182.88 18.432713,-33.894314,182.88 18.431625,-33.8965,152.4 18.431225,-33.896687,121.92 18.428221,-33.897217,30.48 18.427906,-33.897385,30.48 18.427048,-33.899105,0 18.427044,-33.899323,0 18.427155,-33.900375,0 18.427362,-33.900585,0 18.430824,-33.901154,30.48 18.431078,-33.901154,30.48 18.433685,-33.900597,91.44 18.434555,-33.900238,91.44 18.437462,-33.898083,152.4 18.438091,-33.897106,152.4 18.439095,-33.893509,182.88 18.43915,-33.892548,213.36 18.43832,-33.887936,243.84 18.437973,-33.886871,243.84 18.435732,-33.882706,274.32 18.435059,-33.88179,304.8 18.431396,-33.8783,335.28 18.430481,-33.877647,335.28 18.426018,-33.876484,426.72 18.424931,-33.876667,457.2 18.423569,-33.878403,518.16 18.423569,-33.878723,548.64 18.423847,-33.879959,579.12 18.42396,-33.880188,579.12 18.423512,-33.881332,609.6 18.422279,-33.881973,609.6 18.417738,-33.881973,579.12 18.416576,-33.88179,579.12 18.41118,-33.881195,609.6 18.409538,-33.881046,609.6 18.403444,-33.88092,609.6 18.401819,-33.880966,609.6 18.395462,-33.881836,609.6 18.393747,-33.882202,609.6 18.387852,-33.883976,609.6 18.386822,-33.88435,609.6 18.381697,-33.886734,640.08 18.380463,-33.887421,640.08 18.376036,-33.890305,640.08 18.374802,-33.891174,670.56 18.370653,-33.894562,670.56 18.369713,-33.895382,670.56 18.366226,-33.898773,670.56 18.365078,-33.90004,670.56 18.361742,-33.903763,701.04 18.360958,-33.904648,701.04 18.357811,-33.908512,731.52 18.35709,-33.909439,731.52 18.354343,-33.913284,731.52 18.353615,-33.914337,731.52 18.351173,-33.918053,762 18.350487,-33.91917,762 18.348289,-33.923126,762 18.347616,-33.924408,762 18.345991,-33.92807,792.48 18.345486,-33.929672,822.96 18.346327,-33.932373,914.4 18.346943,-33.932693,944.88 18.348906,-33.932648,1005.84 18.349241,-33.932465,1036.32 18.351002,-33.93174,1066.8 18.351345,-33.931553,1097.28 18.353977,-33.931274,1158.24 18.354549,-33.931648,1158.24 18.354721,-33.934811,1158.24 18.354511,-33.935623,1158.24 18.35289,-33.939468,1188.72 18.352375,-33.940678,1188.72 18.35043,-33.944916,1158.24 18.349859,-33.946014,1158.24 18.347504,-33.950729,1158.24 18.347,-33.951736,1158.24 18.339558,-33.965862,1158.24 18.336468,-33.971634,1158.24 18.329119,-33.985382,1158.24 18.32682,-33.990097,1127.76 18.32514,-33.994629,1127.76 18.324579,-33.995956,1127.76 18.320599,-34.004883,1158.24 18.320045,-34.005943,1188.72 18.317871,-34.010319,1188.72 18.317291,-34.01152,1188.72 18.30978,-34.027039,1127.76 18.307457,-34.031967,1127.76 18.305521,-34.037384,1097.28 18.305225,-34.038532,1097.28 18.304138,-34.043373,1097.28 18.303852,-34.044815,1097.28 18.302994,-34.049702,1097.28 18.302774,-34.051208,1097.28 18.302479,-34.055988,1097.28 18.302479,-34.057106,1097.28 18.303278,-34.061874,1066.8 18.303623,-34.06311,1066.8 18.305241,-34.067459,1066.8 18.305683,-34.068558,1036.32 18.308491,-34.072174,1005.84 18.309345,-34.072746,1005.84 18.313293,-34.074051,1005.84 18.314381,-34.074421,975.36 18.318468,-34.076752,944.88 18.319141,-34.077301,944.88 18.322952,-34.081192,944.88 18.323593,-34.081963,944.88 18.326092,-34.085175,914.4 18.326878,-34.08609,883.92 18.331081,-34.090393,853.44 18.331776,-34.09095,853.44 18.33498,-34.093464,883.92 18.335724,-34.094021,883.92 18.338814,-34.096394,883.92 18.339544,-34.096893,883.92 18.343748,-34.099823,853.44 18.344822,-34.100445,853.44 18.348598,-34.102306,853.44 18.349514,-34.102726,853.44 18.353863,-34.104542,822.96 18.354624,-34.104858,822.96 18.359051,-34.106552,792.48 18.360271,-34.107056,792.48 18.364735,-34.10873,792.48 18.365833,-34.10907,762 18.372448,-34.111038,762 18.373457,-34.111221,762 18.378239,-34.111153,762 18.379269,-34.111107,731.52 18.384947,-34.112183,731.52 18.385956,-34.112686,731.52 18.38932,-34.115295,701.04 18.390049,-34.116074,701.04 18.393631,-34.11874,670.56 18.394604,-34.11916,670.56 18.400784,-34.120834,640.08 18.401871,-34.121021,609.6 18.406696,-34.122025,609.6 18.407593,-34.122231,609.6 18.418467,-34.124908,579.12 18.422985,-34.125862,579.12 18.439878,-34.129944,548.64 18.440952,-34.130146,548.64 18.446213,-34.130768,548.64 18.447361,-34.130703,548.64 18.452339,-34.129726,548.64 18.453781,-34.12912,548.64 18.457872,-34.126648,548.64 18.459034,-34.125771,548.64 18.462637,-34.122162,548.64 18.463366,-34.121246,548.64 18.466187,-34.117157,548.64 18.466816,-34.116226,548.64 18.468859,-34.111313,548.64 18.469139,-34.110168,548.64 18.470421,-34.105053,548.64 18.47065,-34.103798,548.64 18.471794,-34.098724,548.64 18.47208,-34.097561,579.12 18.473343,-34.089615,579.12 18.473454,-34.088436,579.12 18.474072,-34.083252,548.64 18.474827,-34.077961,548.64 18.475416,-34.064758,548.64 18.475416,-34.06366,548.64 18.475227,-34.058128,548.64 18.47517,-34.056732,548.64 18.474712,-34.049099,579.12 18.474598,-34.047935,579.12 18.47374,-34.034435,579.12 18.473679,-34.029144,579.12 18.473566,-34.013947,579.12 18.473736,-34.010422,579.12 18.47452,-33.997238,518.16 18.474968,-33.993301,487.68 18.47805,-33.972473,426.72 18.478891,-33.968674,426.72 18.481064,-33.95953,396.24 18.481358,-33.958466,396.24 18.484665,-33.943176,304.8 18.484554,-33.941704,304.8 18.483295,-33.936859,304.8 18.482592,-33.935303,304.8 18.479862,-33.930576,304.8 18.478889,-33.929272,274.32 18.474575,-33.9245,274.32 18.473398,-33.923355,274.32 18.468876,-33.919216,243.84 18.468018,-33.918457,243.84 18.463478,-33.914474,243.84 18.462299,-33.91333,243.84 18.454857,-33.905533,274.32 18.453781,-33.904221,274.32 18.450279,-33.90004,243.84 18.449135,-33.898781,243.84 18.440552,-33.889145,274.32 18.438869,-33.887421,243.84 18.433882,-33.885178,243.84 18.43276,-33.885269,243.84 18.429621,-33.887238,213.36 18.42934,-33.888062,213.36 18.429846,-33.890854,182.88 18.43008,-33.891613,152.4 18.430294,-33.894196,121.92 18.430195,-33.894779,121.92 18.428936,-33.897106,60.96 18.42865,-33.89743,60.96 18.427715,-33.898544,0 18.427547,-33.898865,0 18.427099,-33.900146,0 18.427044,-33.900421,0 18.427603,-33.901428,0 18.42794,-33.901566,0 18.43008,-33.901669,30.48 18.43063,-33.901566,30.48 18.434217,-33.900742,121.92 18.435059,-33.900421,121.92 18.437748,-33.897942,182.88 18.438148,-33.897106,182.88 18.438892,-33.893242,243.84 18.438869,-33.892136,274.32 18.438263,-33.88826,304.8 18.437918,-33.887054,335.28 18.436375,-33.883465,365.76 18.435843,-33.882339,396.24 18.432999,-33.87867,457.2 18.432087,-33.878128,487.68 18.428421,-33.876854,548.64 18.42738,-33.876755,579.12 18.425102,-33.877693,640.08 18.425081,-33.877991,640.08 18.425217,-33.879135,670.56 18.425274,-33.879414,670.56 18.425922,-33.880875,670.56 18.426247,-33.881462,670.56 18.427044,-33.883987,670.56 18.426987,-33.884628,670.56 18.424072,-33.88649,609.6 18.42256,-33.886505,609.6 18.41692,-33.885468,609.6 18.415497,-33.885132,640.08 18.410168,-33.884117,640.08 18.408546,-33.883896,640.08 18.40107,-33.883698,640.08 18.399525,-33.883793,640.08 18.393299,-33.884354,640.08 18.391897,-33.884537,640.08 18.386404,-33.885681,670.56 18.384947,-33.886139,670.56 18.380184,-33.888119,701.04 18.378725,-33.888885,701.04 18.374859,-33.891541,731.52 18.373775,-33.892448,731.52 18.370171,-33.896126,762 18.369589,-33.896805,762 18.366619,-33.90033,792.48 18.36561,-33.901382,792.48 18.359528,-33.90567,822.96 18.358212,-33.906231,822.96 18.354492,-33.910465,853.44 18.354231,-33.911362,853.44 18.353348,-33.915585,883.92 18.353176,-33.916656,883.92 18.352203,-33.920895,914.4 18.351765,-33.921982,914.4 18.34885,-33.927841,914.4 18.348255,-33.928947,914.4 18.345934,-33.933792,914.4 18.345451,-33.934998,914.4 18.344822,-33.940353,1005.84 18.345263,-33.940842,1036.32 18.347454,-33.941006,1097.28 18.347855,-33.940865,1127.76 18.349522,-33.939972,1158.24 18.349802,-33.939743,1188.72 18.351116,-33.938816,1219.2 18.35146,-33.938583,1219.2 18.353233,-33.938862,1219.2 18.353502,-33.939331,1219.2 18.353176,-33.942959,1158.24 18.35289,-33.943935,1158.24 18.351288,-33.948498,1158.24 18.350924,-33.949585,1158.24 18.348961,-33.954437,1127.76 18.348541,-33.955528,1127.76 18.343849,-33.966236,1158.24 18.341675,-33.970798,1158.24 18.337303,-33.981354,1127.76 18.336407,-33.982727,1097.28 18.332405,-33.988441,1097.28 18.331547,-33.989742,1097.28 18.3284,-33.994213,1097.28 18.327599,-33.995422,1097.28 18.318157,-34.010181,1066.8 18.316154,-34.013531,1066.8 18.312435,-34.020981,1066.8 18.312246,-34.022141,1066.8 18.313087,-34.026627,1097.28 18.313425,-34.027771,1097.28 18.313929,-34.032669,1097.28 18.313761,-34.033905,1097.28 18.312246,-34.039948,1066.8 18.311863,-34.041092,1066.8 18.310318,-34.045933,1036.32 18.30995,-34.046997,1036.32 18.307457,-34.05571,975.36 18.307171,-34.05706,975.36 18.306713,-34.061806,944.88 18.306753,-34.062927,944.88 18.3078,-34.067673,944.88 18.308268,-34.068832,944.88 18.311234,-34.072559,914.4 18.312206,-34.073212,914.4 18.316339,-34.072861,944.88 18.317123,-34.072357,944.88 18.320263,-34.070023,975.36 18.321133,-34.069347,975.36 18.324509,-34.068417,975.36 18.325367,-34.068462,944.88 18.329119,-34.06897,975.36 18.330296,-34.069107,975.36 18.334751,-34.069675,975.36 18.335781,-34.069813,975.36 18.343918,-34.071075,975.36 18.344879,-34.07135,975.36 18.349522,-34.072586,944.88 18.350475,-34.072861,944.88 18.355352,-34.074371,944.88 18.356495,-34.074703,944.88 18.360844,-34.076565,914.4 18.361702,-34.077122,914.4 18.364563,-34.080196,883.92 18.365307,-34.081173,883.92 18.368111,-34.084339,883.92 18.368797,-34.085083,883.92 18.371832,-34.088287,883.92 18.374977,-34.091599,883.92 18.383602,-34.101379,853.44 18.384443,-34.102524,853.44 18.389969,-34.108826,822.96 18.390833,-34.109528,822.96 18.394644,-34.112274,792.48 18.395634,-34.112827,762 18.400026,-34.115158,762 18.401035,-34.115616,731.52 18.405294,-34.117447,701.04 18.406696,-34.118042,701.04 18.411123,-34.119873,670.56 18.412457,-34.120464,640.08 18.426426,-34.126007,609.6 18.427219,-34.126236,609.6 18.432026,-34.127537,609.6 18.436628,-34.12944,579.12 18.444786,-34.132286,579.12 18.446331,-34.132286,579.12 18.451258,-34.131088,609.6 18.452267,-34.130585,609.6 18.456528,-34.127701,609.6 18.457432,-34.12698,609.6 18.461403,-34.123627,579.12 18.462299,-34.12262,579.12 18.465557,-34.118599,579.12 18.46628,-34.117676,579.12 18.469082,-34.113373,579.12 18.469677,-34.111942,579.12 18.47105,-34.107056,579.12 18.471279,-34.106033,579.12 18.472023,-34.101051,579.12 18.472166,-34.099594,579.12 18.472334,-34.094513,609.6 18.472309,-34.092999,609.6 18.47208,-34.087921,609.6 18.472023,-34.086758,609.6 18.471493,-34.081512,579.12 18.471222,-34.079914,579.12 18.470371,-34.074509,579.12 18.470148,-34.073273,579.12 18.467793,-34.056976,548.64 18.467289,-34.052994,548.64 18.465786,-34.037319,548.64 18.465775,-34.036102,548.64 18.465672,-34.029453,548.64 18.465672,-34.028477,548.64 18.4659,-34.019024,579.12 18.466055,-34.013992,609.6 18.466415,-34.00301,609.6 18.466728,-34.001541,579.12 18.46785,-33.996872,579.12 18.468298,-33.995132,548.64 18.469755,-33.99028,518.16 18.470078,-33.989185,518.16 18.471565,-33.984436,487.68 18.47311,-33.979595,457.2 18.478832,-33.962791,396.24 18.480148,-33.959438,396.24 18.485241,-33.944683,365.76 18.485413,-33.943192,365.76 18.484945,-33.938416,365.76 18.48444,-33.937046,365.76 18.48175,-33.932236,335.28 18.481134,-33.931274,335.28 18.477974,-33.926899,335.28 18.477041,-33.92569,335.28 18.472767,-33.921543,304.8 18.47168,-33.920612,304.8 18.467159,-33.917076,274.32 18.465958,-33.9161,274.32 18.461437,-33.912514,274.32 18.460058,-33.911407,274.32 18.449352,-33.90271,243.84 18.448175,-33.901566,243.84 18.443859,-33.897079,243.84 18.442898,-33.895943,243.84 18.43943,-33.891724,213.36 18.438549,-33.890541,213.36 18.434544,-33.885235,213.36 18.433571,-33.884628,243.84 18.429966,-33.885792,213.36 18.429909,-33.88649,213.36 18.43008,-33.888958,182.88 18.430195,-33.88961,182.88 18.430799,-33.89209,152.4 18.430939,-33.892731,121.92 18.430967,-33.896622,91.44 18.430481,-33.897243,60.96 18.427563,-33.898224,30.48 18.427155,-33.898727,0 18.426931,-33.900604,0 18.427219,-33.900784,0
        </coordinates>
      </LineString>
    </Placemark>
  </Document>
</kml>