<?xml version="1.0" encoding="UTF-8"?>
<kml xmlns="http://www.opengis.net/kml/2.2">
  <Document>
    <name>Flight Path - Optimised</name>
    <description><![CDATA[Optimised flight path with 127 points (decimated from 631 original points). Source format: Google Earth Extended (gx:coord)]]></description>
    
    <Style id="flightPath">
      <LineStyle>
        <color>ff0000ff</color>
        <width>3</width>
      </LineStyle>
    </Style>
    
    <Placemark>
      <name>Flight Path</name>
      <description><![CDATA[Optimized flight path]]></description>
      <styleUrl>#flightPath</styleUrl>
      <LineString>
        <extrude>1</extrude>
        <tessellate>1</tessellate>
        <altitudeMode>absolute</altitudeMode>
        <coordinates>
          18.426875,-33.90097,-1 18.426933,-33.900922,7 18.427491,-33.900558,15 18.42865,-33.900783,22 18.430367,-33.901155,99 18.432541,-33.901388,213 18.434834,-33.901474,289 18.435955,-33.901016,297 18.437861,-33.898361,297 18.439711,-33.890442,312 18.434315,-33.88016,342 18.425388,-33.874155,373 18.41275,-33.872131,411 18.40025,-33.873917,426 18.387394,-33.879648,449 18.375755,-33.88884,495 18.361405,-33.906372,579 18.346081,-33.926805,655 18.333092,-33.945287,708 18.319478,-33.964142,754 18.310902,-33.97673,845 18.293781,-34.006549,861 18.293896,-34.010599,868 18.297443,-34.011949,853 18.301392,-34.010087,838 18.306922,-34.001724,792 18.323514,-33.971832,723 18.340946,-33.947067,693 18.350531,-33.93457,701 18.365946,-33.914154,586 18.383217,-33.895755,510 18.398724,-33.885001,510 18.410797,-33.880672,510 18.419252,-33.880234,472 18.425446,-33.882301,403 18.429117,-33.88829,281 18.431282,-33.893195,205 18.430252,-33.895802,137 18.42766,-33.899094,38 18.426987,-33.900192,15 18.426876,-33.900736,7 18.426819,-33.901016,-1 18.427828,-33.901062,22 18.430911,-33.90065,60 18.435339,-33.899048,106 18.43792,-33.896733,144 18.439711,-33.89122,220 18.437977,-33.884489,266 18.432541,-33.878112,312 18.424409,-33.874557,388 18.418293,-33.874434,426 18.405647,-33.877274,495 18.395634,-33.880579,571 18.384418,-33.88691,693 18.369701,-33.8974,830 18.360901,-33.906281,922 18.351316,-33.920242,1021 18.342018,-33.94119,1082 18.330975,-33.957251,1112 18.319416,-33.971123,1135 18.305054,-33.993794,1097 18.296585,-34.01167,1066 18.294759,-34.024017,1074 18.296757,-34.037088,1005 18.302193,-34.050169,937 18.312035,-34.065159,815 18.325812,-34.080734,678 18.348121,-34.096436,601 18.391399,-34.111292,624 18.416748,-34.122744,624 18.433994,-34.130814,624 18.443859,-34.131134,640 18.454914,-34.126933,632 18.467102,-34.118089,632 18.473511,-34.108592,632 18.476538,-34.090439,624 18.478387,-34.044022,548 18.479576,-34.011112,434 18.48135,-33.983227,358 18.484211,-33.952828,297 18.481865,-33.9397,281 18.473969,-33.927876,266 18.459492,-33.912933,259 18.453724,-33.906509,266 18.44498,-33.895844,205 18.439121,-33.890402,228 18.435899,-33.889618,220 18.432941,-33.890355,198 18.429279,-33.892403,144 18.428192,-33.89394,114 18.427448,-33.897943,45 18.427043,-33.900284,15 18.427323,-33.900696,7 18.427491,-33.900696,7 18.427505,-33.90069,7 18.427505,-33.90069,7 18.427491,-33.900696,7 18.427491,-33.900696,-1 18.427604,-33.900696,15 18.428556,-33.901016,15 18.430653,-33.901714,114 18.432424,-33.901291,175 18.433994,-33.901062,274 18.435173,-33.900643,320 18.436236,-33.896759,320 18.435955,-33.892914,320 18.433713,-33.883209,335 18.426018,-33.873829,373 18.417435,-33.868522,388 18.407822,-33.866567,457 18.398094,-33.867684,426 18.390777,-33.87149,403 18.375607,-33.884908,411 18.366506,-33.896805,365 18.361416,-33.904972,449 18.355968,-33.914703,464 18.348513,-33.928436,495 18.333721,-33.949244,518 18.331866,-33.953613,533 18.334836,-33.954803,617 18.337078,-33.953705,525 18.340588,-33.949616,487 18.345795,-33.941283,495 18.349113,-33.935837,457 18.355968,-33.92569,419 18.367851,-33.912643,342 18.372116,-33.907393,266
        </coordinates>
      </LineString>
    </Placemark>
  </Document>
</kml>