<?xml version="1.0" encoding="UTF-8"?>
<kml xmlns="http://www.opengis.net/kml/2.2">
  <Document>
    <name>-/ZTHOT - Optimised</name>
    <description><![CDATA[Optimised flight path with 537 points (decimated from 2681 original points). Source format: Standard KML]]></description>
    
    <Style id="flightPath">
      <LineStyle>
        <color>ff0000ff</color>
        <width>3</width>
      </LineStyle>
    </Style>
    
    <Placemark>
      <name>Flight Path</name>
      <description><![CDATA[<div style="width:220px; text-align:center;">
<div style="width:210px; text-align:center;">
<div style=" background: #000; color: #fff; font-size: 14px; text-align:left; border: 1px solid #000; padding: 2px 6px; text-shadow: 0 1px 0 #000; box-shadow: 0 1px 3px rgba(0,0,0,0.6); background: -webkit-gradient(linear, left top, left bottom, color-stop(0%,#808080), color-stop(2%,#303030), color-stop(100%,#0c0c0c));"><span style="font-size: 14px; font-weight: bold;"><a href="javascript:void(0);" style="color: #fff; cursor: pointer;text-decoration: none;">-</a></span> / ZTHOT<br/>Cape Town Helicopters</div>

<div style="border-top: 1px solid #005c90; color: #fff; padding-bottom: 5px; box-shadow: 0 0 1px #9BE3F6 inset, 0 1px 0 #9BE3F6 inset, 0 -1px 3px rgba(0,0,0,0.4); background:rgba(43,114,173,1); background: -webkit-gradient(linear, left top, left bottom, color-stop(0%,rgba(92,184,229,1)), color-stop(100%,rgba(43,114,173,1)));">
<a style="text-decoration: none; color: rgb(255, 255, 255); font-size: 12px; width:77px; display: inline-block;" title=" Airport" href="javascript:void(0);/departures"><h3 style="padding: 0px; margin: 10px 0px 0px; font-size: 16px; ">?</h3></a>
<span style="background: url(https://www.flightradar24.com/static/images/userUI_sprite.png?14) no-repeat scroll 0 -464px rgba(0, 0, 0, 0); border: medium none; display: inline-block; height: 16px; width: 45px;"></span>
<a style="text-decoration: none; color: rgb(255, 255, 255); font-size: 12px; width:77px; display: inline-block;" title=" Airport" href="javascript:void(0);/arrivals"><h3 style="padding: 0px; margin: 10px 0px 0px; font-size: 16px;">?</h3></a>
<div style=" margin-top:10px;">
<div style="display: inline-block; font-size: 12px; padding: 0 5px;">
<div>
<span style="color: #c1eaff;" title="Scheduled Time of Departure">STD </span>
<span title="2025-11-02 08:48">08:48</span> <span title="Coordinated Universal Time">UTC</span>
</div>
<div>
<span style="color: #c1eaff;" title="Actual Time of Departure">ATD </span>
<span title="2025-11-02 08:48">08:48</span> <span title="Coordinated Universal Time">UTC</span>
</div>
</div>
<div style="display: inline-block; font-size: 12px; padding: 0 5px;">
<div>
<span style="color: #c1eaff;" title="Estimated Time of Arrival">ETA </span>
<span title="2025-11-02 09:03">09:03</span> <span title="Coordinated Universal Time">UTC</span>
</div>
</div>
</div>
<br style="clear: both;"/>
</div>

<div style="display: block;">
<table style="border-collapse: collapse; width: 100%;">
<tr style="border-right: 1px solid #dadada; ">
<td style="background: none repeat scroll 0 0 #dadada; padding: 0; width: 31px;">
<span style="background: url(https://www.flightradar24.com/static/images/userUI_sprite.png?14) no-repeat scroll -208px -464px rgba(0, 0, 0, 0); height: 26px; margin: 8px 0 0 4px; width: 23px; display: block;"></span>
</td>
<td colspan="2" style="border-bottom: 1px solid #dadada; border-left: 1px solid #dadada; color: #666; line-height: 1.1em; padding: 3px 6px; vertical-align: top; font-size: 14px;">
Aircraft<span style="float: right; font-size: 12px;">(AS50)</span><br>
<span style="color: #333; font-size: 16px; font-weight: bold; line-height: 1.3em;">Airbus Helicopters H125</span>
</td>
</tr>
<tr style="border-right: 1px solid #dadada; ">
<td style="background: none repeat scroll 0 0 #dadada; padding: 0; width: 31px;">
<td colspan="2" style="border-bottom: 1px solid #dadada; border-left: 1px solid #dadada; color: #666; line-height: 1.1em; padding: 3px 6px; vertical-align: top; font-size: 14px;">
Registration<br>
<span style="color: #333; font-size: 16px; font-weight: bold; line-height: 1.3em;"><a href="https://www.flightradar24.com/reg/zt-hot" style="text-decoration: none; color: #333;">ZT-HOT</a></span>
</td>
</tr>
</table>
</div>

</div>
</div>]]></description>
      <styleUrl>#flightPath</styleUrl>
      <LineString>
        <extrude>1</extrude>
        <tessellate>1</tessellate>
        <altitudeMode>absolute</altitudeMode>
        <coordinates>
          18.435619,-33.899277,60.96 18.438534,-33.894196,121.92 18.438835,-33.889236,152.4 18.437077,-33.884262,213.36 18.433285,-33.880344,274.32 18.428192,-33.877972,335.28 18.42256,-33.876755,365.76 18.416233,-33.876202,396.24 18.410114,-33.876434,426.72 18.40395,-33.877487,457.2 18.397923,-33.879276,487.68 18.392122,-33.881699,518.16 18.386879,-33.884628,548.64 18.382032,-33.888016,579.12 18.377325,-33.891724,579.12 18.372974,-33.895523,609.6 18.368805,-33.899689,640.08 18.365135,-33.903996,640.08 18.361685,-33.908661,670.56 18.358322,-33.913513,670.56 18.35535,-33.918659,670.56 18.353004,-33.923874,701.04 18.351372,-33.930542,701.04 18.350143,-33.937374,701.04 18.349018,-33.943039,701.04 18.347336,-33.94899,701.04 18.344593,-33.955017,701.04 18.333664,-33.973495,670.56 18.320599,-33.993439,701.04 18.316326,-33.997704,701.04 18.311182,-34.002228,701.04 18.305626,-34.007156,701.04 18.297787,-34.015442,701.04 18.292408,-34.027962,731.52 18.295956,-34.029408,792.48 18.300247,-34.028896,792.48 18.306198,-34.025867,731.52 18.311691,-34.022564,701.04 18.316727,-34.018978,640.08 18.321648,-34.014137,609.6 18.325251,-34.009094,579.12 18.328615,-34.004013,548.64 18.336296,-33.992584,518.16 18.34672,-33.980576,487.68 18.354174,-33.968765,518.16 18.358784,-33.956272,518.16 18.360228,-33.950409,518.16 18.361574,-33.944138,518.16 18.36319,-33.937977,518.16 18.364937,-33.93219,518.16 18.366909,-33.926525,518.16 18.369366,-33.921295,518.16 18.372728,-33.916214,518.16 18.376465,-33.911491,518.16 18.38063,-33.906418,518.16 18.384666,-33.90184,518.16 18.389168,-33.897758,487.68 18.395317,-33.89415,457.2 18.401585,-33.8918,396.24 18.408337,-33.889843,396.24 18.414516,-33.888351,335.28 18.420092,-33.886963,304.8 18.425674,-33.886307,274.32 18.430069,-33.887329,213.36 18.43248,-33.889938,152.4 18.432426,-33.893147,91.44 18.429846,-33.896851,0 18.426916,-33.900742,0 18.431135,-33.899872,0 18.436293,-33.897629,91.44 18.43832,-33.89436,152.4 18.439121,-33.889656,182.88 18.437977,-33.884907,243.84 18.435226,-33.8806,274.32 18.429958,-33.879044,304.8 18.427677,-33.881649,396.24 18.430294,-33.883163,426.72 18.433113,-33.88002,457.2 18.430481,-33.875412,487.68 18.425249,-33.873413,518.16 18.419252,-33.872818,548.64 18.4128,-33.873085,548.64 18.406048,-33.874107,548.64 18.398438,-33.87611,548.64 18.392067,-33.87886,548.64 18.385956,-33.882202,579.12 18.380911,-33.885452,579.12 18.376293,-33.888958,609.6 18.371429,-33.893242,609.6 18.367424,-33.89743,640.08 18.363647,-33.90176,670.56 18.360271,-33.906555,670.56 18.357145,-33.91127,670.56 18.350887,-33.921543,670.56 18.348427,-33.926525,670.56 18.345598,-33.935211,701.04 18.341619,-33.947708,701.04 18.33149,-33.972008,701.04 18.325539,-33.984715,701.04 18.320045,-33.994259,701.04 18.316452,-33.99971,701.04 18.312607,-34.005154,670.56 18.303558,-34.019119,670.56 18.300531,-34.026352,670.56 18.299904,-34.034389,640.08 18.301373,-34.040039,670.56 18.303558,-34.044983,670.56 18.306427,-34.049656,670.56 18.30978,-34.05423,670.56 18.313122,-34.058407,670.56 18.322849,-34.071026,670.56 18.326225,-34.075726,670.56 18.330856,-34.076889,701.04 18.333378,-34.074051,731.52 18.330746,-34.070793,731.52 18.325811,-34.072632,701.04 18.324451,-34.077774,670.56 18.326569,-34.082569,640.08 18.328915,-34.08741,609.6 18.330633,-34.092361,579.12 18.33209,-34.097809,579.12 18.333263,-34.103287,548.64 18.334164,-34.108795,548.64 18.334694,-34.11441,548.64 18.334948,-34.120377,518.16 18.335667,-34.134335,579.12 18.336697,-34.139641,548.64 18.338242,-34.144764,548.64 18.340015,-34.150444,548.64 18.341843,-34.155487,548.64 18.344078,-34.16087,548.64 18.346607,-34.166061,518.16 18.349522,-34.170868,518.16 18.352947,-34.175346,518.16 18.356609,-34.180004,518.16 18.362675,-34.18829,518.16 18.365879,-34.193737,548.64 18.368397,-34.198856,548.64 18.370571,-34.203651,548.64 18.372671,-34.208725,548.64 18.374748,-34.214451,548.64 18.375587,-34.219528,548.64 18.374018,-34.225159,548.64 18.373604,-34.230885,518.16 18.37389,-34.236286,518.16 18.374691,-34.242012,548.64 18.376707,-34.247177,548.64 18.379383,-34.252113,548.64 18.382015,-34.257,548.64 18.384705,-34.262306,548.64 18.387508,-34.267429,548.64 18.399525,-34.291962,518.16 18.404503,-34.301552,548.64 18.407986,-34.305634,518.16 18.414001,-34.311607,518.16 18.419952,-34.316959,518.16 18.428164,-34.323898,518.16 18.433456,-34.327435,518.16 18.438982,-34.329803,548.64 18.444729,-34.331718,548.64 18.450865,-34.333282,548.64 18.456583,-34.334564,548.64 18.462524,-34.335442,548.64 18.468746,-34.336166,548.64 18.475056,-34.337257,548.64 18.481121,-34.338699,548.64 18.487917,-34.340698,548.64 18.493652,-34.342796,518.16 18.499294,-34.345322,518.16 18.50441,-34.348335,548.64 18.508072,-34.351875,548.64 18.509445,-34.356762,548.64 18.50647,-34.361557,548.64 18.500135,-34.364227,548.64 18.49268,-34.364723,548.64 18.485584,-34.364582,548.64 18.477917,-34.36491,548.64 18.470652,-34.363953,548.64 18.464767,-34.365509,579.12 18.471508,-34.369656,579.12 18.477573,-34.370586,579.12 18.483124,-34.372963,548.64 18.489304,-34.375057,548.64 18.495712,-34.375431,548.64 18.502321,-34.373657,548.64 18.507704,-34.36972,518.16 18.510361,-34.364258,548.64 18.509903,-34.357925,548.64 18.507099,-34.3522,548.64 18.503036,-34.346985,548.64 18.499546,-34.341259,548.64 18.496773,-34.335297,548.64 18.494587,-34.329437,548.64 18.492279,-34.323246,548.64 18.490383,-34.316986,548.64 18.488646,-34.310898,548.64 18.487356,-34.304764,548.64 18.486385,-34.298664,548.64 18.485584,-34.29266,548.64 18.48517,-34.286362,548.64 18.484777,-34.279999,548.64 18.483582,-34.264866,518.16 18.482895,-34.255836,518.16 18.482094,-34.249321,518.16 18.481022,-34.242828,518.16 18.479576,-34.236519,518.16 18.477491,-34.230057,518.16 18.475456,-34.224274,518.16 18.471565,-34.213009,518.16 18.469868,-34.207077,518.16 18.468533,-34.200718,518.16 18.468075,-34.194714,518.16 18.468018,-34.188721,518.16 18.468018,-34.179657,518.16 18.464355,-34.175068,548.64 18.459835,-34.176838,548.64 18.460007,-34.180328,518.16 18.463982,-34.179703,518.16 18.465385,-34.174976,518.16 18.464298,-34.169621,518.16 18.464149,-34.164322,548.64 18.465042,-34.158867,548.64 18.46628,-34.153381,548.64 18.467569,-34.147842,548.64 18.47208,-34.131401,548.64 18.474632,-34.121017,548.64 18.475248,-34.11525,548.64 18.475584,-34.109161,548.64 18.47517,-34.103054,548.64 18.474239,-34.097305,548.64 18.472538,-34.091183,548.64 18.470539,-34.085129,518.16 18.468246,-34.078846,518.16 18.466244,-34.072701,518.16 18.464262,-34.065674,518.16 18.463211,-34.059944,518.16 18.462524,-34.053894,518.16 18.461609,-34.048027,518.16 18.460899,-34.042145,518.16 18.460636,-34.036201,518.16 18.460506,-34.030151,518.16 18.460464,-34.022701,518.16 18.460636,-34.015862,548.64 18.461037,-34.010227,548.64 18.461723,-34.004128,548.64 18.462868,-33.993237,518.16 18.464878,-33.981491,518.16 18.465384,-33.975174,518.16 18.465158,-33.969223,518.16 18.464317,-33.963181,518.16 18.462467,-33.957436,518.16 18.460003,-33.952148,518.16 18.457432,-33.946777,518.16 18.455238,-33.940933,457.2 18.453312,-33.935513,426.72 18.451426,-33.929443,396.24 18.449993,-33.923687,335.28 18.448904,-33.918274,304.8 18.446903,-33.912468,274.32 18.44553,-33.907299,243.84 18.445759,-33.902084,213.36 18.445358,-33.89706,213.36 18.443073,-33.892456,182.88 18.438663,-33.891052,152.4 18.434715,-33.89352,91.44 18.43214,-33.895615,30.48 18.429621,-33.897675,0 18.427492,-33.899734,0 18.42717,-33.901028,0 18.438198,-33.895111,91.44 18.438534,-33.894196,121.92 18.438927,-33.890213,152.4 18.438835,-33.889236,152.4 18.437693,-33.885315,182.88 18.437077,-33.884262,213.36 18.434385,-33.881195,243.84 18.433285,-33.880344,274.32 18.429117,-33.878265,304.8 18.428192,-33.877972,335.28 18.423328,-33.8769,365.76 18.42256,-33.876755,365.76 18.417402,-33.876251,396.24 18.416233,-33.876202,396.24 18.411516,-33.876297,426.72 18.410114,-33.876434,426.72 18.405075,-33.877228,457.2 18.40395,-33.877487,457.2 18.398952,-33.878902,487.68 18.397923,-33.879276,487.68 18.393131,-33.881195,518.16 18.392122,-33.881699,518.16 18.388023,-33.883884,518.16 18.386879,-33.884628,548.64 18.382986,-33.887283,579.12 18.382032,-33.888016,579.12 18.378296,-33.890915,579.12 18.377325,-33.891724,579.12 18.373947,-33.894592,609.6 18.372974,-33.895523,609.6 18.369534,-33.898865,609.6 18.368805,-33.899689,640.08 18.366058,-33.902802,640.08 18.365135,-33.903996,640.08 18.362331,-33.907719,670.56 18.361685,-33.908661,670.56 18.359108,-33.912369,670.56 18.358322,-33.913513,670.56 18.355856,-33.917725,670.56 18.35535,-33.918659,670.56 18.353405,-33.922943,670.56 18.353004,-33.923874,701.04 18.351484,-33.929443,701.04 18.351372,-33.930542,701.04 18.350372,-33.936348,701.04 18.350143,-33.937374,701.04 18.349285,-33.941795,701.04 18.349018,-33.943039,701.04 18.347784,-33.947708,701.04 18.347336,-33.94899,701.04 18.345263,-33.953705,701.04 18.344593,-33.955017,701.04 18.336868,-33.968422,670.56 18.333664,-33.973495,670.56 18.32144,-33.99234,701.04 18.320599,-33.993439,701.04 18.317348,-33.996735,701.04 18.316326,-33.997704,701.04 18.312136,-34.00145,701.04 18.311182,-34.002228,701.04 18.306753,-34.006165,701.04 18.305626,-34.007156,701.04 18.300533,-34.012367,701.04 18.297787,-34.015442,701.04 18.291843,-34.026169,701.04 18.292408,-34.027962,731.52 18.295269,-34.029312,792.48 18.295956,-34.029408,792.48 18.29958,-34.029144,792.48 18.300247,-34.028896,792.48 18.305111,-34.026428,731.52 18.306198,-34.025867,731.52 18.310776,-34.023121,701.04 18.311691,-34.022564,701.04 18.316002,-34.019577,640.08 18.316727,-34.018978,640.08 18.320599,-34.01532,609.6 18.321648,-34.014137,609.6 18.324623,-34.010136,579.12 18.325251,-34.009094,579.12 18.328054,-34.004791,548.64 18.328615,-34.004013,548.64 18.331642,-33.999573,548.64 18.336296,-33.992584,518.16 18.344536,-33.982948,518.16 18.34672,-33.980576,487.68 18.352942,-33.971283,487.68 18.354174,-33.968765,518.16 18.358154,-33.958321,518.16 18.358784,-33.956272,518.16 18.359985,-33.951477,518.16 18.360228,-33.950409,518.16 18.361301,-33.945427,518.16 18.361574,-33.944138,518.16 18.362789,-33.939281,518.16 18.36319,-33.937977,518.16 18.364506,-33.93351,518.16 18.364937,-33.93219,518.16 18.366508,-33.927505,518.16 18.366909,-33.926525,518.16 18.368805,-33.922256,518.16 18.369366,-33.921295,518.16 18.372,-33.917267,518.16 18.372728,-33.916214,518.16 18.375643,-33.912506,518.16 18.376465,-33.911491,518.16 18.379841,-33.907394,518.16 18.38063,-33.906418,518.16 18.383657,-33.902893,518.16 18.384666,-33.90184,518.16 18.388254,-33.898453,487.68 18.389168,-33.897758,487.68 18.393803,-33.894871,457.2 18.395317,-33.89415,457.2 18.400362,-33.892227,426.72 18.401585,-33.8918,396.24 18.406906,-33.890217,396.24 18.408337,-33.889843,396.24 18.413086,-33.888702,365.76 18.414516,-33.888351,335.28 18.419083,-33.887238,304.8 18.420092,-33.886963,304.8 18.424465,-33.886322,274.32 18.425674,-33.886307,274.32 18.429565,-33.8871,213.36 18.430069,-33.887329,213.36 18.432312,-33.889519,182.88 18.43248,-33.889938,152.4 18.432592,-33.892639,91.44 18.432426,-33.893147,91.44 18.430462,-33.896164,30.48 18.429846,-33.896851,0 18.426819,-33.900505,0 18.426916,-33.900742,0 18.429108,-33.900505,0 18.431135,-33.899872,0 18.435619,-33.898132,60.96 18.436293,-33.897629,91.44 18.438141,-33.894928,121.92 18.43832,-33.89436,152.4 18.439064,-33.890728,182.88 18.439121,-33.889656,182.88 18.438309,-33.885727,213.36 18.437977,-33.884907,243.84 18.436031,-33.881462,274.32 18.435226,-33.8806,274.32 18.43111,-33.878948,304.8 18.429958,-33.879044,304.8 18.427677,-33.880997,365.76 18.427677,-33.881649,396.24 18.429337,-33.883186,426.72 18.430294,-33.883163,426.72 18.432941,-33.880859,457.2 18.433113,-33.88002,457.2 18.431416,-33.87616,457.2 18.430481,-33.875412,487.68 18.426476,-33.873688,518.16 18.425249,-33.873413,518.16 18.42041,-33.872852,548.64 18.419252,-33.872818,548.64 18.41415,-33.873001,548.64 18.4128,-33.873085,548.64 18.407135,-33.873875,548.64 18.406048,-33.874107,548.64 18.400587,-33.875427,548.64 18.398438,-33.87611,548.64 18.39323,-33.8783,548.64 18.392067,-33.87886,548.64 18.387337,-33.881416,548.64 18.385956,-33.882202,579.12 18.382072,-33.884674,579.12 18.380911,-33.885452,579.12 18.377155,-33.888245,609.6 18.376293,-33.888958,609.6 18.372671,-33.892136,609.6 18.371429,-33.893242,609.6 18.368282,-33.8965,640.08 18.367424,-33.89743,640.08 18.364431,-33.900742,670.56 18.363647,-33.90176,670.56 18.360956,-33.905548,670.56 18.360271,-33.906555,670.56 18.357706,-33.9104,670.56 18.357145,-33.91127,670.56 18.353165,-33.917633,670.56 18.350887,-33.921543,670.56 18.34885,-33.925644,670.56 18.348427,-33.926525,670.56 18.345991,-33.933929,670.56 18.345598,-33.935211,701.04 18.344078,-33.940491,701.04 18.341619,-33.947708,701.04 18.334064,-33.966656,701.04 18.33149,-33.972008,701.04 18.326855,-33.982296,701.04 18.325539,-33.984715,701.04 18.320618,-33.993328,701.04 18.320045,-33.994259,701.04 18.31707,-33.998821,701.04 18.316452,-33.99971,701.04 18.313145,-34.004288,701.04 18.312607,-34.005154,670.56 18.304768,-34.017071,670.56 18.303558,-34.019119,670.56 18.300869,-34.025299,670.56 18.300531,-34.026352,670.56 18.299789,-34.033409,670.56 18.299904,-34.034389,640.08 18.301048,-34.038948,640.08 18.301373,-34.040039,670.56 18.302998,-34.043884,670.56 18.303558,-34.044983,670.56 18.305798,-34.048634,670.56 18.306427,-34.049656,670.56 18.309174,-34.053379,670.56 18.30978,-34.05423,670.56 18.312471,-34.057571,670.56 18.313122,-34.058407,670.56 18.320375,-34.067505,670.56 18.322849,-34.071026,670.56 18.325308,-34.074783,670.56 18.326225,-34.075726,670.56 18.330002,-34.07703,701.04 18.330856,-34.076889,701.04 18.333149,-34.074886,731.52 18.333378,-34.074051,731.52 18.331833,-34.071209,762 18.330746,-34.070793,731.52 18.326653,-34.071808,731.52 18.325811,-34.072632,701.04 18.324394,-34.076752,670.56 18.324451,-34.077774,670.56 18.326092,-34.081741,640.08 18.326569,-34.082569,640.08 18.328445,-34.086227,640.08 18.328915,-34.08741,609.6 18.330296,-34.0914,609.6 18.330633,-34.092361,579.12 18.331776,-34.096535,579.12 18.33209,-34.097809,579.12 18.333035,-34.102261,548.64 18.333263,-34.103287,548.64 18.334051,-34.10788,548.64 18.334164,-34.108795,548.64 18.334612,-34.113144,548.64 18.334694,-34.11441,548.64 18.334923,-34.118927,548.64 18.334948,-34.120377,518.16 18.335285,-34.12999,548.64 18.335667,-34.134335,579.12 18.336468,-34.13876,548.64 18.336697,-34.139641,548.64 18.337955,-34.143738,548.64 18.338242,-34.144764,548.64 18.339672,-34.149326,548.64 18.340015,-34.150444,548.64 18.341446,-34.1544,548.64 18.341843,-34.155487,548.64 18.343563,-34.159706,548.64 18.344078,-34.16087,548.64 18.346024,-34.164921,518.16 18.346607,-34.166061,518.16 18.348942,-34.170086,518.16 18.349522,-34.170868,518.16 18.352325,-34.174576,518.16 18.352947,-34.175346,518.16 18.355923,-34.179119,548.64 18.356609,-34.180004,518.16 18.362103,-34.18745,518.16 18.362675,-34.18829,518.16 18.365105,-34.192337,518.16 18.365879,-34.193737,548.64 18.367882,-34.197784,548.64 18.368397,-34.198856,548.64 18.370171,-34.202766,548.64 18.370571,-34.203651,548.64 18.372231,-34.207607,548.64 18.372671,-34.208725,548.64 18.374348,-34.213242,548.64 18.374748,-34.214451,548.64 18.375607,-34.218594,548.64 18.375587,-34.219528,548.64 18.37429,-34.224274,548.64 18.374018,-34.225159,548.64 18.373569,-34.229462,518.16 18.373604,-34.230885,518.16 18.37385,-34.235458,518.16 18.37389,-34.236286,518.16 18.374466,-34.241043,548.64 18.374691,-34.242012,548.64 18.376179,-34.246109,548.64 18.376707,-34.247177,548.64 18.378696,-34.25095,548.64 18.379383,-34.252113,548.64 18.381416,-34.255875,548.64 18.382015,-34.257,548.64 18.38405,-34.261093,548.64 18.384705,-34.262306,548.64 18.386797,-34.266174,518.16 18.387508,-34.267429,548.64 18.398781,-34.288795,548.64 18.399525,-34.291962,518.16 18.403645,-34.300388,518.16 18.404503,-34.301552,548.64 18.407312,-34.304901,518.16 18.407986,-34.305634,518.16 18.4132,-34.31086,518.16 18.414001,-34.311607,518.16 18.417234,-34.314606,518.16 18.419952,-34.316959,518.16 18.42738,-34.323303,518.16 18.428164,-34.323898,518.16 18.432367,-34.326782,518.16 18.433456,-34.327435,518.16 18.437634,-34.32925,548.64 18.438982,-34.329803,548.64 18.443523,-34.33136,548.64 18.444729,-34.331718,548.64 18.449707,-34.333019,548.64 18.450865,-34.333282,548.64 18.455486,-34.334324,548.64 18.456583,-34.334564,548.64 18.461123,-34.335251,548.64 18.462524,-34.335442,548.64 18.467514,-34.336029,548.64 18.468746,-34.336166,548.64 18.473679,-34.33699,548.64 18.475056,-34.337257,548.64 18.479788,-34.338318,548.64 18.481121,-34.338699,548.64 18.48629,-34.340195,548.64 18.487917,-34.340698,548.64 18.492737,-34.342392,518.16 18.493652,-34.342796,518.16 18.498117,-34.344772,518.16 18.499294,-34.345322,518.16 18.503443,-34.347656,518.16 18.50441,-34.348335,548.64 18.507534,-34.351135,548.64 18.508072,-34.351875,548.64 18.509445,-34.355644,548.64 18.509445,-34.356762,548.64 18.507479,-34.360703,548.64 18.50647,-34.361557,548.64 18.501434,-34.363884,548.64 18.500135,-34.364227,548.64 18.494081,-34.364731,548.64 18.49268,-34.364723,548.64 18.487129,-34.364582,548.64 18.485584,-34.364582,548.64 18.479565,-34.364868,548.64 18.477917,-34.36491,548.64 18.471909,-34.364304,548.64 18.470652,-34.363953,548.64 18.465443,-34.364491,579.12 18.464767,-34.365509,579.12 18.470364,-34.369564,579.12 18.471508,-34.369656,579.12 18.476315,-34.370262,579.12 18.477573,-34.370586,579.12 18.482323,-34.372589,548.64 18.483124,-34.372963,548.64 18.48814,-34.374756,548.64 18.489304,-34.375057,548.64 18.494307,-34.375488,548.64 18.495712,-34.375431,548.64 18.500864,-34.374252,548.64 18.502321,-34.373657,548.64 18.506638,-34.370819,518.16 18.507704,-34.36972,518.16 18.510113,-34.365417,548.64 18.510361,-34.364258,548.64 18.510246,-34.35923,548.64 18.509903,-34.357925,548.64 18.507982,-34.35347,548.64 18.507099,-34.3522,548.64 18.503778,-34.348022,548.64 18.503036,-34.346985,548.64 18.500135,-34.3423,548.64 18.499546,-34.341259,548.64 18.497276,-34.336487,548.64 18.496773,-34.335297,548.64 18.494968,-34.330505,548.64 18.494587,-34.329437,548.64 18.492622,-34.32436,548.64 18.492279,-34.323246,548.64 18.490791,-34.318356,548.64 18.490383,-34.316986,548.64 18.489017,-34.312305,548.64 18.488646,-34.310898,548.64 18.487579,-34.305862,548.64 18.487356,-34.304764,548.64 18.486628,-34.300186,548.64 18.486385,-34.298664,548.64 18.485731,-34.293732,548.64 18.485584,-34.29266,548.64 18.485226,-34.287735,548.64 18.48517,-34.286362,548.64 18.48489,-34.281326,548.64 18.484777,-34.279999,548.64 18.483881,-34.2686,518.16 18.483582,-34.264866,518.16 18.483009,-34.256813,518.16 18.482895,-34.255836,518.16 18.482208,-34.250435,548.64 18.482094,-34.249321,518.16 18.481236,-34.243919,548.64 18.481022,-34.242828,518.16 18.4799,-34.237793,518.16 18.479576,-34.236519,518.16 18.477917,-34.231304,518.16 18.477491,-34.230057,518.16 18.4758,-34.2253,518.16 18.475456,-34.224274,518.16 18.472595,-34.216408,518.16 18.471565,-34.213009,518.16 18.470203,-34.208176,518.16 18.469868,-34.207077,518.16 18.468691,-34.201859,518.16 18.468533,-34.200718,518.16 18.46813,-34.195999,518.16 18.468075,-34.194714,518.16 18.468018,-34.189919,487.68 18.468018,-34.188721,518.16 18.468075,-34.18317,518.16 18.468018,-34.179657,518.16 18.465786,-34.175629,548.64 18.464355,-34.175068,548.64 18.460464,-34.176231,548.64 18.459835,-34.176838,548.64 18.459442,-34.179749,518.16 18.460007,-34.180328,518.16 18.463421,-34.180161,518.16 18.463982,-34.179703,518.16 18.465384,-34.175995,518.16 18.465385,-34.174976,518.16 18.46447,-34.170647,518.16 18.464298,-34.169621,518.16 18.464069,-34.165573,518.16 18.464149,-34.164322,548.64 18.464767,-34.159882,548.64 18.465042,-34.158867,548.64 18.466072,-34.1544,548.64 18.46628,-34.153381,548.64 18.467344,-34.148849,548.64 18.467569,-34.147842,548.64 18.471157,-34.134521,548.64 18.47208,-34.131401,548.64 18.474464,-34.12207,548.64 18.474632,-34.121017,548.64 18.47517,-34.116318,548.64 18.475248,-34.11525,548.64 18.475584,-34.110214,548.64 18.475584,-34.109161,548.64 18.475304,-34.104401,548.64 18.47517,-34.103054,548.64 18.474426,-34.098351,548.64 18.474239,-34.097305,548.64 18.472939,-34.092533,548.64 18.472538,-34.091183,548.64 18.470877,-34.086227,518.16 18.470539,-34.085129,518.16 18.468704,-34.080196,518.16 18.468246,-34.078846,518.16 18.46656,-34.073822,518.16 18.466244,-34.072701,518.16 18.464813,-34.067764,518.16 18.464262,-34.065674,518.16 18.463383,-34.061153,518.16 18.463211,-34.059944,518.16 18.462696,-34.055195,518.16 18.462524,-34.053894,518.16 18.46174,-34.049149,518.16 18.461609,-34.048027,518.16 18.460979,-34.04314,518.16 18.460899,-34.042145,518.16 18.460674,-34.037338,518.16 18.460636,-34.036201,518.16 18.460522,-34.031406,518.16 18.460506,-34.030151,518.16 18.460394,-34.025345,518.16 18.460464,-34.022701,518.16 18.460619,-34.017014,518.16 18.460636,-34.015862,548.64 18.460922,-34.011299,548.64 18.461037,-34.010227,548.64 18.461552,-34.005524,548.64 18.461723,-34.004128,548.64 18.462353,-33.998077,518.16 18.462868,-33.993237,518.16 18.464655,-33.98259,518.16 18.464878,-33.981491,518.16 18.465326,-33.976318,518.16 18.465384,-33.975174,518.16 18.465271,-33.97047,518.16 18.465158,-33.969223,518.16 18.464542,-33.964645,518.16 18.464317,-33.963181,518.16 18.462925,-33.958508,518.16 18.462467,-33.957436,518.16 18.460619,-33.953339,518.16 18.460003,-33.952148,518.16 18.457928,-33.948029,518.16 18.457432,-33.946777,518.16 18.455715,-33.942169,487.68 18.455238,-33.940933,457.2 18.453655,-33.936394,426.72 18.453312,-33.935513,426.72 18.45171,-33.930531,396.24 18.451426,-33.929443,396.24 18.450249,-33.925003,335.28 18.449993,-33.923687,335.28 18.449135,-33.919357,304.8 18.448904,-33.918274,304.8 18.447447,-33.913696,274.32 18.446903,-33.912468,274.32 18.445597,-33.908157,243.84 18.44553,-33.907299,243.84 18.445709,-33.90303,213.36 18.445759,-33.902084,213.36 18.445541,-33.897858,213.36 18.445358,-33.89706,213.36 18.443859,-33.893326,182.88 18.443073,-33.892456,182.88 18.439598,-33.890991,152.4 18.438663,-33.891052,152.4 18.435394,-33.892914,91.44 18.434715,-33.89352,91.44 18.432592,-33.895294,60.96 18.43214,-33.895615,30.48 18.429901,-33.8974,0 18.429621,-33.897675,0 18.427906,-33.899338,0 18.427492,-33.899734,0 18.427032,-33.900818,0 18.42717,-33.901028,0
        </coordinates>
      </LineString>
    </Placemark>
  </Document>
</kml>