<?xml version="1.0" encoding="UTF-8"?>
<kml xmlns="http://www.opengis.net/kml/2.2">
  <Document>
    <name>-/ZTRNW - Optimised</name>
    <description><![CDATA[Optimised flight path with 845 points (decimated from 4223 original points). Source format: Standard KML]]></description>
    
    <Style id="flightPath">
      <LineStyle>
        <color>ff0000ff</color>
        <width>3</width>
      </LineStyle>
    </Style>
    
    <Placemark>
      <name>Flight Path</name>
      <description><![CDATA[<div style="width:220px; text-align:center;">
<div style="width:210px; text-align:center;">
<div style=" background: #000; color: #fff; font-size: 14px; text-align:left; border: 1px solid #000; padding: 2px 6px; text-shadow: 0 1px 0 #000; box-shadow: 0 1px 3px rgba(0,0,0,0.6); background: -webkit-gradient(linear, left top, left bottom, color-stop(0%,#808080), color-stop(2%,#303030), color-stop(100%,#0c0c0c));"><span style="font-size: 14px; font-weight: bold;"><a href="javascript:void(0);" style="color: #fff; cursor: pointer;text-decoration: none;">-</a></span> / ZTRNW<br/>Private owner</div>

<div style="border-top: 1px solid #005c90; color: #fff; padding-bottom: 5px; box-shadow: 0 0 1px #9BE3F6 inset, 0 1px 0 #9BE3F6 inset, 0 -1px 3px rgba(0,0,0,0.4); background:rgba(43,114,173,1); background: -webkit-gradient(linear, left top, left bottom, color-stop(0%,rgba(92,184,229,1)), color-stop(100%,rgba(43,114,173,1)));">
<a style="text-decoration: none; color: rgb(255, 255, 255); font-size: 12px; width:77px; display: inline-block;" title=" Airport" href="javascript:void(0);/departures"><h3 style="padding: 0px; margin: 10px 0px 0px; font-size: 16px; ">?</h3></a>
<span style="background: url(https://www.flightradar24.com/static/images/userUI_sprite.png?14) no-repeat scroll 0 -464px rgba(0, 0, 0, 0); border: medium none; display: inline-block; height: 16px; width: 45px;"></span>
<a style="text-decoration: none; color: rgb(255, 255, 255); font-size: 12px; width:77px; display: inline-block;" title="Cape Town Airport" href="https://www.flightradar24.com/airport/cpt/arrivals"><h3 style="padding: 0px; margin: 10px 0px 0px; font-size: 16px;">CPT</h3>Cape Town</a>
<div style=" margin-top:10px;">
<div style="display: inline-block; font-size: 12px; padding: 0 5px;">
<div>
<span style="color: #c1eaff;" title="Actual Time of Departure">ATD </span>
<span title="2025-11-25 10:35">10:35</span> <span title="Coordinated Universal Time">UTC</span>
</div>
</div>
<div style="display: inline-block; font-size: 12px; padding: 0 5px;">
<div>
<span style="color: #c1eaff;" title="Estimated Time of Arrival">ETA </span>
<span title="2025-11-25 10:49">10:49</span> <span title="Coordinated Universal Time">UTC</span>
</div>
</div>
</div>
<br style="clear: both;"/>
</div>

<div style="display: block;">
<table style="border-collapse: collapse; width: 100%;">
<tr style="border-right: 1px solid #dadada; ">
<td style="background: none repeat scroll 0 0 #dadada; padding: 0; width: 31px;">
<span style="background: url(https://www.flightradar24.com/static/images/userUI_sprite.png?14) no-repeat scroll -208px -464px rgba(0, 0, 0, 0); height: 26px; margin: 8px 0 0 4px; width: 23px; display: block;"></span>
</td>
<td colspan="2" style="border-bottom: 1px solid #dadada; border-left: 1px solid #dadada; color: #666; line-height: 1.1em; padding: 3px 6px; vertical-align: top; font-size: 14px;">
Aircraft<span style="float: right; font-size: 12px;">(EC20)</span><br>
<span style="color: #333; font-size: 16px; font-weight: bold; line-height: 1.3em;">Airbus Helicopters H120</span>
</td>
</tr>
<tr style="border-right: 1px solid #dadada; ">
<td style="background: none repeat scroll 0 0 #dadada; padding: 0; width: 31px;">
<td colspan="2" style="border-bottom: 1px solid #dadada; border-left: 1px solid #dadada; color: #666; line-height: 1.1em; padding: 3px 6px; vertical-align: top; font-size: 14px;">
Registration<br>
<span style="color: #333; font-size: 16px; font-weight: bold; line-height: 1.3em;"><a href="https://www.flightradar24.com/reg/zt-rnw" style="text-decoration: none; color: #333;">ZT-RNW</a></span>
</td>
</tr>
</table>
</div>

</div>
</div>]]></description>
      <styleUrl>#flightPath</styleUrl>
      <LineString>
        <extrude>1</extrude>
        <tessellate>1</tessellate>
        <altitudeMode>absolute</altitudeMode>
        <coordinates>
          18.426931,-33.90097,45.72 18.428364,-33.898174,53.34 18.430595,-33.894825,99.06 18.43277,-33.891331,129.54 18.435173,-33.887283,167.64 18.435843,-33.882935,205.74 18.433657,-33.879135,251.46 18.43111,-33.875736,297.18 18.428307,-33.872574,350.52 18.424358,-33.871689,403.86 18.419952,-33.872478,457.2 18.415607,-33.873276,510.54 18.411629,-33.874237,571.5 18.407822,-33.875553,624.84 18.403669,-33.876801,678.18 18.399466,-33.878128,716.28 18.394661,-33.879555,769.62 18.389601,-33.881241,792.48 18.38459,-33.883186,800.1 18.378725,-33.885635,807.72 18.372746,-33.888493,807.72 18.367178,-33.892273,822.96 18.362246,-33.896805,838.2 18.357929,-33.901474,838.2 18.353748,-33.906647,830.58 18.3498,-33.912189,822.96 18.346552,-33.917633,830.58 18.343525,-33.92363,838.2 18.340553,-33.929855,838.2 18.337841,-33.935276,822.96 18.336926,-33.942169,830.58 18.339157,-33.947941,822.96 18.343525,-33.951279,800.1 18.348345,-33.949356,716.28 18.352604,-33.945053,685.8 18.356266,-33.940491,655.32 18.360956,-33.934296,617.22 18.364964,-33.928528,601.98 18.368187,-33.923492,579.12 18.372002,-33.917915,548.64 18.375978,-33.912643,518.16 18.380699,-33.907112,510.54 18.384947,-33.902481,533.4 18.389656,-33.898453,541.02 18.395348,-33.895195,571.5 18.400978,-33.892365,586.74 18.407192,-33.889378,586.74 18.413601,-33.886539,586.74 18.419838,-33.884537,563.88 18.426651,-33.884171,518.16 18.433546,-33.885956,464.82 18.438366,-33.889069,403.86 18.441181,-33.893055,335.28 18.441238,-33.896919,259.08 18.438263,-33.899338,175.26 18.434834,-33.899826,106.68 18.431625,-33.900177,68.58 18.428707,-33.900551,45.72 18.427492,-33.900513,60.96 18.428724,-33.897125,68.58 18.431625,-33.893475,91.44 18.434258,-33.889751,121.92 18.43689,-33.885048,167.64 18.437176,-33.880672,198.12 18.435452,-33.876663,228.6 18.433056,-33.873642,251.46 18.429623,-33.871361,289.56 18.425102,-33.870152,312.42 18.42099,-33.870209,350.52 18.417122,-33.870667,388.62 18.413143,-33.871407,426.72 18.408882,-33.87236,472.44 18.404902,-33.873642,518.16 18.401035,-33.875153,548.64 18.397121,-33.8769,586.74 18.392887,-33.878765,624.84 18.389095,-33.8806,670.56 18.385792,-33.883186,701.04 18.382313,-33.886185,746.76 18.379326,-33.888634,800.1 18.376522,-33.890961,838.2 18.372917,-33.894032,845.82 18.369421,-33.897766,845.82 18.365721,-33.901794,845.82 18.362217,-33.906136,845.82 18.358603,-33.910767,838.2 18.354624,-33.916214,822.96 18.351288,-33.921173,807.72 18.348141,-33.926666,792.48 18.344925,-33.932556,769.62 18.340105,-33.942169,731.52 18.336754,-33.950035,723.9 18.334236,-33.955902,746.76 18.32542,-33.974991,746.76 18.316395,-33.995453,731.52 18.314041,-34.00177,716.28 18.307056,-34.020004,678.18 18.301792,-34.032246,662.94 18.302719,-34.0383,655.32 18.307203,-34.043793,632.46 18.311407,-34.049698,662.94 18.315411,-34.055149,685.8 18.320599,-34.061646,708.66 18.325481,-34.065483,739.14 18.329773,-34.069954,784.86 18.328571,-34.075027,815.34 18.32325,-34.076519,845.82 18.320656,-34.07341,868.68 18.322563,-34.069534,891.54 18.328457,-34.068558,906.78 18.333771,-34.071945,906.78 18.336296,-34.077866,883.92 18.337975,-34.085312,830.58 18.339214,-34.092018,800.1 18.341217,-34.099049,769.62 18.346384,-34.104401,739.14 18.35392,-34.106777,723.9 18.361629,-34.108749,701.04 18.36886,-34.110535,685.8 18.375835,-34.112225,678.18 18.383274,-34.114132,678.18 18.390945,-34.116119,678.18 18.400923,-34.119141,693.42 18.407707,-34.121487,701.04 18.414745,-34.123955,701.04 18.421829,-34.126648,693.42 18.428764,-34.129635,701.04 18.435059,-34.132614,708.66 18.441753,-34.134987,701.04 18.448734,-34.134197,693.42 18.453444,-34.12999,640.08 18.459049,-34.125641,609.6 18.465328,-34.121811,609.6 18.470364,-34.118462,601.98 18.475641,-34.114792,601.98 18.479004,-34.109985,624.84 18.477688,-34.10482,609.6 18.477058,-34.099468,601.98 18.477154,-34.093872,586.74 18.477491,-34.087692,579.12 18.477745,-34.082012,571.5 18.47826,-34.065948,510.54 18.478603,-34.057709,480.06 18.478836,-34.052032,480.06 18.480034,-34.030571,441.96 18.481407,-34.011997,464.82 18.482985,-34.002457,480.06 18.483982,-33.996819,480.06 18.484097,-33.991093,472.44 18.483994,-33.985474,472.44 18.483925,-33.979874,464.82 18.484497,-33.968796,434.34 18.486042,-33.953526,411.48 18.485355,-33.947475,396.24 18.483181,-33.941982,403.86 18.480778,-33.937092,388.62 18.477802,-33.932159,365.76 18.474483,-33.927597,342.9 18.470478,-33.922943,335.28 18.466244,-33.918148,320.04 18.462244,-33.913834,297.18 18.458233,-33.909393,266.7 18.4548,-33.905113,243.84 18.451818,-33.901337,220.98 18.446774,-33.900009,182.88 18.441982,-33.90004,152.4 18.435917,-33.89957,114.3 18.431078,-33.899323,83.82 18.428364,-33.899666,53.34 18.426987,-33.900604,45.72 18.42762,-33.899338,60.96 18.429958,-33.896301,68.58 18.432655,-33.892448,106.68 18.434946,-33.888474,144.78 18.436235,-33.884491,175.26 18.435116,-33.880951,190.5 18.432369,-33.87746,220.98 18.428949,-33.87529,251.46 18.424702,-33.874992,297.18 18.420933,-33.875061,342.9 18.417263,-33.875225,388.62 18.413479,-33.87529,426.72 18.409723,-33.875519,464.82 18.405933,-33.875599,518.16 18.402155,-33.875931,563.88 18.398624,-33.876526,617.22 18.395061,-33.877739,655.32 18.391457,-33.879509,685.8 18.388086,-33.881973,716.28 18.384556,-33.884491,739.14 18.377155,-33.890167,800.1 18.372517,-33.893894,792.48 18.368525,-33.897629,784.86 18.364964,-33.901436,792.48 18.361301,-33.905949,807.72 18.358154,-33.910233,815.34 18.355015,-33.914932,830.58 18.352158,-33.919647,838.2 18.349514,-33.924759,838.2 18.346832,-33.929855,815.34 18.344366,-33.935577,800.1 18.342178,-33.941299,777.24 18.341389,-33.947243,769.62 18.344814,-33.952194,716.28 18.350756,-33.953888,655.32 18.355295,-33.950821,594.36 18.357761,-33.946106,586.74 18.359556,-33.940292,571.5 18.36191,-33.933334,571.5 18.364096,-33.92775,594.36 18.367123,-33.92157,594.36 18.370823,-33.91658,571.5 18.375263,-33.911861,548.64 18.379841,-33.907021,548.64 18.384705,-33.902412,556.26 18.390329,-33.898315,541.02 18.396439,-33.894791,487.68 18.403276,-33.892456,533.4 18.41062,-33.890808,502.92 18.417664,-33.889332,464.82 18.424759,-33.88747,426.72 18.43214,-33.887005,388.62 18.43758,-33.889343,335.28 18.440838,-33.893333,281.94 18.440159,-33.896988,198.12 18.436375,-33.898129,129.54 18.432713,-33.898922,99.06 18.429337,-33.89962,68.58 18.427099,-33.900192,53.34 18.427105,-33.900318,60.96 18.428421,-33.897942,76.2 18.430538,-33.894547,106.68 18.431969,-33.890728,137.16 18.432367,-33.886917,182.88 18.430519,-33.882751,213.36 18.427563,-33.88002,236.22 18.423729,-33.8783,259.08 18.419924,-33.87767,297.18 18.416168,-33.87767,320.04 18.411797,-33.878082,350.52 18.407249,-33.878716,335.28 18.402901,-33.879555,388.62 18.398792,-33.88092,411.48 18.394981,-33.882614,449.58 18.391226,-33.884583,472.44 18.387413,-33.886963,495.3 18.38356,-33.889519,518.16 18.380182,-33.891953,556.26 18.376932,-33.894562,586.74 18.373947,-33.897526,617.22 18.371103,-33.90065,632.46 18.368168,-33.904087,647.7 18.365364,-33.907673,655.32 18.362732,-33.911491,655.32 18.3601,-33.916004,662.94 18.357929,-33.92038,655.32 18.355688,-33.924957,647.7 18.352493,-33.93187,640.08 18.346664,-33.946014,632.46 18.34837,-33.950081,693.42 18.353334,-33.948578,678.18 18.356438,-33.943192,640.08 18.359331,-33.937088,609.6 18.363873,-33.927521,594.36 18.370037,-33.915894,579.12 18.373457,-33.910126,556.26 18.37738,-33.904228,533.4 18.381752,-33.898499,525.78 18.387133,-33.893326,510.54 18.394028,-33.888977,495.3 18.401413,-33.885887,472.44 18.409824,-33.88356,449.58 18.418007,-33.882488,419.1 18.426476,-33.882488,411.48 18.4342,-33.883793,396.24 18.440838,-33.886909,388.62 18.4447,-33.891129,365.76 18.444252,-33.894928,327.66 18.440952,-33.896267,266.7 18.437634,-33.897198,198.12 18.433769,-33.898407,129.54 18.430574,-33.899231,91.44 18.428276,-33.899918,60.96 18.426987,-33.90097,38.1 18.427677,-33.899155,60.96 18.42923,-33.896484,91.44 18.430767,-33.893379,121.92 18.431911,-33.889889,152.4 18.432026,-33.8857,190.5 18.43008,-33.882534,220.98 18.427155,-33.880417,259.08 18.423792,-33.879456,297.18 18.419868,-33.879272,335.28 18.416348,-33.879322,373.38 18.412525,-33.879776,396.24 18.408882,-33.880371,419.1 18.404388,-33.881229,441.96 18.400097,-33.88221,464.82 18.395205,-33.883667,495.3 18.390833,-33.885773,525.78 18.387077,-33.888382,556.26 18.383503,-33.89138,571.5 18.380184,-33.894314,586.74 18.376539,-33.897583,601.98 18.373064,-33.900879,617.22 18.369713,-33.904415,624.84 18.366562,-33.908386,632.46 18.363815,-33.912598,640.08 18.36113,-33.917217,640.08 18.358715,-33.921799,632.46 18.354567,-33.930405,624.84 18.349354,-33.941391,647.7 18.346888,-33.946426,655.32 18.345598,-33.95192,662.94 18.352436,-33.954346,693.42 18.355923,-33.948639,647.7 18.35849,-33.942398,632.46 18.361294,-33.935303,601.98 18.368568,-33.918007,556.26 18.372059,-33.912094,548.64 18.375835,-33.907112,556.26 18.380239,-33.902298,533.4 18.385508,-33.897354,510.54 18.391514,-33.892963,480.06 18.398176,-33.889481,457.2 18.405743,-33.886551,419.1 18.413601,-33.884304,396.24 18.422054,-33.883209,373.38 18.43008,-33.883606,358.14 18.437691,-33.886166,342.9 18.44257,-33.890121,327.66 18.443756,-33.894405,304.8 18.440838,-33.896454,266.7 18.43758,-33.897171,228.6 18.434944,-33.89785,190.5 18.43248,-33.898544,137.16 18.429508,-33.899433,83.82 18.427391,-33.900272,60.96 18.427219,-33.900131,68.58 18.428707,-33.897243,76.2 18.430462,-33.893646,114.3 18.431919,-33.889801,152.4 18.432655,-33.885746,190.5 18.431919,-33.881699,220.98 18.430138,-33.87825,251.46 18.427219,-33.875504,274.32 18.42256,-33.87442,320.04 18.418751,-33.874992,350.52 18.414656,-33.876343,381 18.414345,-33.878998,434.34 18.418804,-33.880463,487.68 18.422871,-33.880112,541.02 18.423624,-33.878128,556.26 18.420092,-33.878174,533.4 18.415775,-33.879135,548.64 18.410568,-33.880581,563.88 18.406023,-33.882065,579.12 18.400866,-33.883896,518.16 18.395348,-33.885979,586.74 18.390484,-33.888306,594.36 18.385956,-33.891037,609.6 18.381416,-33.894333,617.22 18.377151,-33.897758,617.22 18.372896,-33.90152,632.46 18.369083,-33.9053,632.46 18.365707,-33.909069,647.7 18.362675,-33.912888,662.94 18.359985,-33.917076,678.18 18.357353,-33.921684,685.8 18.355122,-33.925922,693.42 18.351746,-33.932999,701.04 18.3498,-33.938118,708.66 18.351116,-33.94268,800.1 18.355579,-33.941795,876.3 18.357819,-33.938004,906.78 18.359724,-33.933838,960.12 18.359331,-33.929535,1021.08 18.355911,-33.929901,1043.94 18.353348,-33.934254,1013.46 18.449921,-34.135258,502.92 18.456476,-34.132004,502.92 18.462193,-34.127411,495.3 18.466917,-34.122681,495.3 18.471117,-34.117565,495.3 18.4743,-34.112068,487.68 18.476759,-34.105904,487.68 18.477869,-34.099808,487.68 18.477562,-34.0938,495.3 18.478939,-34.087997,502.92 18.479712,-34.082314,495.3 18.480108,-34.07621,487.68 18.481409,-34.070759,480.06 18.482647,-34.065018,480.06 18.483965,-34.059132,464.82 18.484697,-34.052841,457.2 18.48551,-34.046974,472.44 18.485586,-34.041462,472.44 18.485474,-34.030891,487.68 18.485634,-34.024712,487.68 18.484886,-34.018429,495.3 18.484743,-34.007118,495.3 18.486179,-33.985703,457.2 18.486214,-33.971077,464.82 18.486122,-33.965332,480.06 18.48517,-33.959335,487.68 18.483639,-33.953621,464.82 18.482143,-33.947662,441.96 18.480492,-33.941376,434.34 18.478836,-33.935806,426.72 18.476202,-33.929947,426.72 18.472939,-33.924107,426.72 18.469677,-33.919266,396.24 18.465496,-33.914474,419.1 18.461123,-33.910263,381 18.456516,-33.906277,350.52 18.452225,-33.902554,327.66 18.447727,-33.899734,320.04 18.442669,-33.898037,289.56 18.438435,-33.897804,236.22 18.434666,-33.898178,175.26 18.431583,-33.898819,91.44 18.428837,-33.89978,76.2 18.427267,-33.900787,53.34 18.427603,-33.899231,53.34 18.42802,-33.89864,53.34 18.429737,-33.896175,76.2 18.430126,-33.895569,83.82 18.431864,-33.892776,114.3 18.432312,-33.892033,129.54 18.434258,-33.888866,160.02 18.434772,-33.887981,167.64 18.436146,-33.884537,190.5 18.436089,-33.883652,198.12 18.434658,-33.880718,228.6 18.43405,-33.879776,236.22 18.432199,-33.877121,274.32 18.431639,-33.876389,289.56 18.429453,-33.873734,327.66 18.428837,-33.873093,342.9 18.425978,-33.871628,381 18.425274,-33.871593,388.62 18.421555,-33.872154,441.96 18.420822,-33.872314,449.58 18.41732,-33.872944,487.68 18.416281,-33.873138,502.92 18.413198,-33.873734,548.64 18.412413,-33.873962,563.88 18.409163,-33.875061,601.98 18.408508,-33.87532,617.22 18.405407,-33.876297,662.94 18.404446,-33.876575,670.56 18.401241,-33.877552,701.04 18.400497,-33.877785,708.66 18.396551,-33.879089,754.38 18.395653,-33.879318,762 18.391729,-33.880463,784.86 18.390665,-33.880829,784.86 18.386593,-33.882347,800.1 18.385735,-33.882721,800.1 18.381304,-33.884583,800.1 18.379959,-33.885132,807.72 18.375034,-33.887329,807.72 18.373793,-33.887924,807.72 18.369312,-33.890633,815.34 18.368397,-33.891331,815.34 18.364264,-33.894836,830.58 18.363312,-33.895798,838.2 18.359667,-33.89946,838.2 18.358938,-33.90033,838.2 18.355295,-33.904633,830.58 18.354492,-33.905716,830.58 18.351316,-33.909988,822.96 18.350643,-33.91095,822.96 18.347672,-33.915619,830.58 18.347111,-33.916656,830.58 18.344593,-33.921452,830.58 18.344028,-33.922531,830.58 18.341846,-33.927223,838.2 18.341114,-33.928711,838.2 18.338814,-33.933182,822.96 18.338255,-33.934296,822.96 18.33691,-33.939331,830.58 18.336811,-33.940723,830.58 18.337751,-33.945557,822.96 18.338312,-33.946747,822.96 18.34173,-33.950317,807.72 18.342648,-33.950874,800.1 18.34671,-33.950825,769.62 18.347626,-33.950081,739.14 18.350887,-33.946869,701.04 18.351631,-33.946125,693.42 18.354959,-33.942123,670.56 18.355633,-33.941299,662.94 18.358603,-33.937454,632.46 18.360329,-33.935139,617.22 18.363592,-33.930634,609.6 18.364391,-33.929459,601.98 18.366795,-33.92569,586.74 18.367571,-33.924454,579.12 18.370457,-33.920197,563.88 18.371271,-33.918961,556.26 18.37429,-33.914841,533.4 18.37525,-33.913605,525.78 18.378983,-33.909115,510.54 18.379734,-33.908203,510.54 18.38316,-33.90432,525.78 18.383961,-33.903484,525.78 18.387806,-33.899826,541.02 18.388596,-33.899246,541.02 18.393173,-33.896358,563.88 18.394547,-33.895615,563.88 18.398624,-33.893555,518.16 18.400097,-33.892822,525.78 18.404732,-33.890541,586.74 18.405762,-33.89003,586.74 18.410788,-33.887741,586.74 18.412245,-33.8871,571.5 18.417122,-33.885223,579.12 18.418579,-33.884815,571.5 18.423679,-33.884079,533.4 18.425249,-33.884079,525.78 18.43091,-33.884995,487.68 18.432369,-33.885468,480.06 18.436571,-33.887604,426.72 18.437405,-33.888214,419.1 18.440437,-33.891426,358.14 18.440777,-33.891998,350.52 18.441561,-33.895477,289.56 18.441448,-33.89621,274.32 18.439655,-33.898727,205.74 18.438892,-33.899105,190.5 18.436317,-33.899666,137.16 18.435516,-33.899757,121.92 18.432425,-33.900101,76.2 18.432026,-33.900131,76.2 18.429678,-33.900421,53.34 18.429279,-33.900455,45.72 18.42794,-33.90065,38.1 18.427715,-33.900696,38.1 18.427883,-33.898132,60.96 18.428249,-33.897709,60.96 18.430407,-33.895065,83.82 18.431053,-33.894218,91.44 18.433399,-33.890961,114.3 18.434029,-33.890076,121.92 18.436068,-33.886826,152.4 18.436348,-33.886322,152.4 18.437357,-33.882431,190.5 18.43729,-33.881649,190.5 18.43646,-33.878448,213.36 18.4359,-33.877441,220.98 18.434105,-33.874786,243.84 18.433489,-33.8741,251.46 18.431168,-33.872154,274.32 18.430294,-33.871719,281.94 18.427155,-33.870438,304.8 18.425846,-33.870243,312.42 18.422813,-33.870106,335.28 18.421898,-33.870152,342.9 18.418634,-33.870438,373.38 18.417892,-33.870571,381 18.414688,-33.871082,411.48 18.414059,-33.871223,419.1 18.41074,-33.871922,449.58 18.409666,-33.872177,464.82 18.406639,-33.873001,495.3 18.405933,-33.873272,502.92 18.402729,-33.874481,533.4 18.401875,-33.874832,541.02 18.39868,-33.876205,571.5 18.398064,-33.87648,571.5 18.394533,-33.878036,609.6 18.393692,-33.878403,617.22 18.390713,-33.879742,655.32 18.389797,-33.880207,662.94 18.387077,-33.882156,693.42 18.386461,-33.88266,693.42 18.383789,-33.884907,723.9 18.383045,-33.885559,731.52 18.38047,-33.887703,784.86 18.379955,-33.888119,792.48 18.377716,-33.89003,822.96 18.377155,-33.890488,830.58 18.374241,-33.892822,845.82 18.37368,-33.893326,845.82 18.370743,-33.896358,845.82 18.370228,-33.896873,845.82 18.367081,-33.900272,845.82 18.366562,-33.900787,845.82 18.363533,-33.904415,845.82 18.363018,-33.905064,845.82 18.3601,-33.908882,838.2 18.359444,-33.90976,838.2 18.356495,-33.913586,830.58 18.355751,-33.914703,822.96 18.352604,-33.91917,807.72 18.352032,-33.920055,807.72 18.349354,-33.924362,792.48 18.34877,-33.925407,792.48 18.346159,-33.930267,777.24 18.345623,-33.931274,769.62 18.343163,-33.935978,754.38 18.342533,-33.937279,746.76 18.337784,-33.947521,731.52 18.337303,-33.948715,731.52 18.335266,-33.953526,746.76 18.33478,-33.954712,746.76 18.331642,-33.961945,754.38 18.328171,-33.969215,746.76 18.319366,-33.988312,739.14 18.317871,-33.991791,739.14 18.31505,-33.999115,723.9 18.314545,-34.000488,723.9 18.310453,-34.011337,701.04 18.308491,-34.016235,685.8 18.303503,-34.02832,662.94 18.302942,-34.029556,662.94 18.30154,-34.035782,670.56 18.301878,-34.036835,670.56 18.305353,-34.041412,632.46 18.306305,-34.042603,624.84 18.30986,-34.047516,647.7 18.310509,-34.048462,655.32 18.313873,-34.053177,678.18 18.314667,-34.054218,678.18 18.318974,-34.05986,701.04 18.319815,-34.060822,708.66 18.323708,-34.064228,731.52 18.324738,-34.064972,739.14 18.328726,-34.068146,769.62 18.329487,-34.06921,777.24 18.329716,-34.073257,807.72 18.329176,-34.074326,815.34 18.325596,-34.076611,830.58 18.324451,-34.076702,838.2 18.321075,-34.074982,861.06 18.320766,-34.074326,868.68 18.321327,-34.070938,876.3 18.321775,-34.070251,883.92 18.326168,-34.068371,906.78 18.327541,-34.068417,906.78 18.33189,-34.070095,906.78 18.332987,-34.071075,906.78 18.335566,-34.075333,891.54 18.33601,-34.076752,883.92 18.337326,-34.082195,845.82 18.337639,-34.08371,838.2 18.338703,-34.089249,807.72 18.338985,-34.090668,800.1 18.34013,-34.096256,769.62 18.340611,-34.097763,762 18.343964,-34.102772,754.38 18.344982,-34.103577,746.76 18.350531,-34.10582,723.9 18.352268,-34.106323,723.9 18.358715,-34.107971,716.28 18.360271,-34.108406,708.66 18.365707,-34.109756,685.8 18.367367,-34.110176,685.8 18.373177,-34.111542,678.18 18.374746,-34.111954,678.18 18.380527,-34.113434,678.18 18.381865,-34.113785,678.18 18.388023,-34.115341,670.56 18.389626,-34.115761,678.18 18.39798,-34.118183,685.8 18.399525,-34.118694,685.8 18.405014,-34.12056,693.42 18.406248,-34.120972,701.04 18.412113,-34.123024,701.04 18.413315,-34.123444,701.04 18.419094,-34.125584,701.04 18.420582,-34.12619,701.04 18.426075,-34.128422,701.04 18.427435,-34.129028,701.04 18.432705,-34.1315,701.04 18.433914,-34.132053,701.04 18.439236,-34.134335,693.42 18.440496,-34.134705,693.42 18.446331,-34.135033,701.04 18.447557,-34.134705,701.04 18.451538,-34.131866,655.32 18.452492,-34.130905,647.7 18.456751,-34.127197,617.22 18.457815,-34.126465,609.6 18.462868,-34.123302,609.6 18.464069,-34.122559,609.6 18.468418,-34.119812,609.6 18.469475,-34.119141,601.98 18.473736,-34.116119,594.36 18.474688,-34.115479,601.98 18.478489,-34.111942,617.22 18.478832,-34.111057,624.84 18.478317,-34.106964,609.6 18.478031,-34.105984,609.6 18.477211,-34.101654,609.6 18.477116,-34.100445,609.6 18.477058,-34.096256,601.98 18.477098,-34.094879,594.36 18.477379,-34.089935,579.12 18.477434,-34.088928,579.12 18.477659,-34.084488,571.5 18.477715,-34.083069,571.5 18.477859,-34.074329,541.02 18.47805,-34.069656,525.78 18.478546,-34.05999,495.3 18.478556,-34.058853,487.68 18.478775,-34.054218,480.06 18.478775,-34.053379,480.06 18.479633,-34.039043,449.58 18.479845,-34.034363,441.96 18.480663,-34.019909,449.58 18.480949,-34.01651,464.82 18.482424,-34.004517,472.44 18.48278,-34.003292,480.06 18.483639,-33.9991,480.06 18.483824,-33.998062,480.06 18.484097,-33.993328,472.44 18.484104,-33.99234,472.44 18.483982,-33.987835,472.44 18.483994,-33.986755,472.44 18.483936,-33.982132,472.44 18.483936,-33.980988,464.82 18.484211,-33.973682,441.96 18.484268,-33.972519,441.96 18.485281,-33.960754,411.48 18.485899,-33.956085,403.86 18.485842,-33.949997,403.86 18.485641,-33.94873,396.24 18.484211,-33.944309,396.24 18.483713,-33.943176,403.86 18.481808,-33.939049,396.24 18.481358,-33.938141,388.62 18.479059,-33.934113,381 18.478443,-33.933151,373.38 18.475754,-33.929214,350.52 18.474998,-33.928249,342.9 18.471998,-33.924637,335.28 18.471222,-33.923779,335.28 18.46785,-33.919968,327.66 18.467216,-33.919216,320.04 18.463758,-33.915482,304.8 18.462925,-33.914562,304.8 18.459835,-33.911163,289.56 18.459105,-33.910355,281.94 18.456303,-33.907013,251.46 18.455519,-33.906052,236.22 18.453255,-33.902786,228.6 18.452492,-33.901886,220.98 18.449078,-33.900223,190.5 18.448105,-33.900085,190.5 18.443756,-33.89999,160.02 18.442905,-33.900009,129.54 18.437973,-33.899963,129.54 18.437077,-33.899826,121.92 18.43317,-33.899155,99.06 18.432257,-33.899185,91.44 18.429222,-33.899525,68.58 18.428822,-33.89957,60.96 18.427391,-33.90004,53.34 18.427048,-33.900272,53.34 18.427162,-33.90004,53.34 18.427391,-33.899666,60.96 18.42905,-33.897526,68.58 18.429453,-33.896988,68.58 18.431568,-33.894077,91.44 18.432144,-33.893188,99.06 18.434105,-33.889984,129.54 18.434601,-33.889145,137.16 18.436012,-33.886185,167.64 18.436146,-33.885372,167.64 18.435802,-33.882301,182.88 18.435402,-33.881512,190.5 18.433489,-33.878632,213.36 18.432941,-33.878067,213.36 18.430481,-33.875923,236.22 18.429852,-33.875599,243.84 18.426315,-33.874969,274.32 18.425446,-33.874947,289.56 18.422356,-33.875038,320.04 18.421606,-33.875061,335.28 18.418692,-33.875198,373.38 18.418076,-33.875198,381 18.414974,-33.875271,411.48 18.414173,-33.875271,419.1 18.411348,-33.875381,449.58 18.410454,-33.875458,457.2 18.407368,-33.875565,495.3 18.40662,-33.875553,502.92 18.403725,-33.875748,548.64 18.402941,-33.875839,548.64 18.400154,-33.876251,594.36 18.399521,-33.876343,601.98 18.396551,-33.877167,640.08 18.395878,-33.877396,647.7 18.392773,-33.878716,670.56 18.392258,-33.878998,678.18 18.389488,-33.88092,708.66 18.388767,-33.881462,708.66 18.385963,-33.883511,731.52 18.38534,-33.883942,731.52 18.380814,-33.887238,769.62 18.378525,-33.889053,792.48 18.374018,-33.892685,800.1 18.373177,-33.893326,800.1 18.370094,-33.896118,784.86 18.369366,-33.896851,784.86 18.366169,-33.900146,792.48 18.365498,-33.900879,792.48 18.362732,-33.904133,800.1 18.361874,-33.905159,800.1 18.359388,-33.908524,815.34 18.358715,-33.909393,815.34 18.356209,-33.913025,822.96 18.355576,-33.914062,830.58 18.353165,-33.917908,830.58 18.352661,-33.918777,830.58 18.350601,-33.922569,838.2 18.35014,-33.923492,838.2 18.347969,-33.927643,830.58 18.347448,-33.928665,822.96 18.345205,-33.933517,807.72 18.344765,-33.934628,800.1 18.343105,-33.938957,784.86 18.34259,-33.940304,784.86 18.341274,-33.944916,769.62 18.341282,-33.946243,769.62 18.342991,-33.950546,746.76 18.343964,-33.951572,731.52 18.348198,-33.953758,685.8 18.349689,-33.953934,662.94 18.353838,-33.952469,609.6 18.354567,-33.951782,601.98 18.356781,-33.94836,586.74 18.357353,-33.947102,586.74 18.35877,-33.942719,571.5 18.359127,-33.941563,571.5 18.360733,-33.936584,571.5 18.361462,-33.934479,571.5 18.363255,-33.929947,586.74 18.363705,-33.928761,586.74 18.365891,-33.923721,594.36 18.366566,-33.922569,594.36 18.369196,-33.918549,579.12 18.370094,-33.91745,571.5 18.373457,-33.913742,556.26 18.374405,-33.912746,548.64 18.378109,-33.908844,548.64 18.378868,-33.908047,548.64 18.382593,-33.904312,556.26 18.383827,-33.903214,548.64 18.388031,-33.899918,548.64 18.389053,-33.8992,548.64 18.393915,-33.896072,548.64 18.395094,-33.895432,533.4 18.400362,-33.893234,487.68 18.401596,-33.892868,541.02 18.407707,-33.891426,518.16 18.408966,-33.891148,510.54 18.415159,-33.889801,480.06 18.416405,-33.889565,472.44 18.421999,-33.888245,449.58 18.423231,-33.887878,441.96 18.429222,-33.886772,403.86 18.430407,-33.88678,396.24 18.435516,-33.888119,358.14 18.436604,-33.88868,350.52 18.439768,-33.891495,304.8 18.440271,-33.892227,297.18 18.441113,-33.895523,236.22 18.440723,-33.896358,213.36 18.43786,-33.897812,144.78 18.437004,-33.897991,137.16 18.434217,-33.898544,106.68 18.433399,-33.898735,99.06 18.430538,-33.899387,76.2 18.430014,-33.899506,76.2 18.42794,-33.899918,60.96 18.427391,-33.90004,53.34 18.426931,-33.901016,68.58 18.426991,-33.900738,60.96 18.427773,-33.899048,68.58 18.428078,-33.898548,76.2 18.42951,-33.896255,91.44 18.429966,-33.895477,91.44 18.431568,-33.89217,129.54 18.43174,-33.891567,129.54 18.432425,-33.888565,160.02 18.432426,-33.88784,175.26 18.431583,-33.884445,198.12 18.431053,-33.883511,205.74 18.428879,-33.881046,228.6 18.428192,-33.88044,228.6 18.42556,-33.878948,251.46 18.424576,-33.878586,259.08 18.421612,-33.877834,281.94 18.420597,-33.877716,289.56 18.417435,-33.877598,312.42 18.416674,-33.877625,320.04 18.413311,-33.877899,342.9 18.412743,-33.877972,342.9 18.409138,-33.878437,327.66 18.408209,-33.878586,365.76 18.404846,-33.879135,350.52 18.403931,-33.879322,381 18.40053,-33.88028,403.86 18.399754,-33.880581,411.48 18.396494,-33.881882,434.34 18.395805,-33.88221,441.96 18.392738,-33.883804,464.82 18.392086,-33.884117,472.44 18.388824,-33.886074,487.68 18.388031,-33.886551,495.3 18.385048,-33.888493,510.54 18.384304,-33.889004,510.54 18.3815,-33.891006,541.02 18.380871,-33.891472,548.64 18.378277,-33.893463,571.5 18.377493,-33.894058,579.12 18.375149,-33.896313,601.98 18.374519,-33.896965,609.6 18.372223,-33.899414,624.84 18.371662,-33.900009,632.46 18.369366,-33.902618,640.08 18.36874,-33.903389,647.7 18.366562,-33.906189,647.7 18.365879,-33.907021,647.7 18.363647,-33.91008,655.32 18.36319,-33.910839,655.32 18.361187,-33.914097,662.94 18.36062,-33.915024,662.94 18.358841,-33.918518,662.94 18.358326,-33.91959,662.94 18.356529,-33.923218,655.32 18.356081,-33.924133,655.32 18.354343,-33.927795,647.7 18.353863,-33.928852,647.7 18.348402,-33.941437,624.84 18.346882,-33.945194,624.84 18.346939,-33.948685,662.94 18.347616,-33.949631,678.18 18.351484,-33.950089,701.04 18.352375,-33.94957,685.8 18.355183,-33.945602,655.32 18.355801,-33.944504,647.7 18.358097,-33.939701,624.84 18.358727,-33.938351,617.22 18.36113,-33.933277,601.98 18.361629,-33.932281,601.98 18.368912,-33.918007,586.74 18.369427,-33.916985,586.74 18.372055,-33.912415,571.5 18.372841,-33.911179,563.88 18.375835,-33.906509,541.02 18.376652,-33.905319,541.02 18.380013,-33.900642,525.78 18.380814,-33.89962,525.78 18.384705,-33.895382,518.16 18.385849,-33.89436,518.16 18.391226,-33.890488,495.3 18.392487,-33.889751,502.92 18.398624,-33.886917,480.06 18.399754,-33.88649,480.06 18.406584,-33.884308,457.2 18.408108,-33.883976,449.58 18.414656,-33.882797,426.72 18.416616,-33.882568,426.72 18.422813,-33.882347,411.48 18.424633,-33.882385,411.48 18.431135,-33.883026,403.86 18.432426,-33.883327,403.86 18.438549,-33.885605,388.62 18.439823,-33.886322,388.62 18.44347,-33.889236,373.38 18.444139,-33.890121,373.38 18.445015,-33.893753,342.9 18.444614,-33.894547,335.28 18.442497,-33.895847,297.18 18.441729,-33.896072,281.94 18.439039,-33.896805,228.6 18.438263,-33.897011,213.36 18.435171,-33.897949,152.4 18.434601,-33.898129,144.78 18.431808,-33.898956,106.68 18.431225,-33.899105,99.06 18.428993,-33.899712,68.58 18.428593,-33.899807,60.96 18.427219,-33.900455,53.34 18.427048,-33.900738,53.34 18.427219,-33.89999,60.96 18.427435,-33.899597,60.96 18.428612,-33.897629,76.2 18.428837,-33.897263,76.2 18.430195,-33.894592,114.3 18.430481,-33.894032,121.92 18.431471,-33.891357,144.78 18.431751,-33.890625,152.4 18.432257,-33.887421,175.26 18.432199,-33.886505,182.88 18.431078,-33.883759,205.74 18.430742,-33.883209,213.36 18.428421,-33.881138,243.84 18.427883,-33.880829,251.46 18.424913,-33.879639,289.56 18.424297,-33.879547,289.56 18.421726,-33.879276,320.04 18.420639,-33.879276,327.66 18.417778,-33.879276,358.14 18.416977,-33.879276,365.76 18.414173,-33.879555,388.62 18.413479,-33.879639,396.24 18.410284,-33.880096,411.48 18.409538,-33.880207,419.1 18.406162,-33.880859,434.34 18.405239,-33.881058,441.96 18.401819,-33.88179,457.2 18.400978,-33.882019,464.82 18.396999,-33.883072,480.06 18.396091,-33.883373,487.68 18.39257,-33.884811,510.54 18.3918,-33.885189,518.16 18.388538,-33.887329,541.02 18.387737,-33.887886,548.64 18.385048,-33.89003,563.88 18.384108,-33.890854,571.5 18.381529,-33.893143,579.12 18.380814,-33.893753,586.74 18.377829,-33.896393,594.36 18.377323,-33.896824,594.36 18.374462,-33.899525,609.6 18.373833,-33.900131,609.6 18.370934,-33.903076,617.22 18.370342,-33.903763,617.22 18.367796,-33.906738,624.84 18.367123,-33.907654,632.46 18.364882,-33.910858,632.46 18.364321,-33.911774,632.46 18.36219,-33.915253,640.08 18.361702,-33.916191,640.08 18.359724,-33.919785,632.46 18.359219,-33.920792,632.46 18.357353,-33.924572,624.84 18.356024,-33.927292,624.84 18.350544,-33.939606,632.46 18.349859,-33.940613,647.7 18.347683,-33.944496,655.32 18.34734,-33.945286,655.32 18.345737,-33.949711,655.32 18.345566,-33.95092,655.32 18.346882,-33.954411,693.42 18.351372,-33.954987,701.04 18.354778,-33.950966,655.32 18.355295,-33.949905,655.32 18.357426,-33.945007,640.08 18.357929,-33.943771,632.46 18.360004,-33.938599,617.22 18.360329,-33.937698,609.6 18.365936,-33.923687,579.12 18.367403,-33.920288,571.5 18.370686,-33.914284,548.64 18.371384,-33.913147,548.64 18.374298,-33.909027,548.64 18.375149,-33.907951,556.26 18.378389,-33.904266,541.02 18.37923,-33.903351,541.02 18.383266,-33.899368,518.16 18.384647,-33.898129,510.54 18.388927,-33.894699,495.3 18.389992,-33.893967,487.68 18.395597,-33.890671,464.82 18.397007,-33.89003,457.2 18.402435,-33.887741,434.34 18.404446,-33.887005,426.72 18.410843,-33.884949,342.9 18.41217,-33.884628,396.24 18.418522,-33.883511,381 18.420597,-33.883301,373.38 18.427099,-33.883209,365.76 18.428707,-33.883373,365.76 18.434887,-33.884907,342.9 18.43618,-33.885406,335.28 18.440838,-33.888306,335.28 18.441673,-33.889114,335.28 18.443813,-33.892776,312.42 18.443871,-33.893707,312.42 18.442064,-33.896027,281.94 18.441467,-33.896221,274.32 18.438759,-33.896942,243.84 18.438377,-33.897011,243.84 18.436012,-33.897583,213.36 18.435619,-33.897675,205.74 18.433489,-33.89827,160.02 18.433056,-33.898407,152.4 18.430799,-33.899048,99.06 18.429958,-33.899277,83.82 18.42794,-33.899963,60.96 18.42766,-33.900101,60.96 18.427105,-33.901108,45.72 18.427044,-33.900833,60.96 18.42802,-33.898548,68.58 18.428421,-33.89785,76.2 18.429794,-33.895103,99.06 18.430138,-33.894405,106.68 18.431282,-33.891567,137.16 18.431639,-33.890625,144.78 18.432541,-33.887188,175.26 18.432648,-33.886505,182.88 18.432425,-33.883347,213.36 18.43214,-33.882393,220.98 18.430996,-33.879601,236.22 18.43063,-33.878952,243.84 18.428444,-33.876434,266.7 18.427906,-33.875969,266.7 18.424801,-33.874557,297.18 18.423958,-33.874435,304.8 18.420149,-33.874695,342.9 18.419437,-33.874851,350.52 18.416336,-33.875702,365.76 18.415318,-33.876019,373.38 18.413658,-33.877785,411.48 18.413887,-33.878483,426.72 18.41692,-33.880161,464.82 18.417721,-33.880344,472.44 18.421381,-33.880417,525.78 18.422241,-33.880299,533.4 18.424185,-33.878952,556.26 18.424072,-33.87854,563.88 18.421606,-33.877945,541.02 18.420868,-33.878017,533.4 18.417549,-33.878716,541.02 18.416576,-33.878948,548.64 18.412861,-33.879913,556.26 18.411655,-33.880253,563.88 18.407879,-33.881416,571.5 18.406919,-33.881744,579.12 18.402773,-33.883209,502.92 18.401871,-33.88356,518.16 18.397615,-33.885086,518.16 18.396439,-33.885544,586.74 18.392429,-33.887283,586.74 18.391399,-33.887794,594.36 18.387394,-33.890121,601.98 18.386536,-33.890633,601.98 18.383041,-33.893051,617.22 18.382244,-33.893661,617.22 18.37904,-33.896175,617.22 18.378109,-33.896942,617.22 18.374802,-33.899826,624.84 18.37396,-33.900558,624.84 18.370743,-33.903576,632.46 18.369942,-33.904366,632.46 18.366909,-33.907627,640.08 18.36628,-33.908371,640.08 18.363762,-33.911442,655.32 18.36319,-33.91214,662.94 18.360958,-33.915539,670.56 18.360453,-33.916351,617.22 18.358383,-33.919823,617.22 18.357925,-33.920612,624.84 18.356024,-33.924179,693.42 18.35552,-33.92514,693.42 18.352606,-33.931137,693.42 18.352146,-33.932159,693.42 18.350363,-33.936401,701.04 18.350027,-33.937271,708.66 18.349802,-33.941116,754.38 18.350487,-33.942169,784.86 18.354006,-33.942902,861.06 18.354792,-33.94249,868.68 18.35692,-33.939835,891.54 18.35741,-33.938908,899.16 18.359108,-33.935394,937.26 18.35947,-33.934578,952.5 18.360117,-33.931046,998.22 18.359837,-33.930222,1005.84 18.357296,-33.929085,1051.56 18.356417,-33.929489,1051.56 18.354231,-33.932419,1021.08 18.353783,-33.93338,1013.46 18.445557,-34.136066,502.92 18.446997,-34.135845,502.92 18.454124,-34.133457,502.92 18.455286,-34.132862,502.92 18.460241,-34.129288,502.92 18.461332,-34.12833,495.3 18.465002,-34.124687,495.3 18.466106,-34.123447,495.3 18.46954,-34.119633,495.3 18.470257,-34.118656,495.3 18.473274,-34.11417,487.68 18.473793,-34.113117,487.68 18.475731,-34.108116,480.06 18.476362,-34.106895,480.06 18.47563,-34.103191,487.68 18.475809,-34.101986,487.68 18.478203,-34.096088,495.3 18.478132,-34.094978,495.3 18.478828,-34.090439,502.92 18.478865,-34.089417,502.92 18.479231,-34.084526,495.3 18.479429,-34.083477,495.3 18.480455,-34.078739,487.68 18.480381,-34.077557,487.68 18.480453,-34.073097,487.68 18.480864,-34.072086,487.68 18.48247,-34.067345,480.06 18.482574,-34.066231,480.06 18.483475,-34.061531,472.44 18.483974,-34.060188,472.44 18.484253,-34.055405,457.2 18.484453,-34.054127,457.2 18.485256,-34.049366,464.82 18.485479,-34.048035,472.44 18.485807,-34.043774,480.06 18.485764,-34.042641,480.06 18.485229,-34.033325,480.06 18.485437,-34.032085,480.06 18.485458,-34.027168,495.3 18.485523,-34.026016,495.3 18.485079,-34.02092,495.3 18.485279,-34.019581,495.3 18.485319,-34.014511,502.92 18.484705,-34.011364,502.92 18.485136,-33.994305,464.82 18.485607,-33.990509,457.2 18.486156,-33.973637,449.58 18.486156,-33.972427,457.2 18.486214,-33.967587,472.44 18.486156,-33.966515,472.44 18.485641,-33.96172,495.3 18.485451,-33.960663,495.3 18.484442,-33.956085,480.06 18.484104,-33.954666,472.44 18.482704,-33.949997,449.58 18.48238,-33.94873,449.58 18.48119,-33.944,434.34 18.480967,-33.943039,441.96 18.479576,-33.938023,434.34 18.479229,-33.936996,434.34 18.477345,-33.932392,426.72 18.476715,-33.930996,426.72 18.474255,-33.926338,419.1 18.473511,-33.925049,426.72 18.470879,-33.92094,449.58 18.470371,-33.920242,449.58 18.467176,-33.91626,434.34 18.466358,-33.915401,426.72 18.462753,-33.911816,396.24 18.462124,-33.911209,388.62 18.458376,-33.907883,304.8 18.457603,-33.907162,358.14 18.453892,-33.903946,342.9 18.453083,-33.903252,342.9 18.449535,-33.900738,289.56 18.448734,-33.900272,320.04 18.444756,-33.89859,289.56 18.443813,-33.898315,289.56 18.440151,-33.897758,266.7 18.43915,-33.897766,251.46 18.43626,-33.897942,198.12 18.435574,-33.898037,190.5 18.43276,-33.898499,137.16 18.432257,-33.898636,129.54 18.430069,-33.899277,99.06 18.42905,-33.899666,83.82 18.427773,-33.900421,60.96 18.427547,-33.900513,53.34
        </coordinates>
      </LineString>
    </Placemark>
  </Document>
</kml>