<?xml version="1.0" encoding="UTF-8"?>
<kml xmlns="http://www.opengis.net/kml/2.2">
  <Document>
    <name>-/ZTHOT - Optimised</name>
    <description><![CDATA[Optimised flight path with 180 points (decimated from 899 original points). Source format: Standard KML]]></description>
    
    <Style id="flightPath">
      <LineStyle>
        <color>ff0000ff</color>
        <width>3</width>
      </LineStyle>
    </Style>
    
    <Placemark>
      <name>Flight Path</name>
      <description><![CDATA[<div style="width:220px; text-align:center;">
<div style="width:210px; text-align:center;">
<div style=" background: #000; color: #fff; font-size: 14px; text-align:left; border: 1px solid #000; padding: 2px 6px; text-shadow: 0 1px 0 #000; box-shadow: 0 1px 3px rgba(0,0,0,0.6); background: -webkit-gradient(linear, left top, left bottom, color-stop(0%,#808080), color-stop(2%,#303030), color-stop(100%,#0c0c0c));"><span style="font-size: 14px; font-weight: bold;"><a href="javascript:void(0);" style="color: #fff; cursor: pointer;text-decoration: none;">-</a></span> / ZTHOT<br/>Cape Town Helicopters</div>

<div style="border-top: 1px solid #005c90; color: #fff; padding-bottom: 5px; box-shadow: 0 0 1px #9BE3F6 inset, 0 1px 0 #9BE3F6 inset, 0 -1px 3px rgba(0,0,0,0.4); background:rgba(43,114,173,1); background: -webkit-gradient(linear, left top, left bottom, color-stop(0%,rgba(92,184,229,1)), color-stop(100%,rgba(43,114,173,1)));">
<a style="text-decoration: none; color: rgb(255, 255, 255); font-size: 12px; width:77px; display: inline-block;" title=" Airport" href="javascript:void(0);/departures"><h3 style="padding: 0px; margin: 10px 0px 0px; font-size: 16px; ">?</h3></a>
<span style="background: url(https://www.flightradar24.com/static/images/userUI_sprite.png?14) no-repeat scroll 0 -464px rgba(0, 0, 0, 0); border: medium none; display: inline-block; height: 16px; width: 45px;"></span>
<a style="text-decoration: none; color: rgb(255, 255, 255); font-size: 12px; width:77px; display: inline-block;" title=" Airport" href="javascript:void(0);/arrivals"><h3 style="padding: 0px; margin: 10px 0px 0px; font-size: 16px;">?</h3></a>
<div style=" margin-top:10px;">
<div style="display: inline-block; font-size: 12px; padding: 0 5px;">
<div>
<span style="color: #c1eaff;" title="Actual Time of Departure">ATD </span>
<span title="2025-07-26 09:11">09:11</span> <span title="Coordinated Universal Time">UTC</span>
</div>
</div>
<div style="display: inline-block; font-size: 12px; padding: 0 5px;">
<div>
<span style="color: #c1eaff;" title="Estimated Time of Arrival">ETA </span>
<span title="2025-07-26 09:35">09:35</span> <span title="Coordinated Universal Time">UTC</span>
</div>
</div>
</div>
<br style="clear: both;"/>
</div>

<div style="display: block;">
<table style="border-collapse: collapse; width: 100%;">
<tr style="border-right: 1px solid #dadada; ">
<td style="background: none repeat scroll 0 0 #dadada; padding: 0; width: 31px;">
<span style="background: url(https://www.flightradar24.com/static/images/userUI_sprite.png?14) no-repeat scroll -208px -464px rgba(0, 0, 0, 0); height: 26px; margin: 8px 0 0 4px; width: 23px; display: block;"></span>
</td>
<td colspan="2" style="border-bottom: 1px solid #dadada; border-left: 1px solid #dadada; color: #666; line-height: 1.1em; padding: 3px 6px; vertical-align: top; font-size: 14px;">
Aircraft<span style="float: right; font-size: 12px;">(AS50)</span><br>
<span style="color: #333; font-size: 16px; font-weight: bold; line-height: 1.3em;">Airbus Helicopters H125</span>
</td>
</tr>
<tr style="border-right: 1px solid #dadada; ">
<td style="background: none repeat scroll 0 0 #dadada; padding: 0; width: 31px;">
<td colspan="2" style="border-bottom: 1px solid #dadada; border-left: 1px solid #dadada; color: #666; line-height: 1.1em; padding: 3px 6px; vertical-align: top; font-size: 14px;">
Registration<br>
<span style="color: #333; font-size: 16px; font-weight: bold; line-height: 1.3em;"><a href="https://www.flightradar24.com/reg/zt-hot" style="text-decoration: none; color: #333;">ZT-HOT</a></span>
</td>
</tr>
</table>
</div>

</div>
</div>]]></description>
      <styleUrl>#flightPath</styleUrl>
      <LineString>
        <extrude>1</extrude>
        <tessellate>1</tessellate>
        <altitudeMode>absolute</altitudeMode>
        <coordinates>
          18.437462,-33.89706,30.48 18.435059,-33.890682,91.44 18.431911,-33.8857,121.92 18.428135,-33.880997,152.4 18.422783,-33.877258,182.88 18.416462,-33.875179,213.36 18.409939,-33.87397,243.84 18.403502,-33.873917,304.8 18.397223,-33.875336,335.28 18.392143,-33.877319,365.76 18.387358,-33.880096,365.76 18.382818,-33.883301,396.24 18.378582,-33.886677,396.24 18.374241,-33.890717,426.72 18.370094,-33.894928,426.72 18.366394,-33.899059,457.2 18.362751,-33.903763,457.2 18.359642,-33.908463,457.2 18.356585,-33.913376,457.2 18.352661,-33.920197,487.68 18.348064,-33.928665,457.2 18.346996,-33.938675,487.68 18.351204,-33.935989,518.16 18.352774,-33.931366,518.16 18.351877,-33.925781,579.12 18.346888,-33.925323,548.64 18.343506,-33.929924,548.64 18.340891,-33.934616,579.12 18.338356,-33.939327,609.6 18.330173,-33.954086,640.08 18.316498,-33.977779,609.6 18.307114,-33.994492,640.08 18.303051,-34.003197,609.6 18.30122,-34.008366,609.6 18.298531,-34.01651,640.08 18.297615,-34.021355,640.08 18.296946,-34.026306,640.08 18.296721,-34.031433,640.08 18.296986,-34.03611,640.08 18.297955,-34.040771,609.6 18.29958,-34.045303,609.6 18.301653,-34.049744,579.12 18.304081,-34.05394,579.12 18.306885,-34.058037,548.64 18.310005,-34.062057,518.16 18.313179,-34.065998,487.68 18.322897,-34.077209,457.2 18.332634,-34.088108,457.2 18.336798,-34.091904,426.72 18.340946,-34.095154,426.72 18.345991,-34.098221,426.72 18.350756,-34.100922,426.72 18.355801,-34.103439,457.2 18.360729,-34.105614,457.2 18.366051,-34.107941,457.2 18.381472,-34.114197,457.2 18.401426,-34.121475,426.72 18.42071,-34.128159,365.76 18.432655,-34.131634,365.76 18.440777,-34.133148,365.76 18.446674,-34.132519,365.76 18.452492,-34.129898,396.24 18.457603,-34.126656,396.24 18.463039,-34.122696,396.24 18.468075,-34.11874,396.24 18.472446,-34.114243,396.24 18.475922,-34.108887,426.72 18.477995,-34.102936,426.72 18.478889,-34.096813,426.72 18.479462,-34.090435,426.72 18.480181,-34.080551,396.24 18.481976,-34.058075,396.24 18.483524,-34.035179,335.28 18.484722,-34.01239,335.28 18.485928,-33.988487,304.8 18.48587,-33.973682,304.8 18.485394,-33.964508,304.8 18.483524,-33.943516,274.32 18.48175,-33.936394,274.32 18.479118,-33.930019,274.32 18.474712,-33.923733,243.84 18.469448,-33.918194,243.84 18.464012,-33.913071,243.84 18.458519,-33.908047,243.84 18.443813,-33.894684,121.92 18.437748,-33.892635,121.92 18.432827,-33.894405,91.44 18.430481,-33.896454,0 18.428936,-33.897942,0 18.427219,-33.90004,0 18.437462,-33.89706,30.48 18.437077,-33.894928,30.48 18.435059,-33.890682,91.44 18.434544,-33.889843,91.44 18.431911,-33.8857,121.92 18.431248,-33.884766,121.92 18.428135,-33.880997,152.4 18.426991,-33.879974,152.4 18.422783,-33.877258,182.88 18.421494,-33.876663,182.88 18.416462,-33.875179,213.36 18.415318,-33.874901,213.36 18.409939,-33.87397,243.84 18.408737,-33.873875,243.84 18.403502,-33.873917,304.8 18.4021,-33.874107,304.8 18.397223,-33.875336,335.28 18.396046,-33.875702,335.28 18.392143,-33.877319,365.76 18.391171,-33.877785,365.76 18.387358,-33.880096,365.76 18.386574,-33.8806,365.76 18.382818,-33.883301,396.24 18.38192,-33.883942,396.24 18.378582,-33.886677,396.24 18.377661,-33.887466,396.24 18.374241,-33.890717,426.72 18.373489,-33.891472,426.72 18.370094,-33.894928,426.72 18.369312,-33.895802,426.72 18.366394,-33.899059,457.2 18.365593,-33.899944,457.2 18.362751,-33.903763,457.2 18.36219,-33.904541,457.2 18.359642,-33.908463,457.2 18.358955,-33.909489,457.2 18.356585,-33.913376,457.2 18.355911,-33.914474,457.2 18.352661,-33.920197,487.68 18.352213,-33.921112,487.68 18.348064,-33.928665,457.2 18.346024,-33.932205,457.2 18.346996,-33.938675,487.68 18.348083,-33.938538,487.68 18.351204,-33.935989,518.16 18.351652,-33.935165,518.16 18.352774,-33.931366,518.16 18.352886,-33.929901,518.16 18.351877,-33.925781,579.12 18.351059,-33.925083,579.12 18.346888,-33.925323,548.64 18.345991,-33.926239,548.64 18.343506,-33.929924,548.64 18.343048,-33.930717,548.64 18.340891,-33.934616,579.12 18.340416,-33.935417,579.12 18.338356,-33.939327,609.6 18.337751,-33.940384,609.6 18.330173,-33.954086,640.08 18.329006,-33.956085,640.08 18.316498,-33.977779,609.6 18.314381,-33.981503,640.08 18.307114,-33.994492,640.08 18.305283,-33.99831,609.6 18.303051,-34.003197,609.6 18.302662,-34.004288,640.08 18.30122,-34.008366,609.6 18.300419,-34.010414,640.08 18.298531,-34.01651,640.08 18.298346,-34.017242,640.08 18.297615,-34.021355,640.08 18.297449,-34.022324,640.08 18.296946,-34.026306,640.08 18.296871,-34.027172,640.08 18.296721,-34.031433,640.08 18.296721,-34.032257,640.08 18.296986,-34.03611,640.08 18.297157,-34.037136,640.08 18.297955,-34.040771,609.6 18.298233,-34.04155,609.6 18.29958,-34.045303,609.6 18.299915,-34.046173,609.6 18.301653,-34.049744,579.12 18.302101,-34.050613,579.12 18.304081,-34.05394,579.12 18.304596,-34.054729,548.64 18.306885,-34.058037,548.64 18.307457,-34.058735,548.64 18.310005,-34.062057,518.16 18.310604,-34.062786,518.16 18.313179,-34.065998,487.68 18.315582,-34.06879,487.68 18.322897,-34.077209,457.2 18.324966,-34.079681,457.2 18.332634,-34.088108,457.2 18.333435,-34.088902,457.2 18.336798,-34.091904,426.72 18.337612,-34.092579,426.72 18.340946,-34.095154,426.72 18.341846,-34.095745,426.72 18.345991,-34.098221,426.72 18.346767,-34.098629,426.72 18.350756,-34.100922,426.72 18.351877,-34.101517,426.72 18.355801,-34.103439,457.2 18.356724,-34.103844,457.2 18.360729,-34.105614,457.2 18.361685,-34.106049,457.2 18.366051,-34.107941,457.2 18.36701,-34.108337,457.2 18.381472,-34.114197,457.2 18.385735,-34.115807,457.2 18.401426,-34.121475,426.72 18.405855,-34.123123,396.24 18.42071,-34.128159,365.76 18.421783,-34.128471,365.76 18.432655,-34.131634,365.76 18.435955,-34.132462,335.28 18.440777,-34.133148,365.76 18.441925,-34.133171,365.76 18.446674,-34.132519,365.76 18.447895,-34.132141,365.76 18.452492,-34.129898,396.24 18.453598,-34.129261,396.24 18.457603,-34.126656,396.24 18.458881,-34.125732,396.24 18.463039,-34.122696,396.24 18.464127,-34.121906,396.24 18.468075,-34.11874,396.24 18.468819,-34.118088,396.24 18.472446,-34.114243,396.24 18.473396,-34.113014,396.24 18.475922,-34.108887,426.72 18.476538,-34.107605,426.72 18.477995,-34.102936,426.72 18.47822,-34.101562,426.72 18.478889,-34.096813,426.72 18.479059,-34.095291,426.72 18.479462,-34.090435,426.72 18.479576,-34.088993,426.72 18.480181,-34.080551,396.24 18.480549,-34.076702,396.24 18.481976,-34.058075,396.24 18.482199,-34.053955,365.76 18.483524,-34.035179,335.28 18.48381,-34.030991,335.28 18.484722,-34.01239,335.28 18.48489,-34.008362,335.28 18.485928,-33.988487,304.8 18.486099,-33.984577,304.8 18.48587,-33.973682,304.8 18.485813,-33.972565,304.8 18.485394,-33.964508,304.8 18.485241,-33.962929,274.32 18.483524,-33.943516,274.32 18.483238,-33.941982,274.32 18.48175,-33.936394,274.32 18.48135,-33.935184,274.32 18.479118,-33.930019,274.32 18.47826,-33.928528,274.32 18.474712,-33.923733,243.84 18.473736,-33.922623,243.84 18.469448,-33.918194,243.84 18.468132,-33.916985,243.84 18.464012,-33.913071,243.84 18.462805,-33.911911,243.84 18.458519,-33.908047,243.84 18.457489,-33.907162,213.36 18.443813,-33.894684,121.92 18.442514,-33.893875,121.92 18.437748,-33.892635,121.92 18.436796,-33.892685,121.92 18.432827,-33.894405,91.44 18.432257,-33.894836,60.96 18.430481,-33.896454,0 18.430252,-33.896641,0 18.428936,-33.897942,0 18.428669,-33.898224,0 18.427219,-33.90004,0 18.427099,-33.900284,0
        </coordinates>
      </LineString>
    </Placemark>
  </Document>
</kml>