<?xml version="1.0" encoding="UTF-8"?>
<kml xmlns="http://www.opengis.net/kml/2.2">
  <Document>
    <name>-/ZTHOT - Optimised</name>
    <description><![CDATA[Optimised flight path with 347 points (decimated from 1735 original points). Source format: Standard KML]]></description>
    
    <Style id="flightPath">
      <LineStyle>
        <color>ff0000ff</color>
        <width>3</width>
      </LineStyle>
    </Style>
    
    <Placemark>
      <name>Flight Path</name>
      <description><![CDATA[<div style="width:220px; text-align:center;">
<div style="width:210px; text-align:center;">
<div style=" background: #000; color: #fff; font-size: 14px; text-align:left; border: 1px solid #000; padding: 2px 6px; text-shadow: 0 1px 0 #000; box-shadow: 0 1px 3px rgba(0,0,0,0.6); background: -webkit-gradient(linear, left top, left bottom, color-stop(0%,#808080), color-stop(2%,#303030), color-stop(100%,#0c0c0c));"><span style="font-size: 14px; font-weight: bold;"><a href="javascript:void(0);" style="color: #fff; cursor: pointer;text-decoration: none;">-</a></span> / ZTHOT<br/>Cape Town Helicopters</div>

<div style="border-top: 1px solid #005c90; color: #fff; padding-bottom: 5px; box-shadow: 0 0 1px #9BE3F6 inset, 0 1px 0 #9BE3F6 inset, 0 -1px 3px rgba(0,0,0,0.4); background:rgba(43,114,173,1); background: -webkit-gradient(linear, left top, left bottom, color-stop(0%,rgba(92,184,229,1)), color-stop(100%,rgba(43,114,173,1)));">
<a style="text-decoration: none; color: rgb(255, 255, 255); font-size: 12px; width:77px; display: inline-block;" title=" Airport" href="javascript:void(0);/departures"><h3 style="padding: 0px; margin: 10px 0px 0px; font-size: 16px; ">?</h3></a>
<span style="background: url(https://www.flightradar24.com/static/images/userUI_sprite.png?14) no-repeat scroll 0 -464px rgba(0, 0, 0, 0); border: medium none; display: inline-block; height: 16px; width: 45px;"></span>
<a style="text-decoration: none; color: rgb(255, 255, 255); font-size: 12px; width:77px; display: inline-block;" title=" Airport" href="javascript:void(0);/arrivals"><h3 style="padding: 0px; margin: 10px 0px 0px; font-size: 16px;">?</h3></a>
<div style=" margin-top:10px;">
<div style="display: inline-block; font-size: 12px; padding: 0 5px;">
<div>
<span style="color: #c1eaff;" title="Actual Time of Departure">ATD </span>
<span title="2025-08-31 08:17">08:17</span> <span title="Coordinated Universal Time">UTC</span>
</div>
</div>
<div style="display: inline-block; font-size: 12px; padding: 0 5px;">
<div>
<span style="color: #c1eaff;" title="Estimated Time of Arrival">ETA </span>
<span title="2025-08-31 09:00">09:00</span> <span title="Coordinated Universal Time">UTC</span>
</div>
</div>
</div>
<br style="clear: both;"/>
</div>

<div style="display: block;">
<table style="border-collapse: collapse; width: 100%;">
<tr style="border-right: 1px solid #dadada; ">
<td style="background: none repeat scroll 0 0 #dadada; padding: 0; width: 31px;">
<span style="background: url(https://www.flightradar24.com/static/images/userUI_sprite.png?14) no-repeat scroll -208px -464px rgba(0, 0, 0, 0); height: 26px; margin: 8px 0 0 4px; width: 23px; display: block;"></span>
</td>
<td colspan="2" style="border-bottom: 1px solid #dadada; border-left: 1px solid #dadada; color: #666; line-height: 1.1em; padding: 3px 6px; vertical-align: top; font-size: 14px;">
Aircraft<span style="float: right; font-size: 12px;">(AS50)</span><br>
<span style="color: #333; font-size: 16px; font-weight: bold; line-height: 1.3em;">Airbus Helicopters H125</span>
</td>
</tr>
<tr style="border-right: 1px solid #dadada; ">
<td style="background: none repeat scroll 0 0 #dadada; padding: 0; width: 31px;">
<td colspan="2" style="border-bottom: 1px solid #dadada; border-left: 1px solid #dadada; color: #666; line-height: 1.1em; padding: 3px 6px; vertical-align: top; font-size: 14px;">
Registration<br>
<span style="color: #333; font-size: 16px; font-weight: bold; line-height: 1.3em;"><a href="https://www.flightradar24.com/reg/zt-hot" style="text-decoration: none; color: #333;">ZT-HOT</a></span>
</td>
</tr>
</table>
</div>

</div>
</div>]]></description>
      <styleUrl>#flightPath</styleUrl>
      <LineString>
        <extrude>1</extrude>
        <tessellate>1</tessellate>
        <altitudeMode>absolute</altitudeMode>
        <coordinates>
          18.431225,-33.896313,60.96 18.433489,-33.89209,152.4 18.433342,-33.88826,213.36 18.431511,-33.885654,274.32 18.428936,-33.883793,335.28 18.424913,-33.883255,396.24 18.420353,-33.882812,426.72 18.414207,-33.882156,487.68 18.403873,-33.881462,579.12 18.398724,-33.882114,609.6 18.393524,-33.882843,640.08 18.388311,-33.883987,670.56 18.382986,-33.88559,701.04 18.377666,-33.887703,731.52 18.373489,-33.890263,762 18.369598,-33.893101,792.48 18.365822,-33.896267,822.96 18.362303,-33.899414,853.44 18.355295,-33.905594,883.92 18.353558,-33.91008,883.92 18.356585,-33.913742,914.4 18.362583,-33.913879,944.88 18.366451,-33.916611,914.4 18.365822,-33.921452,883.92 18.364048,-33.926991,883.92 18.362022,-33.931686,883.92 18.359928,-33.936302,883.92 18.35737,-33.944366,914.4 18.356724,-33.94957,914.4 18.356495,-33.954502,914.4 18.354664,-33.961811,914.4 18.348198,-33.96917,914.4 18.343245,-33.97348,883.92 18.334499,-33.981857,883.92 18.326225,-33.99086,883.92 18.323793,-33.995636,883.92 18.32222,-34.000916,883.92 18.321833,-34.005981,883.92 18.323193,-34.011017,914.4 18.325596,-34.015629,914.4 18.329679,-34.019669,914.4 18.334351,-34.022842,914.4 18.339787,-34.025215,944.88 18.34568,-34.027264,944.88 18.352432,-34.029778,944.88 18.356361,-34.033722,975.36 18.358322,-34.0383,975.36 18.359642,-34.043373,944.88 18.360846,-34.048737,914.4 18.364964,-34.063065,762 18.370543,-34.081696,579.12 18.369026,-34.088619,487.68 18.365707,-34.09444,426.72 18.361237,-34.100372,335.28 18.356192,-34.106232,274.32 18.350086,-34.115295,213.36 18.346214,-34.12326,213.36 18.348255,-34.129169,243.84 18.343077,-34.16153,396.24 18.345623,-34.173626,396.24 18.349747,-34.179337,396.24 18.354549,-34.183773,396.24 18.35907,-34.188335,365.76 18.408546,-34.291351,335.28 18.418972,-34.299911,426.72 18.42424,-34.303345,457.2 18.429678,-34.306732,457.2 18.435732,-34.309891,457.2 18.44141,-34.312817,487.68 18.453083,-34.318123,548.64 18.467289,-34.324448,609.6 18.472895,-34.327469,609.6 18.478556,-34.330856,640.08 18.498343,-34.343262,609.6 18.505497,-34.349129,609.6 18.508039,-34.355118,579.12 18.5075,-34.36137,579.12 18.503666,-34.365932,548.64 18.497372,-34.369751,457.2 18.500404,-34.379341,335.28 18.505211,-34.374359,243.84 18.504753,-34.36784,182.88 18.503895,-34.361744,182.88 18.502211,-34.356262,213.36 18.498745,-34.351501,182.88 18.494307,-34.347565,182.88 18.489304,-34.343636,152.4 18.483656,-34.337723,213.36 18.477974,-34.336514,213.36 18.475285,-34.331577,182.88 18.475304,-34.325592,182.88 18.4762,-34.320034,213.36 18.477287,-34.314304,213.36 18.478374,-34.30872,213.36 18.481134,-34.297989,213.36 18.480349,-34.292679,274.32 18.475113,-34.292286,274.32 18.475628,-34.296848,304.8 18.480461,-34.295059,335.28 18.482265,-34.290005,335.28 18.484329,-34.284805,304.8 18.486067,-34.279037,304.8 18.487411,-34.270844,304.8 18.489361,-34.259235,274.32 18.489262,-34.25029,274.32 18.488085,-34.244476,274.32 18.486557,-34.238937,274.32 18.48484,-34.234051,274.32 18.482265,-34.228603,274.32 18.479507,-34.223877,274.32 18.476486,-34.218967,274.32 18.470764,-34.209099,243.84 18.466112,-34.202911,274.32 18.462524,-34.198532,304.8 18.458176,-34.193829,304.8 18.454004,-34.189957,304.8 18.447054,-34.182083,304.8 18.444214,-34.177162,304.8 18.443069,-34.171764,335.28 18.443747,-34.166382,335.28 18.445358,-34.161057,304.8 18.447615,-34.15567,335.28 18.449879,-34.150257,335.28 18.456696,-34.132919,365.76 18.459105,-34.124039,396.24 18.45829,-34.119534,426.72 18.456863,-34.114792,487.68 18.455143,-34.110592,518.16 18.452511,-34.106171,518.16 18.449764,-34.101749,548.64 18.445473,-34.094997,579.12 18.435688,-34.078983,518.16 18.433434,-34.073593,487.68 18.431511,-34.068047,487.68 18.429678,-34.062149,487.68 18.428221,-34.056473,487.68 18.42738,-34.050797,487.68 18.426651,-34.045074,457.2 18.427162,-34.039276,457.2 18.427603,-34.033081,487.68 18.426075,-34.027962,518.16 18.425978,-34.0215,518.16 18.428108,-34.016281,518.16 18.43111,-34.011669,518.16 18.434834,-34.006851,518.16 18.439039,-34.00264,518.16 18.443747,-33.99852,487.68 18.449135,-33.994865,457.2 18.454628,-33.991047,487.68 18.462524,-33.98481,457.2 18.471222,-33.977268,426.72 18.475456,-33.97266,396.24 18.478832,-33.967304,335.28 18.481583,-33.961761,335.28 18.483433,-33.956314,335.28 18.483868,-33.950966,335.28 18.483656,-33.945374,304.8 18.481979,-33.940025,304.8 18.479748,-33.935139,304.8 18.476931,-33.929764,274.32 18.473911,-33.924526,243.84 18.470596,-33.919418,243.84 18.462692,-33.906509,213.36 18.457203,-33.899433,182.88 18.453026,-33.89566,182.88 18.44795,-33.893921,152.4 18.443012,-33.894962,91.44 18.438646,-33.897491,30.48 18.437021,-33.899231,30.48 18.435116,-33.900318,30.48 18.433657,-33.900513,0 18.432032,-33.900375,0 18.430309,-33.900272,0 18.427963,-33.900455,0 18.432705,-33.894104,91.44 18.432999,-33.893475,121.92 18.4338,-33.890076,152.4 18.433743,-33.889423,182.88 18.43276,-33.887192,213.36 18.432312,-33.886585,243.84 18.430574,-33.884766,304.8 18.430014,-33.884308,304.8 18.427267,-33.883484,365.76 18.426647,-33.883419,365.76 18.423042,-33.883045,396.24 18.42207,-33.882954,426.72 18.418922,-33.882675,457.2 18.417795,-33.882568,457.2 18.407936,-33.881325,548.64 18.406105,-33.881279,579.12 18.401871,-33.881695,609.6 18.40107,-33.88179,609.6 18.396774,-33.882385,640.08 18.395597,-33.882568,640.08 18.391628,-33.883232,670.56 18.390427,-33.883465,670.56 18.386124,-33.884628,670.56 18.38522,-33.884907,670.56 18.380871,-33.886307,701.04 18.379679,-33.886734,731.52 18.376091,-33.888565,731.52 18.375307,-33.889023,762 18.371832,-33.891403,792.48 18.370972,-33.892033,792.48 18.368019,-33.894379,822.96 18.367424,-33.894917,822.96 18.364449,-33.897476,822.96 18.363703,-33.898178,853.44 18.359013,-33.902225,853.44 18.356781,-33.904087,883.92 18.354263,-33.907066,883.92 18.353783,-33.908295,883.92 18.354149,-33.911957,883.92 18.354847,-33.912781,883.92 18.359108,-33.914154,914.4 18.360214,-33.914097,914.4 18.364735,-33.914188,944.88 18.365553,-33.914749,944.88 18.366394,-33.918427,883.92 18.366222,-33.919636,883.92 18.365135,-33.923874,883.92 18.364849,-33.924759,883.92 18.363199,-33.929031,883.92 18.362864,-33.929764,883.92 18.361069,-33.933701,883.92 18.360672,-33.934628,883.92 18.35821,-33.940933,914.4 18.357761,-33.942444,914.4 18.35701,-33.946262,914.4 18.356895,-33.947613,914.4 18.356585,-33.951553,914.4 18.356585,-33.952698,914.4 18.356417,-33.95668,944.88 18.355751,-33.959717,944.88 18.353291,-33.963768,914.4 18.352661,-33.964554,914.4 18.346943,-33.970276,914.4 18.345222,-33.971821,883.92 18.341618,-33.974846,883.92 18.336966,-33.979248,883.92 18.331978,-33.984512,883.92 18.330803,-33.985741,883.92 18.325138,-33.99263,883.92 18.324579,-33.993668,883.92 18.323135,-33.997566,883.92 18.322792,-33.998867,883.92 18.321877,-34.002827,883.92 18.321819,-34.003803,883.92 18.322163,-34.007946,883.92 18.322449,-34.009064,914.4 18.324018,-34.012894,914.4 18.324522,-34.013763,914.4 18.327084,-34.017395,914.4 18.327997,-34.018295,914.4 18.331432,-34.020981,914.4 18.332462,-34.021633,914.4 18.33663,-34.024017,914.4 18.337584,-34.024384,914.4 18.342304,-34.02615,944.88 18.34358,-34.026581,944.88 18.348064,-34.028,975.36 18.349171,-34.028381,975.36 18.354435,-34.031269,975.36 18.355183,-34.032074,944.88 18.357239,-34.035458,975.36 18.357594,-34.036285,975.36 18.358841,-34.040066,975.36 18.359127,-34.041279,975.36 18.3601,-34.045654,944.88 18.360329,-34.046585,914.4 18.361462,-34.051117,883.92 18.362789,-34.055801,822.96 18.367348,-34.070618,701.04 18.369366,-34.076385,609.6 18.370375,-34.084579,518.16 18.370056,-34.08606,518.16 18.367851,-34.090942,457.2 18.367081,-34.0923,457.2 18.363819,-34.097092,396.24 18.363087,-34.098083,365.76 18.359299,-34.102585,304.8 18.35821,-34.103851,304.8 18.353004,-34.110687,243.84 18.351574,-34.113014,243.84 18.349298,-34.116531,213.36 18.346767,-34.12051,213.36 18.346888,-34.125366,213.36 18.347569,-34.12656,243.84 18.346767,-34.138012,335.28 18.346327,-34.140244,335.28 18.344364,-34.170368,396.24 18.344707,-34.171391,396.24 18.34672,-34.175583,396.24 18.348064,-34.17746,396.24 18.351765,-34.181259,396.24 18.352489,-34.181911,396.24 18.356304,-34.185471,365.76 18.357353,-34.18652,365.76 18.361797,-34.192154,335.28 18.36219,-34.192886,304.8 18.413647,-34.295837,365.76 18.417091,-34.298618,396.24 18.421158,-34.301331,426.72 18.422127,-34.301922,426.72 18.42609,-34.304626,457.2 18.42738,-34.305405,457.2 18.43214,-34.308022,457.2 18.433434,-34.308746,457.2 18.438086,-34.311127,487.68 18.43895,-34.311558,487.68 18.443747,-34.313919,518.16 18.448231,-34.315979,518.16 18.457928,-34.32019,579.12 18.461151,-34.321613,579.12 18.469677,-34.325665,609.6 18.470879,-34.326317,609.6 18.475285,-34.328831,609.6 18.476313,-34.329437,609.6 18.484385,-34.334335,670.56 18.487701,-34.336277,670.56 18.503162,-34.346512,609.6 18.504238,-34.347591,609.6 18.506813,-34.351643,579.12 18.507366,-34.353058,579.12 18.508432,-34.357956,548.64 18.508263,-34.359238,579.12 18.506298,-34.363277,548.64 18.505516,-34.364182,548.64 18.501778,-34.36747,518.16 18.500404,-34.368305,487.68 18.494911,-34.37138,426.72 18.494167,-34.372124,426.72 18.503094,-34.378082,304.8 18.504227,-34.376907,274.32 18.505268,-34.371937,213.36 18.505154,-34.370262,182.88 18.504396,-34.365372,182.88 18.504238,-34.36393,182.88 18.503437,-34.359276,213.36 18.503036,-34.358158,213.36 18.500921,-34.354202,213.36 18.500248,-34.353333,213.36 18.497053,-34.349808,182.88 18.496284,-34.349129,182.88 18.492107,-34.345963,182.88 18.490963,-34.345078,182.88 18.487019,-34.340973,152.4 18.486235,-34.339828,152.4 18.481302,-34.337311,213.36 18.480013,-34.337173,213.36 18.476538,-34.335342,213.36 18.475754,-34.334061,213.36 18.475248,-34.329071,182.88 18.475227,-34.328087,182.88 18.475584,-34.323349,182.88 18.475809,-34.322159,182.88 18.476658,-34.317753,213.36 18.476944,-34.316448,213.36 18.477631,-34.311977,213.36 18.477827,-34.310944,213.36 18.480238,-34.301193,213.36 18.480492,-34.300156,213.36 18.481865,-34.294708,213.36 18.481583,-34.293823,243.84 18.478317,-34.291775,274.32 18.477173,-34.291634,274.32 18.47374,-34.293869,274.32 18.473959,-34.295563,304.8 18.477882,-34.29689,304.8 18.478889,-34.296478,304.8 18.481358,-34.292999,335.28 18.481636,-34.29224,335.28 18.48304,-34.287872,335.28 18.483433,-34.286957,304.8 18.48517,-34.282562,335.28 18.485527,-34.281345,335.28 18.486958,-34.274643,304.8 18.487131,-34.273315,304.8 18.487759,-34.268639,304.8 18.487917,-34.267731,304.8 18.489647,-34.25351,274.32 18.489597,-34.252441,274.32 18.488926,-34.248093,274.32 18.488617,-34.246712,274.32 18.487473,-34.24229,274.32 18.487131,-34.240997,274.32 18.485928,-34.236984,274.32 18.485619,-34.236008,274.32 18.483925,-34.231907,274.32 18.483295,-34.230652,274.32 18.481236,-34.226742,274.32 18.480629,-34.225708,274.32 18.478317,-34.221992,274.32 18.477745,-34.221062,274.32 18.475342,-34.217106,243.84 18.474827,-34.216267,243.84 18.468018,-34.205292,274.32 18.467445,-34.204582,274.32 18.464767,-34.201263,274.32 18.464127,-34.200439,274.32 18.461151,-34.196854,304.8 18.460506,-34.196182,304.8 18.456459,-34.192245,304.8 18.455544,-34.19141,304.8 18.450081,-34.185745,335.28 18.448511,-34.18396,304.8 18.445877,-34.180298,304.8 18.445261,-34.179291,304.8 18.443466,-34.174942,304.8 18.443298,-34.174026,304.8 18.443186,-34.169678,335.28 18.443354,-34.168442,335.28 18.444328,-34.164223,304.8 18.444643,-34.163086,304.8 18.446388,-34.158634,304.8 18.446846,-34.157612,335.28 18.448679,-34.153198,335.28 18.449135,-34.152073,335.28 18.452827,-34.14267,335.28 18.453999,-34.139503,365.76 18.458937,-34.127289,365.76 18.459091,-34.126141,365.76 18.458824,-34.122162,396.24 18.458714,-34.121292,426.72 18.457775,-34.117718,457.2 18.457489,-34.116692,487.68 18.456287,-34.113106,518.16 18.45591,-34.112274,518.16 18.454172,-34.108841,518.16 18.453724,-34.108109,518.16 18.451483,-34.104446,548.64 18.450966,-34.103565,548.64 18.448399,-34.099731,548.64 18.447838,-34.098999,548.64 18.441296,-34.088203,548.64 18.439318,-34.085175,548.64 18.434666,-34.076752,518.16 18.43433,-34.075836,518.16 18.432648,-34.071442,487.68 18.432198,-34.070141,487.68 18.430653,-34.065437,487.68 18.430309,-34.06432,487.68 18.428993,-34.059853,487.68 18.428764,-34.058781,487.68 18.427828,-34.05423,487.68 18.42766,-34.05304,487.68 18.427044,-34.04837,487.68 18.426874,-34.047318,487.68 18.426651,-34.042831,457.2 18.426819,-34.041416,457.2 18.427677,-34.036995,457.2 18.427773,-34.036057,487.68 18.426933,-34.030895,487.68 18.426538,-34.029648,487.68 18.425755,-34.025803,518.16 18.425642,-34.024658,518.16 18.42659,-34.019585,518.16 18.427105,-34.018326,518.16 18.429173,-34.014496,518.16 18.429737,-34.013626,518.16 18.43248,-34.009827,518.16 18.433285,-34.008736,518.16 18.436546,-34.005058,518.16 18.437357,-34.004242,518.16 18.440838,-34.000961,518.16 18.441868,-34.000031,487.68 18.445988,-33.99696,487.68 18.446941,-33.996323,487.68 18.451595,-33.993237,487.68 18.452568,-33.992584,487.68 18.459549,-33.987228,487.68 18.460464,-33.98653,487.68 18.464487,-33.983093,457.2 18.468243,-33.979935,426.72 18.47295,-33.97554,396.24 18.473904,-33.974487,396.24 18.476986,-33.970551,365.76 18.477688,-33.969448,365.76 18.480091,-33.964886,335.28 18.480574,-33.963959,335.28 18.482494,-33.959579,335.28 18.482927,-33.958328,304.8 18.483713,-33.954208,335.28 18.483824,-33.953247,335.28 18.483936,-33.948578,304.8 18.483881,-33.947525,304.8 18.48304,-33.942947,304.8 18.482723,-33.941936,304.8 18.481121,-33.937931,304.8 18.480663,-33.937,304.8 18.478668,-33.932968,274.32 18.47822,-33.932053,274.32 18.475922,-33.927933,274.32 18.475193,-33.926651,274.32 18.472652,-33.922478,243.84 18.472054,-33.92157,243.84 18.469391,-33.917774,243.84 18.467289,-33.91452,243.84 18.459435,-33.901947,182.88 18.458714,-33.901062,182.88 18.455658,-33.897942,182.88 18.454857,-33.897198,182.88 18.451309,-33.894592,152.4 18.450136,-33.894196,152.4 18.446045,-33.894127,121.92 18.444958,-33.89436,121.92 18.440104,-33.896347,60.96 18.43935,-33.896873,30.48 18.437977,-33.89827,30.48 18.43758,-33.898682,30.48 18.436516,-33.899643,30.48 18.436068,-33.899918,30.48 18.434498,-33.900467,30.48 18.434217,-33.900467,0 18.432941,-33.900455,0 18.432655,-33.90041,0 18.431225,-33.900318,0 18.430967,-33.900284,0 18.429165,-33.900272,0 18.428879,-33.900318,0
        </coordinates>
      </LineString>
    </Placemark>
  </Document>
</kml>