<?xml version="1.0" encoding="UTF-8"?>
<kml xmlns="http://www.opengis.net/kml/2.2">
  <Document>
    <name>-/ZTHOT - Optimised</name>
    <description><![CDATA[Optimised flight path with 406 points (decimated from 2029 original points). Source format: Standard KML]]></description>
    
    <Style id="flightPath">
      <LineStyle>
        <color>ff0000ff</color>
        <width>3</width>
      </LineStyle>
    </Style>
    
    <Placemark>
      <name>Flight Path</name>
      <description><![CDATA[<div style="width:220px; text-align:center;">
<div style="width:210px; text-align:center;">
<div style=" background: #000; color: #fff; font-size: 14px; text-align:left; border: 1px solid #000; padding: 2px 6px; text-shadow: 0 1px 0 #000; box-shadow: 0 1px 3px rgba(0,0,0,0.6); background: -webkit-gradient(linear, left top, left bottom, color-stop(0%,#808080), color-stop(2%,#303030), color-stop(100%,#0c0c0c));"><span style="font-size: 14px; font-weight: bold;"><a href="javascript:void(0);" style="color: #fff; cursor: pointer;text-decoration: none;">-</a></span> / ZTHOT<br/>Cape Town Helicopters</div>

<div style="border-top: 1px solid #005c90; color: #fff; padding-bottom: 5px; box-shadow: 0 0 1px #9BE3F6 inset, 0 1px 0 #9BE3F6 inset, 0 -1px 3px rgba(0,0,0,0.4); background:rgba(43,114,173,1); background: -webkit-gradient(linear, left top, left bottom, color-stop(0%,rgba(92,184,229,1)), color-stop(100%,rgba(43,114,173,1)));">
<a style="text-decoration: none; color: rgb(255, 255, 255); font-size: 12px; width:77px; display: inline-block;" title=" Airport" href="javascript:void(0);/departures"><h3 style="padding: 0px; margin: 10px 0px 0px; font-size: 16px; ">?</h3></a>
<span style="background: url(https://www.flightradar24.com/static/images/userUI_sprite.png?14) no-repeat scroll 0 -464px rgba(0, 0, 0, 0); border: medium none; display: inline-block; height: 16px; width: 45px;"></span>
<a style="text-decoration: none; color: rgb(255, 255, 255); font-size: 12px; width:77px; display: inline-block;" title=" Airport" href="javascript:void(0);/arrivals"><h3 style="padding: 0px; margin: 10px 0px 0px; font-size: 16px;">?</h3></a>
<div style=" margin-top:10px;">
<div style="display: inline-block; font-size: 12px; padding: 0 5px;">
<div>
<span style="color: #c1eaff;" title="Actual Time of Departure">ATD </span>
<span title="2025-04-22 11:28">11:28</span> <span title="Coordinated Universal Time">UTC</span>
</div>
</div>
<div style="display: inline-block; font-size: 12px; padding: 0 5px;">
<div>
<span style="color: #c1eaff;" title="Estimated Time of Arrival">ETA </span>
<span title="2025-04-22 11:52">11:52</span> <span title="Coordinated Universal Time">UTC</span>
</div>
</div>
</div>
<br style="clear: both;"/>
</div>

<div style="display: block;">
<table style="border-collapse: collapse; width: 100%;">
<tr style="border-right: 1px solid #dadada; ">
<td style="background: none repeat scroll 0 0 #dadada; padding: 0; width: 31px;">
<span style="background: url(https://www.flightradar24.com/static/images/userUI_sprite.png?14) no-repeat scroll -208px -464px rgba(0, 0, 0, 0); height: 26px; margin: 8px 0 0 4px; width: 23px; display: block;"></span>
</td>
<td colspan="2" style="border-bottom: 1px solid #dadada; border-left: 1px solid #dadada; color: #666; line-height: 1.1em; padding: 3px 6px; vertical-align: top; font-size: 14px;">
Aircraft<span style="float: right; font-size: 12px;">(AS50)</span><br>
<span style="color: #333; font-size: 16px; font-weight: bold; line-height: 1.3em;">Airbus Helicopters H125</span>
</td>
</tr>
<tr style="border-right: 1px solid #dadada; ">
<td style="background: none repeat scroll 0 0 #dadada; padding: 0; width: 31px;">
<td colspan="2" style="border-bottom: 1px solid #dadada; border-left: 1px solid #dadada; color: #666; line-height: 1.1em; padding: 3px 6px; vertical-align: top; font-size: 14px;">
Registration<br>
<span style="color: #333; font-size: 16px; font-weight: bold; line-height: 1.3em;"><a href="https://www.flightradar24.com/reg/zt-hot" style="text-decoration: none; color: #333;">ZT-HOT</a></span>
</td>
</tr>
</table>
</div>

</div>
</div>]]></description>
      <styleUrl>#flightPath</styleUrl>
      <LineString>
        <extrude>1</extrude>
        <tessellate>1</tessellate>
        <altitudeMode>absolute</altitudeMode>
        <coordinates>
          18.42738,-33.901245,60.96 18.43071,-33.90218,121.92 18.433937,-33.901978,182.88 18.43758,-33.900879,243.84 18.441561,-33.898132,274.32 18.44442,-33.89415,304.8 18.445036,-33.888519,365.76 18.442554,-33.883373,396.24 18.43758,-33.879272,426.72 18.431751,-33.876389,457.2 18.425978,-33.874741,487.68 18.419552,-33.874016,518.16 18.412628,-33.873783,518.16 18.405991,-33.87392,548.64 18.398838,-33.874805,548.64 18.392086,-33.876762,548.64 18.385963,-33.879322,548.64 18.379566,-33.882202,579.12 18.373718,-33.885281,579.12 18.368168,-33.888866,609.6 18.363132,-33.892868,640.08 18.358498,-33.89706,640.08 18.354378,-33.901573,670.56 18.350945,-33.906181,701.04 18.347626,-33.911674,731.52 18.344925,-33.91658,762 18.340187,-33.924572,792.48 18.33704,-33.933323,883.92 18.337498,-33.938259,944.88 18.339825,-33.94249,975.36 18.344254,-33.944916,1036.32 18.349514,-33.943935,1066.8 18.353109,-33.940338,1097.28 18.354567,-33.93663,1127.76 18.352493,-33.933151,1158.24 18.347561,-33.935669,1097.28 18.344477,-33.940292,1127.76 18.34145,-33.945282,1127.76 18.337975,-33.951462,1158.24 18.334293,-33.958881,1127.76 18.324522,-33.980438,1127.76 18.319702,-33.994026,1127.76 18.318901,-33.999847,1158.24 18.318729,-34.005806,1158.24 18.319702,-34.011749,1127.76 18.322048,-34.017769,1097.28 18.327213,-34.022461,1066.8 18.331032,-34.027592,1066.8 18.333099,-34.033813,1066.8 18.3395,-34.036575,1066.8 18.345852,-34.034946,1066.8 18.348827,-34.039413,1066.8 18.345991,-34.044571,1097.28 18.343693,-34.049789,1127.76 18.344364,-34.055195,1158.24 18.34734,-34.06004,1158.24 18.351316,-34.064713,1158.24 18.355295,-34.069244,1158.24 18.364544,-34.080963,1127.76 18.367767,-34.086525,1127.76 18.370228,-34.091881,1097.28 18.372561,-34.097076,1127.76 18.380295,-34.112823,1036.32 18.384819,-34.119392,1005.84 18.389656,-34.121475,975.36 18.394814,-34.12326,944.88 18.399811,-34.124886,883.92 18.418922,-34.131123,640.08 18.43483,-34.137268,579.12 18.441639,-34.138618,579.12 18.447361,-34.13834,579.12 18.452969,-34.136337,579.12 18.45789,-34.13266,548.64 18.462753,-34.128704,518.16 18.467388,-34.124374,487.68 18.470306,-34.119114,487.68 18.474295,-34.11438,487.68 18.480742,-34.105362,518.16 18.482534,-34.099915,518.16 18.483181,-34.093742,548.64 18.482208,-34.086899,518.16 18.48147,-34.080368,518.16 18.481636,-34.070278,518.16 18.481695,-34.061142,518.16 18.482208,-34.045376,487.68 18.48304,-34.038712,487.68 18.48444,-34.018467,487.68 18.484325,-34.012043,487.68 18.484049,-33.994354,426.72 18.484898,-33.985649,396.24 18.485756,-33.978573,396.24 18.486099,-33.966282,396.24 18.484669,-33.959625,396.24 18.483881,-33.951004,335.28 18.482323,-33.936024,304.8 18.479576,-33.929459,304.8 18.473791,-33.923996,304.8 18.467514,-33.919647,304.8 18.460955,-33.914886,274.32 18.452715,-33.907608,274.32 18.448219,-33.901386,274.32 18.444042,-33.894917,243.84 18.437691,-33.889053,243.84 18.429966,-33.889286,182.88 18.425249,-33.89209,152.4 18.425585,-33.894928,91.44 18.426647,-33.897476,60.96 18.42766,-33.898956,30.48 18.430023,-33.900085,60.96 18.435003,-33.900742,152.4 18.438892,-33.898548,213.36 18.441113,-33.892319,274.32 18.43943,-33.885361,304.8 18.432941,-33.877365,335.28 18.426533,-33.87397,335.28 18.419323,-33.872665,365.76 18.41217,-33.873222,396.24 18.40608,-33.874878,426.72 18.403334,-33.878906,457.2 18.40662,-33.881927,518.16 18.411852,-33.881561,548.64 18.416,-33.878311,609.6 18.414059,-33.873737,640.08 18.407257,-33.872131,670.56 18.401035,-33.874146,670.56 18.39543,-33.877625,670.56 18.390329,-33.881516,670.56 18.385117,-33.885773,701.04 18.38052,-33.889938,701.04 18.375835,-33.894871,701.04 18.371662,-33.899643,701.04 18.367796,-33.904541,670.56 18.364151,-33.909622,670.56 18.360558,-33.914886,670.56 18.355688,-33.92276,670.56 18.351574,-33.930252,701.04 18.348402,-33.938095,701.04 18.35182,-33.942032,762 18.356529,-33.939972,792.48 18.358715,-33.935532,792.48 18.358883,-33.930908,853.44 18.354792,-33.927887,883.92 18.349171,-33.930668,853.44 18.345795,-33.935696,853.44 18.340015,-33.949059,853.44 18.332863,-33.974895,792.48 18.332932,-33.989822,822.96 18.334808,-33.99575,822.96 18.336855,-34.001221,853.44 18.34116,-34.012508,853.44 18.342684,-34.018661,853.44 18.343357,-34.023743,883.92 18.344078,-34.029545,914.4 18.346943,-34.045212,944.88 18.350029,-34.055893,944.88 18.352547,-34.06134,944.88 18.355408,-34.066601,944.88 18.358498,-34.071583,975.36 18.362045,-34.076565,975.36 18.366674,-34.083115,975.36 18.376146,-34.095245,944.88 18.38047,-34.099701,914.4 18.384075,-34.102959,883.92 18.38768,-34.105984,853.44 18.391842,-34.109116,822.96 18.39599,-34.111954,792.48 18.40053,-34.1147,731.52 18.404903,-34.117111,701.04 18.409595,-34.119534,670.56 18.416462,-34.122837,640.08 18.432655,-34.13047,609.6 18.43803,-34.13205,609.6 18.443859,-34.131729,609.6 18.449192,-34.129402,609.6 18.453949,-34.126007,609.6 18.458519,-34.122372,609.6 18.463211,-34.118416,609.6 18.467216,-34.113945,609.6 18.470203,-34.108704,640.08 18.47208,-34.102539,609.6 18.473167,-34.096115,609.6 18.473904,-34.08989,609.6 18.475248,-34.077164,579.12 18.477573,-34.055614,579.12 18.480238,-34.033447,579.12 18.481077,-34.019714,579.12 18.482254,-34.003006,579.12 18.483208,-33.99678,579.12 18.48461,-33.981903,579.12 18.485012,-33.968098,609.6 18.484442,-33.961853,579.12 18.483868,-33.952782,548.64 18.482552,-33.937325,518.16 18.480406,-33.931183,518.16 18.476486,-33.92485,487.68 18.471851,-33.919449,457.2 18.466473,-33.914143,426.72 18.46118,-33.909027,396.24 18.444557,-33.891567,335.28 18.439095,-33.889389,304.8 18.434778,-33.891449,243.84 18.432884,-33.894218,182.88 18.427906,-33.899433,60.96 18.42738,-33.901245,60.96 18.428556,-33.901749,60.96 18.43071,-33.90218,121.92 18.43119,-33.902206,121.92 18.433937,-33.901978,182.88 18.434443,-33.901886,182.88 18.43758,-33.900879,243.84 18.438492,-33.90041,243.84 18.441561,-33.898132,274.32 18.442177,-33.897491,274.32 18.44442,-33.89415,304.8 18.444811,-33.893051,335.28 18.445036,-33.888519,365.76 18.444811,-33.887466,365.76 18.442554,-33.883373,396.24 18.441841,-33.882568,396.24 18.43758,-33.879272,426.72 18.436489,-33.878578,426.72 18.431751,-33.876389,457.2 18.430687,-33.875977,457.2 18.425978,-33.874741,487.68 18.424816,-33.874527,487.68 18.419552,-33.874016,518.16 18.418018,-33.873962,518.16 18.412628,-33.873783,518.16 18.411369,-33.873737,518.16 18.405991,-33.87392,548.64 18.404453,-33.874008,548.64 18.398838,-33.874805,548.64 18.397465,-33.875134,548.64 18.392086,-33.876762,548.64 18.390884,-33.877228,548.64 18.385963,-33.879322,548.64 18.384556,-33.879959,548.64 18.379566,-33.882202,579.12 18.378239,-33.882908,579.12 18.373718,-33.885281,579.12 18.372448,-33.886002,579.12 18.368168,-33.888866,609.6 18.366966,-33.889751,609.6 18.363132,-33.892868,640.08 18.362078,-33.893738,640.08 18.358498,-33.89706,640.08 18.357819,-33.897766,640.08 18.354378,-33.901573,670.56 18.35367,-33.902435,670.56 18.350945,-33.906181,701.04 18.350201,-33.907345,701.04 18.347626,-33.911674,731.52 18.347168,-33.912514,731.52 18.344925,-33.91658,762 18.344421,-33.91745,792.48 18.340187,-33.924572,792.48 18.338242,-33.92783,822.96 18.33704,-33.933323,883.92 18.337023,-33.934067,883.92 18.337498,-33.938259,944.88 18.337727,-33.939095,944.88 18.339825,-33.94249,975.36 18.340416,-33.9431,1005.84 18.344254,-33.944916,1036.32 18.345165,-33.945053,1036.32 18.349514,-33.943935,1066.8 18.350531,-33.943222,1066.8 18.353109,-33.940338,1097.28 18.353558,-33.939651,1097.28 18.354567,-33.93663,1127.76 18.354567,-33.935944,1158.24 18.352493,-33.933151,1158.24 18.35146,-33.93309,1127.76 18.347561,-33.935669,1097.28 18.347055,-33.93631,1097.28 18.344477,-33.940292,1127.76 18.343805,-33.941391,1127.76 18.34145,-33.945282,1127.76 18.340473,-33.946964,1127.76 18.337975,-33.951462,1158.24 18.337498,-33.952362,1158.24 18.334293,-33.958881,1127.76 18.332033,-33.963547,1127.76 18.324522,-33.980438,1127.76 18.322792,-33.985043,1127.76 18.319702,-33.994026,1127.76 18.319477,-33.995087,1127.76 18.318901,-33.999847,1158.24 18.318844,-34.001244,1158.24 18.318729,-34.005806,1158.24 18.318806,-34.006851,1158.24 18.319702,-34.011749,1127.76 18.32015,-34.013123,1127.76 18.322048,-34.017769,1097.28 18.322849,-34.018791,1097.28 18.327213,-34.022461,1066.8 18.327942,-34.023148,1066.8 18.331032,-34.027592,1066.8 18.331753,-34.029831,1066.8 18.333099,-34.033813,1066.8 18.333771,-34.034637,1066.8 18.3395,-34.036575,1066.8 18.340702,-34.036434,1066.8 18.345852,-34.034946,1066.8 18.347168,-34.035133,1097.28 18.348827,-34.039413,1066.8 18.348345,-34.040543,1066.8 18.345991,-34.044571,1097.28 18.345451,-34.045513,1097.28 18.343693,-34.049789,1127.76 18.343468,-34.05098,1127.76 18.344364,-34.055195,1158.24 18.344757,-34.056107,1158.24 18.34734,-34.06004,1158.24 18.347969,-34.060829,1158.24 18.351316,-34.064713,1158.24 18.352032,-34.065533,1158.24 18.355295,-34.069244,1158.24 18.356037,-34.070141,1158.24 18.364544,-34.080963,1127.76 18.36533,-34.082199,1127.76 18.367767,-34.086525,1127.76 18.368282,-34.087551,1097.28 18.370228,-34.091881,1097.28 18.370543,-34.092682,1127.76 18.372561,-34.097076,1127.76 18.374062,-34.100071,1127.76 18.380295,-34.112823,1036.32 18.381977,-34.116074,1005.84 18.384819,-34.119392,1005.84 18.385845,-34.12001,1005.84 18.389656,-34.121475,975.36 18.39061,-34.121841,944.88 18.394814,-34.12326,944.88 18.395691,-34.123535,914.4 18.399811,-34.124886,883.92 18.403669,-34.126144,822.96 18.418922,-34.131123,640.08 18.420933,-34.131912,609.6 18.43483,-34.137268,579.12 18.437119,-34.138012,579.12 18.441639,-34.138618,579.12 18.442726,-34.138618,579.12 18.447361,-34.13834,579.12 18.448624,-34.138138,579.12 18.452969,-34.136337,579.12 18.454117,-34.13562,548.64 18.45789,-34.13266,548.64 18.458769,-34.131958,548.64 18.462753,-34.128704,518.16 18.463612,-34.127956,518.16 18.467388,-34.124374,487.68 18.468018,-34.123444,487.68 18.470306,-34.119114,487.68 18.470936,-34.118183,487.68 18.474295,-34.11438,487.68 18.47508,-34.113556,487.68 18.480742,-34.105362,518.16 18.48119,-34.104309,518.16 18.482534,-34.099915,518.16 18.48278,-34.098537,518.16 18.483181,-34.093742,548.64 18.483095,-34.092499,548.64 18.482208,-34.086899,518.16 18.482037,-34.08569,518.16 18.48147,-34.080368,518.16 18.481464,-34.079079,518.16 18.481636,-34.070278,518.16 18.481695,-34.069153,518.16 18.481695,-34.061142,518.16 18.481583,-34.056931,518.16 18.482208,-34.045376,487.68 18.482367,-34.044159,487.68 18.48304,-34.038712,487.68 18.483582,-34.033272,487.68 18.48444,-34.018467,487.68 18.484442,-34.017197,487.68 18.484325,-34.012043,487.68 18.484329,-34.010513,487.68 18.484049,-33.994354,426.72 18.484272,-33.991425,426.72 18.484898,-33.985649,396.24 18.485069,-33.984249,396.24 18.485756,-33.978573,396.24 18.485899,-33.977371,396.24 18.486099,-33.966282,396.24 18.485899,-33.964828,396.24 18.484669,-33.959625,396.24 18.484325,-33.957855,396.24 18.483881,-33.951004,335.28 18.483601,-33.946426,335.28 18.482323,-33.936024,304.8 18.482031,-33.934753,304.8 18.479576,-33.929459,304.8 18.478443,-33.928024,304.8 18.473791,-33.923996,304.8 18.472996,-33.923409,304.8 18.467514,-33.919647,304.8 18.466112,-33.91864,274.32 18.460955,-33.914886,274.32 18.459553,-33.913879,274.32 18.452715,-33.907608,274.32 18.451767,-33.906368,274.32 18.448219,-33.901386,274.32 18.447279,-33.899963,274.32 18.444042,-33.894917,243.84 18.443186,-33.893509,243.84 18.437691,-33.889053,243.84 18.435516,-33.888634,213.36 18.429966,-33.889286,182.88 18.428669,-33.889709,182.88 18.425249,-33.89209,152.4 18.425159,-33.892635,152.4 18.425585,-33.894928,91.44 18.425789,-33.895523,91.44 18.426647,-33.897476,60.96 18.426931,-33.897903,60.96 18.42766,-33.898956,30.48 18.427883,-33.899185,30.48 18.430023,-33.900085,60.96 18.432026,-33.900597,91.44 18.435003,-33.900742,152.4 18.435787,-33.900558,152.4 18.438892,-33.898548,213.36 18.439465,-33.89785,213.36 18.441113,-33.892319,274.32 18.440832,-33.889893,274.32 18.43943,-33.885361,304.8 18.438759,-33.884033,304.8 18.432941,-33.877365,335.28 18.431568,-33.876389,335.28 18.426533,-33.87397,335.28 18.425159,-33.873505,365.76 18.419323,-33.872665,365.76 18.418076,-33.872635,365.76 18.41217,-33.873222,396.24 18.411013,-33.873413,426.72 18.40608,-33.874878,426.72 18.405071,-33.875519,426.72 18.403334,-33.878906,457.2 18.403669,-33.879913,487.68 18.40662,-33.881927,518.16 18.407705,-33.882065,518.16 18.411852,-33.881561,548.64 18.412861,-33.881195,548.64 18.416,-33.878311,609.6 18.416176,-33.877415,609.6 18.414059,-33.873737,640.08 18.412743,-33.87299,640.08 18.407257,-33.872131,670.56 18.406023,-33.872314,640.08 18.401035,-33.874146,670.56 18.399925,-33.874714,670.56 18.39543,-33.877625,670.56 18.394476,-33.878311,670.56 18.390329,-33.881516,670.56 18.389168,-33.882442,670.56 18.385117,-33.885773,701.04 18.384218,-33.886505,701.04 18.38052,-33.889938,701.04 18.379623,-33.890808,701.04 18.375835,-33.894871,701.04 18.375034,-33.895756,701.04 18.371662,-33.899643,701.04 18.370914,-33.900551,701.04 18.367796,-33.904541,670.56 18.366955,-33.905731,670.56 18.364151,-33.909622,670.56 18.363419,-33.910652,670.56 18.360558,-33.914886,670.56 18.359779,-33.916077,670.56 18.355688,-33.92276,670.56 18.353863,-33.925827,701.04 18.351574,-33.930252,701.04 18.350773,-33.931831,701.04 18.348402,-33.938095,701.04 18.348541,-33.939423,701.04 18.35182,-33.942032,762 18.352942,-33.942032,792.48 18.356529,-33.939972,792.48 18.35701,-33.939281,792.48 18.358715,-33.935532,792.48 18.358955,-33.934673,822.96 18.358883,-33.930908,853.44 18.35849,-33.930084,853.44 18.354792,-33.927887,883.92 18.353277,-33.927979,883.92 18.349171,-33.930668,853.44 18.348513,-33.931458,853.44 18.345795,-33.935696,853.44 18.344994,-33.937187,853.44 18.340015,-33.949059,853.44 18.338814,-33.952408,853.44 18.332863,-33.974895,792.48 18.332291,-33.978386,792.48 18.332932,-33.989822,822.96 18.333206,-33.990814,822.96 18.334808,-33.99575,822.96 18.335152,-33.996773,822.96 18.336855,-34.001221,853.44 18.337358,-34.002457,853.44 18.34116,-34.012508,853.44 18.341787,-34.014587,853.44 18.342684,-34.018661,853.44 18.342819,-34.01963,853.44 18.343357,-34.023743,883.92 18.343525,-34.024796,883.92 18.344078,-34.029545,914.4 18.344536,-34.033039,914.4 18.346943,-34.045212,944.88 18.347282,-34.046585,944.88 18.350029,-34.055893,944.88 18.350487,-34.056965,944.88 18.352547,-34.06134,944.88 18.353054,-34.062332,944.88 18.355408,-34.066601,944.88 18.356037,-34.067673,975.36 18.358498,-34.071583,975.36 18.359184,-34.072514,975.36 18.362045,-34.076565,975.36 18.362675,-34.077496,975.36 18.366674,-34.083115,975.36 18.369198,-34.08662,975.36 18.376146,-34.095245,944.88 18.377609,-34.096909,914.4 18.38047,-34.099701,914.4 18.381191,-34.100372,914.4 18.384075,-34.102959,883.92 18.384779,-34.103577,883.92 18.38768,-34.105984,853.44 18.388535,-34.106689,853.44 18.391842,-34.109116,822.96 18.39257,-34.109665,822.96 18.39599,-34.111954,792.48 18.396942,-34.112549,792.48 18.40053,-34.1147,731.52 18.401316,-34.115158,731.52 18.404903,-34.117111,701.04 18.4058,-34.11763,701.04 18.409595,-34.119534,670.56 18.410507,-34.119965,670.56 18.416462,-34.122837,640.08 18.419476,-34.124359,640.08 18.432655,-34.13047,609.6 18.4338,-34.13089,609.6 18.43803,-34.13205,609.6 18.439293,-34.132149,609.6 18.443859,-34.131729,609.6 18.444868,-34.131454,609.6 18.449192,-34.129402,609.6 18.450361,-34.128662,609.6 18.453949,-34.126007,609.6 18.454971,-34.125164,609.6 18.458519,-34.122372,609.6 18.459497,-34.121613,609.6 18.463211,-34.118416,609.6 18.463955,-34.117668,609.6 18.467216,-34.113945,609.6 18.467789,-34.113106,609.6 18.470203,-34.108704,640.08 18.470709,-34.107468,609.6 18.47208,-34.102539,609.6 18.472334,-34.101562,609.6 18.473167,-34.096115,609.6 18.473286,-34.094971,609.6 18.473904,-34.08989,609.6 18.474026,-34.088669,609.6 18.475248,-34.077164,579.12 18.475685,-34.072189,579.12 18.477573,-34.055614,579.12 18.478146,-34.050495,579.12 18.480238,-34.033447,579.12 18.480606,-34.028896,548.64 18.481077,-34.019714,579.12 18.481236,-34.014694,548.64 18.482254,-34.003006,579.12 18.482437,-34.001663,579.12 18.483208,-33.99678,579.12 18.483376,-33.995544,579.12 18.48461,-33.981903,579.12 18.484669,-33.980713,579.12 18.485012,-33.968098,609.6 18.484955,-33.966934,609.6 18.484442,-33.961853,579.12 18.484325,-33.960743,579.12 18.483868,-33.952782,548.64 18.48381,-33.9478,548.64 18.482552,-33.937325,518.16 18.482151,-33.935791,518.16 18.480406,-33.931183,518.16 18.479805,-33.930019,518.16 18.476486,-33.92485,487.68 18.475685,-33.923824,457.2 18.471851,-33.919449,457.2 18.470709,-33.91832,426.72 18.466473,-33.914143,426.72 18.465271,-33.912979,426.72 18.46118,-33.909027,396.24 18.456917,-33.904694,396.24 18.444557,-33.891567,335.28 18.443859,-33.891037,335.28 18.439095,-33.889389,304.8 18.437519,-33.889656,274.32 18.434778,-33.891449,243.84 18.434372,-33.891937,243.84 18.432884,-33.894218,182.88 18.432541,-33.89473,152.4 18.427906,-33.899433,60.96 18.427219,-33.900085,30.48
        </coordinates>
      </LineString>
    </Placemark>
  </Document>
</kml>