<?xml version="1.0" encoding="UTF-8"?>
<kml xmlns="http://www.opengis.net/kml/2.2">
  <Document>
    <name>Flight Path - Optimised</name>
    <description><![CDATA[Optimised flight path with 51 points (decimated from 254 original points). Source format: Google Earth Extended (gx:coord)]]></description>
    
    <Style id="flightPath">
      <LineStyle>
        <color>ff0000ff</color>
        <width>3</width>
      </LineStyle>
    </Style>
    
    <Placemark>
      <name>Flight Path</name>
      <description><![CDATA[Optimized flight path]]></description>
      <styleUrl>#flightPath</styleUrl>
      <LineString>
        <extrude>1</extrude>
        <tessellate>1</tessellate>
        <altitudeMode>absolute</altitudeMode>
        <coordinates>
          18.427048,-33.900876,7 18.427043,-33.900879,22 18.427772,-33.901199,22 18.430424,-33.901295,53 18.435631,-33.899665,99 18.438492,-33.896779,137 18.43935,-33.891472,167 18.436661,-33.884396,213 18.431864,-33.880692,236 18.42553,-33.879318,297 18.414319,-33.880096,388 18.404388,-33.881789,480 18.392122,-33.886551,594 18.379286,-33.894562,708 18.370399,-33.903203,815 18.360271,-33.914841,944 18.351631,-33.926852,1059 18.344814,-33.939789,1112 18.334276,-33.957733,1082 18.324909,-33.96982,1112 18.315353,-33.984437,1135 18.302479,-34.002872,1097 18.297393,-34.014496,1082 18.295898,-34.028103,1036 18.299446,-34.039415,975 18.306656,-34.054591,914 18.315386,-34.068649,822 18.330059,-34.085455,731 18.346653,-34.097093,632 18.391628,-34.113154,632 18.417458,-34.124771,632 18.435802,-34.132287,647 18.443127,-34.131961,624 18.454971,-34.126375,640 18.471437,-34.114517,640 18.475977,-34.105637,632 18.476762,-34.086273,617 18.476715,-34.055057,548 18.478892,-34.019257,480 18.480405,-33.976868,434 18.482591,-33.946518,327 18.479284,-33.933746,297 18.468522,-33.921524,281 18.449296,-33.903854,220 18.442383,-33.895615,236 18.437977,-33.892915,182 18.43461,-33.89296,152 18.430967,-33.89502,99 18.427996,-33.898636,38 18.426987,-33.900375,15 18.426991,-33.900876,7
        </coordinates>
      </LineString>
    </Placemark>
  </Document>
</kml>