<?xml version="1.0" encoding="UTF-8"?>
<kml xmlns="http://www.opengis.net/kml/2.2">
  <Document>
    <name>-/ZTHOT - Optimised</name>
    <description><![CDATA[Optimised flight path with 879 points (decimated from 4393 original points). Source format: Standard KML]]></description>
    
    <Style id="flightPath">
      <LineStyle>
        <color>ff0000ff</color>
        <width>3</width>
      </LineStyle>
    </Style>
    
    <Placemark>
      <name>Flight Path</name>
      <description><![CDATA[<div style="width:220px; text-align:center;">
<div style="width:210px; text-align:center;">
<div style=" background: #000; color: #fff; font-size: 14px; text-align:left; border: 1px solid #000; padding: 2px 6px; text-shadow: 0 1px 0 #000; box-shadow: 0 1px 3px rgba(0,0,0,0.6); background: -webkit-gradient(linear, left top, left bottom, color-stop(0%,#808080), color-stop(2%,#303030), color-stop(100%,#0c0c0c));"><span style="font-size: 14px; font-weight: bold;"><a href="javascript:void(0);" style="color: #fff; cursor: pointer;text-decoration: none;">-</a></span> / ZTHOT<br/>Cape Town Helicopters</div>

<div style="border-top: 1px solid #005c90; color: #fff; padding-bottom: 5px; box-shadow: 0 0 1px #9BE3F6 inset, 0 1px 0 #9BE3F6 inset, 0 -1px 3px rgba(0,0,0,0.4); background:rgba(43,114,173,1); background: -webkit-gradient(linear, left top, left bottom, color-stop(0%,rgba(92,184,229,1)), color-stop(100%,rgba(43,114,173,1)));">
<a style="text-decoration: none; color: rgb(255, 255, 255); font-size: 12px; width:77px; display: inline-block;" title=" Airport" href="javascript:void(0);/departures"><h3 style="padding: 0px; margin: 10px 0px 0px; font-size: 16px; ">?</h3></a>
<span style="background: url(https://www.flightradar24.com/static/images/userUI_sprite.png?14) no-repeat scroll 0 -464px rgba(0, 0, 0, 0); border: medium none; display: inline-block; height: 16px; width: 45px;"></span>
<a style="text-decoration: none; color: rgb(255, 255, 255); font-size: 12px; width:77px; display: inline-block;" title=" Airport" href="javascript:void(0);/arrivals"><h3 style="padding: 0px; margin: 10px 0px 0px; font-size: 16px;">?</h3></a>
<div style=" margin-top:10px;">
<div style="display: inline-block; font-size: 12px; padding: 0 5px;">
<div>
<span style="color: #c1eaff;" title="Actual Time of Departure">ATD </span>
<span title="2025-12-24 08:52">08:52</span> <span title="Coordinated Universal Time">UTC</span>
</div>
</div>
<div style="display: inline-block; font-size: 12px; padding: 0 5px;">
<div>
<span style="color: #c1eaff;" title="Estimated Time of Arrival">ETA </span>
<span title="2025-12-24 09:18">09:18</span> <span title="Coordinated Universal Time">UTC</span>
</div>
</div>
</div>
<br style="clear: both;"/>
</div>

<div style="display: block;">
<table style="border-collapse: collapse; width: 100%;">
<tr style="border-right: 1px solid #dadada; ">
<td style="background: none repeat scroll 0 0 #dadada; padding: 0; width: 31px;">
<span style="background: url(https://www.flightradar24.com/static/images/userUI_sprite.png?14) no-repeat scroll -208px -464px rgba(0, 0, 0, 0); height: 26px; margin: 8px 0 0 4px; width: 23px; display: block;"></span>
</td>
<td colspan="2" style="border-bottom: 1px solid #dadada; border-left: 1px solid #dadada; color: #666; line-height: 1.1em; padding: 3px 6px; vertical-align: top; font-size: 14px;">
Aircraft<span style="float: right; font-size: 12px;">(AS50)</span><br>
<span style="color: #333; font-size: 16px; font-weight: bold; line-height: 1.3em;">Airbus Helicopters H125</span>
</td>
</tr>
<tr style="border-right: 1px solid #dadada; ">
<td style="background: none repeat scroll 0 0 #dadada; padding: 0; width: 31px;">
<td colspan="2" style="border-bottom: 1px solid #dadada; border-left: 1px solid #dadada; color: #666; line-height: 1.1em; padding: 3px 6px; vertical-align: top; font-size: 14px;">
Registration<br>
<span style="color: #333; font-size: 16px; font-weight: bold; line-height: 1.3em;"><a href="https://www.flightradar24.com/reg/zt-hot" style="text-decoration: none; color: #333;">ZT-HOT</a></span>
</td>
</tr>
</table>
</div>

</div>
</div>]]></description>
      <styleUrl>#flightPath</styleUrl>
      <LineString>
        <extrude>1</extrude>
        <tessellate>1</tessellate>
        <altitudeMode>absolute</altitudeMode>
        <coordinates>
          18.427391,-33.900597,30.48 18.430462,-33.901199,121.92 18.433285,-33.901016,182.88 18.436516,-33.899689,213.36 18.439579,-33.896591,274.32 18.44141,-33.891567,335.28 18.441,-33.886093,365.76 18.438309,-33.880692,396.24 18.433113,-33.876202,426.72 18.426315,-33.873688,487.68 18.419609,-33.872105,518.16 18.412638,-33.87085,548.64 18.405687,-33.869888,609.6 18.399353,-33.870152,609.6 18.39229,-33.871902,640.08 18.386536,-33.874203,640.08 18.38063,-33.877533,670.56 18.375893,-33.880905,670.56 18.370914,-33.884956,701.04 18.366674,-33.888885,701.04 18.362732,-33.892963,731.52 18.358995,-33.897308,762 18.355865,-33.901436,762 18.352381,-33.906052,792.48 18.349241,-33.910812,792.48 18.346046,-33.916077,792.48 18.343357,-33.921112,792.48 18.340498,-33.926102,822.96 18.337841,-33.931416,853.44 18.337584,-33.93663,914.4 18.340778,-33.939514,975.36 18.345543,-33.938965,1005.84 18.34837,-33.935184,1005.84 18.345095,-33.931686,1005.84 18.340162,-33.934113,1005.84 18.336983,-33.940536,1036.32 18.334866,-33.945148,1066.8 18.332594,-33.949585,1127.76 18.329773,-33.954269,1158.24 18.326653,-33.95929,1127.76 18.32325,-33.96479,1127.76 18.319759,-33.970146,1127.76 18.316452,-33.975357,1127.76 18.312023,-33.982452,1158.24 18.307686,-33.989792,1158.24 18.30468,-33.995041,1158.24 18.30154,-34.000443,1127.76 18.298473,-34.006039,1127.76 18.295898,-34.011436,1097.28 18.29319,-34.016876,1097.28 18.289938,-34.023788,1097.28 18.28792,-34.029236,1097.28 18.288088,-34.034683,1097.28 18.289318,-34.039833,1097.28 18.290892,-34.044937,1097.28 18.292866,-34.049889,1097.28 18.295097,-34.054729,1127.76 18.297043,-34.059479,1097.28 18.298964,-34.064667,1097.28 18.300819,-34.069813,1097.28 18.303167,-34.076385,1036.32 18.305408,-34.081833,975.36 18.308201,-34.086479,914.4 18.31292,-34.089294,853.44 18.317127,-34.091927,822.96 18.320936,-34.095016,822.96 18.324354,-34.0979,822.96 18.328167,-34.100601,822.96 18.332371,-34.102982,792.48 18.337023,-34.105087,792.48 18.341562,-34.106735,762 18.346539,-34.108498,762 18.351288,-34.110081,792.48 18.356094,-34.111618,762 18.361404,-34.112686,731.52 18.36701,-34.113373,670.56 18.372917,-34.114506,640.08 18.378468,-34.115948,609.6 18.38349,-34.117355,609.6 18.388481,-34.118786,579.12 18.393692,-34.120102,548.64 18.398569,-34.121475,548.64 18.403187,-34.122929,548.64 18.407873,-34.124496,548.64 18.414207,-34.126648,548.64 18.418747,-34.128204,548.64 18.4231,-34.129818,518.16 18.427792,-34.131729,518.16 18.432312,-34.133652,518.16 18.436964,-34.135529,518.16 18.442289,-34.135849,518.16 18.447533,-34.134708,518.16 18.453163,-34.132233,518.16 18.458153,-34.129349,548.64 18.463268,-34.125957,548.64 18.468243,-34.12207,548.64 18.473053,-34.117764,548.64 18.477859,-34.113247,548.64 18.481695,-34.107468,548.64 18.483238,-34.100586,548.64 18.483095,-34.093643,548.64 18.482927,-34.086044,548.64 18.482895,-34.079124,548.64 18.483433,-34.068878,548.64 18.483768,-34.061691,548.64 18.483868,-34.045139,548.64 18.483881,-34.037842,548.64 18.483994,-34.031021,548.64 18.484154,-34.024052,548.64 18.484329,-34.016876,518.16 18.484722,-34.005066,457.2 18.484945,-33.992798,396.24 18.485355,-33.985695,365.76 18.485899,-33.978378,365.76 18.485954,-33.971054,335.28 18.485641,-33.960648,335.28 18.485069,-33.95348,304.8 18.483881,-33.944687,304.8 18.481863,-33.937317,274.32 18.478832,-33.931087,274.32 18.473854,-33.924709,274.32 18.467962,-33.920105,274.32 18.461796,-33.915344,274.32 18.456358,-33.910263,274.32 18.451366,-33.903854,274.32 18.446718,-33.897537,274.32 18.441353,-33.892403,243.84 18.433937,-33.891998,213.36 18.427963,-33.894032,121.92 18.426704,-33.896687,91.44 18.426874,-33.898636,60.96 18.427155,-33.900192,30.48 18.429165,-33.901436,60.96 18.432884,-33.900318,152.4 18.435802,-33.898735,243.84 18.438421,-33.896255,274.32 18.439808,-33.8918,335.28 18.438759,-33.886368,365.76 18.434544,-33.881836,426.72 18.428879,-33.87923,457.2 18.422783,-33.877853,518.16 18.416405,-33.877274,548.64 18.410059,-33.877716,579.12 18.404045,-33.87867,579.12 18.397951,-33.880234,609.6 18.391729,-33.882248,609.6 18.386135,-33.884674,640.08 18.381157,-33.887375,670.56 18.376579,-33.89045,701.04 18.371662,-33.89415,701.04 18.367516,-33.897629,731.52 18.36376,-33.901657,731.52 18.360397,-33.905914,731.52 18.357182,-33.910233,762 18.354149,-33.915215,762 18.351574,-33.920612,762 18.349571,-33.926338,762 18.344309,-33.940521,762 18.342247,-33.946312,762 18.34053,-33.95134,762 18.340874,-33.962837,762 18.352718,-33.958599,701.04 18.354607,-33.953014,731.52 18.356323,-33.947197,731.52 18.357651,-33.941574,701.04 18.359356,-33.935276,670.56 18.361473,-33.929413,670.56 18.363703,-33.923721,640.08 18.366842,-33.918365,670.56 18.3708,-33.913723,640.08 18.375307,-33.90889,640.08 18.380295,-33.904358,609.6 18.385284,-33.900421,640.08 18.390713,-33.896221,640.08 18.396034,-33.891937,609.6 18.401871,-33.887516,579.12 18.407761,-33.883621,548.64 18.414431,-33.880829,518.16 18.421101,-33.880508,487.68 18.426874,-33.882935,487.68 18.431808,-33.885498,426.72 18.436203,-33.888447,396.24 18.439487,-33.891541,335.28 18.438549,-33.895012,304.8 18.433399,-33.895428,243.84 18.426991,-33.89436,182.88 18.426315,-33.897308,121.92 18.427105,-33.899433,91.44 18.427254,-33.90065,0 18.430742,-33.900696,91.44 18.433714,-33.899918,182.88 18.436571,-33.898041,243.84 18.438492,-33.894077,304.8 18.438309,-33.888245,335.28 18.435459,-33.883373,396.24 18.429852,-33.880253,457.2 18.423729,-33.878532,487.68 18.418579,-33.877899,548.64 18.415104,-33.877579,548.64 18.41074,-33.877693,457.2 18.404734,-33.878265,487.68 18.398792,-33.879272,548.64 18.39386,-33.880646,609.6 18.388538,-33.88258,640.08 18.383657,-33.884857,670.56 18.379269,-33.887516,701.04 18.375092,-33.890682,731.52 18.370991,-33.894424,762 18.367481,-33.898361,792.48 18.364376,-33.902756,822.96 18.361855,-33.90683,853.44 18.35947,-33.910931,853.44 18.356865,-33.915527,853.44 18.354263,-33.92038,853.44 18.35186,-33.925594,853.44 18.349634,-33.930634,853.44 18.34734,-33.935883,822.96 18.345108,-33.941422,792.48 18.342361,-33.949059,792.48 18.34013,-33.954552,792.48 18.332481,-33.973618,792.48 18.32357,-33.99678,792.48 18.321888,-34.002869,853.44 18.321608,-34.006348,914.4 18.322113,-34.009689,944.88 18.323307,-34.013065,1005.84 18.325027,-34.01651,1036.32 18.327141,-34.020374,1066.8 18.329399,-34.024475,1066.8 18.332119,-34.028755,1066.8 18.334892,-34.032806,1066.8 18.3382,-34.036514,1066.8 18.342684,-34.036331,1066.8 18.342476,-34.031548,1066.8 18.336966,-34.027908,1066.8 18.330408,-34.025391,1066.8 18.324747,-34.021957,1036.32 18.320503,-34.017071,1005.84 18.318729,-34.011204,975.36 18.320961,-34.004688,975.36 18.324223,-33.998589,944.88 18.327713,-33.992954,883.92 18.331661,-33.987091,883.92 18.33478,-33.982086,914.4 18.339321,-33.974213,914.4 18.342819,-33.967167,914.4 18.34543,-33.961212,914.4 18.348942,-33.952595,883.92 18.35692,-33.934113,762 18.3601,-33.928204,762 18.363422,-33.922531,731.52 18.367596,-33.917076,701.04 18.372335,-33.911957,670.56 18.377155,-33.907196,640.08 18.381977,-33.902893,640.08 18.387133,-33.89859,609.6 18.392458,-33.894196,579.12 18.397728,-33.889984,579.12 18.405407,-33.884674,548.64 18.411797,-33.881973,487.68 18.418299,-33.881058,518.16 18.423615,-33.881744,487.68 18.428669,-33.883438,487.68 18.432541,-33.885838,457.2 18.435619,-33.888931,396.24 18.437412,-33.89209,335.28 18.435955,-33.895294,274.32 18.431919,-33.896347,213.36 18.426533,-33.896358,121.92 18.426874,-33.898453,91.44 18.427044,-33.900192,60.96 18.427996,-33.901108,91.44 18.432367,-33.901062,152.4 18.435631,-33.899712,213.36 18.438835,-33.896965,274.32 18.440208,-33.892078,335.28 18.438702,-33.886642,396.24 18.435116,-33.881927,426.72 18.429846,-33.878265,457.2 18.423672,-33.877506,487.68 18.417625,-33.877853,518.16 18.411573,-33.878815,548.64 18.405743,-33.880051,579.12 18.400362,-33.881516,609.6 18.394421,-33.88353,640.08 18.389111,-33.885838,670.56 18.384163,-33.888611,701.04 18.379498,-33.8918,731.52 18.375362,-33.89502,762 18.371552,-33.898544,762 18.367538,-33.902691,792.48 18.36376,-33.907288,792.48 18.36062,-33.911774,822.96 18.357868,-33.916332,822.96 18.355637,-33.921219,853.44 18.353502,-33.926239,822.96 18.350887,-33.934208,822.96 18.348738,-33.939697,822.96 18.345394,-33.944866,792.48 18.342361,-33.949757,792.48 18.3395,-33.954784,792.48 18.349228,-33.963627,731.52 18.352381,-33.954758,701.04 18.353462,-33.948128,701.04 18.354734,-33.941071,701.04 18.356609,-33.934765,701.04 18.359163,-33.929031,701.04 18.362022,-33.923721,701.04 18.36565,-33.918148,701.04 18.369701,-33.91333,670.56 18.373947,-33.908558,670.56 18.378639,-33.903854,640.08 18.383675,-33.899387,640.08 18.388538,-33.895477,640.08 18.394146,-33.891567,640.08 18.399868,-33.887749,609.6 18.40608,-33.884354,609.6 18.412113,-33.881744,609.6 18.418354,-33.880325,579.12 18.424185,-33.880966,548.64 18.428879,-33.883141,518.16 18.433342,-33.885654,487.68 18.43729,-33.88826,426.72 18.440159,-33.891586,304.8 18.437918,-33.894836,243.84 18.433825,-33.896439,182.88 18.427435,-33.898956,91.44 18.426874,-33.900467,60.96 18.429005,-33.900787,91.44 18.43277,-33.900597,152.4 18.436832,-33.898781,243.84 18.439121,-33.895058,304.8 18.438892,-33.890076,365.76 18.436348,-33.885406,426.72 18.431969,-33.881279,487.68 18.425617,-33.879509,518.16 18.418972,-33.879364,548.64 18.411884,-33.879601,609.6 18.405519,-33.879959,640.08 18.399185,-33.880875,670.56 18.393288,-33.883091,701.04 18.387737,-33.885838,701.04 18.382301,-33.888725,731.52 18.377268,-33.891724,731.52 18.372503,-33.895203,762 18.368187,-33.899094,762 18.364264,-33.90303,792.48 18.360565,-33.90715,822.96 18.35709,-33.911774,822.96 18.354263,-33.916565,822.96 18.351427,-33.922119,822.96 18.348885,-33.927177,822.96 18.346552,-33.931961,822.96 18.342819,-33.941841,822.96 18.340187,-33.953156,822.96 18.3419,-33.965652,822.96 18.353277,-33.959564,731.52 18.353405,-33.952827,731.52 18.353334,-33.946152,701.04 18.353615,-33.939697,670.56 18.354836,-33.933136,670.56 18.35737,-33.927338,670.56 18.360271,-33.922615,640.08 18.364048,-33.917633,640.08 18.368076,-33.913147,640.08 18.372917,-33.908463,640.08 18.377609,-33.90395,640.08 18.382587,-33.899387,640.08 18.38747,-33.895294,609.6 18.392738,-33.891312,609.6 18.398289,-33.887512,579.12 18.404217,-33.884026,548.64 18.410168,-33.880997,518.16 18.416674,-33.879547,518.16 18.422241,-33.880672,487.68 18.427044,-33.882889,487.68 18.431511,-33.885094,457.2 18.435459,-33.887421,396.24 18.437748,-33.8904,335.28 18.436661,-33.893799,243.84 18.431225,-33.897339,152.4 18.427435,-33.898636,91.44 18.427044,-33.900284,60.96 18.429453,-33.901154,121.92 18.432426,-33.901295,213.36 18.435843,-33.899689,304.8 18.43832,-33.89566,365.76 18.438589,-33.890213,426.72 18.436317,-33.883884,457.2 18.431639,-33.878998,518.16 18.424759,-33.877552,548.64 18.418524,-33.877579,579.12 18.411461,-33.878128,640.08 18.404903,-33.878998,670.56 18.398552,-33.88044,701.04 18.392683,-33.882248,701.04 18.387165,-33.885048,731.52 18.382187,-33.889004,762 18.378054,-33.892776,792.48 18.374018,-33.896622,792.48 18.369757,-33.901062,822.96 18.365778,-33.905502,822.96 18.361965,-33.910309,822.96 18.358269,-33.91526,822.96 18.355127,-33.919922,822.96 18.3521,-33.924637,822.96 18.349073,-33.929443,822.96 18.346439,-33.934708,822.96 18.344421,-33.939468,822.96 18.342123,-33.945328,822.96 18.338873,-33.95192,883.92 18.336639,-33.956318,914.4 18.344757,-33.964554,914.4 18.351746,-33.957157,822.96 18.352942,-33.950455,792.48 18.354092,-33.943752,731.52 18.355465,-33.937511,731.52 18.357761,-33.928711,701.04 18.360285,-33.923126,670.56 18.363873,-33.918045,640.08 18.368412,-33.913422,640.08 18.37326,-33.909256,609.6 18.378389,-33.904953,609.6 18.38356,-33.900829,609.6 18.388592,-33.897308,609.6 18.394085,-33.893463,579.12 18.399467,-33.889935,548.64 18.405014,-33.886459,548.64 18.410511,-33.883327,518.16 18.416805,-33.880814,487.68 18.422413,-33.880672,518.16 18.426987,-33.882339,487.68 18.431303,-33.884811,457.2 18.434715,-33.88747,426.72 18.437119,-33.890541,365.76 18.436546,-33.893661,304.8 18.433456,-33.89571,243.84 18.428612,-33.897949,121.92 18.427322,-33.899597,91.44 18.427105,-33.900875,60.96 18.429451,-33.901108,91.44 18.429794,-33.901154,91.44 18.432257,-33.901154,152.4 18.432816,-33.901062,152.4 18.43523,-33.90041,213.36 18.4359,-33.900055,213.36 18.438366,-33.898087,243.84 18.439039,-33.897308,243.84 18.440952,-33.89352,304.8 18.441225,-33.892593,304.8 18.441505,-33.888565,335.28 18.441296,-33.887051,365.76 18.439543,-33.882568,365.76 18.439007,-33.881695,396.24 18.435287,-33.877647,426.72 18.434029,-33.876762,426.72 18.429279,-33.874527,457.2 18.427677,-33.874062,457.2 18.422527,-33.872757,518.16 18.421097,-33.872433,518.16 18.415089,-33.871223,548.64 18.413887,-33.871037,548.64 18.408266,-33.870163,579.12 18.406792,-33.869965,579.12 18.401819,-33.869888,609.6 18.400726,-33.869965,609.6 18.395823,-33.870758,640.08 18.394756,-33.871078,640.08 18.388939,-33.873131,640.08 18.387863,-33.873596,640.08 18.383547,-33.875793,670.56 18.382187,-33.876575,670.56 18.377895,-33.879368,670.56 18.37698,-33.880066,670.56 18.372631,-33.88356,670.56 18.371775,-33.884262,670.56 18.368076,-33.887512,701.04 18.367235,-33.888336,701.04 18.364264,-33.891312,701.04 18.363419,-33.892216,701.04 18.360397,-33.895615,731.52 18.359756,-33.896358,731.52 18.357145,-33.899643,762 18.356438,-33.900642,762 18.353519,-33.904461,792.48 18.352942,-33.905228,792.48 18.350475,-33.908798,792.48 18.349743,-33.909954,792.48 18.34734,-33.913864,792.48 18.346767,-33.914841,792.48 18.344479,-33.919033,792.48 18.343973,-33.919968,792.48 18.341787,-33.923996,822.96 18.341103,-33.925129,822.96 18.338816,-33.929169,853.44 18.338299,-33.930157,853.44 18.337246,-33.934891,883.92 18.337326,-33.93565,883.92 18.339041,-33.938553,975.36 18.339825,-33.939102,975.36 18.343637,-33.939651,1005.84 18.344534,-33.939423,1005.84 18.347729,-33.936951,1005.84 18.348141,-33.936211,1005.84 18.347397,-33.932812,1036.32 18.346214,-33.932007,1036.32 18.341331,-33.932766,1005.84 18.340611,-33.933472,1005.84 18.337784,-33.938816,1005.84 18.337303,-33.939926,1005.84 18.335678,-33.943405,1066.8 18.335209,-33.944401,1066.8 18.333603,-33.9478,1097.28 18.333042,-33.948807,1127.76 18.330914,-33.952377,1127.76 18.330288,-33.953434,1127.76 18.327887,-33.957321,1158.24 18.32737,-33.958183,1158.24 18.324852,-33.962276,1127.76 18.324074,-33.963455,1127.76 18.321133,-33.968002,1158.24 18.320543,-33.968903,1127.76 18.317928,-33.97303,1127.76 18.317356,-33.973965,1127.76 18.314552,-33.97834,1158.24 18.313866,-33.979458,1158.24 18.308884,-33.987625,1158.24 18.308268,-33.98877,1158.24 18.305914,-33.992935,1127.76 18.305241,-33.99408,1127.76 18.302774,-33.998337,1127.76 18.302101,-33.999481,1127.76 18.299561,-34.003895,1127.76 18.298988,-34.005013,1127.76 18.296946,-34.009277,1097.28 18.296299,-34.010601,1097.28 18.294296,-34.014648,1097.28 18.293694,-34.015823,1097.28 18.290947,-34.021545,1097.28 18.29052,-34.022518,1097.28 18.288649,-34.026993,1097.28 18.288231,-34.028244,1097.28 18.287752,-34.032806,1097.28 18.287888,-34.033737,1097.28 18.288874,-34.037979,1097.28 18.289154,-34.039124,1097.28 18.290234,-34.042862,1097.28 18.290577,-34.043976,1097.28 18.29195,-34.047749,1097.28 18.292461,-34.048828,1097.28 18.294199,-34.052811,1097.28 18.294647,-34.053864,1127.76 18.296272,-34.057388,1127.76 18.296665,-34.058487,1097.28 18.29829,-34.062927,1097.28 18.298571,-34.063705,1097.28 18.30014,-34.067917,1097.28 18.300531,-34.068924,1097.28 18.302364,-34.074188,1036.32 18.302822,-34.075447,1036.32 18.304482,-34.079681,1005.84 18.305016,-34.080872,975.36 18.306698,-34.084763,944.88 18.307343,-34.08564,944.88 18.31089,-34.088203,883.92 18.311798,-34.088699,883.92 18.315468,-34.090809,853.44 18.316395,-34.0914,822.96 18.319477,-34.093781,822.96 18.320103,-34.094299,822.96 18.323021,-34.096813,822.96 18.323683,-34.097351,822.96 18.326626,-34.099514,822.96 18.327269,-34.09996,822.96 18.330688,-34.102112,792.48 18.331642,-34.102615,792.48 18.335094,-34.104263,792.48 18.335957,-34.10463,792.48 18.339712,-34.106049,762 18.340645,-34.106403,762 18.344421,-34.107754,762 18.345509,-34.108128,762 18.349241,-34.10939,762 18.350307,-34.109756,792.48 18.354118,-34.110992,792.48 18.355122,-34.11134,792.48 18.359331,-34.112366,731.52 18.36034,-34.112549,731.52 18.365021,-34.113106,701.04 18.365822,-34.113201,701.04 18.370686,-34.11404,670.56 18.371601,-34.114223,670.56 18.376036,-34.115295,640.08 18.377268,-34.115616,640.08 18.381386,-34.116737,609.6 18.382359,-34.11702,609.6 18.386404,-34.118179,579.12 18.387566,-34.118507,579.12 18.391562,-34.119598,548.64 18.392515,-34.119827,548.64 18.396494,-34.12088,548.64 18.397636,-34.121208,548.64 18.401203,-34.122299,548.64 18.402325,-34.122665,548.64 18.405968,-34.123856,548.64 18.406963,-34.124187,548.64 18.412189,-34.125961,548.64 18.4132,-34.126282,548.64 18.416954,-34.127563,548.64 18.417906,-34.12793,548.64 18.421497,-34.129215,548.64 18.422279,-34.129532,548.64 18.426018,-34.130985,518.16 18.426987,-34.131409,518.16 18.430538,-34.132893,518.16 18.431416,-34.133286,518.16 18.434887,-34.134846,518.16 18.435917,-34.13522,518.16 18.440159,-34.135895,518.16 18.441067,-34.135918,518.16 18.445429,-34.135345,518.16 18.446388,-34.135128,518.16 18.451145,-34.13324,518.16 18.45211,-34.132797,518.16 18.45619,-34.130493,548.64 18.457088,-34.130005,548.64 18.46118,-34.12738,548.64 18.462132,-34.12674,548.64 18.466448,-34.123535,548.64 18.467289,-34.122849,548.64 18.471279,-34.119392,548.64 18.472195,-34.118553,548.64 18.475914,-34.115108,548.64 18.477058,-34.114086,548.64 18.480549,-34.109894,548.64 18.481178,-34.108639,548.64 18.482872,-34.103439,548.64 18.483067,-34.101936,548.64 18.483208,-34.096344,548.64 18.483152,-34.094742,548.64 18.482952,-34.089039,548.64 18.482952,-34.087318,548.64 18.482895,-34.081638,548.64 18.482927,-34.080597,548.64 18.483263,-34.071808,548.64 18.48332,-34.070526,548.64 18.483601,-34.064758,548.64 18.483696,-34.063435,548.64 18.483936,-34.051849,548.64 18.483868,-34.046352,548.64 18.483824,-34.040726,548.64 18.483881,-34.039444,548.64 18.483936,-34.033813,548.64 18.483925,-34.032433,548.64 18.484097,-34.026661,548.64 18.484154,-34.025356,548.64 18.484217,-34.019852,518.16 18.484272,-34.01825,518.16 18.484554,-34.012463,487.68 18.484612,-34.010925,487.68 18.484777,-33.996002,426.72 18.48489,-33.994537,426.72 18.485226,-33.988495,396.24 18.485281,-33.987122,365.76 18.485674,-33.9814,365.76 18.485786,-33.980164,365.76 18.48601,-33.973846,335.28 18.485954,-33.972382,335.28 18.485813,-33.96386,335.28 18.485756,-33.961998,335.28 18.485355,-33.956413,304.8 18.485226,-33.954803,335.28 18.484385,-33.947617,304.8 18.484211,-33.946312,304.8 18.482838,-33.940258,304.8 18.482479,-33.939011,304.8 18.480238,-33.933563,304.8 18.479519,-33.932205,274.32 18.476028,-33.927273,274.32 18.475023,-33.926056,274.32 18.470306,-33.92178,274.32 18.469082,-33.920883,274.32 18.464149,-33.917221,274.32 18.463326,-33.916565,274.32 18.458208,-33.912231,274.32 18.457203,-33.911163,274.32 18.45314,-33.906231,304.8 18.452211,-33.905045,304.8 18.448511,-33.899918,274.32 18.447783,-33.899002,274.32 18.443813,-33.894173,243.84 18.443018,-33.893463,243.84 18.436741,-33.891586,213.36 18.435003,-33.891815,213.36 18.430653,-33.892681,152.4 18.428331,-33.893692,152.4 18.426819,-33.89566,91.44 18.426704,-33.896221,91.44 18.426762,-33.897896,60.96 18.426819,-33.89827,60.96 18.427099,-33.899689,60.96 18.427105,-33.899899,60.96 18.42766,-33.900742,60.96 18.428764,-33.901295,60.96 18.431683,-33.90097,121.92 18.432255,-33.900642,121.92 18.434601,-33.899387,213.36 18.435114,-33.899094,213.36 18.437347,-33.897617,274.32 18.437862,-33.89706,274.32 18.43943,-33.893692,304.8 18.439636,-33.892731,335.28 18.439579,-33.888538,365.76 18.439375,-33.887695,365.76 18.436661,-33.883511,396.24 18.435562,-33.882568,426.72 18.431053,-33.88002,457.2 18.430014,-33.879593,457.2 18.424988,-33.87825,487.68 18.423843,-33.878017,487.68 18.418865,-33.877365,518.16 18.417625,-33.877304,518.16 18.412399,-33.87746,548.64 18.41118,-33.877579,579.12 18.40662,-33.878204,579.12 18.405127,-33.878448,579.12 18.40044,-33.879555,579.12 18.399298,-33.879868,579.12 18.394756,-33.881241,609.6 18.39323,-33.881744,609.6 18.388538,-33.88356,640.08 18.387302,-33.884125,640.08 18.383099,-33.886185,670.56 18.382015,-33.886864,670.56 18.378445,-33.88916,701.04 18.377155,-33.89003,701.04 18.373489,-33.892731,701.04 18.372671,-33.893326,701.04 18.369026,-33.896267,731.52 18.368168,-33.897011,731.52 18.365273,-33.899963,731.52 18.364449,-33.900875,731.52 18.361645,-33.904274,731.52 18.361073,-33.905064,731.52 18.35844,-33.908512,762 18.357811,-33.909348,762 18.355352,-33.913101,762 18.354607,-33.914284,762 18.352432,-33.918564,762 18.351988,-33.919601,762 18.350487,-33.923733,762 18.350027,-33.92514,762 18.346832,-33.933884,762 18.345598,-33.937042,762 18.343163,-33.943935,762 18.342705,-33.945194,762 18.341282,-33.949081,762 18.340891,-33.950226,762 18.338814,-33.958275,762 18.339272,-33.96088,762 18.350418,-33.962631,731.52 18.352146,-33.960091,701.04 18.35392,-33.955437,731.52 18.354343,-33.954025,731.52 18.355637,-33.949383,731.52 18.355968,-33.948303,731.52 18.357145,-33.943817,731.52 18.357426,-33.942627,701.04 18.358547,-33.93782,670.56 18.358898,-33.936676,670.56 18.36062,-33.931732,670.56 18.361073,-33.930435,670.56 18.362789,-33.925922,670.56 18.363255,-33.924683,670.56 18.365364,-33.920567,670.56 18.366108,-33.919449,670.56 18.369141,-33.915585,640.08 18.369982,-33.914566,640.08 18.373432,-33.910839,640.08 18.37429,-33.909908,640.08 18.378067,-33.906231,609.6 18.379063,-33.905319,609.6 18.383102,-33.902134,640.08 18.384331,-33.901199,640.08 18.388367,-33.897991,640.08 18.389656,-33.897034,640.08 18.39414,-33.893463,640.08 18.395317,-33.892548,640.08 18.399689,-33.88916,609.6 18.400475,-33.888519,609.6 18.405407,-33.88504,579.12 18.406677,-33.884209,579.12 18.411461,-33.881927,548.64 18.412628,-33.881462,548.64 18.418579,-33.880161,518.16 18.419895,-33.880299,518.16 18.424644,-33.881836,487.68 18.425529,-33.882294,487.68 18.429623,-33.884304,457.2 18.43071,-33.884861,457.2 18.434544,-33.887188,426.72 18.435452,-33.887878,426.72 18.438309,-33.890259,365.76 18.438927,-33.890854,365.76 18.439598,-33.893784,335.28 18.439293,-33.894264,304.8 18.435843,-33.895752,274.32 18.434429,-33.895615,243.84 18.429285,-33.894287,182.88 18.428053,-33.89415,182.88 18.425922,-33.896255,121.92 18.426146,-33.896805,121.92 18.426874,-33.898682,91.44 18.426987,-33.899048,91.44 18.426874,-33.900467,60.96 18.427044,-33.900684,0 18.429621,-33.900787,91.44 18.430294,-33.900742,91.44 18.432541,-33.900364,152.4 18.433096,-33.900192,182.88 18.435339,-33.899048,213.36 18.4359,-33.898636,243.84 18.437977,-33.895756,274.32 18.438309,-33.894836,304.8 18.438721,-33.890587,335.28 18.438589,-33.889526,335.28 18.436947,-33.885048,365.76 18.43626,-33.884163,396.24 18.43214,-33.881229,426.72 18.430939,-33.880672,457.2 18.426203,-33.879089,487.68 18.424913,-33.878815,487.68 18.420811,-33.878159,548.64 18.419495,-33.877972,548.64 18.416176,-33.877647,548.64 18.415607,-33.877625,548.64 18.413198,-33.877533,518.16 18.41217,-33.877598,487.68 18.407135,-33.877972,487.68 18.405762,-33.878113,487.68 18.400955,-33.878811,518.16 18.399982,-33.878998,548.64 18.395653,-33.880051,579.12 18.394718,-33.880344,579.12 18.390888,-33.881744,640.08 18.389797,-33.882114,640.08 18.385563,-33.883839,640.08 18.384499,-33.884354,670.56 18.380814,-33.886539,701.04 18.380014,-33.887009,701.04 18.376707,-33.889389,731.52 18.375868,-33.890076,731.52 18.372503,-33.89296,762 18.371662,-33.893692,762 18.368626,-33.896965,792.48 18.368019,-33.897675,792.48 18.365536,-33.90097,822.96 18.364937,-33.90184,822.96 18.362904,-33.905113,853.44 18.362413,-33.905869,853.44 18.360615,-33.909069,853.44 18.36006,-33.909943,853.44 18.357983,-33.91354,853.44 18.357481,-33.914429,853.44 18.355122,-33.918659,853.44 18.354679,-33.91951,853.44 18.352718,-33.923687,853.44 18.352381,-33.924454,853.44 18.350418,-33.928802,853.44 18.350029,-33.929783,853.44 18.348198,-33.933788,822.96 18.347729,-33.934982,822.96 18.346081,-33.939095,792.48 18.345598,-33.940155,792.48 18.343849,-33.94482,762 18.342705,-33.948174,762 18.34116,-33.952084,792.48 18.340611,-33.953384,792.48 18.336353,-33.964092,792.48 18.334444,-33.968903,792.48 18.326225,-33.989372,762 18.324802,-33.993027,792.48 18.32222,-34.001194,822.96 18.322048,-34.002033,822.96 18.321648,-34.005013,883.92 18.321608,-34.005615,883.92 18.321762,-34.00827,944.88 18.321934,-34.009064,944.88 18.322735,-34.011715,975.36 18.323065,-34.012436,975.36 18.32428,-34.015068,1005.84 18.324579,-34.015686,1036.32 18.326204,-34.018753,1036.32 18.326626,-34.019489,1036.32 18.328571,-34.022934,1066.8 18.328951,-34.023605,1066.8 18.331032,-34.027081,1066.8 18.331661,-34.028011,1066.8 18.333721,-34.031082,1066.8 18.334293,-34.031876,1066.8 18.33663,-34.035141,1066.8 18.337246,-34.035782,1066.8 18.340834,-34.037247,1097.28 18.341789,-34.036995,1066.8 18.343468,-34.033722,1066.8 18.343077,-34.032532,1066.8 18.339544,-34.029099,1066.8 18.338184,-34.028427,1066.8 18.333149,-34.026474,1066.8 18.331547,-34.025867,1066.8 18.326988,-34.023605,1066.8 18.325882,-34.022842,1066.8 18.322048,-34.019306,1036.32 18.321159,-34.018112,1005.84 18.319073,-34.013626,1005.84 18.318787,-34.012367,975.36 18.319815,-34.00708,944.88 18.320318,-34.006027,944.88 18.322906,-34.001011,944.88 18.323513,-33.999893,944.88 18.32634,-33.995098,914.4 18.326969,-33.994072,914.4 18.330015,-33.989502,883.92 18.330744,-33.988449,883.92 18.333549,-33.984112,914.4 18.334276,-33.982864,914.4 18.337326,-33.977734,914.4 18.337919,-33.97673,914.4 18.341675,-33.969585,914.4 18.34201,-33.968811,914.4 18.344364,-33.963676,914.4 18.344879,-33.962509,914.4 18.346825,-33.957951,914.4 18.347454,-33.956413,914.4 18.353558,-33.941437,822.96 18.355751,-33.936489,792.48 18.358841,-33.930622,762 18.359413,-33.929459,762 18.362022,-33.92482,731.52 18.362846,-33.9235,731.52 18.365936,-33.919079,731.52 18.366623,-33.918194,701.04 18.370375,-33.914017,670.56 18.371214,-33.913101,670.56 18.375137,-33.909119,640.08 18.376007,-33.908279,640.08 18.379898,-33.904694,640.08 18.380814,-33.9039,640.08 18.384991,-33.900318,609.6 18.385956,-33.899551,609.6 18.390272,-33.896027,609.6 18.391342,-33.895149,579.12 18.395485,-33.891769,579.12 18.396492,-33.890961,579.12 18.402958,-33.886166,548.64 18.404285,-33.885315,548.64 18.409386,-33.882751,518.16 18.410683,-33.882301,518.16 18.415665,-33.881195,518.16 18.416954,-33.881104,518.16 18.421661,-33.881332,487.68 18.42267,-33.881516,487.68 18.426764,-33.88266,487.68 18.427715,-33.883026,487.68 18.431303,-33.884903,457.2 18.432026,-33.885468,457.2 18.434443,-33.887604,426.72 18.434946,-33.888153,426.72 18.436947,-33.89082,365.76 18.437233,-33.891426,365.76 18.436909,-33.894058,304.8 18.436516,-33.894608,304.8 18.433714,-33.896393,243.84 18.432816,-33.896439,213.36 18.427792,-33.895428,152.4 18.426704,-33.895943,121.92 18.426704,-33.897896,91.44 18.426819,-33.898224,91.44 18.427162,-33.899712,91.44 18.427099,-33.899918,60.96 18.426975,-33.901062,0 18.427277,-33.901096,0 18.430967,-33.901337,121.92 18.431568,-33.901249,152.4 18.434443,-33.900284,213.36 18.435114,-33.900009,213.36 18.43786,-33.89827,274.32 18.438377,-33.897663,274.32 18.439936,-33.894196,335.28 18.440151,-33.893009,335.28 18.439636,-33.888725,365.76 18.439262,-33.887741,396.24 18.436684,-33.883804,396.24 18.436123,-33.883072,426.72 18.432367,-33.87941,426.72 18.431471,-33.878906,457.2 18.425903,-33.877647,487.68 18.424856,-33.877579,487.68 18.420067,-33.877598,518.16 18.418747,-33.877716,518.16 18.41383,-33.878437,548.64 18.412857,-33.878578,548.64 18.407936,-33.879555,579.12 18.406919,-33.879776,579.12 18.402557,-33.880905,609.6 18.401299,-33.881229,609.6 18.396832,-33.882706,640.08 18.395576,-33.883091,640.08 18.391058,-33.884903,670.56 18.389992,-33.885406,670.56 18.386078,-33.88747,701.04 18.38522,-33.887981,701.04 18.381443,-33.8904,701.04 18.380585,-33.891006,731.52 18.3771,-33.893646,731.52 18.376146,-33.894379,731.52 18.372917,-33.897243,762 18.372168,-33.897949,762 18.369083,-33.901062,792.48 18.368397,-33.90176,792.48 18.365192,-33.905437,792.48 18.364376,-33.906509,792.48 18.361702,-33.910141,822.96 18.361181,-33.910904,822.96 18.358955,-33.91433,822.96 18.35844,-33.91526,822.96 18.356552,-33.919216,822.96 18.356136,-33.920105,853.44 18.354378,-33.924057,853.44 18.353977,-33.925037,853.44 18.351917,-33.931087,822.96 18.351517,-33.932346,822.96 18.349634,-33.938004,822.96 18.349113,-33.939003,822.96 18.346832,-33.942673,822.96 18.346138,-33.943752,822.96 18.343449,-33.947941,792.48 18.342909,-33.948807,792.48 18.340588,-33.952736,792.48 18.339882,-33.954025,792.48 18.342964,-33.964096,762 18.34631,-33.964607,762 18.351974,-33.957016,731.52 18.352213,-33.955902,731.52 18.353062,-33.950642,701.04 18.353277,-33.949539,701.04 18.354063,-33.944595,701.04 18.354567,-33.942078,701.04 18.355751,-33.937279,701.04 18.356136,-33.935944,701.04 18.357986,-33.931412,701.04 18.358498,-33.930344,701.04 18.360844,-33.925781,701.04 18.361416,-33.924759,701.04 18.364151,-33.920334,701.04 18.364769,-33.919418,701.04 18.368053,-33.915215,670.56 18.368797,-33.914375,670.56 18.372059,-33.910698,670.56 18.373064,-33.909531,670.56 18.376579,-33.905857,640.08 18.377493,-33.904953,640.08 18.381584,-33.901199,640.08 18.382593,-33.90033,640.08 18.38665,-33.896965,640.08 18.387794,-33.89608,640.08 18.391729,-33.893188,640.08 18.392887,-33.892403,640.08 18.397694,-33.889191,640.08 18.398624,-33.888565,609.6 18.403702,-33.885605,609.6 18.404734,-33.88504,609.6 18.409723,-33.882614,609.6 18.410843,-33.882202,609.6 18.41572,-33.880783,579.12 18.416977,-33.880531,579.12 18.42211,-33.880417,548.64 18.423176,-33.880646,548.64 18.427048,-33.88216,518.16 18.428135,-33.882721,518.16 18.431568,-33.884674,487.68 18.43248,-33.885178,487.68 18.435843,-33.887238,457.2 18.436516,-33.887741,426.72 18.439543,-33.890305,335.28 18.439991,-33.890945,335.28 18.439318,-33.893784,274.32 18.438702,-33.894287,243.84 18.435339,-33.895935,182.88 18.434372,-33.896267,182.88 18.428879,-33.898129,121.92 18.427828,-33.898636,91.44 18.427212,-33.899826,91.44 18.427105,-33.900223,60.96 18.427734,-33.900597,91.44 18.428669,-33.900742,91.44 18.431339,-33.900875,121.92 18.432144,-33.900742,152.4 18.435171,-33.899734,213.36 18.43586,-33.899387,243.84 18.438534,-33.896851,274.32 18.438814,-33.896164,304.8 18.439262,-33.892181,335.28 18.43915,-33.891266,365.76 18.437637,-33.887192,396.24 18.437061,-33.886307,396.24 18.433971,-33.882908,457.2 18.432884,-33.881927,457.2 18.428192,-33.879833,518.16 18.426819,-33.879639,518.16 18.421719,-33.879364,548.64 18.420467,-33.879368,548.64 18.414974,-33.879463,579.12 18.413141,-33.879547,579.12 18.407986,-33.879776,640.08 18.406849,-33.879833,640.08 18.401651,-33.880417,670.56 18.400555,-33.880581,670.56 18.395576,-33.882069,670.56 18.394308,-33.882614,670.56 18.390217,-33.884628,701.04 18.388983,-33.885223,701.04 18.384386,-33.887604,731.52 18.383434,-33.888107,731.52 18.379326,-33.89045,731.52 18.378164,-33.891174,731.52 18.374348,-33.893753,762 18.373569,-33.894379,762 18.369942,-33.897385,762 18.369141,-33.898132,762 18.365946,-33.901291,762 18.364937,-33.902298,762 18.361988,-33.905437,792.48 18.361359,-33.906181,792.48 18.358498,-33.909767,822.96 18.357811,-33.910698,822.96 18.355295,-33.914612,822.96 18.354778,-33.915634,822.96 18.352718,-33.919682,822.96 18.352213,-33.920654,822.96 18.34997,-33.924911,822.96 18.349411,-33.926102,822.96 18.34734,-33.930344,822.96 18.346882,-33.931183,822.96 18.344021,-33.938675,822.96 18.343506,-33.939934,822.96 18.341059,-33.94931,822.96 18.340645,-33.951012,822.96 18.339096,-33.961166,822.96 18.340015,-33.963722,822.96 18.351372,-33.964233,762 18.352947,-33.9613,731.52 18.353405,-33.955341,731.52 18.35339,-33.953934,731.52 18.353348,-33.94873,701.04 18.353334,-33.9478,701.04 18.353445,-33.942307,670.56 18.353502,-33.941483,670.56 18.354118,-33.935852,670.56 18.354399,-33.934708,670.56 18.356152,-33.929691,670.56 18.356697,-33.928619,640.08 18.359127,-33.924339,640.08 18.359724,-33.923401,640.08 18.362413,-33.919601,670.56 18.363144,-33.918732,670.56 18.36668,-33.914654,640.08 18.367458,-33.913788,640.08 18.370991,-33.910309,640.08 18.372002,-33.909348,640.08 18.375755,-33.905685,640.08 18.376707,-33.904816,640.08 18.38047,-33.901249,640.08 18.381672,-33.900131,640.08 18.385506,-33.896873,640.08 18.386293,-33.896255,609.6 18.390656,-33.892822,609.6 18.391628,-33.892078,609.6 18.396263,-33.888821,579.12 18.397335,-33.888107,579.12 18.401875,-33.885361,548.64 18.403072,-33.884674,548.64 18.407707,-33.882114,548.64 18.409105,-33.881424,518.16 18.413887,-33.879833,518.16 18.415159,-33.879639,518.16 18.420067,-33.879974,487.68 18.421326,-33.880325,487.68 18.425417,-33.882065,487.68 18.426146,-33.882385,487.68 18.429733,-33.884171,487.68 18.43071,-33.884674,487.68 18.434105,-33.886505,426.72 18.434778,-33.886963,396.24 18.437244,-33.889069,365.76 18.437519,-33.88961,335.28 18.437405,-33.89259,274.32 18.437119,-33.893147,274.32 18.433434,-33.896347,182.88 18.432199,-33.896988,152.4 18.42905,-33.897991,121.92 18.428364,-33.898224,91.44 18.427162,-33.89962,91.44 18.427162,-33.90004,91.44 18.427362,-33.90062,0 18.427849,-33.900738,91.44 18.431225,-33.901386,152.4 18.431854,-33.90134,182.88 18.434385,-33.90065,274.32 18.435173,-33.900177,274.32 18.437576,-33.897476,335.28 18.43792,-33.896641,335.28 18.438759,-33.892365,396.24 18.438663,-33.891052,396.24 18.437469,-33.886047,457.2 18.436947,-33.884956,457.2 18.433714,-33.8806,487.68 18.432655,-33.879696,487.68 18.427334,-33.877785,548.64 18.426132,-33.877647,548.64 18.42099,-33.877487,579.12 18.419756,-33.877533,579.12 18.414516,-33.877834,609.6 18.412685,-33.878017,640.08 18.40748,-33.878586,670.56 18.406248,-33.878769,670.56 18.40147,-33.879696,701.04 18.399982,-33.880066,670.56 18.395004,-33.881462,701.04 18.393972,-33.88179,701.04 18.389568,-33.883652,731.52 18.388367,-33.884308,731.52 18.38405,-33.887329,762 18.383102,-33.888168,762 18.379784,-33.891193,762 18.37895,-33.891953,762 18.375755,-33.894928,792.48 18.374746,-33.895935,792.48 18.371429,-33.899292,822.96 18.370686,-33.900085,792.48 18.367538,-33.90353,822.96 18.366619,-33.904587,822.96 18.363367,-33.908524,822.96 18.36256,-33.90958,822.96 18.359756,-33.913212,822.96 18.359051,-33.914154,822.96 18.356323,-33.918098,822.96 18.355751,-33.918983,822.96 18.353277,-33.922806,822.96 18.352774,-33.92363,822.96 18.350195,-33.927521,822.96 18.349689,-33.928436,822.96 18.347504,-33.932373,822.96 18.346888,-33.933746,822.96 18.345095,-33.93782,822.96 18.344765,-33.938725,822.96 18.342876,-33.943516,822.96 18.342459,-33.944504,822.96 18.34005,-33.949722,853.44 18.339672,-33.950455,853.44 18.337498,-33.954502,914.4 18.337191,-33.95517,914.4 18.338299,-33.962978,944.88 18.341114,-33.964233,914.4 18.351173,-33.95953,853.44 18.351517,-33.958088,853.44 18.352547,-33.952923,792.48 18.352718,-33.95171,792.48 18.353691,-33.946125,762 18.353838,-33.945236,731.52 18.354893,-33.940025,731.52 18.355236,-33.938675,731.52 18.35701,-33.931366,701.04 18.357313,-33.930222,701.04 18.359108,-33.925369,670.56 18.359756,-33.924057,670.56 18.362358,-33.919968,670.56 18.363132,-33.918983,670.56 18.366507,-33.915253,640.08 18.367596,-33.914188,640.08 18.371429,-33.910793,609.6 18.372345,-33.91,609.6 18.376293,-33.906742,609.6 18.377493,-33.905731,609.6 18.381386,-33.902504,579.12 18.382593,-33.901611,609.6 18.386478,-33.898781,609.6 18.387583,-33.897995,609.6 18.392029,-33.894917,609.6 18.393076,-33.89415,579.12 18.397223,-33.891357,579.12 18.398323,-33.890682,579.12 18.402843,-33.887794,548.64 18.403816,-33.887238,548.64 18.408337,-33.884491,548.64 18.409653,-33.883793,518.16 18.414116,-33.881649,487.68 18.415375,-33.881229,487.68 18.420296,-33.880394,518.16 18.421213,-33.880463,518.16 18.425249,-33.881516,487.68 18.426132,-33.881927,487.68 18.429453,-33.883667,487.68 18.430367,-33.884209,457.2 18.433321,-33.886276,457.2 18.434143,-33.886955,426.72 18.436375,-33.889236,396.24 18.436832,-33.889935,365.76 18.437189,-33.892456,335.28 18.436909,-33.893143,304.8 18.434723,-33.895065,243.84 18.433971,-33.895428,243.84 18.43119,-33.896622,182.88 18.430519,-33.896942,152.4 18.42766,-33.899002,91.44 18.427505,-33.899292,91.44 18.426991,-33.900364,91.44 18.426933,-33.900597,60.96
        </coordinates>
      </LineString>
    </Placemark>
  </Document>
</kml>