<?xml version="1.0" encoding="UTF-8"?>
<kml xmlns="http://www.opengis.net/kml/2.2">
  <Document>
    <name>-/ZTHOT - Optimised</name>
    <description><![CDATA[Optimised flight path with 1322 points (decimated from 6607 original points). Source format: Standard KML]]></description>
    
    <Style id="flightPath">
      <LineStyle>
        <color>ff0000ff</color>
        <width>3</width>
      </LineStyle>
    </Style>
    
    <Placemark>
      <name>Flight Path</name>
      <description><![CDATA[<div style="width:220px; text-align:center;">
<div style="width:210px; text-align:center;">
<div style=" background: #000; color: #fff; font-size: 14px; text-align:left; border: 1px solid #000; padding: 2px 6px; text-shadow: 0 1px 0 #000; box-shadow: 0 1px 3px rgba(0,0,0,0.6); background: -webkit-gradient(linear, left top, left bottom, color-stop(0%,#808080), color-stop(2%,#303030), color-stop(100%,#0c0c0c));"><span style="font-size: 14px; font-weight: bold;"><a href="javascript:void(0);" style="color: #fff; cursor: pointer;text-decoration: none;">-</a></span> / ZTHOT<br/>Cape Town Helicopters</div>

<div style="border-top: 1px solid #005c90; color: #fff; padding-bottom: 5px; box-shadow: 0 0 1px #9BE3F6 inset, 0 1px 0 #9BE3F6 inset, 0 -1px 3px rgba(0,0,0,0.4); background:rgba(43,114,173,1); background: -webkit-gradient(linear, left top, left bottom, color-stop(0%,rgba(92,184,229,1)), color-stop(100%,rgba(43,114,173,1)));">
<a style="text-decoration: none; color: rgb(255, 255, 255); font-size: 12px; width:77px; display: inline-block;" title=" Airport" href="javascript:void(0);/departures"><h3 style="padding: 0px; margin: 10px 0px 0px; font-size: 16px; ">?</h3></a>
<span style="background: url(https://www.flightradar24.com/static/images/userUI_sprite.png?14) no-repeat scroll 0 -464px rgba(0, 0, 0, 0); border: medium none; display: inline-block; height: 16px; width: 45px;"></span>
<a style="text-decoration: none; color: rgb(255, 255, 255); font-size: 12px; width:77px; display: inline-block;" title="Cape Town Airport" href="https://www.flightradar24.com/airport/cpt/arrivals"><h3 style="padding: 0px; margin: 10px 0px 0px; font-size: 16px;">CPT</h3>Cape Town</a>
<div style=" margin-top:10px;">
<div style="display: inline-block; font-size: 12px; padding: 0 5px;">
<div>
<span style="color: #c1eaff;" title="Actual Time of Departure">ATD </span>
<span title="2025-04-15 13:47">13:47</span> <span title="Coordinated Universal Time">UTC</span>
</div>
</div>
<div style="display: inline-block; font-size: 12px; padding: 0 5px;">
<div>
<span style="color: #c1eaff;" title="Estimated Time of Arrival">ETA </span>
<span title="2025-04-15 14:02">14:02</span> <span title="Coordinated Universal Time">UTC</span>
</div>
</div>
</div>
<br style="clear: both;"/>
</div>

<div style="display: block;">
<table style="border-collapse: collapse; width: 100%;">
<tr style="border-right: 1px solid #dadada; ">
<td style="background: none repeat scroll 0 0 #dadada; padding: 0; width: 31px;">
<span style="background: url(https://www.flightradar24.com/static/images/userUI_sprite.png?14) no-repeat scroll -208px -464px rgba(0, 0, 0, 0); height: 26px; margin: 8px 0 0 4px; width: 23px; display: block;"></span>
</td>
<td colspan="2" style="border-bottom: 1px solid #dadada; border-left: 1px solid #dadada; color: #666; line-height: 1.1em; padding: 3px 6px; vertical-align: top; font-size: 14px;">
Aircraft<span style="float: right; font-size: 12px;">(AS50)</span><br>
<span style="color: #333; font-size: 16px; font-weight: bold; line-height: 1.3em;">Airbus Helicopters H125</span>
</td>
</tr>
<tr style="border-right: 1px solid #dadada; ">
<td style="background: none repeat scroll 0 0 #dadada; padding: 0; width: 31px;">
<td colspan="2" style="border-bottom: 1px solid #dadada; border-left: 1px solid #dadada; color: #666; line-height: 1.1em; padding: 3px 6px; vertical-align: top; font-size: 14px;">
Registration<br>
<span style="color: #333; font-size: 16px; font-weight: bold; line-height: 1.3em;"><a href="https://www.flightradar24.com/reg/zt-hot" style="text-decoration: none; color: #333;">ZT-HOT</a></span>
</td>
</tr>
</table>
</div>

</div>
</div>]]></description>
      <styleUrl>#flightPath</styleUrl>
      <LineString>
        <extrude>1</extrude>
        <tessellate>1</tessellate>
        <altitudeMode>absolute</altitudeMode>
        <coordinates>
          18.431135,-33.902023,60.96 18.437576,-33.902134,182.88 18.44141,-33.899712,182.88 18.444139,-33.895111,243.84 18.443073,-33.889252,243.84 18.438421,-33.882523,274.32 18.432598,-33.877132,274.32 18.42581,-33.873734,304.8 18.418354,-33.872223,304.8 18.411013,-33.872223,304.8 18.403502,-33.873367,335.28 18.396214,-33.875244,335.28 18.39044,-33.877121,365.76 18.383434,-33.880051,396.24 18.377829,-33.883072,426.72 18.372974,-33.886585,457.2 18.368282,-33.890682,487.68 18.36422,-33.894917,487.68 18.360956,-33.899094,518.16 18.357754,-33.90395,518.16 18.354549,-33.909161,518.16 18.351988,-33.914017,548.64 18.349514,-33.919125,579.12 18.349354,-33.92308,701.04 18.351746,-33.924896,762 18.354511,-33.924042,792.48 18.354624,-33.92157,822.96 18.351688,-33.921963,822.96 18.35025,-33.926559,792.48 18.349342,-33.932438,762 18.348484,-33.938492,762 18.345165,-33.955204,701.04 18.340073,-33.980293,731.52 18.339844,-33.992676,792.48 18.340778,-33.998383,792.48 18.341846,-34.003242,792.48 18.343019,-34.007538,762 18.344994,-34.014511,731.52 18.347336,-34.024887,701.04 18.347841,-34.029877,731.52 18.347855,-34.035458,731.52 18.347504,-34.041092,701.04 18.346767,-34.046722,701.04 18.34528,-34.052776,701.04 18.342762,-34.058037,701.04 18.339264,-34.062927,701.04 18.334751,-34.067673,701.04 18.332706,-34.072037,792.48 18.334637,-34.071815,822.96 18.335398,-34.06842,822.96 18.332539,-34.065216,853.44 18.328457,-34.066833,853.44 18.327141,-34.071396,853.44 18.327158,-34.076614,883.92 18.327829,-34.082199,853.44 18.328615,-34.087143,822.96 18.329847,-34.092361,792.48 18.331375,-34.097092,762 18.333149,-34.101795,731.52 18.335285,-34.106827,701.04 18.338087,-34.112778,670.56 18.343918,-34.126282,609.6 18.34543,-34.131134,609.6 18.346888,-34.136353,609.6 18.349859,-34.146652,579.12 18.35182,-34.151047,579.12 18.354174,-34.155807,548.64 18.356781,-34.160358,518.16 18.359612,-34.164688,518.16 18.362217,-34.168552,518.16 18.367683,-34.175858,518.16 18.374577,-34.184471,518.16 18.378502,-34.188583,518.16 18.381958,-34.193737,518.16 18.383938,-34.198151,518.16 18.3859,-34.203049,548.64 18.390369,-34.214127,518.16 18.395653,-34.228226,548.64 18.397694,-34.232327,548.64 18.402716,-34.242279,579.12 18.410172,-34.255463,579.12 18.423843,-34.275761,579.12 18.433571,-34.288982,579.12 18.445702,-34.303318,548.64 18.452969,-34.310814,548.64 18.463497,-34.320683,579.12 18.470707,-34.326176,579.12 18.47517,-34.329342,548.64 18.492737,-34.340744,548.64 18.504009,-34.34787,579.12 18.506813,-34.351456,579.12 18.506298,-34.356251,579.12 18.50338,-34.361698,579.12 18.497894,-34.366058,579.12 18.490271,-34.368622,548.64 18.482031,-34.369217,548.64 18.472837,-34.36734,548.64 18.466225,-34.362762,548.64 18.457705,-34.35997,548.64 18.454453,-34.365692,548.64 18.45933,-34.367981,548.64 18.465158,-34.368027,548.64 18.471165,-34.367935,518.16 18.485413,-34.368259,518.16 18.494854,-34.368168,548.64 18.500473,-34.366058,548.64 18.504507,-34.36116,518.16 18.504524,-34.354855,518.16 18.501492,-34.348148,518.16 18.496548,-34.341614,518.16 18.491392,-34.335388,518.16 18.487299,-34.325867,518.16 18.486614,-34.319382,548.64 18.486963,-34.313049,548.64 18.487579,-34.30632,579.12 18.48856,-34.297268,548.64 18.490999,-34.274734,548.64 18.491112,-34.262192,548.64 18.490664,-34.255188,548.64 18.489876,-34.245502,579.12 18.488028,-34.23436,579.12 18.486271,-34.227673,579.12 18.483994,-34.220764,579.12 18.481302,-34.213715,579.12 18.478107,-34.207031,579.12 18.47452,-34.200394,548.64 18.467617,-34.187592,579.12 18.462753,-34.183914,670.56 18.460003,-34.185379,640.08 18.460979,-34.186752,640.08 18.461123,-34.184235,609.6 18.458376,-34.178879,548.64 18.457199,-34.172379,518.16 18.457705,-34.164597,518.16 18.458881,-34.158142,518.16 18.460751,-34.151325,518.16 18.462749,-34.145554,518.16 18.464935,-34.139877,518.16 18.469194,-34.129944,518.16 18.476601,-34.113991,518.16 18.478832,-34.106869,518.16 18.479576,-34.100025,518.16 18.479788,-34.093323,487.68 18.480377,-34.082569,487.68 18.481358,-34.076431,487.68 18.482723,-34.069813,457.2 18.48547,-34.050449,457.2 18.486729,-34.026985,518.16 18.486843,-34.003292,457.2 18.487644,-33.995937,426.72 18.488646,-33.989182,396.24 18.491112,-33.965012,396.24 18.490664,-33.957779,396.24 18.488813,-33.950638,365.76 18.486214,-33.943657,335.28 18.483181,-33.936909,304.8 18.479347,-33.930202,304.8 18.47452,-33.924179,304.8 18.468647,-33.918472,274.32 18.462749,-33.913101,274.32 18.454742,-33.903809,274.32 18.449993,-33.897385,274.32 18.441181,-33.889656,213.36 18.434143,-33.889145,152.4 18.431471,-33.891815,121.92 18.43174,-33.894451,91.44 18.430767,-33.896641,30.48 18.428879,-33.898174,0 18.427334,-33.899853,0 18.428949,-33.901978,0 18.434498,-33.902618,121.92 18.438086,-33.901932,152.4 18.441336,-33.898911,182.88 18.442268,-33.89394,213.36 18.440439,-33.888474,274.32 18.436375,-33.883141,274.32 18.430767,-33.878998,304.8 18.424015,-33.876621,335.28 18.41729,-33.876068,335.28 18.408909,-33.876808,365.76 18.40238,-33.878082,365.76 18.395933,-33.879913,365.76 18.389544,-33.882156,396.24 18.383715,-33.884811,396.24 18.378054,-33.888245,426.72 18.373547,-33.891613,487.68 18.369141,-33.895386,518.16 18.365833,-33.898819,548.64 18.362022,-33.903168,579.12 18.358715,-33.907516,640.08 18.355637,-33.912281,670.56 18.352833,-33.917263,701.04 18.350363,-33.922119,731.52 18.350544,-33.926014,853.44 18.353519,-33.926712,883.92 18.355911,-33.92482,914.4 18.355801,-33.921753,944.88 18.350887,-33.921127,883.92 18.346384,-33.925598,883.92 18.344135,-33.931786,822.96 18.341961,-33.939281,792.48 18.338299,-33.951897,792.48 18.333035,-33.974335,792.48 18.331978,-33.990509,762 18.332291,-33.995983,731.52 18.333092,-34.001335,731.52 18.333996,-34.006256,701.04 18.33506,-34.011108,670.56 18.337023,-34.018158,670.56 18.339901,-34.02787,670.56 18.340834,-34.033218,670.56 18.341503,-34.038811,701.04 18.340946,-34.044434,701.04 18.339729,-34.049564,701.04 18.338144,-34.055145,731.52 18.336575,-34.06041,762 18.334179,-34.066322,822.96 18.335846,-34.068329,914.4 18.337639,-34.066452,914.4 18.340759,-34.064602,914.4 18.345852,-34.065392,914.4 18.351036,-34.067642,883.92 18.356081,-34.071075,883.92 18.360386,-34.074703,853.44 18.364321,-34.078171,822.96 18.368053,-34.081871,792.48 18.373793,-34.08783,762 18.388309,-34.103752,670.56 18.392626,-34.107559,640.08 18.39695,-34.11092,640.08 18.401871,-34.114273,609.6 18.407192,-34.116879,609.6 18.412514,-34.118786,579.12 18.418411,-34.12056,579.12 18.424416,-34.121952,548.64 18.430407,-34.122757,548.64 18.436375,-34.12307,518.16 18.442289,-34.12294,487.68 18.449135,-34.122044,487.68 18.455462,-34.120605,487.68 18.46146,-34.1185,487.68 18.467674,-34.115437,487.68 18.472277,-34.110947,487.68 18.476372,-34.105473,518.16 18.478775,-34.100166,518.16 18.479805,-34.093464,487.68 18.480148,-34.087597,518.16 18.481022,-34.077713,518.16 18.482208,-34.070793,518.16 18.48444,-34.055428,548.64 18.485674,-34.036148,518.16 18.486614,-34.013905,518.16 18.486214,-33.994865,487.68 18.483181,-33.988953,518.16 18.485561,-33.979111,457.2 18.487644,-33.97308,426.72 18.488981,-33.965149,365.76 18.488813,-33.958237,365.76 18.48674,-33.951553,335.28 18.484552,-33.945511,335.28 18.480606,-33.932812,335.28 18.476772,-33.925922,335.28 18.471998,-33.92038,304.8 18.466587,-33.915352,304.8 18.460842,-33.910034,304.8 18.450623,-33.899853,304.8 18.445765,-33.893967,304.8 18.43935,-33.889004,243.84 18.433657,-33.889206,182.88 18.431683,-33.892544,121.92 18.430195,-33.89566,60.96 18.428822,-33.897804,30.48 18.427435,-33.899689,0 18.42717,-33.900902,0 18.433571,-33.901714,121.92 18.437077,-33.900925,182.88 18.440266,-33.897709,213.36 18.440952,-33.892078,243.84 18.439064,-33.886074,243.84 18.435516,-33.880531,274.32 18.430294,-33.875839,304.8 18.423214,-33.872757,335.28 18.415775,-33.871548,365.76 18.409252,-33.871548,396.24 18.40147,-33.872807,396.24 18.395061,-33.874851,426.72 18.389282,-33.877132,487.68 18.383883,-33.879913,518.16 18.378525,-33.883186,548.64 18.373718,-33.886631,579.12 18.369083,-33.890587,579.12 18.365078,-33.894638,609.6 18.361759,-33.898689,640.08 18.358267,-33.903854,640.08 18.355463,-33.908569,640.08 18.352718,-33.913723,670.56 18.350086,-33.919266,670.56 18.346825,-33.92662,670.56 18.337326,-33.947289,731.52 18.339321,-33.952835,762 18.345095,-33.953888,762 18.350029,-33.950687,731.52 18.351631,-33.945286,762 18.352381,-33.939606,731.52 18.353577,-33.933834,731.52 18.356024,-33.926926,701.04 18.359013,-33.921265,670.56 18.362389,-33.916004,670.56 18.366282,-33.911133,670.56 18.369925,-33.906464,640.08 18.38213,-33.890587,609.6 18.386629,-33.886642,579.12 18.392122,-33.88298,579.12 18.398438,-33.88002,548.64 18.404675,-33.878437,548.64 18.411255,-33.878067,518.16 18.41795,-33.87867,518.16 18.4235,-33.880066,487.68 18.427963,-33.882442,426.72 18.430195,-33.885559,335.28 18.431358,-33.889206,274.32 18.432367,-33.89241,182.88 18.433208,-33.895294,121.92 18.428782,-33.89859,30.48 18.427219,-33.900085,0 18.428053,-33.901154,0 18.431396,-33.901714,60.96 18.437357,-33.901978,152.4 18.441467,-33.900085,213.36 18.444901,-33.896591,243.84 18.4461,-33.891861,274.32 18.445597,-33.886551,335.28 18.442064,-33.881882,365.76 18.436146,-33.878624,396.24 18.430023,-33.876667,457.2 18.423557,-33.875458,487.68 18.417091,-33.874851,518.16 18.409939,-33.87476,548.64 18.403221,-33.875153,579.12 18.396662,-33.876068,579.12 18.390217,-33.87767,609.6 18.384108,-33.879959,609.6 18.378181,-33.882812,609.6 18.372345,-33.886211,609.6 18.367195,-33.890217,609.6 18.362246,-33.894974,609.6 18.358097,-33.899853,609.6 18.354063,-33.905319,609.6 18.35043,-33.910511,640.08 18.347168,-33.915771,670.56 18.344307,-33.921078,670.56 18.341846,-33.926338,701.04 18.338013,-33.936348,731.52 18.333206,-33.948917,883.92 18.325653,-33.96619,975.36 18.322105,-33.972565,1036.32 18.319141,-33.977737,1066.8 18.312696,-33.9879,1097.28 18.308315,-33.991375,1097.28 18.306643,-33.996185,1127.76 18.311119,-33.998402,1097.28 18.316956,-33.997421,1036.32 18.321608,-33.99408,1036.32 18.325081,-33.989464,1036.32 18.328503,-33.984741,1036.32 18.334837,-33.975311,1036.32 18.337694,-33.970047,1066.8 18.340244,-33.964699,1036.32 18.342516,-33.959244,975.36 18.344141,-33.953613,975.36 18.345337,-33.948452,944.88 18.347504,-33.940933,914.4 18.349686,-33.935463,853.44 18.352381,-33.930176,822.96 18.355751,-33.92527,792.48 18.360386,-33.919777,731.52 18.364769,-33.914886,701.04 18.368912,-33.910606,670.56 18.376579,-33.903252,579.12 18.381271,-33.899292,579.12 18.386124,-33.895432,579.12 18.395037,-33.888931,548.64 18.40004,-33.885746,548.64 18.405647,-33.882999,548.64 18.411541,-33.881512,487.68 18.416748,-33.881046,457.2 18.422054,-33.88147,396.24 18.426876,-33.882908,335.28 18.429846,-33.885452,274.32 18.431625,-33.888351,243.84 18.43276,-33.890808,182.88 18.433546,-33.89328,121.92 18.433342,-33.895245,91.44 18.430014,-33.89534,30.48 18.427849,-33.896545,30.48 18.427435,-33.898087,0 18.427099,-33.900055,0 18.431339,-33.90176,60.96 18.434555,-33.902023,121.92 18.43832,-33.901436,182.88 18.442211,-33.899105,213.36 18.445316,-33.895294,243.84 18.446331,-33.889935,274.32 18.444027,-33.884811,335.28 18.439178,-33.880859,335.28 18.433685,-33.876995,365.76 18.42762,-33.873131,396.24 18.421213,-33.871719,457.2 18.414745,-33.871593,487.68 18.408321,-33.87204,518.16 18.4021,-33.873039,548.64 18.395597,-33.874603,548.64 18.389544,-33.876663,548.64 18.383657,-33.879593,579.12 18.378054,-33.882797,579.12 18.372952,-33.886597,579.12 18.367851,-33.891357,579.12 18.364048,-33.89566,609.6 18.360443,-33.900455,579.12 18.356724,-33.905437,579.12 18.351574,-33.913212,609.6 18.348625,-33.918686,579.12 18.346046,-33.923996,579.12 18.343019,-33.93251,609.6 18.345623,-33.935978,640.08 18.350363,-33.93631,640.08 18.354567,-33.93457,640.08 18.358212,-33.931648,609.6 18.360043,-33.928528,609.6 18.356642,-33.926926,579.12 18.352718,-33.930622,548.64 18.349171,-33.936676,548.64 18.34672,-33.941116,548.64 18.334499,-33.962082,609.6 18.324018,-33.980209,701.04 18.3183,-33.990005,822.96 18.317291,-33.994583,853.44 18.316788,-33.999207,883.92 18.3169,-34.003464,944.88 18.317928,-34.007015,1036.32 18.319244,-34.010551,1066.8 18.321247,-34.014744,1036.32 18.323193,-34.018841,1036.32 18.328558,-34.030746,1005.84 18.329887,-34.035271,975.36 18.331024,-34.039856,975.36 18.333492,-34.049145,1036.32 18.335552,-34.054916,1066.8 18.338013,-34.059525,1066.8 18.341114,-34.063385,1097.28 18.344814,-34.066864,1097.28 18.349113,-34.07056,1127.76 18.357313,-34.077576,1097.28 18.366451,-34.08606,1066.8 18.370205,-34.090302,1005.84 18.37904,-34.099655,914.4 18.385788,-34.105957,822.96 18.390198,-34.109478,792.48 18.394775,-34.11264,762 18.399467,-34.115482,731.52 18.404446,-34.118088,670.56 18.409767,-34.120789,640.08 18.421612,-34.126656,548.64 18.436909,-34.134613,487.68 18.44257,-34.135941,487.68 18.448679,-34.135162,487.68 18.454514,-34.13224,487.68 18.459721,-34.128654,487.68 18.464542,-34.124496,487.68 18.469505,-34.120277,487.68 18.476143,-34.113712,487.68 18.479059,-34.107468,487.68 18.480742,-34.101013,487.68 18.481636,-34.094532,457.2 18.481806,-34.087097,457.2 18.481522,-34.079498,426.72 18.482311,-34.06279,426.72 18.483601,-34.038391,426.72 18.484497,-34.014771,396.24 18.485561,-33.988907,335.28 18.486235,-33.962036,274.32 18.485451,-33.954391,243.84 18.48381,-33.947613,243.84 18.481638,-33.940338,243.84 18.479397,-33.933746,213.36 18.475685,-33.927036,213.36 18.47002,-33.921406,213.36 18.46447,-33.916798,213.36 18.458769,-33.912689,213.36 18.450394,-33.905064,213.36 18.445129,-33.898827,152.4 18.438492,-33.891659,121.92 18.431751,-33.890076,121.92 18.428724,-33.893555,91.44 18.428276,-33.895935,30.48 18.427715,-33.897537,30.48 18.427048,-33.900177,0 18.429398,-33.901703,30.48 18.433266,-33.90239,121.92 18.437347,-33.901806,182.88 18.441336,-33.899139,213.36 18.443914,-33.894608,274.32 18.44347,-33.889053,304.8 18.43998,-33.883511,335.28 18.434891,-33.879547,365.76 18.428593,-33.876621,426.72 18.422279,-33.874741,487.68 18.415833,-33.873962,518.16 18.409105,-33.873779,548.64 18.402325,-33.874191,579.12 18.395519,-33.875366,609.6 18.389626,-33.876995,640.08 18.38356,-33.879276,670.56 18.377724,-33.882069,701.04 18.371494,-33.885681,701.04 18.365936,-33.889378,670.56 18.360397,-33.893555,670.56 18.355122,-33.897991,701.04 18.350643,-33.902573,731.52 18.346825,-33.907394,731.52 18.343748,-33.91214,762 18.340778,-33.917633,792.48 18.339096,-33.923355,792.48 18.336353,-33.929317,792.48 18.330116,-33.933044,853.44 18.328558,-33.939011,853.44 18.332748,-33.943844,853.44 18.339214,-33.94659,822.96 18.345909,-33.946777,822.96 18.351484,-33.943405,822.96 18.354893,-33.938442,822.96 18.357925,-33.933136,792.48 18.362103,-33.925922,762 18.367907,-33.917725,701.04 18.37228,-33.912735,670.56 18.376923,-33.907997,609.6 18.381901,-33.903156,548.64 18.387165,-33.898548,548.64 18.393059,-33.894592,518.16 18.399185,-33.891174,487.68 18.40559,-33.888351,457.2 18.411461,-33.886322,426.72 18.417778,-33.884815,365.76 18.423729,-33.884117,335.28 18.428936,-33.885746,274.32 18.431751,-33.88884,213.36 18.433685,-33.892124,121.92 18.432598,-33.894917,91.44 18.428078,-33.897991,30.48 18.427219,-33.899899,0 18.427155,-33.901062,0 18.434143,-33.902134,91.44 18.438549,-33.90176,152.4 18.442841,-33.899666,213.36 18.44656,-33.895893,243.84 18.448162,-33.890121,304.8 18.446606,-33.884583,335.28 18.442726,-33.879322,365.76 18.43646,-33.875656,396.24 18.429398,-33.873459,426.72 18.421886,-33.872406,457.2 18.414402,-33.872105,487.68 18.407478,-33.872478,518.16 18.400642,-33.873505,548.64 18.394661,-33.874992,548.64 18.388535,-33.876938,579.12 18.382816,-33.87923,609.6 18.376484,-33.882385,640.08 18.370934,-33.885818,670.56 18.36533,-33.89003,670.56 18.360672,-33.89436,670.56 18.356417,-33.899277,701.04 18.352716,-33.904083,701.04 18.349354,-33.909119,701.04 18.346367,-33.914375,701.04 18.343735,-33.919544,701.04 18.339153,-33.927979,701.04 18.335209,-33.932716,701.04 18.330856,-33.93631,731.52 18.332291,-33.94212,762 18.337612,-33.944031,762 18.34465,-33.944122,762 18.350258,-33.941097,762 18.353615,-33.936447,731.52 18.35681,-33.931503,701.04 18.361855,-33.924591,670.56 18.366394,-33.919403,640.08 18.370878,-33.914795,609.6 18.381977,-33.90303,518.16 18.389912,-33.896408,518.16 18.395372,-33.893234,518.16 18.401299,-33.890774,487.68 18.406864,-33.889114,518.16 18.412413,-33.887604,487.68 18.41795,-33.886353,457.2 18.423157,-33.8857,426.72 18.426819,-33.886631,396.24 18.429279,-33.88868,304.8 18.430882,-33.891052,243.84 18.431911,-33.893101,182.88 18.432713,-33.895245,121.92 18.429852,-33.896175,60.96 18.427435,-33.897995,30.48 18.427155,-33.899597,0 18.426991,-33.900959,0 18.433096,-33.902481,91.44 18.436964,-33.902344,152.4 18.441296,-33.900364,213.36 18.444386,-33.896034,243.84 18.445036,-33.890762,304.8 18.442738,-33.885315,335.28 18.438663,-33.881092,396.24 18.432537,-33.877808,426.72 18.425674,-33.875271,457.2 18.41914,-33.873688,487.68 18.411348,-33.872498,518.16 18.404453,-33.872086,548.64 18.397728,-33.872269,579.12 18.391285,-33.87355,579.12 18.385105,-33.875736,609.6 18.379383,-33.878483,609.6 18.373793,-33.881882,640.08 18.368748,-33.88559,670.56 18.363815,-33.889847,701.04 18.359388,-33.894058,731.52 18.355122,-33.898548,731.52 18.345909,-33.908695,731.52 18.342705,-33.91354,731.52 18.339432,-33.919601,731.52 18.337416,-33.925049,731.52 18.331585,-33.936996,701.04 18.327438,-33.940842,731.52 18.320766,-33.947525,762 18.323765,-33.95134,731.52 18.330059,-33.95348,670.56 18.336517,-33.954117,640.08 18.343563,-33.953106,609.6 18.349411,-33.949677,609.6 18.353165,-33.945053,609.6 18.355688,-33.939926,609.6 18.358154,-33.934765,609.6 18.364321,-33.923401,579.12 18.367996,-33.918564,548.64 18.371775,-33.914017,548.64 18.376036,-33.909302,548.64 18.380699,-33.904972,518.16 18.386021,-33.900829,487.68 18.391394,-33.897034,487.68 18.397064,-33.89352,487.68 18.402615,-33.8904,487.68 18.407764,-33.887703,457.2 18.413311,-33.885269,457.2 18.419083,-33.88353,457.2 18.424128,-33.882935,426.72 18.428192,-33.884163,365.76 18.430252,-33.886955,274.32 18.431639,-33.890076,213.36 18.432484,-33.892731,121.92 18.429108,-33.896267,60.96 18.427677,-33.898129,30.48 18.427448,-33.899807,0 18.433285,-33.902458,121.92 18.435116,-33.902645,152.4 18.438253,-33.90184,182.88 18.439095,-33.901474,182.88 18.442064,-33.898911,213.36 18.442795,-33.897903,213.36 18.444307,-33.89415,243.84 18.444271,-33.893101,243.84 18.442289,-33.887878,243.84 18.441238,-33.886307,243.84 18.437576,-33.881557,274.32 18.43626,-33.880161,274.32 18.431511,-33.876434,274.32 18.430023,-33.875599,274.32 18.424416,-33.873318,304.8 18.422895,-33.87291,304.8 18.41692,-33.872154,304.8 18.41572,-33.872086,304.8 18.409653,-33.872387,304.8 18.407936,-33.872574,335.28 18.401875,-33.873734,335.28 18.400955,-33.87397,335.28 18.395348,-33.875504,335.28 18.39386,-33.875977,365.76 18.388702,-33.877762,365.76 18.387806,-33.878082,396.24 18.382301,-33.880581,396.24 18.381023,-33.881241,426.72 18.376764,-33.883759,426.72 18.375643,-33.884537,426.72 18.372059,-33.887329,457.2 18.371046,-33.888153,457.2 18.367481,-33.891472,487.68 18.36673,-33.892227,487.68 18.36376,-33.895477,487.68 18.362806,-33.896622,487.68 18.360004,-33.900467,518.16 18.359444,-33.901291,518.16 18.356865,-33.905411,518.16 18.356417,-33.906052,518.16 18.354063,-33.909988,548.64 18.353445,-33.911179,548.64 18.351574,-33.914886,548.64 18.351036,-33.915985,548.64 18.348961,-33.92038,579.12 18.348793,-33.921112,609.6 18.349686,-33.923592,701.04 18.350029,-33.924011,731.52 18.352375,-33.924942,762 18.352997,-33.924911,762 18.354792,-33.92363,792.48 18.354959,-33.923172,792.48 18.354174,-33.921249,822.96 18.35367,-33.921066,822.96 18.351259,-33.922668,822.96 18.350979,-33.923218,822.96 18.350082,-33.927567,792.48 18.349859,-33.929031,792.48 18.349228,-33.933231,762 18.349073,-33.934341,762 18.347797,-33.94305,731.52 18.347055,-33.946884,731.52 18.343525,-33.961075,701.04 18.342247,-33.966793,731.52 18.339729,-33.983646,762 18.339558,-33.987278,792.48 18.339937,-33.993484,792.48 18.340218,-33.995087,792.48 18.340946,-33.999344,792.48 18.34116,-34.000404,792.48 18.342133,-34.004269,792.48 18.342348,-34.005112,792.48 18.343277,-34.008503,762 18.343506,-34.009251,762 18.345879,-34.018112,731.52 18.346607,-34.021088,731.52 18.347448,-34.025711,701.04 18.347616,-34.026855,701.04 18.347897,-34.030746,731.52 18.347897,-34.031982,731.52 18.347841,-34.036377,731.52 18.347784,-34.037384,731.52 18.347393,-34.042236,701.04 18.347281,-34.043243,701.04 18.346552,-34.04805,701.04 18.34631,-34.049099,701.04 18.344879,-34.053894,701.04 18.344421,-34.054962,701.04 18.342133,-34.059109,701.04 18.341446,-34.060085,701.04 18.338299,-34.064087,701.04 18.337526,-34.064896,701.04 18.333828,-34.068695,731.52 18.332863,-34.070328,762 18.332977,-34.072327,792.48 18.333378,-34.072468,822.96 18.335005,-34.071213,822.96 18.335209,-34.070698,822.96 18.335266,-34.067719,822.96 18.334866,-34.066788,853.44 18.331661,-34.065113,853.44 18.330688,-34.065216,853.44 18.328054,-34.067596,853.44 18.327717,-34.06842,853.44 18.327045,-34.072403,853.44 18.327026,-34.073631,853.44 18.327269,-34.077805,883.92 18.32737,-34.078892,853.44 18.327999,-34.083359,853.44 18.32811,-34.084213,853.44 18.328838,-34.088242,822.96 18.329006,-34.089203,822.96 18.330116,-34.093323,792.48 18.330353,-34.094055,792.48 18.331718,-34.097977,762 18.332033,-34.098907,762 18.333607,-34.102959,731.52 18.334007,-34.103935,731.52 18.335724,-34.107662,701.04 18.336582,-34.109615,670.56 18.339443,-34.115528,640.08 18.341227,-34.119324,640.08 18.34425,-34.127258,609.6 18.344589,-34.128296,609.6 18.345711,-34.132095,609.6 18.346081,-34.133217,609.6 18.347113,-34.137268,609.6 18.347454,-34.138432,609.6 18.35014,-34.147339,579.12 18.350531,-34.148254,579.12 18.352375,-34.152119,548.64 18.352833,-34.153049,548.64 18.354734,-34.156815,548.64 18.35524,-34.157776,548.64 18.357296,-34.161198,518.16 18.357874,-34.162125,518.16 18.36006,-34.165421,518.16 18.36062,-34.166245,518.16 18.362864,-34.169403,518.16 18.363647,-34.17041,518.16 18.369541,-34.178375,518.16 18.371429,-34.18084,518.16 18.375362,-34.185287,518.16 18.376316,-34.18634,487.68 18.379286,-34.189407,518.16 18.380463,-34.191055,518.16 18.382425,-34.194717,518.16 18.382816,-34.195599,518.16 18.384247,-34.199043,518.16 18.384705,-34.200161,548.64 18.386236,-34.203918,548.64 18.386478,-34.204536,548.64 18.391338,-34.216919,518.16 18.391972,-34.218967,548.64 18.396046,-34.228958,548.64 18.396435,-34.229767,548.64 18.398176,-34.233307,548.64 18.398438,-34.233864,548.64 18.404173,-34.24498,579.12 18.405519,-34.247406,579.12 18.411827,-34.258118,579.12 18.413429,-34.260632,579.12 18.425732,-34.278461,579.12 18.427734,-34.281162,579.12 18.436375,-34.292519,579.12 18.438589,-34.295242,548.64 18.447334,-34.305038,548.64 18.448008,-34.305725,548.64 18.455086,-34.312908,548.64 18.457985,-34.315567,579.12 18.465496,-34.322342,579.12 18.468298,-34.324493,579.12 18.471661,-34.326874,579.12 18.472481,-34.327435,548.64 18.478031,-34.331345,548.64 18.482086,-34.334061,548.64 18.495764,-34.342621,548.64 18.499407,-34.344727,548.64 18.504524,-34.348289,579.12 18.505348,-34.348984,579.12 18.506927,-34.352245,579.12 18.506973,-34.353241,579.12 18.50584,-34.357414,579.12 18.50544,-34.358391,579.12 18.502579,-34.362579,579.12 18.501663,-34.363464,579.12 18.496628,-34.366676,579.12 18.495312,-34.367237,579.12 18.488756,-34.368896,548.64 18.487076,-34.369125,548.64 18.480263,-34.369053,548.64 18.478317,-34.368771,548.64 18.471451,-34.366772,548.64 18.469734,-34.365887,548.64 18.464985,-34.361416,548.64 18.463814,-34.360519,548.64 18.456688,-34.360485,518.16 18.455462,-34.361526,518.16 18.455181,-34.366837,548.64 18.456287,-34.367561,548.64 18.460506,-34.368027,548.64 18.461552,-34.368027,548.64 18.466244,-34.368027,518.16 18.467625,-34.367981,518.16 18.472481,-34.367889,518.16 18.473679,-34.367889,548.64 18.486729,-34.368355,518.16 18.491364,-34.368538,518.16 18.495987,-34.367935,548.64 18.497314,-34.367561,548.64 18.501492,-34.365376,548.64 18.50235,-34.364582,548.64 18.504787,-34.360016,518.16 18.504957,-34.358551,518.16 18.504116,-34.353561,518.16 18.503551,-34.352058,518.16 18.500584,-34.346786,518.16 18.499546,-34.34531,518.16 18.495541,-34.340469,518.16 18.494453,-34.339165,518.16 18.490677,-34.334232,518.16 18.488503,-34.33004,518.16 18.487019,-34.324631,518.16 18.4869,-34.323479,518.16 18.486614,-34.318264,548.64 18.486628,-34.317123,548.64 18.487076,-34.311676,548.64 18.487188,-34.310532,548.64 18.487644,-34.305367,579.12 18.487816,-34.303879,579.12 18.489037,-34.293228,548.64 18.489655,-34.28801,548.64 18.491112,-34.270615,548.64 18.491192,-34.266312,548.64 18.491077,-34.260586,548.64 18.490963,-34.259281,548.64 18.490562,-34.25388,548.64 18.490494,-34.25235,548.64 18.489189,-34.240101,579.12 18.488869,-34.238571,579.12 18.487759,-34.233074,579.12 18.487411,-34.231659,579.12 18.485756,-34.226044,579.12 18.485355,-34.224834,579.12 18.483376,-34.219116,579.12 18.482872,-34.217834,579.12 18.480778,-34.212448,579.12 18.480181,-34.211197,579.12 18.477491,-34.205841,579.12 18.476772,-34.204582,548.64 18.473911,-34.199276,548.64 18.473063,-34.197693,548.64 18.466187,-34.185543,609.6 18.465496,-34.184921,640.08 18.461851,-34.183914,670.56 18.461151,-34.184101,640.08 18.460003,-34.185791,640.08 18.460114,-34.186157,640.08 18.461266,-34.186752,640.08 18.461571,-34.18634,640.08 18.460562,-34.183182,579.12 18.460171,-34.182404,579.12 18.457928,-34.177734,548.64 18.457603,-34.176327,548.64 18.457203,-34.169853,518.16 18.457312,-34.16835,518.16 18.457872,-34.163498,518.16 18.458061,-34.161987,518.16 18.459274,-34.15654,518.16 18.459606,-34.155285,518.16 18.461067,-34.150314,518.16 18.461552,-34.148952,518.16 18.463326,-34.144066,518.16 18.463726,-34.142948,518.16 18.4655,-34.138477,518.16 18.466112,-34.136902,518.16 18.4697,-34.128937,518.16 18.471394,-34.125397,518.16 18.477602,-34.111359,518.16 18.477917,-34.110313,518.16 18.479172,-34.105179,518.16 18.47934,-34.103806,518.16 18.47962,-34.098724,518.16 18.479691,-34.097187,518.16 18.479845,-34.092224,487.68 18.479862,-34.090717,487.68 18.480549,-34.081497,487.68 18.480778,-34.080009,487.68 18.481638,-34.074921,487.68 18.481979,-34.07349,487.68 18.48304,-34.068375,487.68 18.483656,-34.064575,457.2 18.485899,-34.045395,457.2 18.486214,-34.040298,457.2 18.486729,-34.02177,518.16 18.486683,-34.018066,518.16 18.486963,-34.001724,457.2 18.487072,-34.000359,426.72 18.487816,-33.994633,426.72 18.488045,-33.99305,396.24 18.489246,-33.984951,396.24 18.48999,-33.97934,396.24 18.491135,-33.963768,396.24 18.491077,-33.962044,396.24 18.490383,-33.956451,396.24 18.490046,-33.954712,365.76 18.488308,-33.949081,365.76 18.487804,-33.947708,335.28 18.48547,-33.942028,335.28 18.484955,-33.940678,335.28 18.482437,-33.935417,304.8 18.48175,-33.934067,304.8 18.478546,-33.928993,304.8 18.477547,-33.927704,304.8 18.473343,-33.922943,274.32 18.472166,-33.921799,274.32 18.467514,-33.91745,274.32 18.466167,-33.916306,274.32 18.461781,-33.912094,274.32 18.457535,-33.907288,274.32 18.453999,-33.902786,274.32 18.45274,-33.901108,274.32 18.449135,-33.896267,274.32 18.445204,-33.891861,243.84 18.439636,-33.889191,182.88 18.438435,-33.888958,182.88 18.43317,-33.889423,152.4 18.432144,-33.890121,152.4 18.431511,-33.892265,121.92 18.431583,-33.892868,121.92 18.431639,-33.89502,60.96 18.431471,-33.895615,60.96 18.430538,-33.896824,30.48 18.430239,-33.897125,30.48 18.428669,-33.898315,0 18.428108,-33.898819,0 18.427212,-33.900146,0 18.427105,-33.900364,0 18.430239,-33.902161,30.48 18.432087,-33.902481,91.44 18.435171,-33.902618,121.92 18.435787,-33.902573,121.92 18.438835,-33.901527,182.88 18.439407,-33.901108,182.88 18.441696,-33.898129,213.36 18.442009,-33.897263,213.36 18.442039,-33.892822,213.36 18.441696,-33.891567,243.84 18.439823,-33.887421,274.32 18.43895,-33.886166,274.32 18.435402,-33.882256,274.32 18.434162,-33.881241,274.32 18.429623,-33.878437,304.8 18.428307,-33.87788,304.8 18.4231,-33.876434,335.28 18.42144,-33.876251,335.28 18.416058,-33.876068,335.28 18.414059,-33.876202,335.28 18.40765,-33.876995,365.76 18.406448,-33.877228,365.76 18.400923,-33.878448,365.76 18.399754,-33.878765,365.76 18.394701,-33.880325,365.76 18.393288,-33.880764,365.76 18.388424,-33.88258,396.24 18.387394,-33.883045,396.24 18.38253,-33.885468,426.72 18.381443,-33.886074,426.72 18.377213,-33.88884,457.2 18.37635,-33.889469,457.2 18.372688,-33.892311,487.68 18.371887,-33.892963,487.68 18.368467,-33.896072,518.16 18.36771,-33.896778,518.16 18.365135,-33.899525,548.64 18.364208,-33.900558,548.64 18.361416,-33.90395,609.6 18.360676,-33.904861,609.6 18.357983,-33.908512,640.08 18.35737,-33.909439,640.08 18.355007,-33.913353,670.56 18.354567,-33.914108,670.56 18.352213,-33.918411,701.04 18.351746,-33.919312,701.04 18.34997,-33.923126,762 18.349859,-33.924042,762 18.351002,-33.926388,853.44 18.35154,-33.926651,853.44 18.354206,-33.926434,883.92 18.354679,-33.926147,883.92 18.356152,-33.92429,914.4 18.356323,-33.923687,914.4 18.355295,-33.921249,944.88 18.354343,-33.9207,914.4 18.349915,-33.921661,883.92 18.348793,-33.922531,883.92 18.345909,-33.92662,853.44 18.34568,-33.927086,853.44 18.343805,-33.932922,822.96 18.343449,-33.934021,822.96 18.341619,-33.94043,792.48 18.341217,-33.941608,792.48 18.337269,-33.955807,792.48 18.335228,-33.962723,822.96 18.332806,-33.977268,792.48 18.332691,-33.978756,792.48 18.331978,-33.991516,762 18.332005,-33.992584,762 18.332348,-33.996819,731.52 18.332539,-33.998016,731.52 18.33321,-34.002228,731.52 18.333435,-34.003326,701.04 18.334179,-34.007202,701.04 18.334408,-34.00832,701.04 18.335781,-34.014278,670.56 18.336067,-34.015209,670.56 18.337358,-34.019165,670.56 18.337694,-34.020309,640.08 18.340105,-34.029007,670.56 18.340302,-34.029919,670.56 18.341002,-34.03418,670.56 18.34116,-34.035225,670.56 18.341503,-34.039787,701.04 18.341446,-34.040905,701.04 18.340834,-34.045212,701.04 18.340553,-34.046539,701.04 18.339489,-34.050522,701.04 18.339043,-34.051891,701.04 18.337841,-34.056221,731.52 18.337639,-34.056931,731.52 18.336182,-34.061527,792.48 18.335781,-34.062458,792.48 18.334179,-34.067066,853.44 18.334465,-34.067719,883.92 18.336296,-34.068184,914.4 18.336754,-34.067814,914.4 18.338013,-34.065903,914.4 18.338528,-34.065437,914.4 18.341904,-34.064552,914.4 18.342876,-34.064648,914.4 18.347168,-34.065857,914.4 18.348064,-34.066223,914.4 18.351988,-34.068237,883.92 18.353165,-34.068924,883.92 18.35692,-34.071716,883.92 18.357761,-34.072403,883.92 18.361237,-34.075424,853.44 18.361988,-34.076054,853.44 18.365021,-34.078892,822.96 18.36565,-34.079498,792.48 18.368973,-34.082794,762 18.369656,-34.0835,762 18.376146,-34.090302,731.52 18.379679,-34.094101,731.52 18.389225,-34.104588,670.56 18.390104,-34.105362,670.56 18.393524,-34.108337,640.08 18.394363,-34.108932,640.08 18.398064,-34.111771,640.08 18.398905,-34.112366,640.08 18.402716,-34.114792,609.6 18.403873,-34.115341,609.6 18.408209,-34.117264,609.6 18.409424,-34.117718,609.6 18.413773,-34.11916,579.12 18.414803,-34.119484,579.12 18.419724,-34.12093,579.12 18.420811,-34.121208,579.12 18.425642,-34.122162,548.64 18.426819,-34.122326,548.64 18.431303,-34.122803,548.64 18.432705,-34.12294,518.16 18.437302,-34.123077,518.16 18.438435,-34.12307,518.16 18.44347,-34.122883,487.68 18.444923,-34.122711,487.68 18.450279,-34.121811,487.68 18.451595,-34.121578,487.68 18.456631,-34.120277,487.68 18.457775,-34.119904,487.68 18.462524,-34.118042,518.16 18.464037,-34.117355,487.68 18.468647,-34.114689,487.68 18.469587,-34.113831,487.68 18.47323,-34.109756,487.68 18.473911,-34.108871,487.68 18.476931,-34.104538,487.68 18.477547,-34.103302,518.16 18.479176,-34.098629,487.68 18.479397,-34.097534,518.16 18.479862,-34.0923,518.16 18.479977,-34.091183,518.16 18.480148,-34.086201,518.16 18.480206,-34.085083,518.16 18.481407,-34.075493,518.16 18.481579,-34.074375,518.16 18.482437,-34.06958,518.16 18.482666,-34.06823,518.16 18.484833,-34.051437,548.64 18.484898,-34.050217,548.64 18.485842,-34.030884,487.68 18.486067,-34.025665,487.68 18.486683,-34.009094,518.16 18.48674,-34.005066,518.16 18.485338,-33.993576,518.16 18.48461,-33.992615,518.16 18.483543,-33.984009,487.68 18.483982,-33.982807,487.68 18.486042,-33.977921,457.2 18.4865,-33.976803,426.72 18.487917,-33.971924,396.24 18.488216,-33.97047,396.24 18.489075,-33.96349,365.76 18.489075,-33.962231,365.76 18.488503,-33.956833,365.76 18.48814,-33.955627,335.28 18.48629,-33.950409,335.28 18.485928,-33.949337,335.28 18.483994,-33.943954,335.28 18.483639,-33.942772,335.28 18.479691,-33.930576,335.28 18.478889,-33.929134,335.28 18.475571,-33.924385,335.28 18.474745,-33.923355,335.28 18.470936,-33.919312,304.8 18.46998,-33.918365,304.8 18.465439,-33.914337,304.8 18.464149,-33.913147,304.8 18.45989,-33.909119,304.8 18.456802,-33.906231,304.8 18.44952,-33.898636,304.8 18.448679,-33.897629,304.8 18.444981,-33.893051,274.32 18.44285,-33.891037,243.84 18.437862,-33.888584,213.36 18.436546,-33.888447,213.36 18.432816,-33.889938,182.88 18.432369,-33.890633,152.4 18.431416,-33.89328,121.92 18.431168,-33.89394,91.44 18.42979,-33.896393,60.96 18.429453,-33.896896,60.96 18.428501,-33.898178,30.48 18.428276,-33.898453,0 18.427277,-33.899899,0 18.426991,-33.900318,0 18.428444,-33.901062,0 18.430294,-33.901337,30.48 18.434143,-33.901714,152.4 18.434778,-33.901703,152.4 18.437637,-33.900604,182.88 18.438549,-33.899944,182.88 18.440666,-33.896687,213.36 18.440887,-33.895752,213.36 18.440666,-33.890682,243.84 18.440384,-33.889618,243.84 18.438492,-33.885002,274.32 18.437693,-33.883621,274.32 18.434666,-33.879547,274.32 18.433546,-33.878403,304.8 18.428593,-33.874901,304.8 18.427391,-33.874294,304.8 18.421783,-33.872387,335.28 18.420092,-33.871994,335.28 18.414207,-33.871445,365.76 18.412971,-33.871407,365.76 18.407078,-33.87178,396.24 18.405462,-33.871994,396.24 18.400211,-33.873177,396.24 18.398895,-33.87355,426.72 18.393917,-33.875271,457.2 18.39283,-33.875645,457.2 18.388086,-33.877716,487.68 18.387051,-33.878204,487.68 18.382874,-33.880486,518.16 18.381977,-33.881012,518.16 18.377609,-33.883793,548.64 18.376484,-33.884537,548.64 18.372688,-33.887421,579.12 18.371662,-33.88829,579.12 18.368132,-33.891495,609.6 18.367367,-33.892265,609.6 18.364431,-33.89534,609.6 18.363815,-33.896072,609.6 18.360729,-33.900131,640.08 18.360117,-33.90097,640.08 18.357639,-33.904926,640.08 18.357124,-33.905766,640.08 18.354836,-33.909626,670.56 18.354206,-33.910793,670.56 18.352089,-33.914982,670.56 18.351631,-33.915913,670.56 18.349686,-33.920197,670.56 18.349241,-33.921204,670.56 18.345037,-33.930496,701.04 18.341507,-33.938049,731.52 18.337191,-33.948807,762 18.337383,-33.950176,762 18.340162,-33.953384,762 18.341446,-33.953899,762 18.346424,-33.953434,762 18.347561,-33.952835,762 18.350773,-33.949429,762 18.351116,-33.948452,762 18.351765,-33.944092,762 18.351917,-33.943146,762 18.352604,-33.938442,731.52 18.352833,-33.937141,731.52 18.354263,-33.931366,701.04 18.354664,-33.930252,701.04 18.356642,-33.92569,701.04 18.357124,-33.924709,701.04 18.359699,-33.920101,670.56 18.360157,-33.919357,670.56 18.363031,-33.915207,670.56 18.363934,-33.914097,640.08 18.366852,-33.910374,670.56 18.367767,-33.90921,640.08 18.372168,-33.903442,640.08 18.374462,-33.900364,609.6 18.382931,-33.889797,609.6 18.383789,-33.888958,609.6 18.387751,-33.885818,579.12 18.388702,-33.885178,579.12 18.393402,-33.882301,579.12 18.394547,-33.881695,548.64 18.399525,-33.879601,548.64 18.400978,-33.879181,548.64 18.406048,-33.87825,518.16 18.407257,-33.878174,518.16 18.412571,-33.878113,518.16 18.41404,-33.87822,518.16 18.419094,-33.878857,518.16 18.420181,-33.879089,518.16 18.424473,-33.88044,457.2 18.425642,-33.880966,457.2 18.428535,-33.882999,396.24 18.429062,-33.883621,396.24 18.430538,-33.886353,335.28 18.430767,-33.887005,304.8 18.431471,-33.889755,274.32 18.431683,-33.890541,243.84 18.432541,-33.893009,182.88 18.43276,-33.8936,152.4 18.433056,-33.895847,121.92 18.432655,-33.896454,91.44 18.428364,-33.898827,30.48 18.427963,-33.899105,0 18.426987,-33.900513,0 18.426987,-33.900742,0 18.428276,-33.901199,0 18.428501,-33.901245,0 18.433971,-33.901993,121.92 18.43523,-33.902084,121.92 18.438263,-33.90176,152.4 18.43915,-33.901428,182.88 18.442402,-33.899368,213.36 18.442963,-33.898911,213.36 18.445358,-33.895756,243.84 18.445702,-33.895012,243.84 18.4461,-33.890945,304.8 18.446045,-33.889889,304.8 18.445148,-33.88559,335.28 18.444588,-33.884583,335.28 18.441,-33.881104,365.76 18.439922,-33.880394,365.76 18.435003,-33.87822,396.24 18.433857,-33.877785,426.72 18.428556,-33.876343,457.2 18.427334,-33.876064,457.2 18.42267,-33.875336,487.68 18.421101,-33.875153,487.68 18.415497,-33.874786,518.16 18.414095,-33.874741,518.16 18.408602,-33.874786,548.64 18.407249,-33.874851,548.64 18.401985,-33.87532,579.12 18.400755,-33.875473,579.12 18.395597,-33.876297,579.12 18.394375,-33.87653,579.12 18.388996,-33.878113,609.6 18.387918,-33.878448,609.6 18.383099,-33.880417,609.6 18.38192,-33.880966,609.6 18.376877,-33.883484,579.12 18.375664,-33.884163,609.6 18.371439,-33.886826,609.6 18.370228,-33.887749,609.6 18.366394,-33.890945,609.6 18.364824,-33.892365,609.6 18.361244,-33.896034,609.6 18.360397,-33.897034,609.6 18.357239,-33.90097,609.6 18.35638,-33.902084,609.6 18.353445,-33.906281,640.08 18.352604,-33.90744,640.08 18.349747,-33.911545,640.08 18.349113,-33.912514,640.08 18.34672,-33.916489,670.56 18.346024,-33.917774,670.56 18.343735,-33.922245,701.04 18.343245,-33.923218,701.04 18.341446,-33.927319,701.04 18.340416,-33.929832,731.52 18.33744,-33.937977,762 18.337191,-33.93869,762 18.331833,-33.952175,914.4 18.330463,-33.955353,914.4 18.324509,-33.968376,1005.84 18.323879,-33.969494,1005.84 18.321362,-33.973778,1036.32 18.320847,-33.974709,1036.32 18.318615,-33.978664,1066.8 18.316727,-33.981735,1066.8 18.311863,-33.988674,1097.28 18.311176,-33.989277,1097.28 18.307343,-33.992119,1097.28 18.306305,-33.993622,1127.76 18.307228,-33.996819,1097.28 18.307972,-33.997425,1097.28 18.312378,-33.998497,1066.8 18.31348,-33.998383,1066.8 18.317965,-33.996918,1036.32 18.319016,-33.996307,1036.32 18.322449,-33.993027,1036.32 18.323078,-33.99221,1036.32 18.325756,-33.988495,1036.32 18.32654,-33.987396,1036.32 18.329258,-33.983738,1036.32 18.330015,-33.982681,1036.32 18.335398,-33.974396,1066.8 18.336014,-33.973251,1066.8 18.338242,-33.968983,1036.32 18.338699,-33.968002,1066.8 18.340778,-33.963501,1005.84 18.341227,-33.962494,1005.84 18.342964,-33.958054,975.36 18.343277,-33.957066,975.36 18.344309,-33.952652,975.36 18.344589,-33.951599,975.36 18.345655,-33.947433,944.88 18.345909,-33.946404,944.88 18.347897,-33.93988,914.4 18.348312,-33.938725,883.92 18.350082,-33.93457,853.44 18.350658,-33.933369,853.44 18.353004,-33.929272,822.96 18.353615,-33.928299,822.96 18.356529,-33.924271,792.48 18.357538,-33.923126,762 18.361126,-33.918961,731.52 18.361988,-33.917961,731.52 18.365553,-33.914062,701.04 18.366562,-33.913055,670.56 18.371552,-33.907837,609.6 18.373547,-33.905903,609.6 18.377493,-33.902435,579.12 18.378468,-33.901669,579.12 18.382313,-33.898453,548.64 18.38316,-33.897758,548.64 18.387022,-33.894699,579.12 18.389992,-33.892456,548.64 18.396149,-33.888214,548.64 18.397121,-33.887608,548.64 18.401258,-33.88504,548.64 18.402435,-33.884399,548.64 18.406919,-33.882568,518.16 18.407928,-33.882248,518.16 18.412582,-33.881378,487.68 18.413759,-33.881241,487.68 18.418007,-33.881046,426.72 18.418915,-33.881104,426.72 18.423008,-33.881607,396.24 18.424072,-33.881836,365.76 18.427505,-33.883327,335.28 18.428164,-33.883759,304.8 18.430252,-33.886024,274.32 18.430653,-33.886631,243.84 18.431911,-33.888821,213.36 18.43214,-33.889332,213.36 18.432884,-33.891239,182.88 18.433056,-33.891846,152.4 18.433685,-33.893707,121.92 18.433857,-33.894127,91.44 18.432816,-33.895386,60.96 18.432255,-33.895336,60.96 18.429565,-33.895386,30.48 18.428837,-33.895523,30.48 18.427715,-33.896942,0 18.427603,-33.897308,0 18.427435,-33.898407,0 18.427322,-33.898819,0 18.426991,-33.900364,0 18.426931,-33.900833,0 18.432026,-33.901852,60.96 18.432655,-33.901901,91.44 18.435345,-33.901993,121.92 18.436012,-33.901932,152.4 18.439007,-33.901154,182.88 18.439936,-33.90065,182.88 18.442898,-33.898548,213.36 18.443527,-33.897896,213.36 18.445709,-33.894379,243.84 18.446045,-33.893463,243.84 18.4461,-33.888885,304.8 18.445759,-33.887749,304.8 18.443184,-33.883839,335.28 18.442064,-33.882889,335.28 18.437918,-33.880005,365.76 18.437119,-33.879414,365.76 18.432426,-33.87611,365.76 18.431583,-33.875473,365.76 18.426426,-33.872681,396.24 18.425026,-33.872269,426.72 18.419609,-33.871593,457.2 18.418524,-33.871582,457.2 18.413702,-33.871628,487.68 18.411942,-33.871735,518.16 18.407478,-33.872105,518.16 18.406334,-33.872246,518.16 18.40081,-33.873276,548.64 18.399353,-33.873642,548.64 18.394203,-33.875038,548.64 18.392796,-33.875473,548.64 18.388023,-33.877365,548.64 18.386993,-33.87788,548.64 18.38237,-33.880234,579.12 18.381361,-33.880783,579.12 18.377094,-33.883419,579.12 18.375868,-33.884308,579.12 18.371887,-33.887516,579.12 18.371143,-33.888168,609.6 18.36701,-33.892273,579.12 18.366169,-33.893143,579.12 18.363199,-33.896713,579.12 18.362617,-33.897526,579.12 18.359585,-33.901573,579.12 18.358883,-33.902573,579.12 18.356081,-33.906372,579.12 18.354231,-33.909073,579.12 18.350924,-33.914337,609.6 18.350372,-33.915306,609.6 18.348083,-33.919731,579.12 18.347626,-33.920708,579.12 18.344421,-33.927063,609.6 18.343906,-33.928062,609.6 18.34322,-33.933369,609.6 18.34358,-33.934204,609.6 18.346439,-33.93631,640.08 18.347225,-33.936489,640.08 18.351002,-33.936161,640.08 18.3521,-33.93576,640.08 18.355463,-33.933975,609.6 18.356152,-33.933464,609.6 18.35877,-33.931046,609.6 18.359219,-33.930496,609.6 18.359837,-33.92775,609.6 18.359413,-33.927273,609.6 18.355911,-33.927246,579.12 18.354734,-33.928116,548.64 18.3521,-33.931641,548.64 18.35146,-33.932716,548.64 18.348656,-33.937607,548.64 18.348177,-33.938507,548.64 18.346195,-33.942169,548.64 18.344135,-33.945614,548.64 18.333092,-33.96479,609.6 18.33024,-33.97023,609.6 18.320936,-33.98465,762 18.319422,-33.987167,792.48 18.318077,-33.990921,853.44 18.317814,-33.991791,853.44 18.317181,-33.995407,853.44 18.317011,-33.996368,853.44 18.31673,-34.000122,883.92 18.316727,-34.001148,914.4 18.317013,-34.004128,975.36 18.317236,-34.004929,975.36 18.31819,-34.007812,1036.32 18.318468,-34.008499,1036.32 18.319645,-34.011482,1036.32 18.319983,-34.012207,1036.32 18.321648,-34.015629,1036.32 18.322056,-34.016464,1036.32 18.323626,-34.019623,1036.32 18.325308,-34.02301,1036.32 18.328857,-34.031502,1005.84 18.329201,-34.032524,1005.84 18.330128,-34.036148,975.36 18.330345,-34.037136,975.36 18.331305,-34.040863,975.36 18.33149,-34.04179,975.36 18.334179,-34.051193,1036.32 18.334557,-34.052216,1066.8 18.335846,-34.055786,1066.8 18.336407,-34.056976,1066.8 18.338585,-34.06041,1097.28 18.339041,-34.061005,1097.28 18.341787,-34.064026,1097.28 18.342684,-34.064941,1097.28 18.345711,-34.067642,1127.76 18.346552,-34.068375,1097.28 18.349915,-34.071259,1127.76 18.350716,-34.071957,1127.76 18.360329,-34.080196,1066.8 18.362675,-34.082291,1066.8 18.367081,-34.086758,1036.32 18.367964,-34.087692,1036.32 18.370934,-34.09108,1005.84 18.371658,-34.091881,1005.84 18.379898,-34.100491,914.4 18.380756,-34.101284,883.92 18.386797,-34.106827,822.96 18.387638,-34.107513,822.96 18.391226,-34.110214,792.48 18.391857,-34.110687,792.48 18.395691,-34.113201,762 18.396551,-34.113785,762 18.400362,-34.115936,701.04 18.401539,-34.116577,701.04 18.405519,-34.118637,670.56 18.406448,-34.119114,670.56 18.41074,-34.121254,640.08 18.411684,-34.121704,609.6 18.425474,-34.128662,548.64 18.429165,-34.130657,518.16 18.438206,-34.135078,487.68 18.439207,-34.135391,487.68 18.443928,-34.135963,487.68 18.445036,-34.135895,487.68 18.449968,-34.134659,487.68 18.450851,-34.134289,487.68 18.455544,-34.131588,487.68 18.456638,-34.130859,487.68 18.460619,-34.12793,487.68 18.46174,-34.127014,487.68 18.465672,-34.123489,457.2 18.466616,-34.122665,457.2 18.470421,-34.119484,487.68 18.473625,-34.116737,487.68 18.476706,-34.112778,487.68 18.477379,-34.111542,487.68 18.479452,-34.106369,487.68 18.479788,-34.105087,487.68 18.480892,-34.099979,487.68 18.481178,-34.098396,487.68 18.48175,-34.093044,457.2 18.481806,-34.091721,457.2 18.48175,-34.085224,457.2 18.481638,-34.083893,457.2 18.481693,-34.07526,457.2 18.482037,-34.069813,426.72 18.482592,-34.057343,457.2 18.482815,-34.053131,457.2 18.48381,-34.03434,396.24 18.483982,-34.03006,396.24 18.484665,-34.009598,396.24 18.484777,-34.003693,396.24 18.485756,-33.984715,335.28 18.486122,-33.978333,304.8 18.486179,-33.960342,243.84 18.486067,-33.958786,243.84 18.485226,-33.953384,243.84 18.484833,-33.951691,243.84 18.483376,-33.946014,243.84 18.482952,-33.944496,243.84 18.481178,-33.938957,243.84 18.480742,-33.937683,243.84 18.478779,-33.93219,213.36 18.478203,-33.930901,213.36 18.474541,-33.92569,213.36 18.473623,-33.924683,213.36 18.469027,-33.920517,213.36 18.468018,-33.919682,213.36 18.463533,-33.916077,213.36 18.462189,-33.915115,213.36 18.457375,-33.911674,213.36 18.455854,-33.910538,243.84 18.449575,-33.904129,213.36 18.448448,-33.902737,182.88 18.444252,-33.897766,152.4 18.44285,-33.896072,152.4 18.436947,-33.890774,121.92 18.435516,-33.890217,152.4 18.430014,-33.891037,121.92 18.42951,-33.891632,121.92 18.42865,-33.894127,60.96 18.428535,-33.89473,60.96 18.428164,-33.896347,30.48 18.428053,-33.896576,30.48 18.427603,-33.897812,0 18.427391,-33.89864,0 18.426991,-33.90041,0 18.426987,-33.900696,0 18.43063,-33.901978,60.96 18.431396,-33.902134,91.44 18.434086,-33.902412,121.92 18.434946,-33.90239,152.4 18.438263,-33.901386,182.88 18.439121,-33.900921,213.36 18.441954,-33.898453,243.84 18.442612,-33.897572,243.84 18.444099,-33.893612,274.32 18.444157,-33.892544,274.32 18.442955,-33.887749,304.8 18.442211,-33.88649,304.8 18.439121,-33.882626,335.28 18.438034,-33.881695,335.28 18.433489,-33.878769,396.24 18.432425,-33.878265,396.24 18.427547,-33.876251,426.72 18.426476,-33.875877,457.2 18.421154,-33.874527,487.68 18.419609,-33.874294,487.68 18.414288,-33.873875,518.16 18.413086,-33.873829,518.16 18.407873,-33.873825,548.64 18.406359,-33.873871,548.64 18.40081,-33.87442,579.12 18.399914,-33.874557,579.12 18.394661,-33.875553,609.6 18.393019,-33.875977,609.6 18.388252,-33.87746,640.08 18.386879,-33.877972,640.08 18.3822,-33.879868,670.56 18.381023,-33.880417,670.56 18.376596,-33.88266,701.04 18.375206,-33.883419,701.04 18.370485,-33.886322,701.04 18.369085,-33.887238,701.04 18.364824,-33.890167,701.04 18.363705,-33.891006,670.56 18.359388,-33.894333,701.04 18.358267,-33.895248,701.04 18.354321,-33.898781,701.04 18.353405,-33.899666,701.04 18.349915,-33.903484,731.52 18.349018,-33.904541,731.52 18.346272,-33.908203,731.52 18.345655,-33.909164,762 18.343187,-33.913147,762 18.342628,-33.914017,762 18.340359,-33.918659,792.48 18.339844,-33.920101,792.48 18.338928,-33.924316,792.48 18.338648,-33.925552,792.48 18.335678,-33.929855,792.48 18.334293,-33.930717,822.96 18.32943,-33.933697,853.44 18.328503,-33.93512,853.44 18.328951,-33.93988,853.44 18.329716,-33.941051,853.44 18.334064,-33.944633,853.44 18.335323,-33.94524,853.44 18.340473,-33.946869,822.96 18.342123,-33.947067,822.96 18.347281,-33.946335,792.48 18.348656,-33.94566,792.48 18.352436,-33.942261,822.96 18.353062,-33.941422,822.96 18.355579,-33.937279,792.48 18.356249,-33.936127,792.48 18.358498,-33.932159,762 18.359127,-33.931042,762 18.364824,-33.92189,731.52 18.36544,-33.920975,731.52 18.368637,-33.916809,701.04 18.369656,-33.91568,701.04 18.373121,-33.911865,640.08 18.37413,-33.910812,640.08 18.377773,-33.907104,609.6 18.378893,-33.906052,609.6 18.382986,-33.902206,548.64 18.383938,-33.901337,548.64 18.388142,-33.897812,518.16 18.389431,-33.896896,518.16 18.394085,-33.893967,518.16 18.395542,-33.893143,518.16 18.400249,-33.890625,487.68 18.401707,-33.889938,487.68 18.406677,-33.887936,457.2 18.407986,-33.887466,457.2 18.412914,-33.885933,396.24 18.413773,-33.8857,396.24 18.418915,-33.884583,365.76 18.420149,-33.884354,365.76 18.424801,-33.884216,335.28 18.426018,-33.884441,304.8 18.429565,-33.886276,274.32 18.430195,-33.886864,243.84 18.432198,-33.889565,182.88 18.432705,-33.890259,182.88 18.433882,-33.892685,121.92 18.433857,-33.893429,91.44 18.432026,-33.895245,60.96 18.431454,-33.895615,60.96 18.427734,-33.898594,30.48 18.427448,-33.8992,0 18.427155,-33.900101,0 18.426991,-33.900364,0 18.428421,-33.90134,30.48 18.430407,-33.901749,30.48 18.435059,-33.902206,121.92 18.435843,-33.902206,121.92 18.439293,-33.901482,182.88 18.440327,-33.901016,182.88 18.443747,-33.898956,213.36 18.444475,-33.898315,213.36 18.447018,-33.895058,243.84 18.447533,-33.893845,274.32 18.448063,-33.88916,304.8 18.447838,-33.888062,304.8 18.445988,-33.883419,335.28 18.445187,-33.882114,335.28 18.441393,-33.878357,365.76 18.44038,-33.877739,396.24 18.435284,-33.875153,396.24 18.433971,-33.874668,396.24 18.428078,-33.873177,426.72 18.426594,-33.872955,426.72 18.419868,-33.872269,457.2 18.418522,-33.872154,457.2 18.412743,-33.872154,487.68 18.411427,-33.8722,487.68 18.406191,-33.872589,518.16 18.404732,-33.872807,518.16 18.399521,-33.873734,548.64 18.398266,-33.874016,548.64 18.393116,-33.875458,579.12 18.3922,-33.875736,579.12 18.387245,-33.877396,609.6 18.386181,-33.877808,609.6 18.381529,-33.879822,640.08 18.379959,-33.880554,640.08 18.37532,-33.883045,670.56 18.37413,-33.883804,670.56 18.370228,-33.886353,670.56 18.368805,-33.887329,670.56 18.364334,-33.890915,670.56 18.363304,-33.891846,670.56 18.359947,-33.895157,701.04 18.359013,-33.896175,701.04 18.355688,-33.900146,701.04 18.355015,-33.901016,701.04 18.352045,-33.904999,701.04 18.351316,-33.906097,701.04 18.34877,-33.910091,731.52 18.348232,-33.911087,731.52 18.345823,-33.915344,701.04 18.345205,-33.916443,701.04 18.343277,-33.920521,701.04 18.342796,-33.921524,701.04 18.338242,-33.929134,701.04 18.337416,-33.930176,701.04 18.334522,-33.93351,701.04 18.333715,-33.934296,701.04 18.329487,-33.93914,762 18.329773,-33.939934,762 18.333155,-33.942535,762 18.334219,-33.942993,762 18.339096,-33.944321,762 18.340473,-33.944496,762 18.346046,-33.943634,762 18.347054,-33.943237,762 18.351091,-33.940201,762 18.351707,-33.939423,762 18.354206,-33.935463,731.52 18.354734,-33.934662,701.04 18.35737,-33.930679,701.04 18.358154,-33.929504,701.04 18.362789,-33.923454,670.56 18.363705,-33.922382,670.56 18.367195,-33.918518,609.6 18.367996,-33.917728,609.6 18.371943,-33.913696,579.12 18.372803,-33.912792,579.12 18.385956,-33.899414,518.16 18.386854,-33.898682,518.16 18.390827,-33.895756,518.16 18.392067,-33.89502,518.16 18.396774,-33.892593,518.16 18.397808,-33.892124,487.68 18.402325,-33.890442,487.68 18.403759,-33.889984,487.68 18.408108,-33.888725,518.16 18.40905,-33.888474,487.68 18.413429,-33.887329,487.68 18.414431,-33.8871,487.68 18.419151,-33.886074,457.2 18.420204,-33.88591,457.2 18.423958,-33.885792,426.72 18.424873,-33.885933,426.72 18.427505,-33.887051,365.76 18.427996,-33.887421,365.76 18.429678,-33.889206,304.8 18.429909,-33.889565,274.32 18.431078,-33.891449,213.36 18.431303,-33.891861,213.36 18.432083,-33.89352,152.4 18.432367,-33.894012,152.4 18.432425,-33.895569,121.92 18.431808,-33.895844,91.44 18.429165,-33.896408,60.96 18.428764,-33.896545,60.96 18.427322,-33.898361,30.48 18.427267,-33.898636,30.48 18.427099,-33.899872,0 18.427099,-33.900101,0 18.427219,-33.901108,0 18.428669,-33.901474,30.48 18.433825,-33.902527,91.44 18.434385,-33.902573,121.92 18.43786,-33.902161,152.4 18.438606,-33.901901,182.88 18.442154,-33.899525,213.36 18.442738,-33.898865,213.36 18.444756,-33.895111,243.84 18.444981,-33.894058,274.32 18.444811,-33.889664,304.8 18.444386,-33.888351,304.8 18.442177,-33.884537,335.28 18.44141,-33.883606,365.76 18.437347,-33.880253,396.24 18.436068,-33.879501,396.24 18.431135,-33.877213,426.72 18.42968,-33.876621,426.72 18.424587,-33.874947,457.2 18.423157,-33.874573,457.2 18.417435,-33.873363,487.68 18.415497,-33.873047,487.68 18.410168,-33.872387,518.16 18.408602,-33.872269,548.64 18.403221,-33.87204,548.64 18.401814,-33.872059,579.12 18.396492,-33.872387,579.12 18.395149,-33.872635,579.12 18.390026,-33.87392,579.12 18.388538,-33.874435,609.6 18.383732,-33.876297,609.6 18.382702,-33.876808,609.6 18.378164,-33.879181,609.6 18.377209,-33.879742,609.6 18.372503,-33.882751,640.08 18.371607,-33.883392,640.08 18.367403,-33.886688,670.56 18.366562,-33.887375,670.56 18.362974,-33.890671,701.04 18.361965,-33.891632,701.04 18.358658,-33.894836,731.52 18.357874,-33.895615,731.52 18.354321,-33.899433,731.52 18.351631,-33.90218,731.52 18.345205,-33.909668,731.52 18.344479,-33.910744,731.52 18.342018,-33.914703,731.52 18.341114,-33.91626,731.52 18.339043,-33.920521,731.52 18.338642,-33.921543,731.52 18.336868,-33.926338,731.52 18.336411,-33.927364,731.52 18.33086,-33.938072,731.52 18.330288,-33.938725,731.52 18.325308,-33.942169,731.52 18.324394,-33.942726,762 18.320961,-33.948498,731.52 18.321476,-33.949478,731.52 18.325195,-33.952011,701.04 18.326372,-33.952469,701.04 18.331024,-33.953705,670.56 18.332371,-33.953888,670.56 18.337864,-33.954071,640.08 18.339672,-33.953945,640.08 18.344765,-33.95269,640.08 18.346081,-33.952038,609.6 18.35025,-33.948944,609.6 18.351002,-33.948078,609.6 18.353748,-33.943985,609.6 18.354231,-33.942902,609.6 18.356249,-33.938782,609.6 18.356609,-33.937931,609.6 18.358669,-33.933697,609.6 18.359163,-33.932739,609.6 18.364906,-33.922615,579.12 18.365765,-33.921406,548.64 18.36886,-33.91745,548.64 18.369427,-33.916798,548.64 18.372728,-33.912872,548.64 18.373375,-33.912094,548.64 18.376865,-33.908463,518.16 18.377724,-33.907627,518.16 18.381615,-33.904228,518.16 18.382816,-33.903252,518.16 18.386993,-33.900131,487.68 18.387966,-33.899387,487.68 18.392429,-33.896358,487.68 18.393805,-33.895477,487.68 18.398064,-33.89296,487.68 18.399353,-33.892265,487.68 18.403612,-33.889847,487.68 18.404398,-33.889435,487.68 18.408827,-33.887146,457.2 18.409939,-33.886677,457.2 18.414543,-33.884811,457.2 18.41589,-33.884396,457.2 18.420092,-33.883301,457.2 18.421045,-33.883163,457.2 18.425159,-33.882954,396.24 18.426018,-33.883091,396.24 18.428822,-33.884769,335.28 18.429222,-33.885281,335.28 18.430538,-33.887516,274.32 18.430799,-33.888062,243.84 18.431854,-33.890587,182.88 18.432032,-33.891174,182.88 18.432312,-33.893379,121.92 18.431976,-33.893875,121.92 18.428535,-33.896824,60.96 18.428108,-33.897263,30.48 18.427563,-33.898502,30.48 18.427547,-33.898819,0 18.427435,-33.900055,0 18.427448,-33.900318,0
        </coordinates>
      </LineString>
    </Placemark>
  </Document>
</kml>