<?xml version="1.0" encoding="UTF-8"?>
<kml xmlns="http://www.opengis.net/kml/2.2">
  <Document>
    <name>-/ZTHOT - Optimised</name>
    <description><![CDATA[Optimised flight path with 1000 points (decimated from 4997 original points). Source format: Standard KML]]></description>
    
    <Style id="flightPath">
      <LineStyle>
        <color>ff0000ff</color>
        <width>3</width>
      </LineStyle>
    </Style>
    
    <Placemark>
      <name>Flight Path</name>
      <description><![CDATA[<div style="width:220px; text-align:center;">
<div style="width:210px; text-align:center;">
<div style=" background: #000; color: #fff; font-size: 14px; text-align:left; border: 1px solid #000; padding: 2px 6px; text-shadow: 0 1px 0 #000; box-shadow: 0 1px 3px rgba(0,0,0,0.6); background: -webkit-gradient(linear, left top, left bottom, color-stop(0%,#808080), color-stop(2%,#303030), color-stop(100%,#0c0c0c));"><span style="font-size: 14px; font-weight: bold;"><a href="javascript:void(0);" style="color: #fff; cursor: pointer;text-decoration: none;">-</a></span> / ZTHOT<br/>Cape Town Helicopters</div>

<div style="border-top: 1px solid #005c90; color: #fff; padding-bottom: 5px; box-shadow: 0 0 1px #9BE3F6 inset, 0 1px 0 #9BE3F6 inset, 0 -1px 3px rgba(0,0,0,0.4); background:rgba(43,114,173,1); background: -webkit-gradient(linear, left top, left bottom, color-stop(0%,rgba(92,184,229,1)), color-stop(100%,rgba(43,114,173,1)));">
<a style="text-decoration: none; color: rgb(255, 255, 255); font-size: 12px; width:77px; display: inline-block;" title=" Airport" href="javascript:void(0);/departures"><h3 style="padding: 0px; margin: 10px 0px 0px; font-size: 16px; ">?</h3></a>
<span style="background: url(https://www.flightradar24.com/static/images/userUI_sprite.png?14) no-repeat scroll 0 -464px rgba(0, 0, 0, 0); border: medium none; display: inline-block; height: 16px; width: 45px;"></span>
<a style="text-decoration: none; color: rgb(255, 255, 255); font-size: 12px; width:77px; display: inline-block;" title=" Airport" href="javascript:void(0);/arrivals"><h3 style="padding: 0px; margin: 10px 0px 0px; font-size: 16px;">?</h3></a>
<div style=" margin-top:10px;">
<div style="display: inline-block; font-size: 12px; padding: 0 5px;">
<div>
<span style="color: #c1eaff;" title="Actual Time of Departure">ATD </span>
<span title="2025-10-05 08:05">08:05</span> <span title="Coordinated Universal Time">UTC</span>
</div>
</div>
<div style="display: inline-block; font-size: 12px; padding: 0 5px;">
<div>
<span style="color: #c1eaff;" title="Estimated Time of Arrival">ETA </span>
<span title="2025-10-05 08:49">08:49</span> <span title="Coordinated Universal Time">UTC</span>
</div>
</div>
</div>
<br style="clear: both;"/>
</div>

<div style="display: block;">
<table style="border-collapse: collapse; width: 100%;">
<tr style="border-right: 1px solid #dadada; ">
<td style="background: none repeat scroll 0 0 #dadada; padding: 0; width: 31px;">
<span style="background: url(https://www.flightradar24.com/static/images/userUI_sprite.png?14) no-repeat scroll -208px -464px rgba(0, 0, 0, 0); height: 26px; margin: 8px 0 0 4px; width: 23px; display: block;"></span>
</td>
<td colspan="2" style="border-bottom: 1px solid #dadada; border-left: 1px solid #dadada; color: #666; line-height: 1.1em; padding: 3px 6px; vertical-align: top; font-size: 14px;">
Aircraft<span style="float: right; font-size: 12px;">(AS50)</span><br>
<span style="color: #333; font-size: 16px; font-weight: bold; line-height: 1.3em;">Airbus Helicopters H125</span>
</td>
</tr>
<tr style="border-right: 1px solid #dadada; ">
<td style="background: none repeat scroll 0 0 #dadada; padding: 0; width: 31px;">
<td colspan="2" style="border-bottom: 1px solid #dadada; border-left: 1px solid #dadada; color: #666; line-height: 1.1em; padding: 3px 6px; vertical-align: top; font-size: 14px;">
Registration<br>
<span style="color: #333; font-size: 16px; font-weight: bold; line-height: 1.3em;"><a href="https://www.flightradar24.com/reg/zt-hot" style="text-decoration: none; color: #333;">ZT-HOT</a></span>
</td>
</tr>
</table>
</div>

</div>
</div>]]></description>
      <styleUrl>#flightPath</styleUrl>
      <LineString>
        <extrude>1</extrude>
        <tessellate>1</tessellate>
        <altitudeMode>absolute</altitudeMode>
        <coordinates>
          18.427792,-33.899479,60.96 18.433153,-33.894287,152.4 18.435843,-33.891174,213.36 18.437462,-33.887421,274.32 18.437693,-33.883667,335.28 18.436796,-33.879227,365.76 18.435001,-33.875088,396.24 18.43248,-33.871674,487.68 18.429173,-33.869659,548.64 18.425306,-33.869156,579.12 18.421774,-33.870712,609.6 18.420525,-33.874619,609.6 18.423328,-33.878067,640.08 18.428892,-33.878632,640.08 18.432312,-33.875153,640.08 18.429966,-33.871174,640.08 18.424644,-33.870384,640.08 18.41898,-33.871037,640.08 18.412861,-33.872177,640.08 18.407425,-33.87355,640.08 18.401764,-33.875793,670.56 18.396378,-33.878716,670.56 18.391787,-33.881882,670.56 18.38719,-33.885452,701.04 18.382481,-33.88916,701.04 18.378124,-33.892868,701.04 18.373737,-33.896942,731.52 18.36977,-33.900784,731.52 18.365822,-33.904831,762 18.362045,-33.909069,762 18.357481,-33.914429,762 18.350887,-33.922989,762 18.347797,-33.928154,762 18.345318,-33.93338,762 18.343637,-33.938141,762 18.343861,-33.943222,792.48 18.348026,-33.945614,853.44 18.352045,-33.943634,883.92 18.354149,-33.939747,914.4 18.353691,-33.935791,914.4 18.349073,-33.934753,914.4 18.346367,-33.939514,914.4 18.345966,-33.945892,883.92 18.344936,-33.951851,883.92 18.343391,-33.957577,883.92 18.336182,-33.97345,914.4 18.327026,-33.992073,914.4 18.324242,-33.998932,883.92 18.322281,-34.004562,883.92 18.32016,-34.011204,883.92 18.3183,-34.017014,883.92 18.316788,-34.022781,883.92 18.315639,-34.029079,883.92 18.315811,-34.035553,883.92 18.317528,-34.04216,853.44 18.320992,-34.04837,822.96 18.325588,-34.054138,792.48 18.330288,-34.060272,731.52 18.334276,-34.066589,701.04 18.337416,-34.073318,670.56 18.339825,-34.079315,670.56 18.342178,-34.085724,640.08 18.347626,-34.099422,609.6 18.352381,-34.112778,609.6 18.352146,-34.118881,609.6 18.349466,-34.124268,609.6 18.345655,-34.128433,609.6 18.341171,-34.132645,609.6 18.337326,-34.13699,609.6 18.334694,-34.142063,609.6 18.333092,-34.147697,609.6 18.334389,-34.154755,609.6 18.337955,-34.160358,609.6 18.342018,-34.165665,609.6 18.346046,-34.171692,579.12 18.349298,-34.177597,609.6 18.352432,-34.18396,609.6 18.359724,-34.1987,609.6 18.364677,-34.208588,609.6 18.370686,-34.21999,609.6 18.373032,-34.225998,609.6 18.374519,-34.232281,609.6 18.37492,-34.23917,579.12 18.37492,-34.244896,579.12 18.374746,-34.250656,609.6 18.374298,-34.267914,609.6 18.376007,-34.274319,609.6 18.37867,-34.280502,609.6 18.414688,-34.330414,609.6 18.428276,-34.340836,579.12 18.436964,-34.346786,609.6 18.458061,-34.361183,609.6 18.469334,-34.367748,609.6 18.477287,-34.370354,609.6 18.484442,-34.371964,609.6 18.492456,-34.373337,640.08 18.500233,-34.374313,609.6 18.507591,-34.374619,609.6 18.513868,-34.373474,609.6 18.51796,-34.370499,640.08 18.51869,-34.366791,640.08 18.516615,-34.363678,640.08 18.512306,-34.363232,609.6 18.507704,-34.364502,609.6 18.503151,-34.365791,640.08 18.498117,-34.366791,640.08 18.493137,-34.366959,609.6 18.487415,-34.366585,609.6 18.482311,-34.365646,609.6 18.477459,-34.364071,609.6 18.472996,-34.36179,609.6 18.469162,-34.358952,609.6 18.466,-34.355026,609.6 18.464928,-34.350246,640.08 18.465887,-34.345917,670.56 18.468761,-34.340794,670.56 18.470764,-34.33614,640.08 18.472195,-34.33046,640.08 18.473454,-34.324966,640.08 18.476257,-34.311512,640.08 18.4785,-34.297577,609.6 18.481579,-34.282417,609.6 18.48304,-34.27597,609.6 18.484161,-34.270844,609.6 18.484777,-34.265579,640.08 18.484612,-34.260632,609.6 18.483824,-34.254913,640.08 18.482985,-34.249191,640.08 18.482143,-34.243698,609.6 18.48032,-34.234653,579.12 18.478203,-34.224602,579.12 18.475529,-34.214081,609.6 18.473854,-34.209377,609.6 18.47208,-34.204815,609.6 18.470192,-34.200066,640.08 18.468018,-34.195129,640.08 18.46487,-34.188244,609.6 18.462009,-34.181446,609.6 18.45961,-34.176086,609.6 18.457312,-34.171326,609.6 18.454901,-34.166061,609.6 18.453331,-34.16098,609.6 18.452995,-34.155533,609.6 18.454004,-34.149857,609.6 18.456287,-34.144253,609.6 18.459148,-34.139549,609.6 18.462917,-34.134384,640.08 18.46656,-34.129944,640.08 18.470478,-34.124931,640.08 18.473736,-34.119919,640.08 18.475641,-34.114471,609.6 18.476313,-34.1082,640.08 18.474855,-34.102844,640.08 18.471773,-34.098312,609.6 18.468298,-34.094421,609.6 18.464241,-34.090298,609.6 18.460407,-34.086388,609.6 18.452827,-34.078629,609.6 18.445587,-34.071491,609.6 18.440607,-34.065674,640.08 18.437805,-34.060684,640.08 18.435802,-34.055801,640.08 18.433514,-34.050819,609.6 18.431854,-34.045841,609.6 18.430882,-34.040627,609.6 18.430424,-34.035458,609.6 18.430653,-34.030243,609.6 18.431454,-34.024982,609.6 18.432598,-34.019863,609.6 18.43433,-34.014496,609.6 18.436832,-34.009155,609.6 18.440439,-34.004379,609.6 18.44582,-33.999939,579.12 18.451824,-33.996353,579.12 18.457592,-33.993164,548.64 18.463211,-33.989464,518.16 18.468018,-33.985508,487.68 18.471909,-33.9809,487.68 18.474712,-33.976524,457.2 18.477154,-33.971786,457.2 18.479284,-33.966705,457.2 18.481134,-33.961578,426.72 18.482552,-33.956646,426.72 18.483181,-33.952038,396.24 18.482838,-33.947243,365.76 18.481863,-33.942719,365.76 18.480293,-33.938461,335.28 18.478603,-33.934628,335.28 18.476315,-33.930809,335.28 18.473623,-33.927017,304.8 18.47065,-33.923359,304.8 18.467503,-33.919682,304.8 18.461348,-33.912918,243.84 18.455372,-33.906696,182.88 18.451593,-33.902802,182.88 18.448456,-33.900055,182.88 18.444271,-33.898548,152.4 18.440266,-33.89827,152.4 18.436516,-33.898407,121.92 18.433096,-33.898819,91.44 18.429508,-33.899899,60.96 18.427277,-33.900875,0 18.427773,-33.899689,30.48 18.429733,-33.897858,60.96 18.432032,-33.895432,121.92 18.434486,-33.892448,182.88 18.4359,-33.889069,243.84 18.43618,-33.885452,274.32 18.435003,-33.881973,335.28 18.432592,-33.879089,365.76 18.429005,-33.876938,426.72 18.425026,-33.875702,457.2 18.420429,-33.875473,487.68 18.416225,-33.875656,548.64 18.411713,-33.876202,579.12 18.406919,-33.877075,609.6 18.401819,-33.878403,609.6 18.396721,-33.880531,640.08 18.392143,-33.883373,640.08 18.387909,-33.886585,670.56 18.383846,-33.889843,701.04 18.378614,-33.894379,731.52 18.373009,-33.899689,731.52 18.369312,-33.903717,731.52 18.36565,-33.907951,731.52 18.358435,-33.916809,731.52 18.355179,-33.921963,731.52 18.352776,-33.926945,731.52 18.350716,-33.932346,731.52 18.348738,-33.938141,731.52 18.344307,-33.951244,762 18.339769,-33.972702,762 18.355751,-33.972382,670.56 18.358938,-33.961441,640.08 18.359241,-33.954411,640.08 18.359388,-33.948761,640.08 18.359837,-33.942993,609.6 18.360729,-33.937187,609.6 18.362246,-33.93132,579.12 18.364321,-33.925552,579.12 18.366795,-33.92038,579.12 18.370342,-33.915119,579.12 18.374409,-33.910217,579.12 18.379383,-33.905579,579.12 18.384476,-33.901436,579.12 18.389854,-33.897339,548.64 18.395634,-33.893707,518.16 18.401928,-33.890541,487.68 18.408377,-33.888062,457.2 18.415489,-33.886257,426.72 18.422127,-33.885094,426.72 18.428993,-33.884628,365.76 18.435516,-33.885838,304.8 18.441181,-33.888214,274.32 18.445541,-33.891495,243.84 18.446718,-33.895615,182.88 18.443243,-33.8974,152.4 18.439522,-33.897758,121.92 18.43483,-33.898407,91.44 18.431339,-33.898968,60.96 18.427547,-33.900421,30.48 18.427906,-33.89962,30.48 18.433266,-33.895706,152.4 18.436012,-33.892593,182.88 18.43803,-33.888794,243.84 18.438478,-33.885178,274.32 18.437805,-33.881607,335.28 18.436031,-33.877785,365.76 18.433714,-33.874466,396.24 18.430595,-33.871689,457.2 18.426704,-33.870338,487.68 18.422447,-33.870026,548.64 18.417835,-33.870476,579.12 18.413311,-33.871445,609.6 18.408794,-33.872852,640.08 18.404274,-33.874901,640.08 18.399925,-33.877598,640.08 18.395317,-33.88092,640.08 18.391113,-33.884079,640.08 18.383331,-33.890541,670.56 18.379269,-33.894077,670.56 18.375607,-33.897243,670.56 18.37043,-33.901886,670.56 18.366619,-33.905365,701.04 18.362135,-33.909988,701.04 18.359051,-33.914108,701.04 18.355911,-33.918411,731.52 18.352716,-33.922943,701.04 18.350363,-33.927704,701.04 18.349686,-33.932625,701.04 18.352774,-33.936081,731.52 18.358154,-33.935558,762 18.361073,-33.932018,762 18.359276,-33.928802,762 18.355408,-33.930267,792.48 18.353951,-33.935623,762 18.352661,-33.940819,762 18.349972,-33.950127,762 18.344421,-33.966476,731.52 18.335453,-33.98584,762 18.323536,-34.007481,731.52 18.320618,-34.013252,731.52 18.317404,-34.020721,731.52 18.315239,-34.027359,701.04 18.314552,-34.033829,701.04 18.316059,-34.041779,670.56 18.318729,-34.048588,640.08 18.323536,-34.058502,609.6 18.328615,-34.068283,609.6 18.34053,-34.090855,579.12 18.344707,-34.096443,579.12 18.35043,-34.101284,609.6 18.356977,-34.104996,609.6 18.364334,-34.108639,609.6 18.371384,-34.111633,609.6 18.378925,-34.114643,609.6 18.390942,-34.119019,579.12 18.412685,-34.127213,609.6 18.428135,-34.132893,609.6 18.441067,-34.136337,609.6 18.448792,-34.135437,609.6 18.45647,-34.132782,609.6 18.463612,-34.129539,609.6 18.4697,-34.126236,609.6 18.474968,-34.121475,609.6 18.4785,-34.116119,609.6 18.480263,-34.110687,609.6 18.480549,-34.104588,609.6 18.480492,-34.098816,609.6 18.48032,-34.093414,609.6 18.4799,-34.083115,609.6 18.479229,-34.063477,609.6 18.478275,-34.050751,609.6 18.47805,-34.043152,609.6 18.477827,-34.027908,579.12 18.477402,-34.01088,609.6 18.477516,-34.000729,548.64 18.478836,-33.986206,518.16 18.479507,-33.980301,487.68 18.480125,-33.975174,457.2 18.480835,-33.969868,457.2 18.48175,-33.963161,426.72 18.483868,-33.948685,365.76 18.483067,-33.943611,335.28 18.481522,-33.939327,335.28 18.479347,-33.935326,335.28 18.476772,-33.931553,304.8 18.474083,-33.928062,304.8 18.470879,-33.924107,304.8 18.467737,-33.920471,274.32 18.463085,-33.91539,243.84 18.459606,-33.911816,243.84 18.45583,-33.908371,213.36 18.452053,-33.904972,182.88 18.44582,-33.89978,152.4 18.442009,-33.898407,152.4 18.437637,-33.898178,121.92 18.434162,-33.898499,91.44 18.431135,-33.899002,60.96 18.427334,-33.900875,0 18.433857,-33.892033,152.4 18.435562,-33.885498,243.84 18.434658,-33.881695,304.8 18.43111,-33.877647,365.76 18.424576,-33.875748,457.2 18.419533,-33.875427,518.16 18.414656,-33.875656,548.64 18.409836,-33.876617,609.6 18.405018,-33.878391,609.6 18.399639,-33.881138,609.6 18.39426,-33.884258,640.08 18.389454,-33.887608,640.08 18.384418,-33.891098,640.08 18.379679,-33.894608,670.56 18.375418,-33.898178,701.04 18.371326,-33.901886,701.04 18.367348,-33.906052,701.04 18.363873,-33.910217,731.52 18.360117,-33.915344,731.52 18.357182,-33.920101,762 18.354679,-33.925323,762 18.352493,-33.930313,762 18.349915,-33.936035,762 18.34465,-33.950687,762 18.343918,-33.966751,762 18.357986,-33.962677,731.52 18.357761,-33.953613,670.56 18.357582,-33.947941,670.56 18.358097,-33.942169,640.08 18.359928,-33.935463,609.6 18.36219,-33.929947,609.6 18.364906,-33.924618,609.6 18.368053,-33.919636,579.12 18.371944,-33.914375,579.12 18.376408,-33.909348,548.64 18.381529,-33.904587,548.64 18.386707,-33.900318,548.64 18.392258,-33.896175,518.16 18.398512,-33.892319,487.68 18.404617,-33.889332,457.2 18.411573,-33.886551,457.2 18.418692,-33.884766,426.72 18.425585,-33.883896,396.24 18.432541,-33.884441,335.28 18.439318,-33.886597,304.8 18.444672,-33.889984,243.84 18.446999,-33.894836,213.36 18.437357,-33.897903,121.92 18.428993,-33.899525,60.96 18.427162,-33.900455,30.48 18.434544,-33.892868,182.88 18.436909,-33.888748,243.84 18.43803,-33.884811,304.8 18.438263,-33.881229,335.28 18.436796,-33.877945,396.24 18.433434,-33.876343,426.72 18.42865,-33.878017,518.16 18.429005,-33.882156,548.64 18.433321,-33.884583,579.12 18.438086,-33.88353,609.6 18.437347,-33.880531,609.6 18.432598,-33.879833,609.6 18.427155,-33.879776,609.6 18.420753,-33.88002,609.6 18.414431,-33.880554,609.6 18.407993,-33.881229,609.6 18.401875,-33.882431,609.6 18.395597,-33.88504,609.6 18.389397,-33.888447,640.08 18.382988,-33.892681,670.56 18.378445,-33.896118,701.04 18.374119,-33.899525,731.52 18.37015,-33.903168,762 18.366787,-33.907288,762 18.363255,-33.912003,762 18.359642,-33.916565,762 18.356209,-33.921638,762 18.352661,-33.927971,731.52 18.350143,-33.933182,731.52 18.354231,-33.939606,762 18.357819,-33.937271,762 18.35737,-33.93338,792.48 18.352829,-33.941437,762 18.351259,-33.947388,792.48 18.348999,-33.955669,792.48 18.342133,-33.974754,792.48 18.332146,-34.000763,853.44 18.330517,-34.007202,883.92 18.329735,-34.013351,883.92 18.329544,-34.019489,883.92 18.329773,-34.026009,883.92 18.330574,-34.0322,883.92 18.332176,-34.038857,883.92 18.334332,-34.045258,883.92 18.337135,-34.051666,883.92 18.340874,-34.057663,853.44 18.34568,-34.063156,883.92 18.350487,-34.067764,883.92 18.356192,-34.072861,883.92 18.361359,-34.07745,883.92 18.366674,-34.082657,883.92 18.377552,-34.092857,792.48 18.397951,-34.109756,701.04 18.41732,-34.123955,609.6 18.424931,-34.128937,609.6 18.431696,-34.131821,609.6 18.43935,-34.133125,609.6 18.447166,-34.132599,609.6 18.453712,-34.130844,609.6 18.460226,-34.128067,609.6 18.466415,-34.12479,609.6 18.471828,-34.120697,609.6 18.475193,-34.115982,609.6 18.476715,-34.110409,609.6 18.477116,-34.105099,609.6 18.47723,-34.099373,609.6 18.477491,-34.086136,609.6 18.477882,-34.06691,609.6 18.477516,-34.047703,609.6 18.476706,-34.030197,609.6 18.476313,-34.011749,609.6 18.476887,-33.999519,548.64 18.477379,-33.993622,548.64 18.479118,-33.978851,457.2 18.481806,-33.962952,426.72 18.481979,-33.957668,426.72 18.481302,-33.95224,396.24 18.480181,-33.946793,396.24 18.478546,-33.941517,396.24 18.47637,-33.936447,335.28 18.473969,-33.931927,335.28 18.470932,-33.9272,304.8 18.467737,-33.922531,304.8 18.464184,-33.917728,274.32 18.460339,-33.913193,274.32 18.456516,-33.90921,243.84 18.452168,-33.90609,213.36 18.446388,-33.903065,182.88 18.437119,-33.898968,121.92 18.428078,-33.900131,30.48 18.429852,-33.897572,91.44 18.431339,-33.89608,121.92 18.433657,-33.893738,182.88 18.4342,-33.893196,182.88 18.436203,-33.890587,243.84 18.436628,-33.889893,243.84 18.43758,-33.886734,304.8 18.437693,-33.886047,304.8 18.437637,-33.882706,335.28 18.437525,-33.881927,335.28 18.436628,-33.878632,365.76 18.43626,-33.877693,365.76 18.43461,-33.874374,426.72 18.434143,-33.873642,426.72 18.431864,-33.871124,487.68 18.431135,-33.870621,518.16 18.428478,-33.869408,548.64 18.42762,-33.869221,579.12 18.424644,-33.869267,609.6 18.424017,-33.869431,609.6 18.42127,-33.871262,609.6 18.42071,-33.872314,609.6 18.420753,-33.875366,609.6 18.421211,-33.876202,609.6 18.42453,-33.878532,640.08 18.425388,-33.878765,640.08 18.429958,-33.878174,640.08 18.430939,-33.877506,640.08 18.432312,-33.874107,640.08 18.432087,-33.873276,640.08 18.428822,-33.870758,640.08 18.427828,-33.870529,640.08 18.423615,-33.870476,640.08 18.422503,-33.870575,640.08 18.417963,-33.87117,640.08 18.416519,-33.871456,640.08 18.411741,-33.872406,640.08 18.410732,-33.872635,640.08 18.406048,-33.87397,670.56 18.404846,-33.874386,670.56 18.400898,-33.876202,670.56 18.399746,-33.876801,670.56 18.395542,-33.879227,670.56 18.394588,-33.879868,670.56 18.390945,-33.882477,670.56 18.390049,-33.883209,670.56 18.386404,-33.886047,701.04 18.385334,-33.886864,701.04 18.381584,-33.889893,701.04 18.380871,-33.89045,701.04 18.377155,-33.893738,701.04 18.376522,-33.89436,701.04 18.372974,-33.897663,731.52 18.372402,-33.898224,731.52 18.369198,-33.90134,731.52 18.368299,-33.902252,762 18.365049,-33.90564,762 18.364544,-33.906235,762 18.361294,-33.909943,762 18.360386,-33.910931,762 18.356865,-33.915207,762 18.356192,-33.916031,762 18.350307,-33.923859,762 18.349686,-33.924805,762 18.347282,-33.929134,762 18.346767,-33.930157,762 18.344936,-33.934299,762 18.344589,-33.93512,762 18.343391,-33.939236,762 18.343334,-33.939934,762 18.344477,-33.944092,792.48 18.344936,-33.944542,822.96 18.348656,-33.945614,853.44 18.349743,-33.945332,853.44 18.352604,-33.942913,883.92 18.352997,-33.942169,914.4 18.354343,-33.939056,914.4 18.354511,-33.938187,944.88 18.352886,-33.93512,944.88 18.352032,-33.934673,914.4 18.347729,-33.935577,914.4 18.347055,-33.936356,914.4 18.34631,-33.940865,914.4 18.346272,-33.942123,914.4 18.345823,-33.94693,883.92 18.345598,-33.948349,883.92 18.344589,-33.953156,883.92 18.344309,-33.954391,883.92 18.342739,-33.95961,883.92 18.340441,-33.965607,914.4 18.333492,-33.978573,914.4 18.332119,-33.98127,914.4 18.326372,-33.993484,914.4 18.325644,-33.995316,883.92 18.323879,-34.000031,883.92 18.323513,-34.001038,883.92 18.321552,-34.00676,914.4 18.321215,-34.007812,914.4 18.319759,-34.012463,883.92 18.319366,-34.01358,883.92 18.317965,-34.018112,883.92 18.317642,-34.019211,883.92 18.316452,-34.024109,883.92 18.316282,-34.025024,883.92 18.315554,-34.030472,883.92 18.315554,-34.031616,883.92 18.316002,-34.036972,853.44 18.316326,-34.038437,853.44 18.3181,-34.04351,853.44 18.318581,-34.044617,822.96 18.32172,-34.049377,822.96 18.322678,-34.050587,792.48 18.32674,-34.055569,762 18.327541,-34.056595,762 18.331192,-34.0616,731.52 18.332062,-34.062923,731.52 18.334948,-34.067871,701.04 18.335566,-34.069244,701.04 18.337898,-34.074516,670.56 18.338367,-34.075607,670.56 18.340359,-34.080799,670.56 18.340702,-34.08173,640.08 18.342648,-34.086945,640.08 18.342991,-34.08783,640.08 18.349466,-34.10408,609.6 18.350924,-34.107788,609.6 18.352547,-34.114178,609.6 18.352604,-34.115295,609.6 18.351707,-34.120377,609.6 18.351345,-34.121254,609.6 18.34885,-34.125092,609.6 18.348177,-34.12587,609.6 18.34487,-34.129211,609.6 18.343792,-34.130238,609.6 18.340441,-34.133377,609.6 18.339558,-34.134243,609.6 18.336697,-34.137825,609.6 18.336182,-34.138687,609.6 18.334351,-34.142902,609.6 18.33395,-34.144066,609.6 18.333042,-34.149399,609.6 18.33321,-34.151367,609.6 18.334948,-34.155899,609.6 18.335781,-34.157284,609.6 18.33876,-34.161392,609.6 18.339657,-34.162537,609.6 18.342964,-34.166931,609.6 18.343973,-34.16835,609.6 18.34671,-34.172787,579.12 18.347616,-34.174438,579.12 18.350027,-34.179108,609.6 18.350475,-34.179932,609.6 18.353062,-34.18531,609.6 18.353445,-34.186111,609.6 18.360958,-34.201092,609.6 18.361574,-34.202408,609.6 18.366394,-34.211929,609.6 18.369026,-34.216595,609.6 18.371258,-34.221249,609.6 18.371716,-34.222366,609.6 18.373375,-34.227116,609.6 18.373737,-34.2285,609.6 18.374689,-34.233719,579.12 18.374805,-34.235027,579.12 18.37492,-34.240055,579.12 18.374969,-34.241226,579.12 18.374914,-34.245895,579.12 18.374863,-34.247272,579.12 18.374691,-34.252068,579.12 18.374578,-34.25592,579.12 18.374466,-34.269241,609.6 18.374805,-34.270687,609.6 18.376579,-34.275761,609.6 18.377037,-34.276833,609.6 18.37923,-34.281693,609.6 18.379343,-34.281921,609.6 18.418465,-34.33353,579.12 18.422279,-34.336395,579.12 18.429565,-34.341724,579.12 18.43071,-34.342518,609.6 18.442064,-34.350174,609.6 18.446045,-34.352783,609.6 18.463198,-34.364639,609.6 18.464813,-34.365559,609.6 18.470764,-34.368301,609.6 18.472309,-34.368866,609.6 18.478603,-34.370682,609.6 18.480206,-34.371052,609.6 18.48646,-34.37233,609.6 18.487816,-34.372589,609.6 18.494053,-34.373566,640.08 18.495764,-34.373795,640.08 18.501549,-34.374405,609.6 18.503208,-34.374546,609.6 18.508991,-34.374527,609.6 18.510132,-34.374405,609.6 18.514765,-34.373062,640.08 18.515886,-34.372467,640.08 18.518372,-34.369705,640.08 18.518633,-34.369034,640.08 18.51852,-34.365967,640.08 18.5182,-34.365326,640.08 18.515944,-34.363358,609.6 18.51511,-34.363094,609.6 18.511515,-34.363403,609.6 18.510506,-34.363678,609.6 18.507042,-34.364677,609.6 18.506012,-34.365002,609.6 18.502178,-34.366024,640.08 18.501148,-34.366257,640.08 18.497314,-34.366909,609.6 18.495998,-34.366959,609.6 18.491764,-34.366909,609.6 18.490791,-34.366863,609.6 18.48646,-34.366425,609.6 18.485355,-34.366257,609.6 18.481178,-34.365376,609.6 18.480492,-34.365143,609.6 18.476486,-34.363605,609.6 18.475571,-34.363186,609.6 18.472195,-34.361324,609.6 18.471451,-34.360813,609.6 18.468185,-34.358002,609.6 18.467617,-34.357368,609.6 18.465664,-34.354156,609.6 18.465326,-34.353149,609.6 18.464991,-34.349442,640.08 18.465099,-34.348522,670.56 18.466335,-34.345047,670.56 18.466953,-34.343994,670.56 18.469276,-34.339909,670.56 18.469677,-34.338932,670.56 18.471212,-34.334747,640.08 18.471548,-34.333466,640.08 18.472446,-34.329208,640.08 18.472727,-34.328201,640.08 18.473625,-34.324223,640.08 18.473854,-34.323151,640.08 18.476772,-34.308254,640.08 18.477434,-34.303986,640.08 18.478718,-34.296429,609.6 18.479347,-34.293125,640.08 18.481808,-34.281441,609.6 18.482031,-34.280319,609.6 18.48332,-34.274872,609.6 18.483488,-34.274048,609.6 18.484325,-34.269989,609.6 18.48444,-34.269012,609.6 18.484833,-34.264664,609.6 18.484777,-34.263565,609.6 18.484497,-34.259655,640.08 18.484385,-34.258438,640.08 18.483713,-34.254135,640.08 18.483543,-34.252899,640.08 18.482838,-34.248108,640.08 18.482666,-34.24704,640.08 18.481583,-34.240585,609.6 18.480892,-34.237354,579.12 18.480125,-34.233719,579.12 18.479958,-34.232803,579.12 18.477287,-34.220737,579.12 18.476538,-34.217606,579.12 18.475193,-34.213074,609.6 18.474884,-34.212215,609.6 18.473568,-34.208538,609.6 18.473167,-34.207561,609.6 18.471737,-34.20393,609.6 18.47138,-34.203003,609.6 18.469791,-34.199184,609.6 18.469362,-34.198151,640.08 18.467625,-34.194214,640.08 18.467121,-34.193161,640.08 18.46447,-34.187359,640.08 18.464012,-34.186287,609.6 18.461552,-34.180328,609.6 18.461037,-34.179165,609.6 18.459274,-34.175354,609.6 18.458769,-34.174255,609.6 18.456863,-34.17041,609.6 18.456415,-34.169403,609.6 18.454628,-34.16534,609.6 18.454229,-34.16423,609.6 18.453163,-34.159744,609.6 18.453051,-34.158737,609.6 18.453051,-34.154434,609.6 18.453197,-34.153423,609.6 18.45434,-34.148804,609.6 18.454685,-34.147789,609.6 18.456745,-34.143368,609.6 18.457375,-34.142296,609.6 18.459778,-34.138664,609.6 18.460562,-34.137543,609.6 18.463669,-34.133499,640.08 18.464298,-34.13266,640.08 18.467445,-34.128841,640.08 18.468185,-34.12793,640.08 18.471222,-34.123955,640.08 18.471966,-34.122883,640.08 18.474312,-34.118649,640.08 18.474688,-34.11763,640.08 18.475977,-34.113098,640.08 18.476143,-34.112038,640.08 18.476257,-34.107147,640.08 18.476028,-34.105892,640.08 18.474312,-34.101887,609.6 18.473623,-34.100784,609.6 18.471107,-34.097511,609.6 18.470249,-34.096489,609.6 18.46756,-34.093697,609.6 18.466616,-34.092728,609.6 18.463554,-34.089554,609.6 18.462696,-34.088715,609.6 18.457832,-34.083687,609.6 18.455519,-34.081329,609.6 18.452042,-34.077896,609.6 18.451258,-34.077118,609.6 18.443241,-34.069023,609.6 18.44257,-34.068283,609.6 18.439865,-34.064552,640.08 18.439318,-34.063614,640.08 18.437405,-34.059711,640.08 18.437021,-34.058716,640.08 18.435339,-34.054688,640.08 18.434778,-34.053452,609.6 18.43317,-34.049889,609.6 18.432816,-34.04892,609.6 18.431639,-34.044983,609.6 18.431396,-34.043652,609.6 18.430742,-34.039581,609.6 18.430653,-34.038483,609.6 18.430407,-34.034454,609.6 18.430424,-34.033318,609.6 18.430799,-34.02919,609.6 18.430939,-34.028244,609.6 18.431696,-34.02388,609.6 18.431854,-34.022842,609.6 18.432873,-34.01889,609.6 18.43317,-34.01786,609.6 18.434715,-34.013393,609.6 18.435171,-34.01239,609.6 18.437412,-34.00827,609.6 18.438091,-34.007294,609.6 18.441393,-34.003418,609.6 18.442514,-34.002365,609.6 18.446903,-33.999241,579.12 18.448063,-33.998566,579.12 18.452772,-33.995819,548.64 18.453892,-33.995224,548.64 18.45892,-33.992397,518.16 18.459892,-33.991745,518.16 18.464094,-33.98877,518.16 18.465042,-33.988022,518.16 18.468859,-33.98465,487.68 18.469563,-33.983879,487.68 18.472424,-33.980202,487.68 18.472996,-33.979362,457.2 18.475193,-33.975723,457.2 18.475754,-33.974716,457.2 18.477602,-33.970688,457.2 18.47805,-33.969681,457.2 18.479677,-33.965744,457.2 18.480034,-33.964745,457.2 18.481464,-33.960602,426.72 18.48175,-33.959747,426.72 18.482704,-33.955811,396.24 18.482895,-33.954876,396.24 18.483208,-33.951141,396.24 18.483181,-33.950081,365.76 18.482704,-33.946426,365.76 18.482552,-33.945564,365.76 18.481583,-33.94194,335.28 18.481293,-33.941051,335.28 18.479958,-33.937683,335.28 18.47962,-33.936813,335.28 18.478163,-33.933792,335.28 18.477745,-33.933044,335.28 18.475864,-33.930084,335.28 18.475399,-33.929459,335.28 18.473175,-33.926468,304.8 18.472446,-33.925552,304.8 18.470148,-33.922714,304.8 18.469362,-33.921799,304.8 18.466702,-33.918797,304.8 18.466129,-33.918148,304.8 18.458769,-33.910172,213.36 18.457317,-33.908695,213.36 18.454678,-33.90596,182.88 18.454117,-33.905365,182.88 18.451035,-33.902206,182.88 18.450279,-33.901482,182.88 18.447647,-33.89957,152.4 18.446941,-33.899277,152.4 18.443523,-33.898453,152.4 18.442669,-33.898407,152.4 18.439579,-33.89827,121.92 18.438663,-33.898315,121.92 18.436031,-33.898457,91.44 18.435226,-33.898544,91.44 18.432655,-33.898872,91.44 18.431854,-33.899014,60.96 18.428993,-33.900177,30.48 18.428389,-33.900421,30.48 18.42709,-33.901108,0 18.427105,-33.900875,30.48 18.427996,-33.899506,30.48 18.428221,-33.899277,30.48 18.430126,-33.897446,91.44 18.430653,-33.896919,91.44 18.432592,-33.894791,152.4 18.432928,-33.894424,152.4 18.434834,-33.891907,182.88 18.43523,-33.891193,213.36 18.436031,-33.888401,243.84 18.436146,-33.887608,243.84 18.436089,-33.884769,274.32 18.435917,-33.884026,304.8 18.434666,-33.881378,335.28 18.434217,-33.880783,335.28 18.431864,-33.878448,396.24 18.431396,-33.878159,396.24 18.428221,-33.876572,426.72 18.427267,-33.876251,426.72 18.42396,-33.875565,457.2 18.423271,-33.875504,457.2 18.419701,-33.875473,518.16 18.418865,-33.875504,518.16 18.41544,-33.875748,548.64 18.414543,-33.875839,548.64 18.410854,-33.876297,579.12 18.410004,-33.876434,579.12 18.405991,-33.877274,609.6 18.404959,-33.877533,609.6 18.400784,-33.878765,609.6 18.399582,-33.879181,609.6 18.396046,-33.88092,640.08 18.394756,-33.881699,640.08 18.391449,-33.883942,640.08 18.390598,-33.884537,670.56 18.38719,-33.887146,670.56 18.38625,-33.887936,670.56 18.383041,-33.890488,701.04 18.382072,-33.891285,701.04 18.377829,-33.895065,731.52 18.37532,-33.897385,731.52 18.372112,-33.90065,731.52 18.371429,-33.90134,731.52 18.368467,-33.904678,731.52 18.367996,-33.905205,731.52 18.364735,-33.908978,731.52 18.364048,-33.909767,731.52 18.357811,-33.917683,731.52 18.35709,-33.918732,731.52 18.354721,-33.922894,731.52 18.354231,-33.923859,731.52 18.352375,-33.928062,731.52 18.352032,-33.928806,731.52 18.350258,-33.933647,731.52 18.349915,-33.934662,731.52 18.348312,-33.939327,731.52 18.348026,-33.940353,731.52 18.343019,-33.954758,762 18.341843,-33.958099,762 18.342419,-33.974941,731.52 18.345966,-33.976059,731.52 18.357296,-33.969681,670.56 18.358042,-33.966888,670.56 18.35907,-33.960182,640.08 18.359219,-33.957779,640.08 18.359276,-33.953796,640.08 18.359276,-33.952469,640.08 18.359444,-33.947708,609.6 18.359499,-33.946426,609.6 18.359947,-33.942078,609.6 18.3601,-33.94091,609.6 18.360958,-33.936024,609.6 18.361244,-33.93486,609.6 18.362617,-33.930252,579.12 18.362961,-33.929085,579.12 18.364712,-33.9245,579.12 18.365192,-33.923454,579.12 18.367538,-33.919216,579.12 18.368168,-33.91824,579.12 18.371201,-33.913956,579.12 18.371887,-33.913101,579.12 18.375307,-33.909302,579.12 18.376146,-33.908478,579.12 18.380352,-33.90477,579.12 18.381472,-33.903854,579.12 18.38562,-33.900513,579.12 18.386593,-33.899757,579.12 18.390945,-33.896576,548.64 18.392029,-33.895893,548.64 18.396832,-33.893051,518.16 18.397896,-33.892456,518.16 18.403244,-33.889984,487.68 18.404446,-33.889469,487.68 18.409939,-33.887608,457.2 18.41114,-33.887238,457.2 18.416748,-33.886024,426.72 18.418299,-33.885727,426.72 18.423729,-33.884861,396.24 18.424969,-33.88472,396.24 18.430309,-33.884769,365.76 18.431454,-33.884907,365.76 18.436661,-33.886211,304.8 18.437862,-33.886677,304.8 18.442177,-33.88884,274.32 18.443241,-33.889519,243.84 18.446213,-33.89241,213.36 18.446617,-33.893147,213.36 18.446274,-33.896221,182.88 18.445587,-33.896732,182.88 18.442738,-33.897446,152.4 18.441786,-33.897537,152.4 18.43803,-33.897949,121.92 18.437302,-33.898041,121.92 18.434143,-33.898502,91.44 18.433342,-33.89864,91.44 18.430742,-33.899094,60.96 18.428612,-33.89978,30.48 18.427334,-33.900688,0 18.427212,-33.90097,0 18.430138,-33.898129,91.44 18.431396,-33.897243,91.44 18.433937,-33.895065,152.4 18.434372,-33.894638,152.4 18.436571,-33.891724,182.88 18.436947,-33.891193,213.36 18.438198,-33.888107,243.84 18.438377,-33.88747,243.84 18.438435,-33.884491,304.8 18.438366,-33.883804,304.8 18.437469,-33.880783,335.28 18.437189,-33.880096,335.28 18.435675,-33.877167,365.76 18.435287,-33.87653,396.24 18.433096,-33.873734,426.72 18.432541,-33.873177,426.72 18.429846,-33.871307,457.2 18.429222,-33.871037,457.2 18.425922,-33.870209,518.16 18.424913,-33.870071,518.16 18.421213,-33.870071,548.64 18.420429,-33.870117,548.64 18.416805,-33.870663,579.12 18.416004,-33.870804,609.6 18.412457,-33.871689,609.6 18.411404,-33.871994,609.6 18.407986,-33.873184,640.08 18.407135,-33.87355,640.08 18.403221,-33.875473,640.08 18.40238,-33.875977,640.08 18.39901,-33.8783,640.08 18.398037,-33.878948,640.08 18.394489,-33.881557,640.08 18.393635,-33.882156,640.08 18.390049,-33.884949,640.08 18.388424,-33.886211,640.08 18.38253,-33.891193,670.56 18.381786,-33.891846,670.56 18.378525,-33.894684,670.56 18.377884,-33.895248,670.56 18.374519,-33.89827,670.56 18.373661,-33.899014,670.56 18.369701,-33.902527,701.04 18.368912,-33.903202,701.04 18.365217,-33.906738,701.04 18.364563,-33.907394,701.04 18.361629,-33.910629,701.04 18.360844,-33.911629,701.04 18.358326,-33.915028,701.04 18.357761,-33.915894,731.52 18.355295,-33.919327,731.52 18.354549,-33.920334,731.52 18.352045,-33.924088,701.04 18.351707,-33.924728,701.04 18.350086,-33.928619,701.04 18.349802,-33.929535,701.04 18.350029,-33.933697,731.52 18.350544,-33.934441,731.52 18.353748,-33.936302,731.52 18.355072,-33.936356,762 18.359127,-33.934952,762 18.359642,-33.934486,762 18.361126,-33.931274,762 18.361015,-33.930531,762 18.358326,-33.928619,762 18.357639,-33.928619,762 18.355015,-33.93132,792.48 18.354721,-33.932251,792.48 18.353748,-33.936348,762 18.353502,-33.9375,762 18.352325,-33.942123,762 18.352045,-33.943268,762 18.348885,-33.953945,762 18.348141,-33.956459,731.52 18.343277,-33.96917,731.52 18.341961,-33.971867,762 18.332691,-33.991142,762 18.329773,-33.996681,762 18.322849,-34.008736,731.52 18.322281,-34.009872,731.52 18.319815,-34.014999,731.52 18.318958,-34.016792,731.52 18.316956,-34.021866,731.52 18.31662,-34.022964,731.52 18.31501,-34.028477,701.04 18.31477,-34.029648,701.04 18.314713,-34.03624,701.04 18.31505,-34.038071,701.04 18.316727,-34.043606,670.56 18.317236,-34.045029,670.56 18.319702,-34.050797,640.08 18.321476,-34.054451,640.08 18.324108,-34.05962,609.6 18.325195,-34.061619,609.6 18.331081,-34.073181,579.12 18.333042,-34.077026,579.12 18.34116,-34.091831,579.12 18.341955,-34.093002,579.12 18.345566,-34.097324,609.6 18.346775,-34.09845,609.6 18.351574,-34.102028,609.6 18.35289,-34.102772,609.6 18.358612,-34.105846,609.6 18.359871,-34.106499,609.6 18.36565,-34.109245,609.6 18.367081,-34.109848,609.6 18.372728,-34.112183,609.6 18.374466,-34.112915,609.6 18.380585,-34.11525,609.6 18.381958,-34.115761,609.6 18.395597,-34.120743,609.6 18.400269,-34.122559,609.6 18.414375,-34.127838,609.6 18.415718,-34.12833,609.6 18.434143,-34.135033,609.6 18.435917,-34.135544,609.6 18.442268,-34.136383,609.6 18.443699,-34.136292,609.6 18.450361,-34.134979,609.6 18.451874,-34.134521,609.6 18.458096,-34.13205,609.6 18.459721,-34.131355,609.6 18.465158,-34.128799,609.6 18.466448,-34.128113,609.6 18.470993,-34.125305,609.6 18.471998,-34.124451,609.6 18.475914,-34.120277,609.6 18.476658,-34.119251,609.6 18.478949,-34.115158,609.6 18.47934,-34.114151,640.08 18.480406,-34.109436,609.6 18.480461,-34.108383,609.6 18.480549,-34.103519,640.08 18.480549,-34.102448,609.6 18.480492,-34.097931,609.6 18.480406,-34.096802,609.6 18.480206,-34.090019,609.6 18.480148,-34.088715,640.08 18.479733,-34.078445,609.6 18.479507,-34.073914,609.6 18.478949,-34.059311,609.6 18.478546,-34.054779,609.6 18.47822,-34.049423,609.6 18.47822,-34.048599,609.6 18.478031,-34.039833,609.6 18.478031,-34.035553,609.6 18.477715,-34.023514,579.12 18.477573,-34.019119,609.6 18.477402,-34.009808,609.6 18.477402,-34.007202,579.12 18.477688,-33.997334,548.64 18.47805,-33.993027,518.16 18.478949,-33.985199,518.16 18.479118,-33.983784,487.68 18.479633,-33.979221,457.2 18.479733,-33.978195,457.2 18.480238,-33.973984,457.2 18.480377,-33.972984,457.2 18.481064,-33.968098,457.2 18.481293,-33.966003,457.2 18.482199,-33.960297,426.72 18.482838,-33.956459,426.72 18.483824,-33.947708,365.76 18.483753,-33.946869,365.76 18.48278,-33.942772,335.28 18.482592,-33.942169,335.28 18.481178,-33.938492,335.28 18.480686,-33.937592,335.28 18.478836,-33.93457,335.28 18.478331,-33.933792,335.28 18.4762,-33.930809,304.8 18.475742,-33.930202,304.8 18.473455,-33.927246,304.8 18.472895,-33.926605,304.8 18.470316,-33.923401,304.8 18.469587,-33.922577,304.8 18.465775,-33.91832,274.32 18.465103,-33.917587,274.32 18.462296,-33.914562,243.84 18.461666,-33.913864,243.84 18.458714,-33.91095,213.36 18.458118,-33.910419,213.36 18.455069,-33.907654,213.36 18.454172,-33.906876,213.36 18.451252,-33.904274,182.88 18.450565,-33.903667,182.88 18.445015,-33.899292,152.4 18.444328,-33.898968,152.4 18.44101,-33.89827,152.4 18.440271,-33.898224,152.4 18.436947,-33.898224,121.92 18.436317,-33.898224,91.44 18.433456,-33.898594,91.44 18.432985,-33.898682,91.44 18.43063,-33.899139,60.96 18.430367,-33.8992,60.96 18.427105,-33.901108,0 18.427505,-33.899757,30.48 18.434834,-33.89003,182.88 18.435339,-33.888382,182.88 18.435459,-33.884491,243.84 18.435345,-33.883839,274.32 18.434162,-33.880646,304.8 18.433743,-33.880066,335.28 18.430595,-33.877365,365.76 18.427963,-33.876484,396.24 18.423512,-33.87561,457.2 18.422585,-33.875504,487.68 18.418579,-33.875427,518.16 18.417606,-33.875412,518.16 18.413759,-33.875748,548.64 18.412857,-33.875923,579.12 18.408714,-33.876984,609.6 18.407879,-33.877274,609.6 18.403893,-33.878906,609.6 18.402958,-33.879368,609.6 18.398724,-33.881603,609.6 18.397751,-33.88216,640.08 18.393356,-33.884857,640.08 18.392315,-33.885559,640.08 18.388424,-33.888306,640.08 18.387526,-33.888931,640.08 18.383617,-33.891705,670.56 18.382645,-33.892357,670.56 18.378696,-33.895428,670.56 18.377941,-33.896027,670.56 18.374634,-33.898865,701.04 18.373905,-33.899551,701.04 18.370262,-33.902985,701.04 18.369484,-33.903763,701.04 18.366508,-33.907021,701.04 18.365936,-33.907673,701.04 18.362974,-33.911453,731.52 18.362331,-33.912327,731.52 18.359724,-33.915939,731.52 18.359013,-33.917076,731.52 18.356642,-33.921249,762 18.356081,-33.922348,762 18.354231,-33.926376,762 18.353806,-33.927273,762 18.351933,-33.931549,762 18.351427,-33.932739,762 18.348942,-33.938396,762 18.347111,-33.943333,762 18.34425,-33.952038,762 18.343019,-33.956039,762 18.347393,-33.968491,762 18.351173,-33.968655,762 18.358099,-33.961624,701.04 18.358042,-33.957367,701.04 18.357697,-33.952503,670.56 18.357639,-33.951153,670.56 18.357582,-33.946682,670.56 18.357651,-33.945557,640.08 18.358269,-33.941051,640.08 18.358828,-33.938736,640.08 18.36034,-33.934341,609.6 18.360676,-33.933334,609.6 18.362694,-33.92894,609.6 18.363367,-33.927567,609.6 18.365479,-33.923687,609.6 18.366108,-33.922615,609.6 18.36886,-33.918457,579.12 18.369541,-33.917587,579.12 18.372517,-33.913677,579.12 18.373737,-33.912231,579.12 18.377552,-33.90823,548.64 18.378468,-33.907345,548.64 18.382587,-33.903667,548.64 18.383503,-33.902924,548.64 18.388138,-33.8992,548.64 18.38904,-33.898499,518.16 18.393579,-33.895294,518.16 18.394701,-33.894562,518.16 18.399925,-33.891567,487.68 18.401127,-33.890961,487.68 18.40608,-33.888702,457.2 18.407936,-33.887936,457.2 18.413086,-33.88612,457.2 18.414431,-33.885727,426.72 18.419813,-33.884537,426.72 18.421497,-33.884258,396.24 18.426874,-33.88385,365.76 18.428556,-33.883896,365.76 18.434105,-33.884811,335.28 18.435287,-33.885094,304.8 18.440104,-33.886963,274.32 18.441616,-33.887787,274.32 18.445261,-33.890579,243.84 18.446159,-33.891705,243.84 18.44656,-33.895943,213.36 18.442669,-33.897663,182.88 18.435675,-33.898087,121.92 18.434143,-33.89827,91.44 18.428192,-33.90004,30.48 18.427547,-33.900604,30.48 18.42923,-33.898361,60.96 18.427505,-33.899899,91.44 18.434891,-33.89241,182.88 18.43586,-33.890915,213.36 18.437233,-33.887936,243.84 18.437469,-33.887054,274.32 18.438148,-33.884117,304.8 18.438263,-33.883373,304.8 18.438091,-33.88044,335.28 18.437805,-33.879547,365.76 18.436432,-33.877598,396.24 18.435745,-33.877087,396.24 18.43277,-33.876251,457.2 18.431911,-33.876297,457.2 18.428192,-33.879276,518.16 18.428135,-33.880066,548.64 18.429565,-33.882767,548.64 18.430407,-33.883392,579.12 18.434162,-33.884674,579.12 18.435452,-33.884674,579.12 18.438534,-33.882889,609.6 18.438663,-33.88221,609.6 18.436741,-33.880325,609.6 18.435802,-33.880161,609.6 18.431471,-33.879822,609.6 18.430424,-33.879787,609.6 18.42609,-33.879776,609.6 18.424185,-33.879822,609.6 18.419552,-33.880112,609.6 18.418236,-33.880207,609.6 18.412973,-33.880692,609.6 18.411852,-33.880783,609.6 18.406734,-33.881371,609.6 18.405294,-33.881607,609.6 18.399857,-33.883072,609.6 18.398905,-33.883438,609.6 18.394588,-33.885544,609.6 18.393574,-33.886074,609.6 18.388596,-33.888912,640.08 18.385508,-33.8909,640.08 18.381865,-33.893509,670.56 18.381023,-33.89415,670.56 18.377548,-33.896805,701.04 18.376652,-33.897537,701.04 18.373375,-33.900131,731.52 18.372448,-33.900925,731.52 18.369534,-33.903854,762 18.368797,-33.904739,762 18.366108,-33.908138,762 18.365498,-33.909027,762 18.36256,-33.912888,762 18.361816,-33.913773,762 18.358938,-33.917496,762 18.35804,-33.918751,762 18.355072,-33.92363,762 18.354399,-33.92482,731.52 18.3521,-33.929077,731.52 18.351574,-33.930065,731.52 18.350086,-33.937092,762 18.350531,-33.937866,762 18.355183,-33.939423,762 18.356094,-33.939003,762 18.358322,-33.936401,762 18.358547,-33.935669,762 18.356438,-33.933323,792.48 18.355694,-33.933556,792.48 18.352489,-33.94268,762 18.352261,-33.943657,762 18.351002,-33.948498,792.48 18.350658,-33.949802,792.48 18.34857,-33.956955,792.48 18.347729,-33.959564,792.48 18.340073,-33.980572,762 18.337919,-33.986252,792.48 18.331753,-34.002045,853.44 18.331305,-34.003693,853.44 18.330345,-34.008224,883.92 18.330116,-34.009529,853.44 18.329659,-34.014648,883.92 18.329567,-34.016052,883.92 18.329544,-34.02084,883.92 18.329544,-34.021957,883.92 18.32983,-34.027126,883.92 18.330015,-34.028687,883.92 18.330803,-34.033363,883.92 18.331137,-34.034821,883.92 18.332634,-34.040394,883.92 18.332987,-34.041367,883.92 18.334837,-34.046631,883.92 18.335323,-34.047749,883.92 18.337727,-34.052776,883.92 18.33847,-34.054127,853.44 18.341618,-34.058689,853.44 18.342705,-34.05999,853.44 18.346767,-34.064228,883.92 18.347561,-34.064941,883.92 18.351652,-34.068832,883.92 18.352606,-34.069702,883.92 18.357067,-34.073631,883.92 18.35804,-34.074471,883.92 18.362389,-34.078472,883.92 18.363533,-34.079544,914.4 18.367683,-34.083572,883.92 18.368855,-34.084759,883.92 18.380856,-34.095749,762 18.385227,-34.099503,762 18.401814,-34.11264,640.08 18.405462,-34.115341,640.08 18.419588,-34.125504,609.6 18.420982,-34.126423,609.6 18.425903,-34.129494,609.6 18.427162,-34.1301,609.6 18.433489,-34.132324,609.6 18.434891,-34.132599,609.6 18.441,-34.133148,609.6 18.442625,-34.133102,609.6 18.448624,-34.132278,609.6 18.449821,-34.132008,609.6 18.455029,-34.130333,609.6 18.456573,-34.129681,609.6 18.461666,-34.127354,609.6 18.462925,-34.126747,609.6 18.467682,-34.123993,609.6 18.468691,-34.123306,609.6 18.47271,-34.119717,609.6 18.473455,-34.11882,609.6 18.475697,-34.114838,609.6 18.476028,-34.113899,609.6 18.47683,-34.109428,609.6 18.476931,-34.108337,609.6 18.477154,-34.103943,609.6 18.477173,-34.102867,609.6 18.477287,-34.098492,609.6 18.477322,-34.097168,609.6 18.477573,-34.081825,609.6 18.477745,-34.077633,609.6 18.477827,-34.062561,609.6 18.477715,-34.059357,609.6 18.477322,-34.044342,609.6 18.477173,-34.040161,609.6 18.476486,-34.027126,609.6 18.476313,-34.022964,609.6 18.476313,-34.008591,579.12 18.476486,-34.00441,579.12 18.477001,-33.998447,548.64 18.477098,-33.997284,548.64 18.477516,-33.992256,518.16 18.477602,-33.991196,518.16 18.479677,-33.97467,457.2 18.480492,-33.970379,457.2 18.481918,-33.961945,426.72 18.481979,-33.960743,426.72 18.481863,-33.956772,396.24 18.481808,-33.955574,396.24 18.481121,-33.951153,426.72 18.480892,-33.949944,396.24 18.4799,-33.945694,396.24 18.479576,-33.94445,396.24 18.478146,-33.940353,365.76 18.477827,-33.939651,365.76 18.476028,-33.935745,335.28 18.475513,-33.934719,335.28 18.473455,-33.931091,335.28 18.472996,-33.930344,335.28 18.470306,-33.926247,304.8 18.469643,-33.925278,304.8 18.467159,-33.92178,304.8 18.46656,-33.920929,304.8 18.463421,-33.916763,274.32 18.462692,-33.915848,274.32 18.459549,-33.912327,243.84 18.458824,-33.911499,243.84 18.455797,-33.908569,243.84 18.454958,-33.907928,243.84 18.451426,-33.90564,213.36 18.450222,-33.905018,182.88 18.444811,-33.902298,152.4 18.443813,-33.901852,152.4 18.433769,-33.898773,91.44 18.432705,-33.898865,91.44 18.427603,-33.900558,30.48 18.427219,-33.900921,30.48
        </coordinates>
      </LineString>
    </Placemark>
  </Document>
</kml>