<?xml version="1.0" encoding="UTF-8"?>
<kml xmlns="http://www.opengis.net/kml/2.2">
  <Document>
    <name>-/ZTHOT - Optimised</name>
    <description><![CDATA[Optimised flight path with 1277 points (decimated from 6381 original points). Source format: Standard KML]]></description>
    
    <Style id="flightPath">
      <LineStyle>
        <color>ff0000ff</color>
        <width>3</width>
      </LineStyle>
    </Style>
    
    <Placemark>
      <name>Flight Path</name>
      <description><![CDATA[<div style="width:220px; text-align:center;">
<div style="width:210px; text-align:center;">
<div style=" background: #000; color: #fff; font-size: 14px; text-align:left; border: 1px solid #000; padding: 2px 6px; text-shadow: 0 1px 0 #000; box-shadow: 0 1px 3px rgba(0,0,0,0.6); background: -webkit-gradient(linear, left top, left bottom, color-stop(0%,#808080), color-stop(2%,#303030), color-stop(100%,#0c0c0c));"><span style="font-size: 14px; font-weight: bold;"><a href="javascript:void(0);" style="color: #fff; cursor: pointer;text-decoration: none;">-</a></span> / ZTHOT<br/>Cape Town Helicopters</div>

<div style="border-top: 1px solid #005c90; color: #fff; padding-bottom: 5px; box-shadow: 0 0 1px #9BE3F6 inset, 0 1px 0 #9BE3F6 inset, 0 -1px 3px rgba(0,0,0,0.4); background:rgba(43,114,173,1); background: -webkit-gradient(linear, left top, left bottom, color-stop(0%,rgba(92,184,229,1)), color-stop(100%,rgba(43,114,173,1)));">
<a style="text-decoration: none; color: rgb(255, 255, 255); font-size: 12px; width:77px; display: inline-block;" title=" Airport" href="javascript:void(0);/departures"><h3 style="padding: 0px; margin: 10px 0px 0px; font-size: 16px; ">?</h3></a>
<span style="background: url(https://www.flightradar24.com/static/images/userUI_sprite.png?14) no-repeat scroll 0 -464px rgba(0, 0, 0, 0); border: medium none; display: inline-block; height: 16px; width: 45px;"></span>
<a style="text-decoration: none; color: rgb(255, 255, 255); font-size: 12px; width:77px; display: inline-block;" title=" Airport" href="javascript:void(0);/arrivals"><h3 style="padding: 0px; margin: 10px 0px 0px; font-size: 16px;">?</h3></a>
<div style=" margin-top:10px;">
<div style="display: inline-block; font-size: 12px; padding: 0 5px;">
<div>
<span style="color: #c1eaff;" title="Scheduled Time of Departure">STD </span>
<span title="2025-11-03 07:22">07:22</span> <span title="Coordinated Universal Time">UTC</span>
</div>
<div>
<span style="color: #c1eaff;" title="Actual Time of Departure">ATD </span>
<span title="2025-11-03 07:22">07:22</span> <span title="Coordinated Universal Time">UTC</span>
</div>
</div>
<div style="display: inline-block; font-size: 12px; padding: 0 5px;">
<div>
<span style="color: #c1eaff;" title="Estimated Time of Arrival">ETA </span>
<span title="2025-11-03 08:06">08:06</span> <span title="Coordinated Universal Time">UTC</span>
</div>
</div>
</div>
<br style="clear: both;"/>
</div>

<div style="display: block;">
<table style="border-collapse: collapse; width: 100%;">
<tr style="border-right: 1px solid #dadada; ">
<td style="background: none repeat scroll 0 0 #dadada; padding: 0; width: 31px;">
<span style="background: url(https://www.flightradar24.com/static/images/userUI_sprite.png?14) no-repeat scroll -208px -464px rgba(0, 0, 0, 0); height: 26px; margin: 8px 0 0 4px; width: 23px; display: block;"></span>
</td>
<td colspan="2" style="border-bottom: 1px solid #dadada; border-left: 1px solid #dadada; color: #666; line-height: 1.1em; padding: 3px 6px; vertical-align: top; font-size: 14px;">
Aircraft<span style="float: right; font-size: 12px;">(AS50)</span><br>
<span style="color: #333; font-size: 16px; font-weight: bold; line-height: 1.3em;">Airbus Helicopters H125</span>
</td>
</tr>
<tr style="border-right: 1px solid #dadada; ">
<td style="background: none repeat scroll 0 0 #dadada; padding: 0; width: 31px;">
<td colspan="2" style="border-bottom: 1px solid #dadada; border-left: 1px solid #dadada; color: #666; line-height: 1.1em; padding: 3px 6px; vertical-align: top; font-size: 14px;">
Registration<br>
<span style="color: #333; font-size: 16px; font-weight: bold; line-height: 1.3em;"><a href="https://www.flightradar24.com/reg/zt-hot" style="text-decoration: none; color: #333;">ZT-HOT</a></span>
</td>
</tr>
</table>
</div>

</div>
</div>]]></description>
      <styleUrl>#flightPath</styleUrl>
      <LineString>
        <extrude>1</extrude>
        <tessellate>1</tessellate>
        <altitudeMode>absolute</altitudeMode>
        <coordinates>
          18.428724,-33.89827,60.96 18.432312,-33.893055,121.92 18.434891,-33.889572,182.88 18.437077,-33.886185,213.36 18.436661,-33.881649,274.32 18.432144,-33.879959,335.28 18.430407,-33.882797,396.24 18.432928,-33.885635,457.2 18.437691,-33.884724,487.68 18.438606,-33.881184,518.16 18.435059,-33.878017,548.64 18.42979,-33.876755,579.12 18.42424,-33.87616,579.12 18.418524,-33.876022,609.6 18.412302,-33.876389,609.6 18.405855,-33.877533,609.6 18.399181,-33.879601,609.6 18.393402,-33.882442,609.6 18.388142,-33.885818,609.6 18.383102,-33.889751,609.6 18.378222,-33.893784,609.6 18.37385,-33.897537,640.08 18.369598,-33.901436,670.56 18.365833,-33.905594,670.56 18.362358,-33.909851,701.04 18.359299,-33.91391,731.52 18.356472,-33.918777,731.52 18.353348,-33.923313,731.52 18.349686,-33.928062,731.52 18.349457,-33.933369,762 18.35392,-33.932858,853.44 18.357639,-33.932579,883.92 18.358435,-33.936722,883.92 18.356781,-33.94133,883.92 18.354959,-33.946518,883.92 18.352886,-33.951691,883.92 18.350258,-33.956692,883.92 18.339153,-33.972427,883.92 18.332146,-33.984924,914.4 18.329144,-33.991699,914.4 18.326626,-33.997051,914.4 18.325253,-34.002361,914.4 18.325644,-34.007675,914.4 18.32777,-34.013206,914.4 18.330288,-34.018047,914.4 18.333155,-34.023102,914.4 18.336353,-34.028057,883.92 18.339386,-34.033039,883.92 18.340187,-34.03867,883.92 18.337919,-34.043884,883.92 18.334612,-34.048599,853.44 18.331923,-34.054092,822.96 18.330059,-34.060131,792.48 18.329344,-34.066086,762 18.329544,-34.072514,731.52 18.332062,-34.076889,792.48 18.335152,-34.076054,822.96 18.336124,-34.073864,853.44 18.336411,-34.072189,883.92 18.338816,-34.07428,822.96 18.338816,-34.079178,762 18.338757,-34.084431,731.52 18.339272,-34.090576,701.04 18.340162,-34.096207,670.56 18.341274,-34.102261,640.08 18.341846,-34.108219,640.08 18.341675,-34.114059,609.6 18.341217,-34.119438,609.6 18.341045,-34.125118,609.6 18.341446,-34.131264,579.12 18.342068,-34.136902,579.12 18.342571,-34.142487,609.6 18.343277,-34.154724,579.12 18.344646,-34.16066,579.12 18.347054,-34.165852,579.12 18.350258,-34.171112,579.12 18.354263,-34.175999,579.12 18.357201,-34.187485,579.12 18.360157,-34.192478,579.12 18.363983,-34.197052,579.12 18.367628,-34.201996,579.12 18.3708,-34.207096,579.12 18.373604,-34.21217,579.12 18.375893,-34.217663,579.12 18.377605,-34.223145,579.12 18.377884,-34.229095,579.12 18.37698,-34.234795,579.12 18.376637,-34.241081,579.12 18.377493,-34.246582,579.12 18.37923,-34.252808,579.12 18.380585,-34.258209,579.12 18.38063,-34.263748,579.12 18.381081,-34.269104,579.12 18.38316,-34.274643,579.12 18.399296,-34.294243,579.12 18.40395,-34.299454,579.12 18.407993,-34.304253,579.12 18.413198,-34.309982,579.12 18.419643,-34.314606,579.12 18.425474,-34.317398,579.12 18.432144,-34.320145,579.12 18.438435,-34.322639,579.12 18.4447,-34.32518,579.12 18.45322,-34.328613,579.12 18.465672,-34.333439,579.12 18.471851,-34.3353,579.12 18.478718,-34.337444,609.6 18.485338,-34.340149,609.6 18.492289,-34.343124,609.6 18.499014,-34.346054,609.6 18.504639,-34.34922,609.6 18.509216,-34.35313,579.12 18.511276,-34.358624,579.12 18.508587,-34.364025,579.12 18.50193,-34.366333,579.12 18.494867,-34.365143,579.12 18.48786,-34.364044,579.12 18.480629,-34.364822,609.6 18.473911,-34.364861,609.6 18.468801,-34.367065,670.56 18.473911,-34.367607,640.08 18.480263,-34.367657,609.6 18.485731,-34.370316,609.6 18.491224,-34.373016,609.6 18.497108,-34.37384,609.6 18.503723,-34.372917,609.6 18.509331,-34.37096,609.6 18.511122,-34.366928,609.6 18.509609,-34.36377,609.6 18.506582,-34.362534,609.6 18.503443,-34.361343,609.6 18.50333,-34.356674,548.64 18.501593,-34.351959,579.12 18.498343,-34.347015,579.12 18.49498,-34.342438,579.12 18.49205,-34.337116,579.12 18.489876,-34.33181,579.12 18.488478,-34.325684,579.12 18.487244,-34.31955,579.12 18.486067,-34.31369,579.12 18.483713,-34.296982,579.12 18.483181,-34.290936,579.12 18.482031,-34.282471,579.12 18.480629,-34.276245,579.12 18.478891,-34.270477,579.12 18.47683,-34.264866,579.12 18.474632,-34.259766,609.6 18.472166,-34.254593,609.6 18.469868,-34.249603,640.08 18.467731,-34.244198,640.08 18.465551,-34.239487,640.08 18.466505,-34.23468,640.08 18.471437,-34.231339,640.08 18.474483,-34.226231,640.08 18.474941,-34.221016,609.6 18.473911,-34.214916,609.6 18.472389,-34.209457,579.12 18.470821,-34.204163,579.12 18.469448,-34.198765,579.12 18.467903,-34.191502,579.12 18.463326,-34.171719,579.12 18.461964,-34.162537,579.12 18.46146,-34.156769,579.12 18.46146,-34.151047,579.12 18.462244,-34.145142,579.12 18.463497,-34.139175,579.12 18.465103,-34.133469,579.12 18.467121,-34.12738,579.12 18.468578,-34.121796,579.12 18.469906,-34.115902,579.12 18.470819,-34.109848,548.64 18.470989,-34.104126,548.64 18.470484,-34.098587,548.64 18.468914,-34.093323,548.64 18.466587,-34.088108,548.64 18.463982,-34.082932,548.64 18.461552,-34.078148,548.64 18.45583,-34.065159,518.16 18.453949,-34.059631,487.68 18.452396,-34.053848,457.2 18.451651,-34.048004,457.2 18.451035,-34.042007,457.2 18.450697,-34.036102,426.72 18.451202,-34.029922,426.72 18.452435,-34.024429,426.72 18.453781,-34.018707,426.72 18.453501,-34.013168,426.72 18.452339,-34.007854,426.72 18.452267,-34.00177,426.72 18.454453,-33.996735,426.72 18.457705,-33.992111,426.72 18.461628,-33.987213,426.72 18.465843,-33.982388,426.72 18.469307,-33.976959,426.72 18.47208,-33.971821,426.72 18.475136,-33.966293,396.24 18.477917,-33.960556,365.76 18.479404,-33.954597,335.28 18.479462,-33.948174,304.8 18.478203,-33.941422,304.8 18.475342,-33.935604,304.8 18.47267,-33.929901,304.8 18.46981,-33.924088,304.8 18.465729,-33.919266,274.32 18.461012,-33.914703,274.32 18.456638,-33.910034,274.32 18.452995,-33.905045,274.32 18.450026,-33.90033,243.84 18.446445,-33.895943,213.36 18.440952,-33.893986,182.88 18.435574,-33.896126,121.92 18.433041,-33.897675,91.44 18.42802,-33.899807,30.48 18.42679,-33.900631,0 18.429565,-33.897385,60.96 18.431683,-33.894032,121.92 18.431339,-33.889751,152.4 18.428249,-33.884861,213.36 18.423904,-33.881607,243.84 18.41785,-33.879456,274.32 18.411884,-33.878716,304.8 18.406277,-33.878345,365.76 18.401299,-33.8783,457.2 18.39632,-33.878483,487.68 18.391628,-33.879135,548.64 18.387623,-33.88044,579.12 18.383331,-33.88258,609.6 18.379454,-33.884857,640.08 18.375475,-33.887421,701.04 18.371258,-33.890308,701.04 18.36729,-33.893646,731.52 18.36376,-33.897354,731.52 18.360397,-33.901474,731.52 18.35737,-33.905869,762 18.354511,-33.910629,731.52 18.35186,-33.915634,731.52 18.349411,-33.921295,701.04 18.347168,-33.926853,701.04 18.344936,-33.932114,701.04 18.342571,-33.937408,701.04 18.34033,-33.942398,731.52 18.338144,-33.947754,731.52 18.336239,-33.952362,731.52 18.334236,-33.956879,762 18.331089,-33.965397,762 18.325481,-33.977966,731.52 18.319016,-33.989792,731.52 18.316507,-33.994629,762 18.314209,-33.999519,731.52 18.31192,-34.00478,731.52 18.303503,-34.0242,701.04 18.300869,-34.031845,670.56 18.300591,-34.039043,640.08 18.301792,-34.045979,609.6 18.303671,-34.051712,609.6 18.306137,-34.057251,609.6 18.309174,-34.062321,609.6 18.312721,-34.067299,609.6 18.316269,-34.071629,609.6 18.320766,-34.075882,609.6 18.325979,-34.079544,609.6 18.332706,-34.080551,609.6 18.338535,-34.078857,640.08 18.343678,-34.075634,640.08 18.348999,-34.071163,670.56 18.352942,-34.066589,670.56 18.35495,-34.061573,670.56 18.355633,-34.056107,701.04 18.355743,-34.050751,701.04 18.355576,-34.045395,701.04 18.354607,-34.04002,731.52 18.351974,-34.035088,731.52 18.34837,-34.030106,731.52 18.345263,-34.02562,731.52 18.342964,-34.020218,731.52 18.341619,-34.014725,701.04 18.340473,-34.008877,701.04 18.339882,-34.002777,670.56 18.341904,-33.986626,609.6 18.347855,-33.972752,609.6 18.353783,-33.959061,579.12 18.356136,-33.951324,579.12 18.360043,-33.93779,579.12 18.361816,-33.932018,579.12 18.363928,-33.926834,579.12 18.36673,-33.921295,579.12 18.36977,-33.916378,579.12 18.373775,-33.911259,548.64 18.378124,-33.906181,548.64 18.382648,-33.901657,548.64 18.388081,-33.897476,548.64 18.394363,-33.893829,518.16 18.400978,-33.890854,487.68 18.408279,-33.888214,457.2 18.415104,-33.886322,457.2 18.422012,-33.885094,426.72 18.428535,-33.884769,396.24 18.434498,-33.886139,365.76 18.438198,-33.889435,335.28 18.440271,-33.893051,274.32 18.43895,-33.896175,243.84 18.435173,-33.897385,182.88 18.431135,-33.898682,91.44 18.427322,-33.900742,30.48 18.427267,-33.899872,30.48 18.428724,-33.896988,91.44 18.429737,-33.892544,121.92 18.427492,-33.88797,152.4 18.422928,-33.88393,213.36 18.416954,-33.881332,243.84 18.410397,-33.880112,304.8 18.404503,-33.879646,335.28 18.398552,-33.879833,365.76 18.39257,-33.880371,426.72 18.386822,-33.881557,457.2 18.381329,-33.883793,487.68 18.376091,-33.88678,487.68 18.371439,-33.890076,518.16 18.367178,-33.894104,518.16 18.363533,-33.899155,518.16 18.360228,-33.904495,518.16 18.357481,-33.909073,548.64 18.354734,-33.913742,579.12 18.351933,-33.918411,609.6 18.349285,-33.923176,609.6 18.346775,-33.928391,609.6 18.344534,-33.933472,640.08 18.339825,-33.945374,640.08 18.337246,-33.950684,640.08 18.332005,-33.96172,670.56 18.321075,-33.985367,701.04 18.315891,-33.994949,701.04 18.312721,-33.999985,701.04 18.30368,-34.017582,640.08 18.299242,-34.031342,640.08 18.298178,-34.039627,609.6 18.298626,-34.045853,579.12 18.299355,-34.051117,579.12 18.300133,-34.056454,548.64 18.300991,-34.061619,548.64 18.302021,-34.066647,548.64 18.302937,-34.071957,518.16 18.303671,-34.078812,487.68 18.304007,-34.084167,487.68 18.304344,-34.089157,487.68 18.304512,-34.094604,457.2 18.30496,-34.099594,457.2 18.305801,-34.104721,426.72 18.306484,-34.109848,426.72 18.306885,-34.11483,396.24 18.307457,-34.120789,365.76 18.308659,-34.127678,365.76 18.309725,-34.134293,365.76 18.310734,-34.139145,365.76 18.312471,-34.143539,365.76 18.313648,-34.14798,396.24 18.317068,-34.155304,365.76 18.31987,-34.159698,396.24 18.327312,-34.169762,365.76 18.350363,-34.183456,396.24 18.35737,-34.18602,426.72 18.361965,-34.186295,426.72 18.366169,-34.185699,426.72 18.369427,-34.184891,396.24 18.372345,-34.186615,335.28 18.387794,-34.18964,426.72 18.393467,-34.187897,457.2 18.399521,-34.185791,487.68 18.405819,-34.182983,487.68 18.41247,-34.180023,457.2 18.418751,-34.177116,457.2 18.424988,-34.17358,457.2 18.430939,-34.169296,426.72 18.436571,-34.16478,457.2 18.441896,-34.159653,426.72 18.446388,-34.154537,396.24 18.451145,-34.148346,396.24 18.455687,-34.142807,365.76 18.460226,-34.137314,335.28 18.464756,-34.131401,304.8 18.469027,-34.125595,274.32 18.47323,-34.119461,274.32 18.478031,-34.113899,274.32 18.483994,-34.109619,243.84 18.490887,-34.105911,182.88 18.497601,-34.102959,152.4 18.504982,-34.100071,121.92 18.512707,-34.097233,60.96 18.520317,-34.09486,30.48 18.527985,-34.092857,30.48 18.535393,-34.091537,30.48 18.542404,-34.090485,30.48 18.549385,-34.089737,30.48 18.55703,-34.088287,30.48 18.563812,-34.085953,30.48 18.570671,-34.084293,60.96 18.578053,-34.082893,30.48 18.585148,-34.081779,30.48 18.592129,-34.080612,60.96 18.599518,-34.07959,30.48 18.607121,-34.0788,60.96 18.614559,-34.078098,91.44 18.621323,-34.077393,91.44 18.62812,-34.076565,91.44 18.63937,-34.074875,60.96 18.648283,-34.074005,30.48 18.655415,-34.073818,30.48 18.662624,-34.072189,91.44 18.668854,-34.068787,121.92 18.674795,-34.06517,152.4 18.680681,-34.061371,152.4 18.686886,-34.057293,182.88 18.693237,-34.053333,152.4 18.699532,-34.049564,182.88 18.709213,-34.043427,213.36 18.730625,-34.030014,213.36 18.743853,-34.020905,213.36 18.754223,-34.013672,213.36 18.760757,-34.009201,213.36 18.767508,-34.004517,213.36 18.77655,-33.998684,213.36 18.783091,-33.994858,213.36 18.794973,-33.9879,243.84 18.808874,-33.978928,274.32 18.816778,-33.975357,304.8 18.823671,-33.973251,304.8 18.833199,-33.969868,335.28 18.84264,-33.966656,335.28 18.852654,-33.962929,335.28 18.861008,-33.959671,365.76 18.87199,-33.954346,426.72 18.877819,-33.951233,457.2 18.884068,-33.948872,487.68 18.889982,-33.949127,518.16 18.895195,-33.951141,548.64 18.900261,-33.953899,548.64 18.905453,-33.957779,548.64 18.910618,-33.961628,548.64 18.916327,-33.964645,548.64 18.923447,-33.967621,548.64 18.930588,-33.969448,548.64 18.937168,-33.970657,579.12 18.944466,-33.971741,579.12 18.95113,-33.972797,609.6 18.957825,-33.973869,701.04 18.962574,-33.974895,731.52 18.965485,-33.976364,731.52 18.967438,-33.977268,701.04 18.969212,-33.977779,701.04 18.969297,-33.97879,670.56 18.965822,-33.978836,579.12 18.958702,-33.979111,457.2 18.908983,-33.965149,579.12 18.904152,-33.962139,609.6 18.899118,-33.959152,640.08 18.89385,-33.956039,640.08 18.887236,-33.954712,609.6 18.880692,-33.955154,609.6 18.873728,-33.953751,579.12 18.867113,-33.951004,518.16 18.859692,-33.948406,426.72 18.852711,-33.946732,365.76 18.845476,-33.945465,335.28 18.838694,-33.944412,304.8 18.830566,-33.943283,274.32 18.823872,-33.942352,274.32 18.817692,-33.941654,243.84 18.81078,-33.940201,243.84 18.804817,-33.938164,243.84 18.798449,-33.936584,274.32 18.792744,-33.936626,274.32 18.787022,-33.937141,304.8 18.781357,-33.937977,335.28 18.775915,-33.938873,365.76 18.770142,-33.940109,365.76 18.763561,-33.940166,335.28 18.756351,-33.939838,335.28 18.749458,-33.939835,304.8 18.745029,-33.942993,304.8 18.742275,-33.946915,304.8 18.738527,-33.94986,365.76 18.733202,-33.952011,365.76 18.727169,-33.953621,365.76 18.721447,-33.954922,335.28 18.714752,-33.956272,335.28 18.707699,-33.957458,304.8 18.700581,-33.958374,304.8 18.693798,-33.959198,274.32 18.687071,-33.959976,274.32 18.680346,-33.96048,274.32 18.673563,-33.960754,274.32 18.666916,-33.960648,274.32 18.65983,-33.959244,274.32 18.653069,-33.957668,243.84 18.646152,-33.955902,213.36 18.639507,-33.954224,243.84 18.633038,-33.952515,243.84 18.626423,-33.951828,213.36 18.61936,-33.951462,213.36 18.6129,-33.951057,213.36 18.606356,-33.950684,213.36 18.599682,-33.950035,213.36 18.592903,-33.948578,243.84 18.586349,-33.947147,243.84 18.579506,-33.945877,213.36 18.572617,-33.945286,243.84 18.565578,-33.944496,243.84 18.558767,-33.943314,243.84 18.552265,-33.941666,274.32 18.545595,-33.939102,274.32 18.539257,-33.936581,274.32 18.531134,-33.933197,274.32 18.508701,-33.923454,274.32 18.501593,-33.920151,243.84 18.493481,-33.916286,243.84 18.486099,-33.913445,213.36 18.478611,-33.91095,213.36 18.470936,-33.908558,213.36 18.463421,-33.90596,213.36 18.455013,-33.902802,213.36 18.448118,-33.899918,243.84 18.441639,-33.897198,243.84 18.43523,-33.894962,213.36 18.42979,-33.894287,182.88 18.426991,-33.8965,121.92 18.427563,-33.898922,91.44 18.427048,-33.900875,30.48 18.427792,-33.899246,30.48 18.428892,-33.897446,60.96 18.431471,-33.8936,121.92 18.433825,-33.889709,182.88 18.4359,-33.885178,213.36 18.434887,-33.880161,243.84 18.430939,-33.875271,274.32 18.425503,-33.8722,274.32 18.419323,-33.870895,304.8 18.412357,-33.870667,365.76 18.406506,-33.871548,396.24 18.400923,-33.872955,426.72 18.395176,-33.875038,457.2 18.390217,-33.87767,487.68 18.385448,-33.880672,548.64 18.380911,-33.88385,579.12 18.376637,-33.887283,609.6 18.372784,-33.8909,609.6 18.369198,-33.894638,640.08 18.365536,-33.898689,670.56 18.36219,-33.902664,701.04 18.358883,-33.90683,701.04 18.355801,-33.91127,731.52 18.352718,-33.915958,731.52 18.349131,-33.922073,701.04 18.346539,-33.927036,731.52 18.344078,-33.932064,701.04 18.340073,-33.940491,701.04 18.336575,-33.947159,701.04 18.333206,-33.953758,701.04 18.343277,-33.962605,731.52 18.34877,-33.95562,670.56 18.351933,-33.94986,640.08 18.355408,-33.943771,640.08 18.35877,-33.937683,609.6 18.361797,-33.932098,579.12 18.364735,-33.926292,579.12 18.367424,-33.921127,548.64 18.370485,-33.915756,548.64 18.375868,-33.907242,548.64 18.379612,-33.902317,548.64 18.383547,-33.897675,579.12 18.387508,-33.893707,579.12 18.392235,-33.889801,579.12 18.397335,-33.886002,579.12 18.402672,-33.882626,609.6 18.40877,-33.880096,579.12 18.416,-33.879044,579.12 18.422503,-33.879959,518.16 18.427322,-33.882339,457.2 18.430407,-33.885681,396.24 18.432087,-33.889023,335.28 18.433113,-33.892265,274.32 18.433456,-33.895428,213.36 18.431625,-33.897476,182.88 18.429846,-33.898178,91.44 18.426876,-33.900364,30.48 18.427828,-33.900833,30.48 18.430996,-33.899853,60.96 18.43461,-33.89859,182.88 18.43775,-33.896347,213.36 18.439121,-33.891567,243.84 18.437469,-33.886505,243.84 18.434029,-33.880672,274.32 18.429398,-33.876617,304.8 18.422503,-33.875153,365.76 18.416176,-33.875366,426.72 18.41011,-33.876202,457.2 18.404446,-33.877415,487.68 18.398266,-33.879044,518.16 18.392429,-33.881138,518.16 18.387133,-33.883713,548.64 18.381472,-33.887192,548.64 18.37635,-33.890915,579.12 18.371887,-33.894684,609.6 18.367235,-33.898911,640.08 18.36359,-33.902554,670.56 18.359928,-33.906742,701.04 18.356417,-33.91127,701.04 18.353725,-33.915665,701.04 18.351231,-33.920475,731.52 18.34877,-33.925594,731.52 18.346552,-33.930679,731.52 18.341904,-33.94133,762 18.337326,-33.952316,762 18.336868,-33.956505,853.44 18.34116,-33.958599,914.4 18.347225,-33.955528,822.96 18.351116,-33.950035,762 18.354454,-33.944092,701.04 18.357538,-33.93837,670.56 18.360676,-33.931778,640.08 18.364431,-33.9245,609.6 18.370686,-33.91312,609.6 18.376865,-33.902969,640.08 18.380239,-33.897949,640.08 18.383904,-33.893196,640.08 18.388996,-33.888725,640.08 18.394363,-33.885178,640.08 18.400587,-33.882156,640.08 18.407021,-33.879929,640.08 18.413601,-33.878437,640.08 18.419981,-33.878677,609.6 18.425446,-33.880344,548.64 18.429062,-33.882797,518.16 18.43119,-33.885681,457.2 18.432648,-33.888565,365.76 18.433342,-33.891518,304.8 18.433601,-33.894058,243.84 18.433056,-33.895802,213.36 18.427849,-33.899338,60.96 18.426975,-33.900944,0 18.431919,-33.893646,121.92 18.432312,-33.893055,121.92 18.434372,-33.890217,152.4 18.434891,-33.889572,182.88 18.436796,-33.886826,213.36 18.437077,-33.886185,213.36 18.437077,-33.882523,243.84 18.436661,-33.881649,274.32 18.433769,-33.87973,304.8 18.432144,-33.879959,335.28 18.430424,-33.882114,396.24 18.430407,-33.882797,396.24 18.432144,-33.885315,457.2 18.432928,-33.885635,457.2 18.436718,-33.885372,487.68 18.437691,-33.884724,487.68 18.438759,-33.881882,518.16 18.438606,-33.881184,518.16 18.43586,-33.878391,548.64 18.435059,-33.878017,548.64 18.431053,-33.876995,579.12 18.42979,-33.876755,579.12 18.425474,-33.876205,579.12 18.42424,-33.87616,579.12 18.419838,-33.876064,609.6 18.418524,-33.876022,609.6 18.413479,-33.876297,609.6 18.412302,-33.876389,609.6 18.407032,-33.877304,609.6 18.405855,-33.877533,609.6 18.400555,-33.879089,609.6 18.399181,-33.879601,609.6 18.394432,-33.881836,609.6 18.393402,-33.882442,609.6 18.389095,-33.885178,609.6 18.388142,-33.885818,609.6 18.384331,-33.888794,609.6 18.383102,-33.889751,609.6 18.37904,-33.893101,609.6 18.378222,-33.893784,609.6 18.374578,-33.896851,640.08 18.37385,-33.897537,640.08 18.370399,-33.900642,670.56 18.369598,-33.901436,670.56 18.366623,-33.904648,670.56 18.365833,-33.905594,670.56 18.363087,-33.90889,701.04 18.362358,-33.909851,701.04 18.359871,-33.91312,731.52 18.359299,-33.91391,731.52 18.356953,-33.918007,731.52 18.356472,-33.918777,731.52 18.354034,-33.922382,731.52 18.353348,-33.923313,731.52 18.350475,-33.927017,731.52 18.349686,-33.928062,731.52 18.348713,-33.932766,762 18.349457,-33.933369,762 18.353233,-33.933182,822.96 18.35392,-33.932858,853.44 18.356752,-33.93219,883.92 18.357639,-33.932579,883.92 18.358669,-33.935696,883.92 18.358435,-33.936722,883.92 18.357124,-33.940304,883.92 18.356781,-33.94133,883.92 18.355295,-33.945602,883.92 18.354959,-33.946518,883.92 18.35339,-33.9505,883.92 18.352886,-33.951691,883.92 18.350887,-33.955669,883.92 18.350258,-33.956692,883.92 18.342476,-33.967491,883.92 18.339153,-33.972427,883.92 18.333603,-33.982132,914.4 18.332146,-33.984924,914.4 18.329544,-33.990814,914.4 18.329144,-33.991699,914.4 18.327101,-33.995956,914.4 18.326626,-33.997051,914.4 18.32542,-34.001221,914.4 18.325253,-34.002361,914.4 18.325363,-34.006577,914.4 18.325644,-34.007675,914.4 18.327213,-34.012024,914.4 18.32777,-34.013206,914.4 18.329792,-34.017151,914.4 18.330288,-34.018047,914.4 18.332577,-34.022099,914.4 18.333155,-34.023102,914.4 18.335838,-34.027313,914.4 18.336353,-34.028057,883.92 18.338985,-34.032154,883.92 18.339386,-34.033039,883.92 18.340244,-34.037785,883.92 18.340187,-34.03867,883.92 18.338528,-34.042953,883.92 18.337919,-34.043884,883.92 18.335209,-34.047749,883.92 18.334612,-34.048599,853.44 18.332481,-34.052719,853.44 18.331923,-34.054092,822.96 18.330408,-34.058578,792.48 18.330059,-34.060131,792.48 18.32943,-34.064739,762 18.329344,-34.066086,762 18.329372,-34.071072,731.52 18.329544,-34.072514,731.52 18.331137,-34.076202,762 18.332062,-34.076889,792.48 18.334724,-34.076385,822.96 18.335152,-34.076054,822.96 18.336237,-34.074234,853.44 18.336124,-34.073864,853.44 18.336014,-34.072357,883.92 18.336411,-34.072189,883.92 18.338585,-34.073631,822.96 18.338816,-34.07428,822.96 18.338873,-34.078217,792.48 18.338816,-34.079178,762 18.338757,-34.083546,731.52 18.338757,-34.084431,731.52 18.339153,-34.089203,701.04 18.339272,-34.090576,701.04 18.339958,-34.095139,670.56 18.340162,-34.096207,670.56 18.341045,-34.101006,640.08 18.341274,-34.102261,640.08 18.341789,-34.106964,640.08 18.341846,-34.108219,640.08 18.341732,-34.11269,609.6 18.341675,-34.114059,609.6 18.341274,-34.118507,609.6 18.341217,-34.119438,609.6 18.341045,-34.124233,609.6 18.341045,-34.125118,609.6 18.341282,-34.12999,579.12 18.341446,-34.131264,579.12 18.341955,-34.135666,609.6 18.342068,-34.136902,579.12 18.342459,-34.141159,609.6 18.342571,-34.142487,609.6 18.343187,-34.153748,579.12 18.343277,-34.154724,579.12 18.34425,-34.159428,579.12 18.344646,-34.16066,579.12 18.346439,-34.164688,579.12 18.347054,-34.165852,579.12 18.349411,-34.169907,579.12 18.350258,-34.171112,579.12 18.353462,-34.174881,579.12 18.354263,-34.175999,579.12 18.35681,-34.186523,579.12 18.357201,-34.187485,579.12 18.359444,-34.191467,579.12 18.360157,-34.192478,579.12 18.363312,-34.196228,579.12 18.363983,-34.197052,579.12 18.367081,-34.201138,579.12 18.367628,-34.201996,579.12 18.370228,-34.206165,579.12 18.3708,-34.207096,579.12 18.372952,-34.210876,579.12 18.373604,-34.21217,579.12 18.375492,-34.216454,579.12 18.375893,-34.217663,579.12 18.37738,-34.222229,579.12 18.377605,-34.223145,579.12 18.37801,-34.227718,579.12 18.377884,-34.229095,579.12 18.377209,-34.233677,579.12 18.37698,-34.234795,579.12 18.376579,-34.239822,579.12 18.376637,-34.241081,579.12 18.377266,-34.245457,579.12 18.377493,-34.246582,579.12 18.378925,-34.251694,579.12 18.37923,-34.252808,579.12 18.380407,-34.257156,579.12 18.380585,-34.258209,579.12 18.38063,-34.262375,579.12 18.38063,-34.263748,579.12 18.380871,-34.268032,579.12 18.381081,-34.269104,579.12 18.382648,-34.273727,579.12 18.38316,-34.274643,579.12 18.398512,-34.29332,579.12 18.399296,-34.294243,579.12 18.402603,-34.297897,579.12 18.40395,-34.299454,579.12 18.406906,-34.302948,579.12 18.407993,-34.304253,579.12 18.411404,-34.308105,579.12 18.413198,-34.309982,579.12 18.416954,-34.313004,579.12 18.419643,-34.314606,579.12 18.42453,-34.316959,579.12 18.425474,-34.317398,579.12 18.430967,-34.319687,579.12 18.432144,-34.320145,579.12 18.437244,-34.322159,579.12 18.438435,-34.322639,579.12 18.443642,-34.324734,579.12 18.4447,-34.32518,579.12 18.449535,-34.327156,609.6 18.45322,-34.328613,579.12 18.464655,-34.333099,579.12 18.465672,-34.333439,579.12 18.470478,-34.33493,579.12 18.471851,-34.3353,579.12 18.477041,-34.336899,609.6 18.478718,-34.337444,609.6 18.484211,-34.33963,609.6 18.485338,-34.340149,609.6 18.491364,-34.342705,609.6 18.492289,-34.343124,609.6 18.497829,-34.345497,609.6 18.499014,-34.346054,609.6 18.50338,-34.348431,609.6 18.504639,-34.34922,609.6 18.50832,-34.352097,609.6 18.509216,-34.35313,579.12 18.511179,-34.357361,579.12 18.511276,-34.358624,579.12 18.509903,-34.362629,609.6 18.508587,-34.364025,579.12 18.503094,-34.366257,579.12 18.50193,-34.366333,579.12 18.496399,-34.365608,579.12 18.494867,-34.365143,579.12 18.489149,-34.36409,579.12 18.48786,-34.364044,579.12 18.482254,-34.364548,579.12 18.480629,-34.364822,609.6 18.475304,-34.365051,609.6 18.473911,-34.364861,609.6 18.469162,-34.364861,640.08 18.468801,-34.367065,670.56 18.472895,-34.367844,640.08 18.473911,-34.367607,640.08 18.478889,-34.367329,640.08 18.480263,-34.367657,609.6 18.484722,-34.36972,609.6 18.485731,-34.370316,609.6 18.490103,-34.372604,609.6 18.491224,-34.373016,609.6 18.495987,-34.37384,609.6 18.497108,-34.37384,609.6 18.502464,-34.373196,609.6 18.503723,-34.372917,609.6 18.508432,-34.371506,609.6 18.509331,-34.37096,609.6 18.511219,-34.367657,609.6 18.511122,-34.366928,609.6 18.509903,-34.364258,609.6 18.509609,-34.36377,609.6 18.507214,-34.362579,609.6 18.506582,-34.362534,609.6 18.503838,-34.361931,609.6 18.503443,-34.361343,609.6 18.503443,-34.357544,548.64 18.50333,-34.356674,548.64 18.502178,-34.353085,548.64 18.501593,-34.351959,579.12 18.499146,-34.348103,579.12 18.498343,-34.347015,579.12 18.495541,-34.343307,579.12 18.49498,-34.342438,579.12 18.492624,-34.338272,579.12 18.49205,-34.337116,579.12 18.490215,-34.332825,579.12 18.489876,-34.33181,579.12 18.488701,-34.327011,579.12 18.488478,-34.325684,579.12 18.487524,-34.320969,579.12 18.487244,-34.31955,579.12 18.486271,-34.314819,579.12 18.486067,-34.31369,579.12 18.483768,-34.298035,609.6 18.483713,-34.296982,579.12 18.483295,-34.292099,579.12 18.483181,-34.290936,579.12 18.482265,-34.283581,579.12 18.482031,-34.282471,579.12 18.480967,-34.277527,579.12 18.480629,-34.276245,579.12 18.479347,-34.271709,579.12 18.478891,-34.270477,579.12 18.477322,-34.266129,609.6 18.47683,-34.264866,579.12 18.475056,-34.260723,609.6 18.474632,-34.259766,609.6 18.472652,-34.255604,609.6 18.472166,-34.254593,609.6 18.470203,-34.250519,640.08 18.469868,-34.249603,640.08 18.468073,-34.245117,640.08 18.467731,-34.244198,640.08 18.465887,-34.240219,640.08 18.465551,-34.239487,640.08 18.465664,-34.235367,670.56 18.466505,-34.23468,640.08 18.470596,-34.232071,640.08 18.471437,-34.231339,640.08 18.47414,-34.227253,640.08 18.474483,-34.226231,640.08 18.474998,-34.222179,609.6 18.474941,-34.221016,609.6 18.474255,-34.216545,609.6 18.473911,-34.214916,609.6 18.472727,-34.210556,579.12 18.472389,-34.209457,579.12 18.471107,-34.20528,579.12 18.470821,-34.204163,579.12 18.469643,-34.199661,579.12 18.469448,-34.198765,579.12 18.46813,-34.19252,579.12 18.467903,-34.191502,579.12 18.464355,-34.176277,579.12 18.463326,-34.171719,579.12 18.462076,-34.163773,579.12 18.461964,-34.162537,579.12 18.461571,-34.157822,579.12 18.46146,-34.156769,579.12 18.461437,-34.15221,579.12 18.46146,-34.151047,579.12 18.462021,-34.146194,579.12 18.462244,-34.145142,579.12 18.463211,-34.140434,579.12 18.463497,-34.139175,579.12 18.464767,-34.134521,579.12 18.465103,-34.133469,579.12 18.466673,-34.128754,579.12 18.467121,-34.12738,579.12 18.468353,-34.122757,579.12 18.468578,-34.121796,579.12 18.469677,-34.11697,579.12 18.469906,-34.115902,579.12 18.47065,-34.111107,579.12 18.470819,-34.109848,548.64 18.471045,-34.105362,548.64 18.470989,-34.104126,548.64 18.470592,-34.099606,548.64 18.470484,-34.098587,548.64 18.469194,-34.094147,548.64 18.468914,-34.093323,548.64 18.467009,-34.08902,548.64 18.466587,-34.088108,548.64 18.464642,-34.084198,548.64 18.463982,-34.082932,548.64 18.462067,-34.079079,548.64 18.461552,-34.078148,548.64 18.456287,-34.066414,518.16 18.45583,-34.065159,518.16 18.454342,-34.060829,487.68 18.453949,-34.059631,487.68 18.452682,-34.055149,487.68 18.452396,-34.053848,457.2 18.451763,-34.049103,457.2 18.451651,-34.048004,457.2 18.451138,-34.043186,457.2 18.451035,-34.042007,457.2 18.450737,-34.037228,426.72 18.450697,-34.036102,426.72 18.451023,-34.031269,426.72 18.451202,-34.029922,426.72 18.452154,-34.025436,426.72 18.452435,-34.024429,426.72 18.453598,-34.019722,426.72 18.453781,-34.018707,426.72 18.453655,-34.014137,426.72 18.453501,-34.013168,426.72 18.452547,-34.008682,426.72 18.452339,-34.007854,426.72 18.452042,-34.003189,426.72 18.452267,-34.00177,426.72 18.453724,-33.997971,426.72 18.454453,-33.996735,426.72 18.457146,-33.992817,426.72 18.457705,-33.992111,426.72 18.460922,-33.988068,426.72 18.461628,-33.987213,426.72 18.464985,-33.983414,426.72 18.465843,-33.982388,426.72 18.468578,-33.978195,426.72 18.469307,-33.976959,426.72 18.471394,-33.97308,426.72 18.47208,-33.971821,426.72 18.474426,-33.967632,396.24 18.475136,-33.966293,396.24 18.477287,-33.961998,365.76 18.477917,-33.960556,365.76 18.479233,-33.955902,335.28 18.479404,-33.954597,335.28 18.479519,-33.949337,304.8 18.479462,-33.948174,304.8 18.478546,-33.942867,304.8 18.478203,-33.941422,304.8 18.475914,-33.936626,304.8 18.475342,-33.935604,304.8 18.473007,-33.930817,304.8 18.47267,-33.929901,304.8 18.470478,-33.925129,274.32 18.46981,-33.924088,304.8 18.466616,-33.920151,274.32 18.465729,-33.919266,274.32 18.462189,-33.915848,274.32 18.461012,-33.914703,274.32 18.457312,-33.910812,274.32 18.456638,-33.910034,274.32 18.453598,-33.905949,274.32 18.452995,-33.905045,274.32 18.450697,-33.901337,243.84 18.450026,-33.90033,243.84 18.447109,-33.896622,213.36 18.446445,-33.895943,213.36 18.442457,-33.894012,182.88 18.440952,-33.893986,182.88 18.436516,-33.895615,121.92 18.435574,-33.896126,121.92 18.433514,-33.89743,91.44 18.433041,-33.897675,91.44 18.428949,-33.899597,30.48 18.42802,-33.899807,30.48 18.426876,-33.900364,30.48 18.42679,-33.900631,0 18.428724,-33.898224,60.96 18.429565,-33.897385,60.96 18.431471,-33.894836,91.44 18.431683,-33.894032,121.92 18.431511,-33.890495,152.4 18.431339,-33.889751,152.4 18.428837,-33.885544,182.88 18.428249,-33.884861,213.36 18.424759,-33.882114,213.36 18.423904,-33.881607,243.84 18.419151,-33.879787,274.32 18.41785,-33.879456,274.32 18.413029,-33.878857,304.8 18.411884,-33.878716,304.8 18.407249,-33.878391,365.76 18.406277,-33.878345,365.76 18.402443,-33.87825,426.72 18.401299,-33.8783,457.2 18.397636,-33.878437,487.68 18.39632,-33.878483,487.68 18.392658,-33.878902,518.16 18.391628,-33.879135,548.64 18.388254,-33.880188,579.12 18.387623,-33.88044,579.12 18.38419,-33.882069,609.6 18.383331,-33.88258,609.6 18.380182,-33.884445,640.08 18.379454,-33.884857,640.08 18.376179,-33.887005,670.56 18.375475,-33.887421,701.04 18.372173,-33.88961,701.04 18.371258,-33.890308,701.04 18.368282,-33.892776,731.52 18.36729,-33.893646,731.52 18.364544,-33.896439,731.52 18.36376,-33.897354,731.52 18.361069,-33.900604,731.52 18.360397,-33.901474,731.52 18.357868,-33.905018,762 18.35737,-33.905869,762 18.355122,-33.909534,762 18.354511,-33.910629,731.52 18.352318,-33.914608,731.52 18.35186,-33.915634,731.52 18.349859,-33.920242,701.04 18.349411,-33.921295,701.04 18.347626,-33.925594,701.04 18.347168,-33.926853,701.04 18.345394,-33.931087,701.04 18.344936,-33.932114,701.04 18.343048,-33.936348,701.04 18.342571,-33.937408,701.04 18.340666,-33.941528,701.04 18.34033,-33.942398,731.52 18.338593,-33.946701,731.52 18.338144,-33.947754,731.52 18.336582,-33.951523,731.52 18.336239,-33.952362,731.52 18.334612,-33.955948,731.52 18.334236,-33.956879,762 18.332291,-33.961811,762 18.331089,-33.965397,762 18.326626,-33.975639,762 18.325481,-33.977966,731.52 18.319534,-33.988907,731.52 18.319016,-33.989792,731.52 18.3169,-33.993759,762 18.316507,-33.994629,762 18.314602,-33.998566,762 18.314209,-33.999519,731.52 18.312304,-34.003876,731.52 18.31192,-34.00478,731.52 18.305283,-34.020187,701.04 18.303503,-34.0242,701.04 18.301048,-34.030895,670.56 18.300869,-34.031845,670.56 18.300533,-34.038204,640.08 18.300591,-34.039043,640.08 18.301485,-34.044662,609.6 18.301792,-34.045979,609.6 18.303337,-34.050774,609.6 18.303671,-34.051712,609.6 18.305626,-34.056267,609.6 18.306137,-34.057251,609.6 18.308601,-34.061436,609.6 18.309174,-34.062321,609.6 18.311911,-34.066223,609.6 18.312721,-34.067299,609.6 18.315666,-34.070938,609.6 18.316269,-34.071629,609.6 18.319817,-34.075073,609.6 18.320766,-34.075882,609.6 18.324966,-34.079033,609.6 18.325979,-34.079544,609.6 18.331137,-34.080643,609.6 18.332706,-34.080551,609.6 18.337471,-34.079315,640.08 18.338535,-34.078857,640.08 18.342796,-34.076294,640.08 18.343678,-34.075634,640.08 18.347912,-34.07214,670.56 18.348999,-34.071163,670.56 18.352146,-34.067764,670.56 18.352942,-34.066589,670.56 18.354721,-34.062553,670.56 18.35495,-34.061573,670.56 18.355576,-34.057343,701.04 18.355633,-34.056107,701.04 18.355694,-34.0518,701.04 18.355743,-34.050751,701.04 18.355688,-34.046585,701.04 18.355576,-34.045395,701.04 18.35495,-34.041279,701.04 18.354607,-34.04002,731.52 18.352718,-34.036201,731.52 18.351974,-34.035088,731.52 18.349241,-34.03125,731.52 18.34837,-34.030106,731.52 18.345852,-34.02652,731.52 18.345263,-34.02562,731.52 18.343245,-34.021271,731.52 18.342964,-34.020218,731.52 18.3419,-34.015869,731.52 18.341619,-34.014725,701.04 18.340666,-34.010101,701.04 18.340473,-34.008877,701.04 18.339901,-34.004036,670.56 18.339882,-34.002777,670.56 18.341103,-33.989651,609.6 18.341904,-33.986626,609.6 18.346607,-33.97554,609.6 18.347855,-33.972752,609.6 18.352774,-33.961945,609.6 18.353783,-33.959061,579.12 18.355856,-33.952286,579.12 18.356136,-33.951324,579.12 18.359724,-33.938782,579.12 18.360043,-33.93779,579.12 18.361473,-33.933136,579.12 18.361816,-33.932018,579.12 18.363592,-33.927658,579.12 18.363928,-33.926834,579.12 18.366222,-33.922291,579.12 18.36673,-33.921295,579.12 18.369141,-33.917309,579.12 18.36977,-33.916378,579.12 18.372917,-33.912281,579.12 18.373775,-33.911259,548.64 18.377325,-33.907059,548.64 18.378124,-33.906181,548.64 18.381529,-33.902664,548.64 18.382648,-33.901657,548.64 18.386822,-33.898361,548.64 18.388081,-33.897476,548.64 18.393116,-33.894497,518.16 18.394363,-33.893829,518.16 18.399754,-33.89138,487.68 18.400978,-33.890854,487.68 18.407089,-33.888611,487.68 18.408279,-33.888214,457.2 18.413773,-33.886631,457.2 18.415104,-33.886322,457.2 18.420525,-33.885281,426.72 18.422012,-33.885094,426.72 18.427044,-33.88472,396.24 18.428535,-33.884769,396.24 18.433514,-33.8857,365.76 18.434498,-33.886139,365.76 18.437805,-33.888794,335.28 18.438198,-33.889435,335.28 18.440048,-33.89241,274.32 18.440271,-33.893051,274.32 18.43943,-33.895844,243.84 18.43895,-33.896175,243.84 18.4359,-33.897263,182.88 18.435173,-33.897385,182.88 18.431683,-33.898361,91.44 18.431135,-33.898682,91.44 18.427677,-33.900551,30.48 18.427322,-33.900742,30.48 18.427105,-33.900223,30.48 18.427267,-33.899872,30.48 18.428501,-33.897629,60.96 18.428724,-33.896988,91.44 18.429737,-33.893753,121.92 18.429737,-33.892544,121.92 18.428135,-33.888771,152.4 18.427492,-33.88797,152.4 18.424017,-33.88472,182.88 18.422928,-33.88393,213.36 18.418524,-33.881836,213.36 18.416954,-33.881332,243.84 18.411852,-33.880325,274.32 18.410397,-33.880112,304.8 18.405933,-33.879696,335.28 18.404503,-33.879646,335.28 18.399925,-33.879787,365.76 18.398552,-33.879833,365.76 18.393574,-33.880253,426.72 18.39257,-33.880371,426.72 18.387918,-33.881241,457.2 18.386822,-33.881557,457.2 18.382425,-33.883255,487.68 18.381329,-33.883793,487.68 18.377037,-33.886166,487.68 18.376091,-33.88678,487.68 18.372335,-33.889343,518.16 18.371439,-33.890076,518.16 18.367825,-33.893379,518.16 18.367178,-33.894104,518.16 18.364162,-33.898174,518.16 18.363533,-33.899155,518.16 18.360901,-33.903343,518.16 18.360228,-33.904495,518.16 18.358097,-33.908047,548.64 18.357481,-33.909073,548.64 18.355295,-33.912827,579.12 18.354734,-33.913742,579.12 18.352493,-33.91745,609.6 18.351933,-33.918411,609.6 18.349743,-33.922291,609.6 18.349285,-33.923176,609.6 18.347282,-33.927319,609.6 18.346775,-33.928391,609.6 18.344936,-33.932579,640.08 18.344534,-33.933472,640.08 18.340302,-33.944309,640.08 18.339825,-33.945374,640.08 18.337694,-33.949722,640.08 18.337246,-33.950684,640.08 18.333715,-33.958054,670.56 18.332005,-33.96172,670.56 18.323402,-33.980392,701.04 18.321075,-33.985367,701.04 18.316555,-33.993793,701.04 18.315891,-33.994949,701.04 18.313694,-33.998402,701.04 18.312721,-33.999985,701.04 18.304848,-34.014908,670.56 18.30368,-34.017582,640.08 18.299503,-34.030338,640.08 18.299242,-34.031342,640.08 18.298233,-34.038574,609.6 18.298178,-34.039627,609.6 18.298473,-34.044861,609.6 18.298626,-34.045853,579.12 18.299187,-34.049927,579.12 18.299355,-34.051117,579.12 18.299973,-34.055283,548.64 18.300133,-34.056454,548.64 18.300762,-34.06041,548.64 18.300991,-34.061619,548.64 18.301792,-34.065624,548.64 18.302021,-34.066647,548.64 18.302774,-34.071121,518.16 18.302937,-34.071957,518.16 18.303616,-34.077805,487.68 18.303671,-34.078812,487.68 18.303951,-34.083206,487.68 18.304007,-34.084167,487.68 18.304287,-34.088287,457.2 18.304344,-34.089157,487.68 18.304457,-34.093414,457.2 18.304512,-34.094604,457.2 18.304882,-34.098583,457.2 18.30496,-34.099594,457.2 18.305634,-34.103806,426.72 18.305801,-34.104721,426.72 18.30637,-34.108826,426.72 18.306484,-34.109848,426.72 18.306828,-34.113899,396.24 18.306885,-34.11483,396.24 18.307228,-34.119019,365.76 18.307457,-34.120789,365.76 18.308435,-34.126511,365.76 18.308659,-34.127678,365.76 18.309612,-34.133423,365.76 18.309725,-34.134293,365.76 18.310509,-34.13855,365.76 18.310734,-34.139145,365.76 18.312149,-34.142761,365.76 18.312471,-34.143539,365.76 18.313465,-34.147137,396.24 18.313648,-34.14798,396.24 18.316563,-34.154434,365.76 18.317068,-34.155304,365.76 18.319199,-34.158691,396.24 18.31987,-34.159698,396.24 18.322056,-34.162994,365.76 18.327312,-34.169762,365.76 18.346481,-34.18177,396.24 18.350363,-34.183456,396.24 18.356438,-34.185822,396.24 18.35737,-34.18602,426.72 18.361069,-34.18634,426.72 18.361965,-34.186295,426.72 18.36544,-34.185883,426.72 18.366169,-34.185699,426.72 18.36886,-34.184921,426.72 18.369427,-34.184891,396.24 18.371943,-34.18634,365.76 18.372345,-34.186615,335.28 18.386993,-34.189827,396.24 18.387794,-34.18964,426.72 18.392258,-34.18829,426.72 18.393467,-34.187897,457.2 18.397923,-34.186382,457.2 18.399521,-34.185791,487.68 18.404617,-34.18354,487.68 18.405819,-34.182983,487.68 18.411123,-34.180573,457.2 18.41247,-34.180023,457.2 18.417515,-34.177689,457.2 18.418751,-34.177116,457.2 18.423847,-34.174255,457.2 18.424988,-34.17358,457.2 18.429623,-34.170273,426.72 18.430939,-34.169296,426.72 18.435631,-34.165573,457.2 18.436571,-34.16478,457.2 18.441067,-34.160545,426.72 18.441896,-34.159653,426.72 18.445541,-34.155579,396.24 18.446388,-34.154537,396.24 18.450304,-34.149399,396.24 18.451145,-34.148346,396.24 18.454733,-34.143906,365.76 18.455687,-34.142807,365.76 18.459385,-34.138321,335.28 18.460226,-34.137314,335.28 18.463758,-34.13269,304.8 18.464756,-34.131401,304.8 18.468304,-34.126606,304.8 18.469027,-34.125595,274.32 18.472252,-34.120789,274.32 18.47323,-34.119461,274.32 18.476931,-34.114975,274.32 18.478031,-34.113899,274.32 18.482838,-34.110359,243.84 18.483994,-34.109619,243.84 18.489304,-34.106682,213.36 18.490887,-34.105911,182.88 18.496056,-34.103565,152.4 18.497601,-34.102959,152.4 18.502939,-34.100876,121.92 18.504982,-34.100071,121.92 18.511234,-34.097763,60.96 18.512707,-34.097233,60.96 18.518715,-34.095325,60.96 18.520317,-34.09486,30.48 18.526312,-34.093231,30.48 18.527985,-34.092857,30.48 18.533764,-34.091785,30.48 18.535393,-34.091537,30.48 18.541054,-34.090668,30.48 18.542404,-34.090485,30.48 18.548241,-34.089832,30.48 18.549385,-34.089737,30.48 18.555737,-34.088852,30.48 18.55703,-34.088287,30.48 18.562489,-34.086292,30.48 18.563812,-34.085953,30.48 18.569248,-34.084579,60.96 18.570671,-34.084293,60.96 18.576591,-34.08316,30.48 18.578053,-34.082893,30.48 18.58366,-34.082012,30.48 18.585148,-34.081779,30.48 18.590549,-34.080917,60.96 18.592129,-34.080612,60.96 18.597794,-34.079777,30.48 18.599518,-34.07959,30.48 18.605347,-34.078949,60.96 18.607121,-34.0788,60.96 18.6133,-34.078194,60.96 18.614559,-34.078098,91.44 18.620089,-34.07753,121.92 18.621323,-34.077393,91.44 18.62669,-34.076752,91.44 18.62812,-34.076565,91.44 18.634586,-34.075634,60.96 18.63937,-34.074875,60.96 18.646433,-34.074142,30.48 18.648283,-34.074005,30.48 18.65456,-34.073822,30.48 18.655415,-34.073818,30.48 18.661366,-34.072746,60.96 18.662624,-34.072189,91.44 18.667717,-34.069393,91.44 18.668854,-34.068787,121.92 18.673668,-34.065857,121.92 18.674795,-34.06517,152.4 18.679449,-34.062195,152.4 18.680681,-34.061371,152.4 18.68557,-34.058174,182.88 18.686886,-34.057293,182.88 18.69178,-34.05423,152.4 18.693237,-34.053333,152.4 18.69833,-34.050308,152.4 18.699532,-34.049564,182.88 18.704224,-34.046631,213.36 18.709213,-34.043427,213.36 18.7267,-34.032578,213.36 18.730625,-34.030014,213.36 18.743019,-34.021492,213.36 18.743853,-34.020905,213.36 18.75309,-34.014511,213.36 18.754223,-34.013672,213.36 18.759604,-34.01001,213.36 18.760757,-34.009201,213.36 18.766218,-34.005386,213.36 18.767508,-34.004517,213.36 18.775299,-33.999435,213.36 18.77655,-33.998684,213.36 18.781586,-33.995701,213.36 18.783091,-33.994858,213.36 18.79088,-33.990326,243.84 18.794973,-33.9879,243.84 18.807753,-33.979752,274.32 18.808874,-33.978928,274.32 18.815231,-33.975964,304.8 18.816778,-33.975357,304.8 18.82267,-33.973545,304.8 18.823671,-33.973251,304.8 18.831911,-33.970367,335.28 18.833199,-33.969868,335.28 18.840408,-33.967445,335.28 18.84264,-33.966656,335.28 18.850708,-33.963676,335.28 18.852654,-33.962929,335.28 18.85952,-33.960278,335.28 18.861008,-33.959671,365.76 18.870028,-33.955444,426.72 18.87199,-33.954346,426.72 18.876457,-33.951942,457.2 18.877819,-33.951233,457.2 18.882471,-33.949356,487.68 18.884068,-33.948872,487.68 18.888918,-33.948807,518.16 18.889982,-33.949127,518.16 18.894018,-33.950638,548.64 18.895195,-33.951141,548.64 18.899345,-33.953339,548.64 18.900261,-33.953899,548.64 18.904331,-33.956818,518.16 18.905453,-33.957779,548.64 18.909544,-33.960892,548.64 18.910618,-33.961628,548.64 18.915262,-33.964142,548.64 18.916327,-33.964645,548.64 18.922213,-33.967163,548.64 18.923447,-33.967621,548.64 18.929108,-33.969177,548.64 18.930588,-33.969448,548.64 18.935909,-33.970425,579.12 18.937168,-33.970657,579.12 18.942896,-33.971466,579.12 18.944466,-33.971741,579.12 18.949928,-33.972614,609.6 18.95113,-33.972797,609.6 18.956293,-33.973618,670.56 18.957825,-33.973869,701.04 18.961716,-33.974709,731.52 18.962574,-33.974895,731.52 18.965092,-33.976105,731.52 18.965485,-33.976364,731.52 18.96698,-33.977177,701.04 18.967438,-33.977268,701.04 18.968904,-33.9776,701.04 18.969212,-33.977779,701.04 18.969898,-33.978756,670.56 18.969297,-33.97879,670.56 18.966887,-33.97879,579.12 18.965822,-33.978836,579.12 18.959991,-33.978973,487.68 18.958702,-33.979111,457.2 18.912291,-33.966751,518.16 18.908983,-33.965149,579.12 18.905005,-33.962677,609.6 18.904152,-33.962139,609.6 18.90024,-33.959839,640.08 18.899118,-33.959152,640.08 18.894939,-33.956738,640.08 18.89385,-33.956039,640.08 18.888693,-33.954575,609.6 18.887236,-33.954712,609.6 18.882179,-33.955154,609.6 18.880692,-33.955154,609.6 18.87496,-33.954117,579.12 18.873728,-33.953751,579.12 18.86829,-33.951599,518.16 18.867113,-33.951004,518.16 18.861122,-33.948776,457.2 18.859692,-33.948406,426.72 18.854027,-33.94701,396.24 18.852711,-33.946732,365.76 18.84676,-33.945705,335.28 18.845476,-33.945465,335.28 18.840008,-33.944588,304.8 18.838694,-33.944412,304.8 18.831711,-33.943424,274.32 18.830566,-33.943283,274.32 18.825129,-33.94249,274.32 18.823872,-33.942352,274.32 18.81855,-33.94175,243.84 18.817692,-33.941654,243.84 18.812199,-33.940678,274.32 18.81078,-33.940201,243.84 18.806076,-33.938492,274.32 18.804817,-33.938164,243.84 18.800011,-33.936909,274.32 18.798449,-33.936584,274.32 18.793945,-33.936489,274.32 18.792744,-33.936626,274.32 18.788303,-33.936996,274.32 18.787022,-33.937141,304.8 18.782616,-33.93784,335.28 18.781357,-33.937977,335.28 18.776869,-33.938644,365.76 18.775915,-33.938873,365.76 18.771286,-33.939888,365.76 18.770142,-33.940109,365.76 18.76482,-33.940258,365.76 18.763561,-33.940166,335.28 18.757725,-33.939838,335.28 18.756351,-33.939838,335.28 18.751083,-33.939697,335.28 18.749458,-33.939835,304.8 18.745871,-33.941849,304.8 18.745029,-33.942993,304.8 18.742962,-33.946079,335.28 18.742275,-33.946915,304.8 18.739256,-33.94931,335.28 18.738527,-33.94986,365.76 18.734268,-33.951691,365.76 18.733202,-33.952011,365.76 18.728542,-33.953293,365.76 18.727169,-33.953621,365.76 18.722591,-33.954689,365.76 18.721447,-33.954922,335.28 18.716051,-33.955994,335.28 18.714752,-33.956272,335.28 18.70903,-33.957249,335.28 18.707699,-33.957458,304.8 18.702049,-33.958183,304.8 18.700581,-33.958374,304.8 18.695183,-33.959019,304.8 18.693798,-33.959198,274.32 18.688316,-33.959858,274.32 18.687071,-33.959976,274.32 18.681578,-33.960434,274.32 18.680346,-33.96048,274.32 18.674852,-33.960709,274.32 18.673563,-33.960754,274.32 18.668232,-33.960743,274.32 18.666916,-33.960648,274.32 18.661423,-33.959671,274.32 18.65983,-33.959244,274.32 18.654499,-33.958042,243.84 18.653069,-33.957668,243.84 18.647518,-33.956226,213.36 18.646152,-33.955902,213.36 18.640827,-33.954575,213.36 18.639507,-33.954224,243.84 18.634243,-33.952782,243.84 18.633038,-33.952515,243.84 18.6276,-33.95192,213.36 18.626423,-33.951828,213.36 18.620853,-33.951523,213.36 18.61936,-33.951462,213.36 18.614388,-33.951107,213.36 18.6129,-33.951057,213.36 18.607477,-33.950775,213.36 18.606356,-33.950684,213.36 18.600941,-33.950176,213.36 18.599682,-33.950035,213.36 18.594131,-33.948872,243.84 18.592903,-33.948578,243.84 18.587723,-33.947475,243.84 18.586349,-33.947147,243.84 18.58102,-33.946106,243.84 18.579506,-33.945877,213.36 18.573933,-33.945427,213.36 18.572617,-33.945286,243.84 18.567007,-33.944687,243.84 18.565578,-33.944496,243.84 18.560028,-33.943565,243.84 18.558767,-33.943314,243.84 18.553497,-33.942078,274.32 18.552265,-33.941666,274.32 18.546772,-33.93956,274.32 18.545595,-33.939102,274.32 18.540401,-33.937046,304.8 18.539257,-33.936581,274.32 18.532276,-33.933697,274.32 18.531134,-33.933197,274.32 18.510017,-33.924057,274.32 18.508701,-33.923454,274.32 18.502939,-33.920792,243.84 18.501593,-33.920151,243.84 18.494867,-33.916901,243.84 18.493481,-33.916286,243.84 18.488045,-33.914143,213.36 18.486099,-33.913445,213.36 18.4799,-33.911362,213.36 18.478611,-33.91095,213.36 18.472389,-33.908981,213.36 18.470936,-33.908558,213.36 18.464655,-33.906418,213.36 18.463421,-33.90596,213.36 18.457031,-33.903622,213.36 18.455013,-33.902802,213.36 18.44952,-33.900513,243.84 18.448118,-33.899918,243.84 18.442841,-33.897709,243.84 18.441639,-33.897198,243.84 18.436684,-33.895386,213.36 18.43523,-33.894962,213.36 18.430462,-33.894241,182.88 18.42979,-33.894287,182.88 18.426931,-33.895935,152.4 18.426991,-33.8965,121.92 18.427448,-33.898361,91.44 18.427563,-33.898922,91.44 18.427277,-33.900597,30.48 18.427048,-33.900875,30.48 18.427547,-33.899597,30.48 18.427792,-33.899246,30.48 18.428501,-33.898087,30.48 18.428892,-33.897446,60.96 18.430996,-33.894314,91.44 18.431471,-33.8936,121.92 18.433434,-33.890442,152.4 18.433825,-33.889709,182.88 18.435574,-33.886074,213.36 18.4359,-33.885178,213.36 18.435402,-33.881092,243.84 18.434887,-33.880161,243.84 18.431976,-33.876205,274.32 18.430939,-33.875271,274.32 18.426647,-33.87262,274.32 18.425503,-33.8722,274.32 18.42071,-33.871078,304.8 18.419323,-33.870895,304.8 18.413702,-33.870621,335.28 18.412357,-33.870667,365.76 18.407993,-33.871223,365.76 18.406506,-33.871548,396.24 18.4021,-33.872589,426.72 18.400923,-33.872955,426.72 18.396326,-33.874557,457.2 18.395176,-33.875038,457.2 18.391281,-33.877075,487.68 18.390217,-33.87767,487.68 18.386478,-33.88002,518.16 18.385448,-33.880672,548.64 18.38192,-33.883072,579.12 18.380911,-33.88385,579.12 18.377548,-33.886505,579.12 18.376637,-33.887283,609.6 18.37368,-33.89003,609.6 18.372784,-33.8909,609.6 18.369999,-33.893799,640.08 18.369198,-33.894638,640.08 18.366339,-33.897766,670.56 18.365536,-33.898689,670.56 18.362806,-33.901932,701.04 18.36219,-33.902664,701.04 18.359612,-33.905869,701.04 18.358883,-33.90683,701.04 18.356323,-33.910511,731.52 18.355801,-33.91127,731.52 18.353291,-33.915119,731.52 18.352718,-33.915958,731.52 18.3498,-33.920895,701.04 18.349131,-33.922073,701.04 18.346882,-33.926388,701.04 18.346539,-33.927036,731.52 18.344477,-33.931274,731.52 18.344078,-33.932064,701.04 18.342018,-33.936581,701.04 18.340073,-33.940491,701.04 18.338144,-33.944183,731.52 18.336575,-33.947159,701.04 18.333836,-33.952362,701.04 18.333206,-33.953758,701.04 18.340359,-33.963722,731.52 18.343277,-33.962605,731.52 18.348177,-33.956589,701.04 18.34877,-33.95562,670.56 18.351316,-33.95105,670.56 18.351933,-33.94986,640.08 18.354607,-33.945099,640.08 18.355408,-33.943771,640.08 18.358099,-33.938965,609.6 18.35877,-33.937683,609.6 18.361187,-33.933323,579.12 18.361797,-33.932098,579.12 18.364096,-33.927521,579.12 18.364735,-33.926292,579.12 18.366842,-33.922119,548.64 18.367424,-33.921127,548.64 18.369884,-33.916752,548.64 18.370485,-33.915756,548.64 18.375092,-33.908279,548.64 18.375868,-33.907242,548.64 18.378893,-33.903214,548.64 18.379612,-33.902317,548.64 18.382706,-33.898727,579.12 18.383547,-33.897675,579.12 18.386822,-33.894314,579.12 18.387508,-33.893707,579.12 18.391338,-33.890533,579.12 18.392235,-33.889801,579.12 18.396103,-33.886871,579.12 18.397335,-33.886002,579.12 18.401371,-33.883392,609.6 18.402672,-33.882626,609.6 18.407822,-33.880394,579.12 18.40877,-33.880096,579.12 18.414488,-33.879135,579.12 18.416,-33.879044,579.12 18.420982,-33.879555,518.16 18.422503,-33.879959,518.16 18.426647,-33.881882,457.2 18.427322,-33.882339,457.2 18.429966,-33.885094,396.24 18.430407,-33.885681,396.24 18.431854,-33.888351,365.76 18.432087,-33.889023,335.28 18.432985,-33.891724,274.32 18.433113,-33.892265,274.32 18.433489,-33.894745,213.36 18.433456,-33.895428,213.36 18.432199,-33.897125,182.88 18.431625,-33.897476,182.88 18.430239,-33.898041,121.92 18.429846,-33.898178,91.44 18.427219,-33.900085,30.48 18.426876,-33.900364,30.48 18.427212,-33.90097,30.48 18.427828,-33.900833,30.48 18.430481,-33.90004,60.96 18.430996,-33.899853,60.96 18.433937,-33.898819,152.4 18.43461,-33.89859,182.88 18.437244,-33.896942,213.36 18.43775,-33.896347,213.36 18.43915,-33.892548,243.84 18.439121,-33.891567,243.84 18.437805,-33.887283,243.84 18.437469,-33.886505,243.84 18.434772,-33.881695,274.32 18.434029,-33.880672,274.32 18.430595,-33.877228,304.8 18.429398,-33.876617,304.8 18.423847,-33.875244,365.76 18.422503,-33.875153,365.76 18.417835,-33.875225,396.24 18.416176,-33.875366,426.72 18.411123,-33.876022,457.2 18.41011,-33.876202,457.2 18.405407,-33.877213,487.68 18.404446,-33.877415,487.68 18.399582,-33.87867,487.68 18.398266,-33.879044,518.16 18.393915,-33.880508,518.16 18.392429,-33.881138,518.16 18.388142,-33.883163,548.64 18.387133,-33.883713,548.64 18.382816,-33.886307,548.64 18.381472,-33.887192,548.64 18.377605,-33.889984,579.12 18.37635,-33.890915,579.12 18.372671,-33.893967,609.6 18.371887,-33.894684,609.6 18.368076,-33.898087,640.08 18.367235,-33.898911,640.08 18.364208,-33.901886,670.56 18.36359,-33.902554,670.56 18.360676,-33.905869,670.56 18.359928,-33.906742,701.04 18.357296,-33.910091,701.04 18.356417,-33.91127,701.04 18.354286,-33.914658,701.04 18.353725,-33.915665,701.04 18.351688,-33.919544,701.04 18.351231,-33.920475,731.52 18.349298,-33.9245,731.52 18.34877,-33.925594,731.52 18.346943,-33.929764,731.52 18.346552,-33.930679,731.52 18.343412,-33.937637,762 18.341904,-33.94133,762 18.337669,-33.951244,762 18.337326,-33.952316,762 18.336685,-33.955948,822.96 18.336868,-33.956505,853.44 18.340273,-33.958603,914.4 18.34116,-33.958599,914.4 18.345966,-33.956646,822.96 18.347225,-33.955528,822.96 18.350372,-33.951199,762 18.351116,-33.950035,762 18.353783,-33.945328,731.52 18.354454,-33.944092,701.04 18.356895,-33.939606,670.56 18.357538,-33.93837,670.56 18.359985,-33.933231,640.08 18.360676,-33.931778,640.08 18.363815,-33.925598,609.6 18.364431,-33.9245,609.6 18.369421,-33.915482,609.6 18.370686,-33.91312,609.6 18.376259,-33.9039,640.08 18.376865,-33.902969,640.08 18.379498,-33.899014,640.08 18.380239,-33.897949,640.08 18.383099,-33.89415,640.08 18.383904,-33.893196,640.08 18.387794,-33.889656,640.08 18.388996,-33.888725,640.08 18.393299,-33.885818,640.08 18.394363,-33.885178,640.08 18.399073,-33.882797,640.08 18.400587,-33.882156,640.08 18.405462,-33.880417,640.08 18.407021,-33.879929,640.08 18.412056,-33.878624,640.08 18.413601,-33.878437,640.08 18.418859,-33.87854,609.6 18.419981,-33.878677,609.6 18.424416,-33.879879,579.12 18.425446,-33.880344,548.64 18.428421,-33.88221,518.16 18.429062,-33.882797,518.16 18.43091,-33.885223,457.2 18.43119,-33.885681,457.2 18.43248,-33.888153,396.24 18.432648,-33.888565,365.76 18.433266,-33.891037,304.8 18.433342,-33.891518,304.8 18.433657,-33.893646,274.32 18.433601,-33.894058,243.84 18.433228,-33.895523,243.84 18.433056,-33.895802,213.36 18.428707,-33.898735,60.96 18.427849,-33.899338,60.96 18.427048,-33.900738,30.48 18.426975,-33.900944,0
        </coordinates>
      </LineString>
    </Placemark>
  </Document>
</kml>