<?xml version="1.0" encoding="UTF-8"?>
<kml xmlns="http://www.opengis.net/kml/2.2">
  <Document>
    <name>-/ZTHOT - Optimised</name>
    <description><![CDATA[Optimised flight path with 727 points (decimated from 3633 original points). Source format: Standard KML]]></description>
    
    <Style id="flightPath">
      <LineStyle>
        <color>ff0000ff</color>
        <width>3</width>
      </LineStyle>
    </Style>
    
    <Placemark>
      <name>Flight Path</name>
      <description><![CDATA[<div style="width:220px; text-align:center;">
<div style="width:210px; text-align:center;">
<div style=" background: #000; color: #fff; font-size: 14px; text-align:left; border: 1px solid #000; padding: 2px 6px; text-shadow: 0 1px 0 #000; box-shadow: 0 1px 3px rgba(0,0,0,0.6); background: -webkit-gradient(linear, left top, left bottom, color-stop(0%,#808080), color-stop(2%,#303030), color-stop(100%,#0c0c0c));"><span style="font-size: 14px; font-weight: bold;"><a href="javascript:void(0);" style="color: #fff; cursor: pointer;text-decoration: none;">-</a></span> / ZTHOT<br/>Cape Town Helicopters</div>

<div style="border-top: 1px solid #005c90; color: #fff; padding-bottom: 5px; box-shadow: 0 0 1px #9BE3F6 inset, 0 1px 0 #9BE3F6 inset, 0 -1px 3px rgba(0,0,0,0.4); background:rgba(43,114,173,1); background: -webkit-gradient(linear, left top, left bottom, color-stop(0%,rgba(92,184,229,1)), color-stop(100%,rgba(43,114,173,1)));">
<a style="text-decoration: none; color: rgb(255, 255, 255); font-size: 12px; width:77px; display: inline-block;" title=" Airport" href="javascript:void(0);/departures"><h3 style="padding: 0px; margin: 10px 0px 0px; font-size: 16px; ">?</h3></a>
<span style="background: url(https://www.flightradar24.com/static/images/userUI_sprite.png?14) no-repeat scroll 0 -464px rgba(0, 0, 0, 0); border: medium none; display: inline-block; height: 16px; width: 45px;"></span>
<a style="text-decoration: none; color: rgb(255, 255, 255); font-size: 12px; width:77px; display: inline-block;" title=" Airport" href="javascript:void(0);/arrivals"><h3 style="padding: 0px; margin: 10px 0px 0px; font-size: 16px;">?</h3></a>
<div style=" margin-top:10px;">
<div style="display: inline-block; font-size: 12px; padding: 0 5px;">
<div>
<span style="color: #c1eaff;" title="Actual Time of Departure">ATD </span>
<span title="2025-08-17 11:52">11:52</span> <span title="Coordinated Universal Time">UTC</span>
</div>
</div>
<div style="display: inline-block; font-size: 12px; padding: 0 5px;">
<div>
<span style="color: #c1eaff;" title="Estimated Time of Arrival">ETA </span>
<span title="2025-08-17 12:07">12:07</span> <span title="Coordinated Universal Time">UTC</span>
</div>
</div>
</div>
<br style="clear: both;"/>
</div>

<div style="display: block;">
<table style="border-collapse: collapse; width: 100%;">
<tr style="border-right: 1px solid #dadada; ">
<td style="background: none repeat scroll 0 0 #dadada; padding: 0; width: 31px;">
<span style="background: url(https://www.flightradar24.com/static/images/userUI_sprite.png?14) no-repeat scroll -208px -464px rgba(0, 0, 0, 0); height: 26px; margin: 8px 0 0 4px; width: 23px; display: block;"></span>
</td>
<td colspan="2" style="border-bottom: 1px solid #dadada; border-left: 1px solid #dadada; color: #666; line-height: 1.1em; padding: 3px 6px; vertical-align: top; font-size: 14px;">
Aircraft<span style="float: right; font-size: 12px;">(AS50)</span><br>
<span style="color: #333; font-size: 16px; font-weight: bold; line-height: 1.3em;">Airbus Helicopters H125</span>
</td>
</tr>
<tr style="border-right: 1px solid #dadada; ">
<td style="background: none repeat scroll 0 0 #dadada; padding: 0; width: 31px;">
<td colspan="2" style="border-bottom: 1px solid #dadada; border-left: 1px solid #dadada; color: #666; line-height: 1.1em; padding: 3px 6px; vertical-align: top; font-size: 14px;">
Registration<br>
<span style="color: #333; font-size: 16px; font-weight: bold; line-height: 1.3em;"><a href="https://www.flightradar24.com/reg/zt-hot" style="text-decoration: none; color: #333;">ZT-HOT</a></span>
</td>
</tr>
</table>
</div>

</div>
</div>]]></description>
      <styleUrl>#flightPath</styleUrl>
      <LineString>
        <extrude>1</extrude>
        <tessellate>1</tessellate>
        <altitudeMode>absolute</altitudeMode>
        <coordinates>
          18.430239,-33.895752,60.96 18.43523,-33.885979,213.36 18.434946,-33.881836,274.32 18.43008,-33.878902,335.28 18.424702,-33.878391,365.76 18.419083,-33.878494,396.24 18.413315,-33.879044,457.2 18.407593,-33.880188,487.68 18.401987,-33.881927,518.16 18.395933,-33.884399,548.64 18.390385,-33.887146,548.64 18.384647,-33.890865,548.64 18.379269,-33.894825,548.64 18.374176,-33.898689,579.12 18.36937,-33.902832,609.6 18.365385,-33.907242,609.6 18.361988,-33.912235,640.08 18.359163,-33.917679,640.08 18.356609,-33.923592,670.56 18.354549,-33.929646,670.56 18.352661,-33.935623,701.04 18.347569,-33.956085,701.04 18.34201,-33.97403,701.04 18.331718,-33.99477,701.04 18.31913,-34.015022,670.56 18.308716,-34.030243,762 18.307652,-34.036514,883.92 18.310846,-34.038849,975.36 18.314209,-34.036285,944.88 18.317356,-34.031643,853.44 18.320486,-34.026215,822.96 18.323421,-34.020889,762 18.333603,-34.004059,640.08 18.348026,-33.980339,548.64 18.35681,-33.961807,518.16 18.358547,-33.953064,518.16 18.360214,-33.942493,518.16 18.362583,-33.933563,518.16 18.365135,-33.928154,518.16 18.367907,-33.92308,518.16 18.371552,-33.918091,487.68 18.375643,-33.913422,487.68 18.380239,-33.908798,487.68 18.384647,-33.904648,487.68 18.39016,-33.899734,487.68 18.395205,-33.89566,457.2 18.40081,-33.891907,457.2 18.407078,-33.888493,426.72 18.41423,-33.885887,396.24 18.421942,-33.88472,396.24 18.42951,-33.885818,365.76 18.436123,-33.889343,335.28 18.441696,-33.89352,304.8 18.445765,-33.897903,274.32 18.443584,-33.901436,213.36 18.437347,-33.899899,121.92 18.427155,-33.900192,0 18.431625,-33.89352,121.92 18.435787,-33.886002,274.32 18.435116,-33.882256,335.28 18.432426,-33.879135,396.24 18.428221,-33.87735,487.68 18.423399,-33.87648,548.64 18.417606,-33.876434,579.12 18.411713,-33.877552,609.6 18.405876,-33.879646,579.12 18.400154,-33.881927,609.6 18.394253,-33.884583,609.6 18.388815,-33.887283,640.08 18.382874,-33.891006,670.56 18.378277,-33.894608,670.56 18.373318,-33.8992,670.56 18.368855,-33.904182,670.56 18.364431,-33.909073,670.56 18.356304,-33.919144,701.04 18.35367,-33.924911,701.04 18.352261,-33.931274,701.04 18.35146,-33.937511,701.04 18.345205,-33.965698,701.04 18.337416,-33.983002,701.04 18.325699,-34.001816,701.04 18.313593,-34.021179,670.56 18.307915,-34.031406,822.96 18.307146,-34.035141,944.88 18.309164,-34.037064,1005.84 18.312359,-34.035004,944.88 18.315722,-34.030746,914.4 18.319366,-34.025894,883.92 18.322906,-34.020374,792.48 18.326054,-34.014694,731.52 18.328896,-34.008957,670.56 18.334612,-34.000626,609.6 18.348738,-33.981583,548.64 18.356209,-33.965958,518.16 18.358383,-33.953945,518.16 18.358498,-33.94836,518.16 18.358828,-33.940338,548.64 18.360117,-33.93425,548.64 18.362246,-33.928848,548.64 18.365021,-33.923359,548.64 18.368412,-33.918365,548.64 18.372517,-33.913353,518.16 18.37682,-33.90889,518.16 18.381191,-33.904495,518.16 18.38932,-33.896942,518.16 18.394661,-33.893101,518.16 18.400194,-33.889618,548.64 18.405933,-33.886723,518.16 18.412514,-33.884396,518.16 18.420204,-33.883621,487.68 18.42766,-33.885452,457.2 18.434105,-33.888611,426.72 18.439693,-33.892681,365.76 18.444386,-33.896965,304.8 18.445187,-33.901947,243.84 18.440094,-33.902225,152.4 18.435917,-33.89957,121.92 18.427322,-33.900101,0 18.428135,-33.898502,30.48 18.430239,-33.895157,60.96 18.43276,-33.891129,152.4 18.435562,-33.884903,243.84 18.4342,-33.881557,304.8 18.429621,-33.879684,365.76 18.424185,-33.879272,426.72 18.418751,-33.879181,457.2 18.412973,-33.879456,487.68 18.407312,-33.88028,548.64 18.402155,-33.881882,579.12 18.396549,-33.884163,579.12 18.39077,-33.886677,609.6 18.383883,-33.890625,609.6 18.378582,-33.894173,609.6 18.373318,-33.89827,609.6 18.36874,-33.902412,579.12 18.364162,-33.907207,640.08 18.361015,-33.911491,670.56 18.357868,-33.916752,701.04 18.355293,-33.921871,731.52 18.352833,-33.927643,701.04 18.350658,-33.933231,701.04 18.348793,-33.939468,701.04 18.344702,-33.956268,731.52 18.354263,-33.963303,762 18.35804,-33.952408,640.08 18.358322,-33.946381,609.6 18.360397,-33.937088,579.12 18.362471,-33.931503,579.12 18.364792,-33.925968,579.12 18.368019,-33.920883,548.64 18.371887,-33.916237,548.64 18.376236,-33.911537,548.64 18.380575,-33.906967,548.64 18.390778,-33.897263,548.64 18.396721,-33.892868,518.16 18.402042,-33.889236,518.16 18.408041,-33.885544,518.16 18.414917,-33.883373,487.68 18.422985,-33.883419,487.68 18.429678,-33.885269,457.2 18.436317,-33.888351,396.24 18.44244,-33.892078,335.28 18.446617,-33.896965,274.32 18.444901,-33.902039,213.36 18.439236,-33.901714,152.4 18.435574,-33.899246,152.4 18.430996,-33.899014,91.44 18.427048,-33.900272,0 18.431396,-33.893429,91.44 18.435287,-33.885559,243.84 18.434544,-33.881092,274.32 18.432484,-33.876762,335.28 18.424873,-33.875832,609.6 18.425249,-33.878815,701.04 18.427099,-33.881744,731.52 18.424416,-33.884861,701.04 18.417892,-33.884628,670.56 18.410843,-33.884216,640.08 18.401356,-33.884209,640.08 18.393459,-33.885746,640.08 18.387022,-33.888611,640.08 18.379898,-33.893196,640.08 18.375027,-33.897629,640.08 18.370628,-33.902367,670.56 18.366566,-33.907207,670.56 18.362675,-33.912235,701.04 18.355179,-33.922756,701.04 18.352032,-33.928249,731.52 18.348906,-33.93425,731.52 18.348713,-33.941608,792.48 18.352776,-33.944077,914.4 18.355236,-33.942352,1005.84 18.356781,-33.940445,1066.8 18.358555,-33.938538,1127.76 18.362583,-33.938507,1188.72 18.36348,-33.94368,1127.76 18.361855,-33.950089,1066.8 18.358603,-33.958191,1005.84 18.354321,-33.966888,975.36 18.339787,-33.990582,822.96 18.326569,-34.011112,762 18.322678,-34.020329,701.04 18.319647,-34.027863,670.56 18.315498,-34.041275,609.6 18.319757,-34.051208,579.12 18.333721,-34.05864,548.64 18.348625,-34.064713,548.64 18.354034,-34.063995,670.56 18.359642,-34.068558,640.08 18.363819,-34.074097,640.08 18.368805,-34.079636,640.08 18.373737,-34.084991,640.08 18.380968,-34.093918,609.6 18.384647,-34.099934,609.6 18.391628,-34.107941,609.6 18.398344,-34.113144,609.6 18.404846,-34.117264,579.12 18.411797,-34.12088,579.12 18.418634,-34.123993,579.12 18.425978,-34.126785,579.12 18.433342,-34.128983,579.12 18.440945,-34.130814,548.64 18.448563,-34.131451,548.64 18.454788,-34.128754,548.64 18.459217,-34.124725,548.64 18.46241,-34.12009,548.64 18.465607,-34.114426,548.64 18.46813,-34.109116,548.64 18.46998,-34.10289,548.64 18.470478,-34.09742,579.12 18.470596,-34.091446,579.12 18.470428,-34.085953,548.64 18.47002,-34.077168,548.64 18.469362,-34.056473,579.12 18.469587,-34.050888,579.12 18.470596,-34.03862,548.64 18.472195,-34.014648,579.12 18.473791,-34.004105,548.64 18.475971,-33.99221,518.16 18.480206,-33.969727,426.72 18.483067,-33.953106,396.24 18.483208,-33.946838,365.76 18.482815,-33.941299,365.76 18.481636,-33.935604,365.76 18.479404,-33.930389,335.28 18.475864,-33.92569,304.8 18.470764,-33.920895,304.8 18.465607,-33.91658,274.32 18.456402,-33.908463,243.84 18.452154,-33.903351,243.84 18.449936,-33.898174,243.84 18.444328,-33.895428,213.36 18.439751,-33.89864,152.4 18.436546,-33.901016,121.92 18.433489,-33.900284,91.44 18.427996,-33.900009,0 18.426991,-33.900318,0 18.430367,-33.895988,60.96 18.432713,-33.892357,121.92 18.435745,-33.886539,213.36 18.435116,-33.88216,304.8 18.431911,-33.878811,335.28 18.426075,-33.877228,396.24 18.418747,-33.877121,426.72 18.412357,-33.878082,457.2 18.405819,-33.879879,518.16 18.39711,-33.883438,548.64 18.391674,-33.886276,579.12 18.383331,-33.891426,640.08 18.378502,-33.895294,640.08 18.373432,-33.900364,670.56 18.368969,-33.905205,670.56 18.363934,-33.911072,701.04 18.3601,-33.916565,731.52 18.357258,-33.922119,731.52 18.354343,-33.928345,731.52 18.350027,-33.938782,731.52 18.344141,-33.955994,731.52 18.334007,-33.985882,731.52 18.32486,-34.003876,731.52 18.320847,-34.009903,731.52 18.314882,-34.018066,731.52 18.305634,-34.032761,792.48 18.310261,-34.035366,883.92 18.315296,-34.030991,822.96 18.318918,-34.024933,762 18.322561,-34.018158,701.04 18.326855,-34.009716,670.56 18.339712,-33.988998,609.6 18.352325,-33.968719,579.12 18.356752,-33.957001,579.12 18.358269,-33.950687,548.64 18.359585,-33.944401,548.64 18.361702,-33.933044,548.64 18.364882,-33.926376,579.12 18.368225,-33.921032,548.64 18.373032,-33.915215,548.64 18.378468,-33.909443,548.64 18.385334,-33.902367,548.64 18.391058,-33.8974,548.64 18.397121,-33.892776,548.64 18.404621,-33.88829,518.16 18.41275,-33.885544,487.68 18.421326,-33.884026,457.2 18.42905,-33.884815,396.24 18.436516,-33.888794,365.76 18.443069,-33.894077,304.8 18.447304,-33.8992,274.32 18.443584,-33.902599,213.36 18.434105,-33.898819,91.44 18.427277,-33.900131,0 18.429565,-33.896667,30.48 18.432369,-33.892124,121.92 18.434666,-33.887512,213.36 18.435287,-33.882954,304.8 18.431808,-33.879868,335.28 18.426819,-33.878952,396.24 18.421211,-33.878765,457.2 18.415384,-33.879181,518.16 18.408909,-33.880299,548.64 18.403416,-33.881836,579.12 18.396778,-33.883652,609.6 18.390255,-33.886024,640.08 18.383789,-33.889797,670.56 18.377209,-33.89436,701.04 18.371326,-33.899551,731.52 18.366108,-33.905716,731.52 18.361574,-33.911911,731.52 18.35804,-33.917496,731.52 18.354836,-33.923359,731.52 18.351746,-33.930065,731.52 18.349628,-33.937,731.52 18.347952,-33.94313,731.52 18.341045,-33.96656,701.04 18.333042,-33.984055,701.04 18.322506,-34.002918,731.52 18.322506,-34.008598,883.92 18.328838,-34.008636,883.92 18.332874,-34.003601,853.44 18.336697,-33.996586,822.96 18.343187,-33.984009,731.52 18.356724,-33.957718,670.56 18.358898,-33.950268,640.08 18.359667,-33.943542,640.08 18.361181,-33.933105,609.6 18.363762,-33.926666,609.6 18.366451,-33.920845,579.12 18.370171,-33.915028,548.64 18.375082,-33.909531,548.64 18.379841,-33.904972,548.64 18.38562,-33.89999,548.64 18.391685,-33.895195,518.16 18.399185,-33.890076,487.68 18.405462,-33.88623,457.2 18.412918,-33.883392,426.72 18.421213,-33.883209,396.24 18.429794,-33.885605,365.76 18.435745,-33.889332,304.8 18.441982,-33.895615,243.84 18.444082,-33.901108,213.36 18.438606,-33.901993,121.92 18.433285,-33.900455,60.96 18.429337,-33.89962,30.48 18.426987,-33.900696,0 18.434275,-33.888245,152.4 18.434772,-33.887096,182.88 18.435516,-33.883652,243.84 18.435287,-33.882534,243.84 18.432705,-33.879868,304.8 18.430996,-33.879135,304.8 18.426933,-33.878483,335.28 18.425732,-33.878437,365.76 18.421438,-33.878403,396.24 18.420353,-33.878437,396.24 18.415489,-33.878811,426.72 18.414288,-33.878902,457.2 18.409779,-33.879684,487.68 18.408657,-33.879913,487.68 18.40423,-33.881195,518.16 18.402884,-33.881607,518.16 18.398209,-33.883419,548.64 18.396942,-33.883942,548.64 18.392347,-33.886093,548.64 18.391226,-33.886688,548.64 18.387051,-33.889191,548.64 18.385956,-33.889984,548.64 18.381672,-33.893055,548.64 18.380463,-33.893921,548.64 18.376259,-33.897034,579.12 18.375149,-33.897942,579.12 18.371271,-33.901108,579.12 18.370485,-33.901794,609.6 18.366842,-33.905457,609.6 18.366001,-33.906509,609.6 18.363361,-33.909954,640.08 18.362675,-33.911072,640.08 18.360271,-33.915401,640.08 18.359642,-33.916656,640.08 18.357481,-33.921204,670.56 18.35709,-33.922256,670.56 18.355522,-33.926853,670.56 18.355064,-33.928108,670.56 18.353462,-33.933044,670.56 18.353062,-33.934299,670.56 18.350258,-33.943935,701.04 18.349298,-33.947571,701.04 18.34425,-33.968002,701.04 18.343048,-33.971264,701.04 18.336525,-33.985786,701.04 18.335005,-33.988815,701.04 18.32468,-34.006409,670.56 18.321888,-34.010788,670.56 18.312035,-34.025124,701.04 18.309689,-34.028614,731.52 18.307539,-34.033859,822.96 18.307426,-34.035461,853.44 18.309219,-34.038437,944.88 18.309917,-34.038765,975.36 18.31295,-34.037785,944.88 18.313536,-34.037109,944.88 18.316212,-34.033455,883.92 18.316784,-34.032574,883.92 18.319199,-34.028503,822.96 18.319931,-34.027264,822.96 18.322168,-34.023193,792.48 18.322842,-34.021957,762 18.328503,-34.012115,701.04 18.330631,-34.00869,670.56 18.341846,-33.990395,579.12 18.344936,-33.985367,548.64 18.355064,-33.967587,518.16 18.35598,-33.96484,518.16 18.358042,-33.955673,518.16 18.358322,-33.954391,518.16 18.359051,-33.949814,487.68 18.359724,-33.94606,518.16 18.361797,-33.935577,518.16 18.36219,-33.934525,518.16 18.364151,-33.930176,518.16 18.36462,-33.929272,518.16 18.366566,-33.925362,518.16 18.367235,-33.924225,518.16 18.369982,-33.920013,518.16 18.370857,-33.918938,487.68 18.37396,-33.915298,487.68 18.374691,-33.914471,487.68 18.378296,-33.910698,487.68 18.379118,-33.909851,487.68 18.382702,-33.906414,487.68 18.38377,-33.905457,487.68 18.387451,-33.902084,487.68 18.388424,-33.901249,487.68 18.393173,-33.897293,457.2 18.394089,-33.896545,457.2 18.398457,-33.893417,457.2 18.399754,-33.89259,457.2 18.40456,-33.889797,426.72 18.405704,-33.889191,426.72 18.411404,-33.886734,396.24 18.412914,-33.886257,396.24 18.418634,-33.88504,396.24 18.420261,-33.884857,396.24 18.426371,-33.884995,365.76 18.428053,-33.885361,365.76 18.433208,-33.887512,335.28 18.434715,-33.888447,335.28 18.439768,-33.891953,304.8 18.440723,-33.892681,304.8 18.44442,-33.896118,274.32 18.445261,-33.897079,274.32 18.445301,-33.900784,243.84 18.4445,-33.901249,213.36 18.440159,-33.900742,152.4 18.438982,-33.900375,152.4 18.429737,-33.899246,30.48 18.428501,-33.899643,0 18.427792,-33.8992,0 18.429508,-33.896732,30.48 18.435173,-33.887562,243.84 18.435507,-33.886826,274.32 18.435675,-33.883713,304.8 18.435402,-33.882908,335.28 18.433857,-33.880299,396.24 18.433096,-33.879639,396.24 18.430014,-33.877945,457.2 18.42905,-33.877598,457.2 18.425388,-33.876717,518.16 18.42424,-33.876572,518.16 18.419838,-33.876297,579.12 18.418579,-33.876343,579.12 18.413927,-33.877029,609.6 18.413029,-33.877228,609.6 18.408154,-33.878815,609.6 18.407192,-33.879181,579.12 18.4025,-33.880951,609.6 18.401299,-33.881462,609.6 18.396492,-33.88356,609.6 18.395372,-33.884079,609.6 18.391056,-33.88612,640.08 18.389854,-33.886723,640.08 18.385004,-33.889572,640.08 18.383904,-33.890263,670.56 18.379734,-33.893417,670.56 18.378925,-33.894077,670.56 18.375435,-33.897152,670.56 18.374062,-33.898457,670.56 18.370485,-33.902298,670.56 18.369541,-33.903389,670.56 18.366058,-33.907242,670.56 18.36525,-33.908138,670.56 18.35844,-33.9161,701.04 18.357067,-33.917961,701.04 18.354664,-33.922245,701.04 18.354118,-33.923584,701.04 18.352716,-33.928574,701.04 18.352549,-33.929443,701.04 18.351803,-33.934952,701.04 18.351631,-33.936161,701.04 18.348312,-33.953106,701.04 18.346825,-33.959579,701.04 18.340385,-33.9776,701.04 18.339041,-33.980118,701.04 18.330969,-33.993622,701.04 18.327997,-33.998199,701.04 18.318806,-34.012482,670.56 18.315666,-34.017746,670.56 18.308661,-34.029602,762 18.308201,-34.030617,792.48 18.307285,-34.033596,883.92 18.307146,-34.034409,914.4 18.307915,-34.036575,975.36 18.30843,-34.036854,975.36 18.311182,-34.03624,975.36 18.311743,-34.03569,944.88 18.314266,-34.032574,914.4 18.315105,-34.031525,914.4 18.317797,-34.028,883.92 18.318672,-34.026848,883.92 18.321608,-34.022507,822.96 18.322224,-34.021454,822.96 18.324909,-34.01693,762 18.32542,-34.015915,762 18.327774,-34.011337,701.04 18.328342,-34.010086,701.04 18.332634,-34.003197,640.08 18.333607,-34.001896,640.08 18.343693,-33.98909,548.64 18.347111,-33.984016,548.64 18.354492,-33.971264,518.16 18.355465,-33.968609,518.16 18.358099,-33.957916,518.16 18.358322,-33.95517,548.64 18.35849,-33.950546,518.16 18.358498,-33.949478,518.16 18.358547,-33.944824,548.64 18.358555,-33.943611,548.64 18.35947,-33.936676,548.64 18.359699,-33.93565,548.64 18.361359,-33.930809,548.64 18.361816,-33.929783,548.64 18.363876,-33.92527,548.64 18.364391,-33.924385,548.64 18.366966,-33.920288,548.64 18.367596,-33.919403,548.64 18.370766,-33.915344,518.16 18.371658,-33.91433,518.16 18.375034,-33.910652,518.16 18.37595,-33.909767,518.16 18.379612,-33.90609,518.16 18.380356,-33.905346,518.16 18.386517,-33.899368,518.16 18.388596,-33.897526,518.16 18.392458,-33.894562,518.16 18.393412,-33.893921,518.16 18.397728,-33.891083,548.64 18.398849,-33.890396,548.64 18.403645,-33.887794,548.64 18.404675,-33.887329,518.16 18.410114,-33.885132,518.16 18.411312,-33.884769,518.16 18.417067,-33.883621,487.68 18.418467,-33.883575,487.68 18.424408,-33.884399,487.68 18.426304,-33.884956,487.68 18.431396,-33.887051,426.72 18.432884,-33.88784,426.72 18.437576,-33.890961,396.24 18.438702,-33.891861,365.76 18.442726,-33.895382,304.8 18.443527,-33.896126,304.8 18.445932,-33.899872,274.32 18.445759,-33.901108,243.84 18.441982,-33.902832,152.4 18.44101,-33.902599,152.4 18.437918,-33.90097,121.92 18.436852,-33.900238,121.92 18.429737,-33.899666,30.48 18.428364,-33.899899,0 18.427044,-33.900604,0 18.427773,-33.899094,0 18.429222,-33.896687,30.48 18.429852,-33.89571,60.96 18.43174,-33.892822,121.92 18.432199,-33.89209,121.92 18.435059,-33.886723,243.84 18.435394,-33.885773,243.84 18.435173,-33.882767,304.8 18.434723,-33.882111,304.8 18.431797,-33.880161,365.76 18.430767,-33.879879,365.76 18.426533,-33.879368,396.24 18.425474,-33.879318,426.72 18.420982,-33.879181,457.2 18.419952,-33.879135,457.2 18.415497,-33.879272,487.68 18.414431,-33.879318,487.68 18.409443,-33.879913,518.16 18.408266,-33.880096,518.16 18.404062,-33.881241,579.12 18.403053,-33.881561,579.12 18.398737,-33.883255,579.12 18.398037,-33.883511,579.12 18.393288,-33.885559,579.12 18.3918,-33.886211,579.12 18.387451,-33.888447,609.6 18.384892,-33.889984,609.6 18.380699,-33.892681,609.6 18.379555,-33.893475,609.6 18.375195,-33.896759,609.6 18.37413,-33.897629,609.6 18.370375,-33.900833,609.6 18.369534,-33.901657,579.12 18.365891,-33.905273,609.6 18.364882,-33.906372,609.6 18.362078,-33.909897,640.08 18.361473,-33.910793,670.56 18.359127,-33.914608,670.56 18.358435,-33.915802,701.04 18.356152,-33.919964,701.04 18.355688,-33.920929,731.52 18.353838,-33.925186,731.52 18.35339,-33.926239,701.04 18.351517,-33.930996,701.04 18.351116,-33.932064,701.04 18.349457,-33.937092,701.04 18.349113,-33.938351,701.04 18.347055,-33.945877,670.56 18.345165,-33.953571,701.04 18.347897,-33.964005,792.48 18.351036,-33.964462,792.48 18.357819,-33.956406,670.56 18.357986,-33.953613,640.08 18.358154,-33.948715,609.6 18.35821,-33.947662,609.6 18.359299,-33.940586,579.12 18.36006,-33.938232,579.12 18.361645,-33.933647,579.12 18.362045,-33.932671,579.12 18.363819,-33.928108,579.12 18.364334,-33.926945,579.12 18.366508,-33.922943,579.12 18.367367,-33.92178,548.64 18.370262,-33.918091,548.64 18.371159,-33.917038,548.64 18.374634,-33.913284,548.64 18.375435,-33.912373,548.64 18.378754,-33.908836,548.64 18.379679,-33.907837,548.64 18.388535,-33.899094,548.64 18.389656,-33.898132,548.64 18.394476,-33.89447,548.64 18.395519,-33.893753,548.64 18.399982,-33.890633,518.16 18.401012,-33.889935,518.16 18.405476,-33.887005,518.16 18.406849,-33.886166,518.16 18.412189,-33.883896,487.68 18.413486,-33.883606,487.68 18.419868,-33.883118,487.68 18.420868,-33.883141,487.68 18.427155,-33.884308,487.68 18.428331,-33.88472,457.2 18.433546,-33.886963,426.72 18.435003,-33.88765,426.72 18.440104,-33.890488,365.76 18.441168,-33.891174,365.76 18.445316,-33.894653,304.8 18.446045,-33.895706,304.8 18.446438,-33.900192,243.84 18.445877,-33.901062,243.84 18.441393,-33.90271,182.88 18.440271,-33.902298,152.4 18.437004,-33.90004,152.4 18.436317,-33.89962,152.4 18.433041,-33.89859,91.44 18.431303,-33.898819,91.44 18.429565,-33.89962,30.48 18.428556,-33.899826,0 18.427048,-33.900642,30.48 18.428892,-33.897308,30.48 18.434944,-33.887142,213.36 18.435173,-33.886166,243.84 18.435003,-33.88266,274.32 18.434834,-33.881927,274.32 18.433456,-33.878532,304.8 18.433153,-33.877899,304.8 18.425865,-33.873505,518.16 18.425026,-33.874741,579.12 18.424856,-33.877716,670.56 18.425081,-33.878357,670.56 18.426361,-33.880581,731.52 18.426704,-33.881092,731.52 18.426476,-33.884396,731.52 18.42556,-33.884724,701.04 18.421097,-33.884815,670.56 18.419094,-33.884674,670.56 18.413589,-33.884354,640.08 18.412457,-33.884304,640.08 18.404062,-33.884079,640.08 18.402615,-33.884117,640.08 18.396606,-33.884903,640.08 18.395119,-33.885281,640.08 18.389544,-33.887375,640.08 18.387966,-33.888168,640.08 18.381786,-33.89175,640.08 18.380814,-33.892448,640.08 18.376877,-33.895798,640.08 18.375893,-33.896732,640.08 18.372168,-33.900604,640.08 18.371429,-33.901436,670.56 18.368053,-33.905483,670.56 18.36729,-33.906372,670.56 18.364264,-33.910172,670.56 18.363361,-33.911304,701.04 18.357145,-33.91983,701.04 18.355856,-33.921799,701.04 18.353291,-33.925968,731.52 18.352716,-33.926971,731.52 18.350143,-33.931694,731.52 18.349634,-33.932739,731.52 18.347969,-33.937607,762 18.348026,-33.939468,762 18.35083,-33.943752,853.44 18.351877,-33.944092,883.92 18.354399,-33.94313,975.36 18.354893,-33.942726,975.36 18.356249,-33.941208,1036.32 18.356495,-33.940819,1066.8 18.357697,-33.939327,1097.28 18.358154,-33.938862,1127.76 18.361013,-33.937775,1158.24 18.36191,-33.938049,1188.72 18.363703,-33.941071,1158.24 18.363703,-33.942078,1127.76 18.362751,-33.947205,1097.28 18.362389,-33.948452,1066.8 18.360285,-33.9543,1036.32 18.359699,-33.955669,1036.32 18.355751,-33.964279,975.36 18.35495,-33.965725,975.36 18.347454,-33.978756,883.92 18.343748,-33.984695,853.44 18.331923,-34.002731,792.48 18.329716,-34.00613,792.48 18.323626,-34.017334,731.52 18.323177,-34.018799,701.04 18.321133,-34.024284,701.04 18.320332,-34.026287,670.56 18.317011,-34.034088,640.08 18.315498,-34.040955,609.6 18.317471,-34.048401,609.6 18.318861,-34.050339,579.12 18.328571,-34.056221,548.64 18.332762,-34.058167,548.64 18.34259,-34.063202,518.16 18.34671,-34.064693,548.64 18.35186,-34.064041,609.6 18.353004,-34.06395,640.08 18.357986,-34.066315,670.56 18.358883,-34.067413,640.08 18.361965,-34.071762,609.6 18.362732,-34.072746,640.08 18.366842,-34.07753,640.08 18.367767,-34.078518,640.08 18.371773,-34.082848,640.08 18.372503,-34.083664,640.08 18.379454,-34.091583,609.6 18.380299,-34.092812,609.6 18.383045,-34.09742,609.6 18.383904,-34.098816,609.6 18.389339,-34.105846,609.6 18.390329,-34.106827,609.6 18.396091,-34.111477,609.6 18.39711,-34.112228,609.6 18.402435,-34.115845,609.6 18.403587,-34.11655,579.12 18.409081,-34.119534,579.12 18.410339,-34.120182,579.12 18.415833,-34.122746,579.12 18.417149,-34.123302,579.12 18.423119,-34.125778,548.64 18.424353,-34.12619,579.12 18.429852,-34.128006,548.64 18.432083,-34.128609,579.12 18.437805,-34.130146,579.12 18.439121,-34.13047,548.64 18.445587,-34.131496,548.64 18.44696,-34.131588,548.64 18.452435,-34.130219,548.64 18.453541,-34.129585,548.64 18.457489,-34.12656,548.64 18.458488,-34.125549,548.64 18.461266,-34.121906,548.64 18.461908,-34.120926,548.64 18.464542,-34.116348,548.64 18.465158,-34.115204,548.64 18.467234,-34.111038,548.64 18.467674,-34.110081,548.64 18.469475,-34.105087,548.64 18.469755,-34.10408,548.64 18.470364,-34.099838,579.12 18.470428,-34.098633,579.12 18.470596,-34.094009,579.12 18.470592,-34.092716,579.12 18.470539,-34.088196,579.12 18.470478,-34.08699,548.64 18.470203,-34.08165,548.64 18.470135,-34.080612,548.64 18.469391,-34.064785,548.64 18.469307,-34.060913,579.12 18.469475,-34.053177,579.12 18.469563,-34.051983,579.12 18.470036,-34.045029,579.12 18.470192,-34.043327,579.12 18.471212,-34.024567,579.12 18.471718,-34.019302,579.12 18.47323,-34.007172,548.64 18.473511,-34.005432,548.64 18.474464,-34.000717,548.64 18.475304,-33.996048,548.64 18.4785,-33.978836,457.2 18.479176,-33.974941,457.2 18.482534,-33.957687,396.24 18.483009,-33.954132,396.24 18.483238,-33.949104,396.24 18.483208,-33.948029,396.24 18.483009,-33.943611,365.76 18.482872,-33.942261,365.76 18.482265,-33.93784,365.76 18.481979,-33.936813,365.76 18.480549,-33.932579,335.28 18.480091,-33.931599,335.28 18.477573,-33.927689,335.28 18.476593,-33.926559,304.8 18.472502,-33.922394,304.8 18.471605,-33.921616,304.8 18.467793,-33.918411,274.32 18.466728,-33.917496,274.32 18.462524,-33.914017,274.32 18.459721,-33.911583,274.32 18.453655,-33.905483,243.84 18.452883,-33.904449,243.84 18.450754,-33.900101,243.84 18.450394,-33.899155,243.84 18.446438,-33.895432,243.84 18.44553,-33.895336,213.36 18.441639,-33.896732,182.88 18.440439,-33.897812,182.88 18.43786,-33.900375,152.4 18.437302,-33.900742,152.4 18.434555,-33.900879,91.44 18.43405,-33.90065,91.44 18.430653,-33.898827,60.96 18.430367,-33.898872,60.96 18.426931,-33.900833,0 18.426876,-33.901062,0 18.429173,-33.897583,30.48 18.429508,-33.897152,30.48 18.431911,-33.893707,121.92 18.432312,-33.893009,121.92 18.434658,-33.888958,182.88 18.435345,-33.887653,213.36 18.435745,-33.883743,274.32 18.435516,-33.882999,274.32 18.433685,-33.880161,335.28 18.433113,-33.879696,335.28 18.429173,-33.877808,365.76 18.426819,-33.877319,396.24 18.422222,-33.876984,426.72 18.420822,-33.876984,426.72 18.414745,-33.877647,457.2 18.413658,-33.877834,457.2 18.407928,-33.879227,487.68 18.406277,-33.879742,487.68 18.399746,-33.882156,548.64 18.398266,-33.882858,548.64 18.393688,-33.885139,579.12 18.392658,-33.885746,579.12 18.388081,-33.888447,609.6 18.387451,-33.888821,609.6 18.380184,-33.893799,640.08 18.379269,-33.894592,640.08 18.375092,-33.898594,670.56 18.374405,-33.899338,670.56 18.370914,-33.903065,670.56 18.370113,-33.9039,670.56 18.366339,-33.908203,701.04 18.365479,-33.90921,701.04 18.361416,-33.914471,731.52 18.360901,-33.915253,731.52 18.35844,-33.919636,731.52 18.357819,-33.920883,731.52 18.355743,-33.925369,731.52 18.35495,-33.927086,731.52 18.352261,-33.933044,731.52 18.351917,-33.93388,731.52 18.346384,-33.948898,731.52 18.34528,-33.952271,731.52 18.338699,-33.973965,731.52 18.336411,-33.980061,731.52 18.327997,-33.998383,731.52 18.325476,-34.002914,731.52 18.322563,-34.007481,731.52 18.321648,-34.008785,731.52 18.318581,-34.013168,731.52 18.317642,-34.01437,731.52 18.307314,-34.028046,701.04 18.306753,-34.028915,731.52 18.307652,-34.035141,883.92 18.308601,-34.035412,883.92 18.313408,-34.033409,853.44 18.314095,-34.032574,853.44 18.317629,-34.027313,762 18.318214,-34.026241,762 18.321159,-34.020813,731.52 18.321991,-34.019211,701.04 18.324522,-34.014221,701.04 18.325253,-34.012882,670.56 18.332594,-33.999893,640.08 18.336296,-33.994167,609.6 18.349686,-33.973824,579.12 18.351091,-33.971329,579.12 18.355576,-33.960846,579.12 18.356361,-33.958466,579.12 18.357754,-33.952827,548.64 18.357986,-33.95192,548.64 18.359013,-33.947289,548.64 18.359241,-33.946262,548.64 18.360453,-33.938644,548.64 18.360729,-33.936676,548.64 18.363304,-33.929085,548.64 18.363873,-33.928024,579.12 18.366674,-33.923447,579.12 18.367653,-33.921963,548.64 18.371046,-33.917496,548.64 18.371775,-33.916672,548.64 18.376204,-33.911774,548.64 18.377666,-33.910233,548.64 18.381386,-33.906322,548.64 18.384476,-33.903156,548.64 18.38876,-33.899323,548.64 18.389683,-33.898548,548.64 18.395119,-33.894264,548.64 18.395977,-33.893612,548.64 18.400841,-33.890217,548.64 18.402615,-33.889191,518.16 18.40877,-33.886734,487.68 18.410511,-33.886211,487.68 18.418243,-33.884354,457.2 18.419895,-33.884163,457.2 18.425961,-33.884209,426.72 18.427603,-33.884491,426.72 18.432884,-33.88649,396.24 18.434723,-33.887558,396.24 18.441181,-33.892403,335.28 18.442289,-33.893372,304.8 18.445932,-33.896942,274.32 18.446661,-33.897903,274.32 18.44627,-33.902298,243.84 18.445473,-33.902599,243.84 18.43935,-33.901016,152.4 18.437918,-33.900375,121.92 18.429108,-33.899525,30.48 18.427963,-33.899853,0 18.427099,-33.900238,0 18.428535,-33.898224,30.48 18.431511,-33.893612,91.44 18.431976,-33.892822,121.92 18.433914,-33.889053,182.88 18.434275,-33.888336,213.36 18.435507,-33.885132,243.84 18.435516,-33.88393,274.32 18.433657,-33.880829,335.28 18.432592,-33.880188,335.28 18.428556,-33.879135,365.76 18.427505,-33.878998,396.24 18.423672,-33.878765,426.72 18.422356,-33.878716,457.2 18.417721,-33.878948,487.68 18.416393,-33.879089,518.16 18.411797,-33.87973,548.64 18.410564,-33.879959,548.64 18.405687,-33.881149,579.12 18.404675,-33.881462,579.12 18.399746,-33.882843,579.12 18.398438,-33.883186,579.12 18.392683,-33.884949,640.08 18.391281,-33.885544,640.08 18.387751,-33.887329,670.56 18.384779,-33.88916,670.56 18.379269,-33.892868,701.04 18.378334,-33.893555,701.04 18.373146,-33.897709,701.04 18.372173,-33.898594,731.52 18.367628,-33.903854,731.52 18.366795,-33.904831,731.52 18.363312,-33.909439,731.52 18.362217,-33.910976,731.52 18.359388,-33.915253,731.52 18.358828,-33.91626,731.52 18.35598,-33.921173,731.52 18.355352,-33.922394,731.52 18.353109,-33.926788,731.52 18.352432,-33.928341,731.52 18.350315,-33.934395,731.52 18.349915,-33.935791,731.52 18.348598,-33.940723,731.52 18.348255,-33.942028,731.52 18.344814,-33.954391,701.04 18.343412,-33.958878,701.04 18.336067,-33.97834,701.04 18.334557,-33.981262,701.04 18.326626,-33.995422,701.04 18.32468,-33.998867,701.04 18.321419,-34.006687,822.96 18.321665,-34.007446,853.44 18.325996,-34.00967,914.4 18.327438,-34.009369,914.4 18.33153,-34.005707,853.44 18.332233,-34.004547,853.44 18.335438,-33.998867,822.96 18.336067,-33.997799,822.96 18.338816,-33.992569,792.48 18.339769,-33.990738,792.48 18.351746,-33.967072,670.56 18.354511,-33.961945,670.56 18.358326,-33.953014,670.56 18.358603,-33.951965,640.08 18.35947,-33.945751,640.08 18.359585,-33.944588,640.08 18.359985,-33.939236,640.08 18.360214,-33.937607,640.08 18.362583,-33.929352,609.6 18.363199,-33.927887,609.6 18.36544,-33.922897,579.12 18.365936,-33.921825,579.12 18.368692,-33.917084,579.12 18.369308,-33.916168,579.12 18.373064,-33.911636,548.64 18.374405,-33.910233,548.64 18.377666,-33.906929,548.64 18.378811,-33.905903,548.64 18.383322,-33.901932,548.64 18.384666,-33.900787,548.64 18.389168,-33.897106,518.16 18.390713,-33.895943,518.16 18.396606,-33.891724,487.68 18.397896,-33.8909,487.68 18.402672,-33.887886,457.2 18.404343,-33.886917,457.2 18.409555,-33.884308,426.72 18.411741,-33.883621,426.72 18.41785,-33.88298,426.72 18.419724,-33.883045,426.72 18.426931,-33.884445,365.76 18.428164,-33.884903,365.76 18.43317,-33.88747,335.28 18.434778,-33.888565,304.8 18.439865,-33.893242,274.32 18.440607,-33.894012,243.84 18.444271,-33.898781,213.36 18.44442,-33.900101,213.36 18.441505,-33.902481,152.4 18.440216,-33.90239,152.4 18.435226,-33.901016,91.44 18.434162,-33.900742,91.44 18.430519,-33.899643,30.48 18.429852,-33.89957,30.48 18.427277,-33.900085,0 18.426987,-33.900375,0
        </coordinates>
      </LineString>
    </Placemark>
  </Document>
</kml>