<?xml version="1.0" encoding="UTF-8"?>
<kml xmlns="http://www.opengis.net/kml/2.2">
  <Document>
    <name>-/ZTHOT - Optimised</name>
    <description><![CDATA[Optimised flight path with 309 points (decimated from 1543 original points). Source format: Standard KML]]></description>
    
    <Style id="flightPath">
      <LineStyle>
        <color>ff0000ff</color>
        <width>3</width>
      </LineStyle>
    </Style>
    
    <Placemark>
      <name>Flight Path</name>
      <description><![CDATA[<div style="width:220px; text-align:center;">
<div style="width:210px; text-align:center;">
<div style=" background: #000; color: #fff; font-size: 14px; text-align:left; border: 1px solid #000; padding: 2px 6px; text-shadow: 0 1px 0 #000; box-shadow: 0 1px 3px rgba(0,0,0,0.6); background: -webkit-gradient(linear, left top, left bottom, color-stop(0%,#808080), color-stop(2%,#303030), color-stop(100%,#0c0c0c));"><span style="font-size: 14px; font-weight: bold;"><a href="javascript:void(0);" style="color: #fff; cursor: pointer;text-decoration: none;">-</a></span> / ZTHOT<br/>Cape Town Helicopters</div>

<div style="border-top: 1px solid #005c90; color: #fff; padding-bottom: 5px; box-shadow: 0 0 1px #9BE3F6 inset, 0 1px 0 #9BE3F6 inset, 0 -1px 3px rgba(0,0,0,0.4); background:rgba(43,114,173,1); background: -webkit-gradient(linear, left top, left bottom, color-stop(0%,rgba(92,184,229,1)), color-stop(100%,rgba(43,114,173,1)));">
<a style="text-decoration: none; color: rgb(255, 255, 255); font-size: 12px; width:77px; display: inline-block;" title=" Airport" href="javascript:void(0);/departures"><h3 style="padding: 0px; margin: 10px 0px 0px; font-size: 16px; ">?</h3></a>
<span style="background: url(https://www.flightradar24.com/static/images/userUI_sprite.png?14) no-repeat scroll 0 -464px rgba(0, 0, 0, 0); border: medium none; display: inline-block; height: 16px; width: 45px;"></span>
<a style="text-decoration: none; color: rgb(255, 255, 255); font-size: 12px; width:77px; display: inline-block;" title=" Airport" href="javascript:void(0);/arrivals"><h3 style="padding: 0px; margin: 10px 0px 0px; font-size: 16px;">?</h3></a>
<div style=" margin-top:10px;">
<div style="display: inline-block; font-size: 12px; padding: 0 5px;">
<div>
<span style="color: #c1eaff;" title="Actual Time of Departure">ATD </span>
<span title="2025-09-03 07:13">07:13</span> <span title="Coordinated Universal Time">UTC</span>
</div>
</div>
<div style="display: inline-block; font-size: 12px; padding: 0 5px;">
<div>
<span style="color: #c1eaff;" title="Estimated Time of Arrival">ETA </span>
<span title="2025-09-03 07:56">07:56</span> <span title="Coordinated Universal Time">UTC</span>
</div>
</div>
</div>
<br style="clear: both;"/>
</div>

<div style="display: block;">
<table style="border-collapse: collapse; width: 100%;">
<tr style="border-right: 1px solid #dadada; ">
<td style="background: none repeat scroll 0 0 #dadada; padding: 0; width: 31px;">
<span style="background: url(https://www.flightradar24.com/static/images/userUI_sprite.png?14) no-repeat scroll -208px -464px rgba(0, 0, 0, 0); height: 26px; margin: 8px 0 0 4px; width: 23px; display: block;"></span>
</td>
<td colspan="2" style="border-bottom: 1px solid #dadada; border-left: 1px solid #dadada; color: #666; line-height: 1.1em; padding: 3px 6px; vertical-align: top; font-size: 14px;">
Aircraft<span style="float: right; font-size: 12px;">(AS50)</span><br>
<span style="color: #333; font-size: 16px; font-weight: bold; line-height: 1.3em;">Airbus Helicopters H125</span>
</td>
</tr>
<tr style="border-right: 1px solid #dadada; ">
<td style="background: none repeat scroll 0 0 #dadada; padding: 0; width: 31px;">
<td colspan="2" style="border-bottom: 1px solid #dadada; border-left: 1px solid #dadada; color: #666; line-height: 1.1em; padding: 3px 6px; vertical-align: top; font-size: 14px;">
Registration<br>
<span style="color: #333; font-size: 16px; font-weight: bold; line-height: 1.3em;"><a href="https://www.flightradar24.com/reg/zt-hot" style="text-decoration: none; color: #333;">ZT-HOT</a></span>
</td>
</tr>
</table>
</div>

</div>
</div>]]></description>
      <styleUrl>#flightPath</styleUrl>
      <LineString>
        <extrude>1</extrude>
        <tessellate>1</tessellate>
        <altitudeMode>absolute</altitudeMode>
        <coordinates>
          18.430239,-33.894928,60.96 18.439064,-33.880905,182.88 18.444271,-33.875599,243.84 18.449593,-33.87532,304.8 18.451824,-33.878532,335.28 18.44862,-33.88179,365.76 18.443069,-33.88221,396.24 18.437077,-33.881012,396.24 18.431078,-33.879501,426.72 18.425194,-33.877762,457.2 18.416058,-33.875748,487.68 18.409611,-33.876022,518.16 18.40313,-33.877274,518.16 18.397223,-33.878723,548.64 18.391628,-33.880394,579.12 18.386192,-33.88216,609.6 18.380814,-33.884396,640.08 18.37553,-33.88765,640.08 18.371214,-33.891129,640.08 18.367481,-33.894962,640.08 18.363876,-33.8992,670.56 18.35877,-33.905136,640.08 18.351877,-33.914108,640.08 18.349186,-33.918732,670.56 18.346775,-33.923218,670.56 18.340874,-33.93523,640.08 18.34259,-33.93919,640.08 18.347336,-33.939468,670.56 18.350372,-33.936024,701.04 18.354664,-33.935417,701.04 18.354734,-33.939377,670.56 18.351173,-33.943516,670.56 18.346882,-33.947987,640.08 18.341619,-33.954849,609.6 18.334751,-33.964931,609.6 18.323009,-33.984375,579.12 18.306473,-34.015274,487.68 18.297504,-34.035782,365.76 18.305111,-34.052635,365.76 18.309893,-34.056839,365.76 18.315468,-34.061062,365.76 18.321608,-34.06485,365.76 18.329792,-34.069199,335.28 18.340473,-34.071724,335.28 18.335621,-34.090439,335.28 18.337919,-34.103577,335.28 18.337807,-34.10939,304.8 18.337326,-34.115063,335.28 18.336349,-34.125824,365.76 18.335495,-34.141087,365.76 18.338013,-34.168503,365.76 18.341059,-34.174347,365.76 18.34465,-34.179909,365.76 18.34857,-34.185379,365.76 18.354399,-34.195084,396.24 18.357145,-34.200623,396.24 18.361855,-34.211243,365.76 18.374969,-34.229507,365.76 18.386421,-34.246246,396.24 18.417458,-34.2957,365.76 18.436089,-34.325573,365.76 18.441525,-34.332832,365.76 18.450474,-34.343445,365.76 18.465326,-34.360382,335.28 18.471661,-34.365005,335.28 18.477974,-34.367004,335.28 18.48484,-34.368355,335.28 18.491783,-34.369629,304.8 18.498455,-34.370132,304.8 18.504925,-34.368538,335.28 18.510075,-34.365143,335.28 18.513794,-34.361046,335.28 18.514652,-34.356808,365.76 18.511276,-34.355972,365.76 18.509216,-34.359043,365.76 18.507099,-34.362675,396.24 18.502827,-34.365692,396.24 18.497658,-34.367096,396.24 18.492336,-34.367096,396.24 18.486963,-34.366379,396.24 18.481579,-34.365002,365.76 18.476772,-34.361881,335.28 18.472502,-34.358459,335.28 18.470192,-34.353924,365.76 18.470364,-34.348988,365.76 18.47138,-34.343811,365.76 18.473343,-34.338318,365.76 18.475977,-34.333191,365.76 18.478317,-34.324875,365.76 18.479845,-34.319458,396.24 18.483433,-34.30838,396.24 18.485985,-34.298061,396.24 18.488674,-34.284046,365.76 18.489149,-34.277985,365.76 18.489418,-34.272316,365.76 18.489429,-34.265945,365.76 18.488813,-34.250977,365.76 18.487186,-34.237961,365.76 18.486099,-34.232468,365.76 18.481525,-34.213486,365.76 18.478947,-34.207794,365.76 18.475361,-34.202774,335.28 18.470764,-34.195221,365.76 18.468933,-34.189777,365.76 18.467905,-34.183777,365.76 18.467388,-34.178001,365.76 18.467344,-34.171967,365.76 18.467625,-34.16597,335.28 18.468304,-34.159893,335.28 18.469105,-34.154072,335.28 18.470989,-34.144089,365.76 18.473225,-34.134754,365.76 18.477631,-34.118507,365.76 18.478331,-34.113235,396.24 18.478388,-34.107651,396.24 18.477379,-34.102341,426.72 18.475227,-34.097233,426.72 18.472221,-34.092224,426.72 18.468475,-34.087597,457.2 18.46487,-34.083546,487.68 18.45933,-34.077347,487.68 18.452715,-34.068741,487.68 18.449352,-34.063843,487.68 18.443411,-34.054596,487.68 18.441786,-34.048737,487.68 18.441448,-34.042831,487.68 18.442345,-34.037292,487.68 18.444532,-34.031708,518.16 18.44696,-34.026566,518.16 18.449478,-34.021305,518.16 18.457312,-34.005432,518.16 18.458656,-33.999802,548.64 18.457317,-33.994354,548.64 18.458061,-33.987698,518.16 18.46129,-33.982498,487.68 18.465385,-33.977642,457.2 18.469923,-33.972977,396.24 18.474655,-33.968285,335.28 18.480125,-33.960892,304.8 18.481525,-33.955399,304.8 18.481415,-33.949997,274.32 18.480263,-33.944496,274.32 18.479404,-33.939049,274.32 18.477058,-33.92955,274.32 18.474127,-33.924133,274.32 18.470306,-33.91917,243.84 18.466,-33.914703,243.84 18.461123,-33.910309,213.36 18.454742,-33.904598,213.36 18.447279,-33.898682,152.4 18.442064,-33.898224,91.44 18.437973,-33.898727,60.96 18.434778,-33.899139,0 18.429623,-33.899807,0 18.426949,-33.900772,0 18.434891,-33.887558,152.4 18.436947,-33.884163,182.88 18.442289,-33.876892,213.36 18.443298,-33.876114,213.36 18.447475,-33.874901,274.32 18.448677,-33.875038,274.32 18.451653,-33.877132,335.28 18.451824,-33.877834,335.28 18.450417,-33.880829,365.76 18.449575,-33.881378,365.76 18.445358,-33.882301,396.24 18.444271,-33.882301,396.24 18.439579,-33.881603,396.24 18.438206,-33.881279,396.24 18.433546,-33.880188,396.24 18.432144,-33.879822,426.72 18.427715,-33.87854,457.2 18.426647,-33.878204,457.2 18.418524,-33.876022,487.68 18.417177,-33.875839,487.68 18.41217,-33.875786,518.16 18.410797,-33.875877,518.16 18.405575,-33.876755,518.16 18.404274,-33.876995,518.16 18.399689,-33.878082,548.64 18.398323,-33.878437,548.64 18.393747,-33.87973,579.12 18.392963,-33.879959,579.12 18.388195,-33.881462,609.6 18.387165,-33.881836,609.6 18.382929,-33.883438,640.08 18.381977,-33.88385,640.08 18.377724,-33.886211,640.08 18.376707,-33.886871,640.08 18.372896,-33.889664,640.08 18.372,-33.89035,640.08 18.368855,-33.89352,640.08 18.368076,-33.894333,640.08 18.365217,-33.897537,670.56 18.364544,-33.898361,670.56 18.361742,-33.901749,640.08 18.360956,-33.902618,640.08 18.353109,-33.912231,640.08 18.352375,-33.913303,640.08 18.350363,-33.916672,670.56 18.3498,-33.917683,670.56 18.347952,-33.921112,670.56 18.347225,-33.922428,670.56 18.342571,-33.930862,670.56 18.341103,-33.934113,640.08 18.341446,-33.93784,640.08 18.341961,-33.938629,640.08 18.345655,-33.940018,670.56 18.346272,-33.939926,670.56 18.349241,-33.937546,670.56 18.349857,-33.936676,670.56 18.352833,-33.934811,701.04 18.353806,-33.934952,701.04 18.355465,-33.937511,701.04 18.355183,-33.938507,701.04 18.352718,-33.941936,670.56 18.351917,-33.942772,670.56 18.348541,-33.946217,640.08 18.347855,-33.946964,640.08 18.343019,-33.952881,609.6 18.342403,-33.953705,609.6 18.339043,-33.95874,609.6 18.338648,-33.959381,609.6 18.325481,-33.979641,579.12 18.32428,-33.982018,579.12 18.314154,-34.0009,518.16 18.309174,-34.010414,487.68 18.297901,-34.033318,396.24 18.297674,-34.034409,396.24 18.30328,-34.050869,365.76 18.304344,-34.051895,365.76 18.308043,-34.055283,365.76 18.308941,-34.056061,365.76 18.31292,-34.059219,365.76 18.313984,-34.059952,365.76 18.319187,-34.063484,365.76 18.320543,-34.064255,365.76 18.325195,-34.066772,365.76 18.328222,-34.068283,365.76 18.336742,-34.072403,365.76 18.337669,-34.072468,335.28 18.333893,-34.082291,335.28 18.334923,-34.087086,335.28 18.337727,-34.101097,335.28 18.337841,-34.102169,335.28 18.337919,-34.106873,335.28 18.337864,-34.108017,335.28 18.337498,-34.112923,304.8 18.337416,-34.114014,335.28 18.337023,-34.118546,335.28 18.336754,-34.122044,335.28 18.335552,-34.138523,365.76 18.335566,-34.139603,365.76 18.337135,-34.16597,365.76 18.337727,-34.167759,365.76 18.339769,-34.17215,365.76 18.340441,-34.173294,365.76 18.343334,-34.178001,365.76 18.343906,-34.178886,365.76 18.347055,-34.183228,365.76 18.347511,-34.183868,365.76 18.352833,-34.192245,396.24 18.353577,-34.19355,396.24 18.356094,-34.198345,396.24 18.356609,-34.199417,396.24 18.359241,-34.205421,396.24 18.359667,-34.206436,396.24 18.364096,-34.214951,365.76 18.365593,-34.21706,365.76 18.382425,-34.240173,396.24 18.384361,-34.24308,396.24 18.411404,-34.28595,365.76 18.414974,-34.291451,365.76 18.429901,-34.316162,365.76 18.432873,-34.320831,365.76 18.43998,-34.330833,365.76 18.440666,-34.331718,365.76 18.444672,-34.336651,365.76 18.447189,-34.339584,365.76 18.459946,-34.354568,335.28 18.462296,-34.357182,335.28 18.469082,-34.363541,335.28 18.470261,-34.364273,335.28 18.475342,-34.366352,335.28 18.476543,-34.366631,335.28 18.482031,-34.367844,304.8 18.483208,-34.368073,335.28 18.488846,-34.369099,304.8 18.490276,-34.369377,304.8 18.49577,-34.370121,304.8 18.497028,-34.370171,304.8 18.502714,-34.369354,335.28 18.503778,-34.368988,335.28 18.508244,-34.366676,335.28 18.509274,-34.365841,335.28 18.512466,-34.362717,335.28 18.513222,-34.361835,335.28 18.515102,-34.358322,365.76 18.515053,-34.357738,365.76 18.512579,-34.355667,365.76 18.511906,-34.35574,365.76 18.509832,-34.357773,365.76 18.509497,-34.358459,365.76 18.507957,-34.361416,396.24 18.507704,-34.361893,396.24 18.504868,-34.364536,396.24 18.504171,-34.365005,396.24 18.499947,-34.366676,396.24 18.498734,-34.366928,396.24 18.494867,-34.367203,396.24 18.493633,-34.367157,396.24 18.48896,-34.366676,396.24 18.487988,-34.366539,396.24 18.483543,-34.365646,365.76 18.482552,-34.365376,365.76 18.478661,-34.363277,365.76 18.477602,-34.362488,335.28 18.474127,-34.359924,335.28 18.473398,-34.359375,335.28 18.470764,-34.355831,335.28 18.470428,-34.354889,365.76 18.470091,-34.350906,365.76 18.470192,-34.349918,365.76 18.470936,-34.34573,365.76 18.471157,-34.344772,365.76 18.472446,-34.340332,335.28 18.472939,-34.339165,335.28 18.474998,-34.3353,365.76 18.475456,-34.33437,365.76 18.477827,-34.327057,365.76 18.478107,-34.325821,365.76 18.479176,-34.321663,396.24 18.479519,-34.320499,396.24 18.48175,-34.313919,396.24 18.482086,-34.312912,396.24 18.485451,-34.300461,396.24 18.485731,-34.299133,396.24 18.488197,-34.28746,365.76 18.488588,-34.284988,365.76 18.488981,-34.280594,365.76 18.489094,-34.279175,365.76 18.489374,-34.274551,365.76 18.489374,-34.273407,365.76 18.489429,-34.2686,365.76 18.489418,-34.267242,365.76 18.489374,-34.258713,365.76 18.489206,-34.255508,365.76 18.487917,-34.242279,365.76 18.487759,-34.241314,365.76 18.486614,-34.23489,365.76 18.48629,-34.233582,365.76 18.483601,-34.221039,365.76 18.482479,-34.216782,365.76 18.480125,-34.209961,365.76 18.479519,-34.20882,365.76 18.476887,-34.204723,335.28 18.476028,-34.203606,335.28 18.472996,-34.199509,335.28 18.472389,-34.198517,335.28 18.469505,-34.191921,365.76 18.469194,-34.190872,365.76 18.468185,-34.185974,365.76 18.468073,-34.18515,365.76 18.467514,-34.180573,365.76 18.467457,-34.17952,365.76 18.467331,-34.174511,365.76 18.467331,-34.173393,365.76 18.467445,-34.168503,335.28 18.467514,-34.167114,335.28 18.467962,-34.162354,335.28 18.468132,-34.161011,335.28 18.468819,-34.15617,335.28 18.468933,-34.155239,335.28 18.469906,-34.149464,365.76 18.470091,-34.148392,365.76 18.471794,-34.140667,365.76 18.472137,-34.139271,365.76 18.475857,-34.126328,335.28 18.477001,-34.121952,335.28 18.478146,-34.115387,365.76 18.47826,-34.114456,365.76 18.478443,-34.109894,396.24 18.478432,-34.108826,396.24 18.478031,-34.104633,426.72 18.47777,-34.103577,426.72 18.476202,-34.099319,426.72 18.475641,-34.098175,426.72 18.473511,-34.094208,426.72 18.472837,-34.09314,426.72 18.470135,-34.0896,457.2 18.469307,-34.088608,457.2 18.466393,-34.08522,457.2 18.465557,-34.084339,487.68 18.462353,-34.080708,487.68 18.461666,-34.079964,487.68 18.454004,-34.070572,487.68 18.453369,-34.069767,487.68 18.450623,-34.06567,487.68 18.449993,-34.064785,487.68 18.44442,-34.056702,487.68 18.443871,-34.055569,487.68 18.442383,-34.051239,487.68 18.442122,-34.050201,487.68 18.44141,-34.045326,487.68 18.44141,-34.044395,487.68 18.441811,-34.039509,487.68 18.442039,-34.038437,487.68 18.443579,-34.033951,487.68 18.444082,-34.032715,518.16 18.445932,-34.028778,518.16 18.446388,-34.027824,518.16 18.448448,-34.023495,548.64 18.448906,-34.022518,548.64 18.453484,-34.012974,518.16 18.454971,-34.009716,518.16 18.458519,-34.001942,518.16 18.458656,-34.000854,518.16 18.458004,-33.996449,548.64 18.457661,-33.995377,548.64 18.457087,-33.991013,518.16 18.457317,-33.989883,518.16 18.459892,-33.984482,518.16 18.460732,-33.983276,518.16 18.463758,-33.979477,457.2 18.464542,-33.978607,457.2 18.468073,-33.974854,396.24 18.469027,-33.973892,396.24 18.472727,-33.97023,365.76 18.473679,-33.969269,335.28 18.479059,-33.962906,304.8 18.479677,-33.961853,304.8 18.481178,-33.957764,304.8 18.481407,-33.956551,304.8 18.481579,-33.952084,304.8 18.481522,-33.951057,304.8 18.480778,-33.94659,274.32 18.480516,-33.945602,274.32 18.479691,-33.941143,274.32 18.479519,-33.940121,274.32 18.47822,-33.932968,274.32 18.477602,-33.931,274.32 18.475473,-33.926285,274.32 18.474884,-33.92527,274.32 18.472252,-33.921543,274.32 18.471437,-33.920517,243.84 18.46796,-33.916565,243.84 18.467102,-33.915771,243.84 18.463211,-33.91214,213.36 18.461964,-33.911041,213.36 18.45804,-33.907608,213.36 18.457256,-33.906876,213.36 18.448904,-33.899506,152.4 18.447895,-33.898956,152.4 18.444252,-33.898087,121.92 18.443241,-33.898129,91.44 18.439465,-33.898548,60.96 18.438663,-33.89864,60.96 18.436089,-33.898968,30.48 18.435507,-33.899048,30.48 18.433208,-33.899323,0 18.431078,-33.899597,0 18.426991,-33.900272,0 18.426861,-33.900551,0
        </coordinates>
      </LineString>
    </Placemark>
  </Document>
</kml>