<?xml version="1.0" encoding="UTF-8"?>
<kml xmlns="http://www.opengis.net/kml/2.2">
  <Document>
    <name>-/ZTHOT - Optimised</name>
    <description><![CDATA[Optimised flight path with 1411 points (decimated from 7055 original points). Source format: Standard KML]]></description>
    
    <Style id="flightPath">
      <LineStyle>
        <color>ff0000ff</color>
        <width>3</width>
      </LineStyle>
    </Style>
    
    <Placemark>
      <name>Flight Path</name>
      <description><![CDATA[<div style="width:220px; text-align:center;">
<div style="width:210px; text-align:center;">
<div style=" background: #000; color: #fff; font-size: 14px; text-align:left; border: 1px solid #000; padding: 2px 6px; text-shadow: 0 1px 0 #000; box-shadow: 0 1px 3px rgba(0,0,0,0.6); background: -webkit-gradient(linear, left top, left bottom, color-stop(0%,#808080), color-stop(2%,#303030), color-stop(100%,#0c0c0c));"><span style="font-size: 14px; font-weight: bold;"><a href="javascript:void(0);" style="color: #fff; cursor: pointer;text-decoration: none;">-</a></span> / ZTHOT<br/>Cape Town Helicopters</div>

<div style="border-top: 1px solid #005c90; color: #fff; padding-bottom: 5px; box-shadow: 0 0 1px #9BE3F6 inset, 0 1px 0 #9BE3F6 inset, 0 -1px 3px rgba(0,0,0,0.4); background:rgba(43,114,173,1); background: -webkit-gradient(linear, left top, left bottom, color-stop(0%,rgba(92,184,229,1)), color-stop(100%,rgba(43,114,173,1)));">
<a style="text-decoration: none; color: rgb(255, 255, 255); font-size: 12px; width:77px; display: inline-block;" title=" Airport" href="javascript:void(0);/departures"><h3 style="padding: 0px; margin: 10px 0px 0px; font-size: 16px; ">?</h3></a>
<span style="background: url(https://www.flightradar24.com/static/images/userUI_sprite.png?14) no-repeat scroll 0 -464px rgba(0, 0, 0, 0); border: medium none; display: inline-block; height: 16px; width: 45px;"></span>
<a style="text-decoration: none; color: rgb(255, 255, 255); font-size: 12px; width:77px; display: inline-block;" title=" Airport" href="javascript:void(0);/arrivals"><h3 style="padding: 0px; margin: 10px 0px 0px; font-size: 16px;">?</h3></a>
<div style=" margin-top:10px;">
<div style="display: inline-block; font-size: 12px; padding: 0 5px;">
<div>
<span style="color: #c1eaff;" title="Actual Time of Departure">ATD </span>
<span title="2025-02-27 13:58">13:58</span> <span title="Coordinated Universal Time">UTC</span>
</div>
</div>
<div style="display: inline-block; font-size: 12px; padding: 0 5px;">
<div>
<span style="color: #c1eaff;" title="Estimated Time of Arrival">ETA </span>
<span title="2025-02-27 14:23">14:23</span> <span title="Coordinated Universal Time">UTC</span>
</div>
</div>
</div>
<br style="clear: both;"/>
</div>

<div style="display: block;">
<table style="border-collapse: collapse; width: 100%;">
<tr style="border-right: 1px solid #dadada; ">
<td style="background: none repeat scroll 0 0 #dadada; padding: 0; width: 31px;">
<span style="background: url(https://www.flightradar24.com/static/images/userUI_sprite.png?14) no-repeat scroll -208px -464px rgba(0, 0, 0, 0); height: 26px; margin: 8px 0 0 4px; width: 23px; display: block;"></span>
</td>
<td colspan="2" style="border-bottom: 1px solid #dadada; border-left: 1px solid #dadada; color: #666; line-height: 1.1em; padding: 3px 6px; vertical-align: top; font-size: 14px;">
Aircraft<span style="float: right; font-size: 12px;">(AS50)</span><br>
<span style="color: #333; font-size: 16px; font-weight: bold; line-height: 1.3em;">Airbus Helicopters H125</span>
</td>
</tr>
<tr style="border-right: 1px solid #dadada; ">
<td style="background: none repeat scroll 0 0 #dadada; padding: 0; width: 31px;">
<td colspan="2" style="border-bottom: 1px solid #dadada; border-left: 1px solid #dadada; color: #666; line-height: 1.1em; padding: 3px 6px; vertical-align: top; font-size: 14px;">
Registration<br>
<span style="color: #333; font-size: 16px; font-weight: bold; line-height: 1.3em;"><a href="https://www.flightradar24.com/reg/zt-hot" style="text-decoration: none; color: #333;">ZT-HOT</a></span>
</td>
</tr>
</table>
</div>

</div>
</div>]]></description>
      <styleUrl>#flightPath</styleUrl>
      <LineString>
        <extrude>1</extrude>
        <tessellate>1</tessellate>
        <altitudeMode>absolute</altitudeMode>
        <coordinates>
          18.427044,-33.901154,60.96 18.427828,-33.899048,91.44 18.429958,-33.89621,121.92 18.432713,-33.892868,182.88 18.436203,-33.887749,243.84 18.437805,-33.883484,243.84 18.438534,-33.879089,304.8 18.443012,-33.877506,365.76 18.444443,-33.880859,426.72 18.440609,-33.882488,457.2 18.43758,-33.885086,457.2 18.438702,-33.889389,426.72 18.442154,-33.893333,396.24 18.445644,-33.897293,396.24 18.452682,-33.905949,365.76 18.460506,-33.916763,365.76 18.465551,-33.924133,365.76 18.469505,-33.928341,365.76 18.4748,-33.937271,365.76 18.477001,-33.94305,365.76 18.4785,-33.948349,335.28 18.479347,-33.953571,365.76 18.479576,-33.958786,396.24 18.479576,-33.96386,426.72 18.480068,-33.975769,487.68 18.479845,-33.986572,487.68 18.477917,-33.991978,487.68 18.47517,-33.996494,518.16 18.470316,-34.000168,548.64 18.464298,-34.001755,579.12 18.457647,-34.002502,609.6 18.450754,-34.003006,609.6 18.437233,-34.004456,609.6 18.430939,-34.005432,640.08 18.413702,-34.008408,670.56 18.394203,-34.012043,701.04 18.38719,-34.014221,670.56 18.380856,-34.01683,701.04 18.376146,-34.020767,731.52 18.372917,-34.025589,762 18.370262,-34.030106,792.48 18.367996,-34.035503,762 18.366394,-34.041046,762 18.36561,-34.046631,762 18.365707,-34.052216,762 18.365993,-34.058037,762 18.366909,-34.068092,762 18.368397,-34.08485,762 18.368225,-34.090298,762 18.367424,-34.096302,731.52 18.366623,-34.101841,731.52 18.36462,-34.11739,670.56 18.364151,-34.127563,640.08 18.36422,-34.13308,640.08 18.364712,-34.138779,640.08 18.365479,-34.143738,640.08 18.366394,-34.149044,640.08 18.368797,-34.159332,670.56 18.370485,-34.164551,640.08 18.372561,-34.169998,640.08 18.376637,-34.18005,670.56 18.381557,-34.193085,640.08 18.383099,-34.198837,609.6 18.385565,-34.208313,609.6 18.389797,-34.221714,640.08 18.391685,-34.226463,640.08 18.398457,-34.243057,609.6 18.417778,-34.286373,518.16 18.426132,-34.298851,518.16 18.430023,-34.303505,518.16 18.436852,-34.31424,487.68 18.441055,-34.322937,487.68 18.444139,-34.330902,487.68 18.44553,-34.336231,457.2 18.449352,-34.344818,457.2 18.452547,-34.350128,457.2 18.4552,-34.354481,487.68 18.462021,-34.362808,457.2 18.466335,-34.365921,457.2 18.470652,-34.368073,457.2 18.475857,-34.369656,457.2 18.480967,-34.370361,487.68 18.486214,-34.370586,487.68 18.491879,-34.370773,487.68 18.502808,-34.371239,487.68 18.511234,-34.37059,518.16 18.514538,-34.367657,518.16 18.515053,-34.363277,518.16 18.510225,-34.360107,518.16 18.504295,-34.361835,518.16 18.498802,-34.364162,548.64 18.49165,-34.365654,579.12 18.484777,-34.365463,579.12 18.47805,-34.364182,579.12 18.471909,-34.361977,579.12 18.467009,-34.358093,579.12 18.46447,-34.352757,548.64 18.464878,-34.347244,548.64 18.467903,-34.342564,518.16 18.472481,-34.339024,518.16 18.477402,-34.336746,518.16 18.482759,-34.335983,548.64 18.487988,-34.336277,548.64 18.494362,-34.338684,548.64 18.498402,-34.341492,579.12 18.501835,-34.34531,579.12 18.506641,-34.349453,579.12 18.511391,-34.347546,579.12 18.511448,-34.342796,609.6 18.507759,-34.338959,609.6 18.501778,-34.335953,579.12 18.495884,-34.331997,579.12 18.49062,-34.325851,548.64 18.488159,-34.319519,518.16 18.486958,-34.313049,487.68 18.4865,-34.307137,487.68 18.48657,-34.301102,487.68 18.486786,-34.2948,487.68 18.487072,-34.282417,457.2 18.487076,-34.26059,487.68 18.487076,-34.243469,487.68 18.48601,-34.23761,487.68 18.484442,-34.23175,487.68 18.482323,-34.225391,457.2 18.479748,-34.219292,457.2 18.47683,-34.21352,457.2 18.47271,-34.205841,457.2 18.464527,-34.192154,457.2 18.459497,-34.181854,426.72 18.458118,-34.175579,457.2 18.458061,-34.169437,457.2 18.459148,-34.163803,457.2 18.460865,-34.158543,457.2 18.462973,-34.152878,457.2 18.465271,-34.147137,457.2 18.473511,-34.126328,457.2 18.477287,-34.114922,457.2 18.477659,-34.108566,457.2 18.47665,-34.102432,457.2 18.474941,-34.096443,457.2 18.472782,-34.090759,457.2 18.470091,-34.085312,457.2 18.466301,-34.080101,457.2 18.462244,-34.075836,457.2 18.457592,-34.071625,457.2 18.453026,-34.067719,457.2 18.444475,-34.060043,426.72 18.441181,-34.056362,396.24 18.434887,-34.049797,335.28 18.431471,-34.047409,274.32 18.427849,-34.04649,243.84 18.424072,-34.046024,243.84 18.421719,-34.04512,213.36 18.420124,-34.044025,182.88 18.418236,-34.043278,152.4 18.417051,-34.04298,0 18.425961,-34.041046,274.32 18.433571,-34.038715,335.28 18.438702,-34.036148,335.28 18.442669,-34.033318,396.24 18.446606,-34.03006,457.2 18.451195,-34.025867,487.68 18.455257,-34.021538,487.68 18.459435,-34.01656,487.68 18.463211,-34.011623,487.68 18.466896,-34.006119,487.68 18.470539,-34.000031,487.68 18.473286,-33.99472,487.68 18.475857,-33.988579,457.2 18.47777,-33.982727,426.72 18.479633,-33.976151,426.72 18.481808,-33.967587,365.76 18.483696,-33.95739,365.76 18.48444,-33.950966,365.76 18.484154,-33.944866,365.76 18.482199,-33.939331,335.28 18.479176,-33.933697,335.28 18.476482,-33.928894,304.8 18.473339,-33.923687,335.28 18.469734,-33.918797,335.28 18.466,-33.9142,304.8 18.461952,-33.909489,304.8 18.456583,-33.903671,274.32 18.451824,-33.900738,243.84 18.446213,-33.899826,213.36 18.441168,-33.900146,152.4 18.435619,-33.900284,121.92 18.430252,-33.90097,91.44 18.427248,-33.901096,0 18.427547,-33.899597,91.44 18.429678,-33.896896,121.92 18.43214,-33.893753,152.4 18.437061,-33.886723,243.84 18.43786,-33.882797,304.8 18.43618,-33.878677,335.28 18.432255,-33.875969,396.24 18.426764,-33.874512,426.72 18.420822,-33.8741,457.2 18.414711,-33.874969,487.68 18.408794,-33.876389,518.16 18.403301,-33.87788,548.64 18.397865,-33.879555,579.12 18.392796,-33.881424,609.6 18.387508,-33.883793,640.08 18.38213,-33.886723,640.08 18.376579,-33.890587,640.08 18.371775,-33.894333,670.56 18.367538,-33.897942,701.04 18.363361,-33.901852,701.04 18.359528,-33.905857,701.04 18.355923,-33.910511,701.04 18.352886,-33.915619,670.56 18.350086,-33.920662,701.04 18.345375,-33.928848,731.52 18.339376,-33.940842,731.52 18.335438,-33.950035,762 18.327045,-33.974808,762 18.32159,-33.994724,792.48 18.31802,-34.00708,792.48 18.317797,-34.012573,792.48 18.318581,-34.017929,792.48 18.32015,-34.023422,792.48 18.321419,-34.028336,792.48 18.32428,-34.037369,792.48 18.327158,-34.048737,762 18.327717,-34.054092,762 18.330917,-34.060829,731.52 18.336349,-34.063065,731.52 18.341787,-34.06073,731.52 18.34425,-34.055058,701.04 18.343391,-34.048538,701.04 18.34173,-34.042465,670.56 18.339787,-34.036575,670.56 18.337612,-34.030708,670.56 18.334948,-34.024979,670.56 18.33189,-34.019165,640.08 18.329029,-34.009434,640.08 18.32943,-34.003429,640.08 18.332706,-33.992935,640.08 18.340359,-33.975128,640.08 18.351231,-33.951756,640.08 18.358603,-33.938736,640.08 18.368683,-33.920334,640.08 18.373232,-33.913605,640.08 18.377045,-33.908844,609.6 18.381136,-33.904587,609.6 18.385845,-33.900375,609.6 18.390999,-33.896965,579.12 18.397179,-33.894218,548.64 18.403782,-33.891953,487.68 18.410507,-33.890213,426.72 18.417091,-33.888821,396.24 18.427212,-33.886642,304.8 18.432884,-33.887005,274.32 18.43758,-33.889938,243.84 18.439711,-33.894516,213.36 18.43803,-33.897675,182.88 18.43317,-33.899525,121.92 18.42762,-33.901154,60.96 18.427219,-33.89999,91.44 18.428837,-33.897583,121.92 18.43091,-33.894241,152.4 18.433994,-33.888748,213.36 18.436375,-33.883141,304.8 18.435114,-33.879318,365.76 18.43214,-33.87653,396.24 18.427492,-33.874924,457.2 18.422127,-33.874619,487.68 18.416576,-33.874851,548.64 18.411198,-33.87569,579.12 18.405743,-33.876663,609.6 18.399868,-33.8783,640.08 18.394814,-33.880875,640.08 18.389376,-33.88385,670.56 18.384476,-33.886723,701.04 18.379784,-33.889935,731.52 18.375206,-33.893475,731.52 18.370571,-33.897243,762 18.366114,-33.901245,762 18.361797,-33.905731,762 18.357986,-33.910538,762 18.35495,-33.915169,792.48 18.351917,-33.920147,792.48 18.344254,-33.933517,762 18.340498,-33.942078,762 18.334064,-33.959671,731.52 18.346481,-33.961861,640.08 18.350643,-33.954025,640.08 18.353462,-33.947987,640.08 18.36034,-33.933884,609.6 18.37043,-33.915894,640.08 18.374746,-33.91008,609.6 18.378811,-33.905483,609.6 18.383547,-33.901016,640.08 18.388081,-33.897572,640.08 18.39386,-33.89473,640.08 18.400194,-33.892548,609.6 18.406734,-33.890961,548.64 18.413029,-33.889565,487.68 18.425961,-33.886677,365.76 18.43405,-33.88591,304.8 18.440437,-33.887329,274.32 18.4445,-33.89082,243.84 18.446548,-33.894287,213.36 18.443928,-33.895523,182.88 18.443914,-33.893646,152.4 18.44656,-33.894871,182.88 18.444271,-33.897243,182.88 18.438982,-33.898315,152.4 18.43461,-33.899277,121.92 18.42951,-33.900787,91.44 18.427099,-33.901165,0 18.427603,-33.899368,91.44 18.42934,-33.896851,152.4 18.431808,-33.893463,182.88 18.43626,-33.886539,274.32 18.43618,-33.882751,335.28 18.432655,-33.879368,396.24 18.426933,-33.878483,426.72 18.421381,-33.878815,457.2 18.41544,-33.87973,487.68 18.410114,-33.880554,548.64 18.399466,-33.882248,609.6 18.394421,-33.884125,640.08 18.38887,-33.886551,670.56 18.383904,-33.889145,701.04 18.378893,-33.892181,731.52 18.374062,-33.895382,731.52 18.36886,-33.899368,731.52 18.364376,-33.903442,731.52 18.36006,-33.908295,731.52 18.356529,-33.912964,731.52 18.353558,-33.918091,762 18.350979,-33.923355,762 18.348793,-33.928024,792.48 18.341789,-33.943611,762 18.3382,-33.953293,731.52 18.348232,-33.958511,701.04 18.352261,-33.953201,670.56 18.354679,-33.946976,640.08 18.357033,-33.940979,640.08 18.363876,-33.926155,640.08 18.369141,-33.916534,640.08 18.372631,-33.911724,640.08 18.376865,-33.906696,609.6 18.381023,-33.902344,609.6 18.386192,-33.898037,609.6 18.391281,-33.894791,609.6 18.39756,-33.892136,579.12 18.404173,-33.890442,548.64 18.410675,-33.889297,487.68 18.416634,-33.888306,457.2 18.427267,-33.886459,365.76 18.433514,-33.887653,304.8 18.437691,-33.890774,274.32 18.438869,-33.895432,213.36 18.435619,-33.898819,152.4 18.428822,-33.900131,91.44 18.426876,-33.900784,91.44 18.428535,-33.898315,121.92 18.430653,-33.89529,182.88 18.433601,-33.890808,243.84 18.435562,-33.887329,304.8 18.435619,-33.883438,335.28 18.432928,-33.879822,396.24 18.428389,-33.877533,426.72 18.422928,-33.876667,457.2 18.416805,-33.876854,487.68 18.410969,-33.877926,518.16 18.405127,-33.879456,548.64 18.399408,-33.88147,579.12 18.39414,-33.883942,609.6 18.389111,-33.886444,640.08 18.383789,-33.889519,670.56 18.37801,-33.893055,701.04 18.372002,-33.897106,731.52 18.367653,-33.900738,731.52 18.363247,-33.904926,731.52 18.359299,-33.909489,731.52 18.35598,-33.914421,701.04 18.353054,-33.919739,731.52 18.35025,-33.924911,731.52 18.343132,-33.939331,731.52 18.338144,-33.951828,731.52 18.347511,-33.957485,670.56 18.352213,-33.952423,640.08 18.354847,-33.946701,640.08 18.357353,-33.941143,640.08 18.362503,-33.931416,640.08 18.370285,-33.91824,640.08 18.374578,-33.912415,640.08 18.378445,-33.907654,640.08 18.382587,-33.903111,640.08 18.38747,-33.898865,640.08 18.392658,-33.89566,609.6 18.398849,-33.893372,548.64 18.405075,-33.891846,487.68 18.411684,-33.890305,426.72 18.423904,-33.887375,335.28 18.431583,-33.886871,304.8 18.436348,-33.889069,274.32 18.439579,-33.893055,213.36 18.439095,-33.897079,182.88 18.4359,-33.899231,152.4 18.432199,-33.899826,121.92 18.428307,-33.900551,91.44 18.427603,-33.898911,121.92 18.429398,-33.895798,152.4 18.431969,-33.892265,182.88 18.435226,-33.886917,243.84 18.435507,-33.882797,304.8 18.433208,-33.878311,365.76 18.429285,-33.875427,396.24 18.424015,-33.874153,457.2 18.418186,-33.874146,487.68 18.412743,-33.874527,548.64 18.406919,-33.875565,579.12 18.401258,-33.877579,609.6 18.396214,-33.880142,640.08 18.391281,-33.882797,670.56 18.384132,-33.886955,701.04 18.378445,-33.890717,731.52 18.373547,-33.894314,762 18.369083,-33.89827,762 18.364964,-33.902645,762 18.361294,-33.907333,762 18.357925,-33.912094,762 18.354624,-33.917267,762 18.351917,-33.922382,762 18.349411,-33.927612,762 18.34219,-33.941887,731.52 18.340244,-33.950127,701.04 18.346424,-33.955437,640.08 18.352268,-33.952927,609.6 18.355579,-33.947102,609.6 18.357986,-33.941162,579.12 18.36034,-33.935257,609.6 18.365385,-33.924454,579.12 18.368855,-33.918938,609.6 18.372116,-33.91433,609.6 18.375778,-33.909767,609.6 18.38007,-33.9053,609.6 18.384647,-33.901154,609.6 18.389969,-33.897243,579.12 18.396551,-33.894333,548.64 18.402941,-33.892502,487.68 18.409836,-33.8909,426.72 18.416616,-33.889252,335.28 18.429958,-33.88678,274.32 18.436348,-33.888794,243.84 18.439823,-33.892822,213.36 18.438927,-33.897446,182.88 18.434658,-33.899525,152.4 18.43063,-33.899734,121.92 18.427505,-33.900642,91.44 18.427492,-33.89978,121.92 18.430407,-33.897766,152.4 18.435287,-33.89706,213.36 18.440159,-33.897949,243.84 18.445187,-33.90004,274.32 18.449364,-33.903156,304.8 18.453083,-33.907021,335.28 18.456863,-33.911087,335.28 18.464375,-33.919098,335.28 18.472824,-33.928669,365.76 18.475529,-33.932831,396.24 18.476772,-33.937233,426.72 18.476425,-33.941299,457.2 18.474941,-33.945564,487.68 18.47271,-33.949944,487.68 18.470135,-33.954224,487.68 18.466988,-33.958694,487.68 18.463955,-33.962696,487.68 18.455029,-33.974056,487.68 18.443069,-33.989838,518.16 18.436964,-33.999344,518.16 18.434315,-34.004547,487.68 18.430481,-34.01218,457.2 18.42659,-34.021355,396.24 18.422222,-34.030014,335.28 18.418694,-34.033409,274.32 18.41415,-34.034637,304.8 18.411427,-34.033085,304.8 18.411516,-34.03093,274.32 18.413422,-34.029968,243.84 18.41486,-34.029732,213.36 18.416113,-34.029694,213.36 18.417091,-34.030338,213.36 18.418236,-34.03299,243.84 18.420696,-34.035553,304.8 18.423157,-34.037971,335.28 18.42923,-34.044434,396.24 18.435059,-34.050961,457.2 18.445541,-34.062653,518.16 18.45623,-34.075352,518.16 18.462637,-34.08403,518.16 18.466896,-34.090485,487.68 18.472195,-34.099747,487.68 18.472652,-34.103565,518.16 18.471966,-34.107845,548.64 18.470478,-34.111992,579.12 18.468073,-34.116486,579.12 18.465046,-34.121063,579.12 18.461796,-34.125824,548.64 18.454845,-34.13681,518.16 18.452625,-34.141739,487.68 18.450754,-34.146973,457.2 18.449295,-34.152008,457.2 18.448792,-34.156914,426.72 18.449017,-34.162125,426.72 18.450026,-34.166611,426.72 18.451035,-34.170731,426.72 18.452772,-34.174759,426.72 18.455181,-34.178146,457.2 18.457832,-34.1814,457.2 18.460674,-34.184738,457.2 18.464542,-34.18959,426.72 18.464699,-34.194016,304.8 18.465614,-34.198578,243.84 18.469082,-34.204422,213.36 18.471451,-34.20826,213.36 18.478603,-34.22139,182.88 18.480686,-34.226395,182.88 18.482094,-34.230606,182.88 18.483181,-34.235027,182.88 18.484097,-34.241314,182.88 18.484217,-34.245987,182.88 18.483753,-34.250763,182.88 18.483263,-34.255234,182.88 18.481693,-34.266266,152.4 18.479862,-34.269989,152.4 18.475456,-34.269894,152.4 18.474239,-34.265625,182.88 18.476772,-34.261051,182.88 18.4799,-34.256607,152.4 18.482704,-34.250381,152.4 18.483353,-34.244663,152.4 18.48278,-34.239079,182.88 18.480909,-34.233307,182.88 18.478331,-34.227264,182.88 18.475529,-34.221497,213.36 18.468475,-34.206818,243.84 18.466187,-34.200718,304.8 18.461895,-34.190243,365.76 18.458462,-34.184845,396.24 18.45377,-34.179722,426.72 18.448736,-34.174667,457.2 18.442268,-34.171017,487.68 18.435843,-34.169861,518.16 18.428364,-34.170368,518.16 18.422184,-34.17223,518.16 18.41572,-34.175674,518.16 18.411068,-34.179382,518.16 18.406906,-34.183727,548.64 18.40416,-34.188011,548.64 18.401756,-34.192898,579.12 18.399754,-34.197552,579.12 18.397951,-34.202225,579.12 18.393972,-34.213806,579.12 18.392347,-34.220764,548.64 18.391506,-34.225754,579.12 18.390942,-34.230373,579.12 18.389208,-34.241684,579.12 18.387413,-34.252075,548.64 18.387133,-34.256744,548.64 18.396662,-34.297073,457.2 18.402603,-34.305313,487.68 18.405855,-34.308105,487.68 18.409309,-34.310768,487.68 18.416405,-34.32008,518.16 18.42267,-34.3293,518.16 18.429062,-34.336304,487.68 18.43276,-34.339462,487.68 18.436741,-34.342209,487.68 18.441113,-34.345322,487.68 18.45109,-34.352463,457.2 18.454004,-34.356079,487.68 18.455715,-34.359928,487.68 18.457535,-34.363907,457.2 18.461515,-34.367752,426.72 18.465719,-34.368164,335.28 18.470596,-34.367249,274.32 18.475342,-34.366074,243.84 18.481638,-34.365692,243.84 18.487186,-34.365791,274.32 18.491392,-34.36615,274.32 18.495819,-34.366608,274.32 18.50176,-34.366974,274.32 18.505383,-34.364769,274.32 18.503778,-34.360382,274.32 18.497557,-34.360336,274.32 18.491224,-34.362259,274.32 18.482838,-34.364025,304.8 18.473339,-34.364536,335.28 18.465887,-34.363037,396.24 18.459946,-34.359375,487.68 18.455086,-34.355457,518.16 18.450394,-34.351315,579.12 18.445709,-34.346466,609.6 18.436293,-34.337265,670.56 18.428221,-34.330078,670.56 18.418299,-34.320145,701.04 18.414001,-34.314678,731.52 18.410683,-34.309559,731.52 18.40765,-34.303555,701.04 18.405075,-34.297222,670.56 18.402843,-34.290333,670.56 18.401203,-34.284073,640.08 18.397522,-34.270081,640.08 18.392851,-34.247772,609.6 18.389397,-34.241825,609.6 18.384705,-34.236286,609.6 18.380239,-34.231064,640.08 18.372688,-34.221203,640.08 18.368916,-34.215454,640.08 18.365385,-34.209366,640.08 18.36256,-34.203697,609.6 18.357067,-34.192478,640.08 18.352549,-34.181168,640.08 18.350887,-34.174881,640.08 18.349689,-34.168808,640.08 18.348625,-34.162399,640.08 18.346607,-34.146194,640.08 18.343637,-34.126419,670.56 18.340645,-34.104588,640.08 18.339432,-34.088699,609.6 18.339729,-34.081081,609.6 18.340218,-34.073914,640.08 18.341619,-34.054459,670.56 18.341339,-34.048462,670.56 18.340553,-34.042145,640.08 18.3395,-34.03611,640.08 18.337498,-34.029732,640.08 18.33498,-34.023773,640.08 18.332706,-34.01825,640.08 18.330116,-34.008644,640.08 18.329624,-34.00264,670.56 18.331146,-33.993004,701.04 18.336868,-33.976849,701.04 18.34358,-33.962631,640.08 18.352203,-33.943703,609.6 18.355694,-33.937744,609.6 18.358669,-33.932766,609.6 18.367683,-33.919327,609.6 18.372,-33.913834,640.08 18.376064,-33.909256,609.6 18.380527,-33.904831,609.6 18.385162,-33.900829,579.12 18.39016,-33.897171,579.12 18.396206,-33.893894,548.64 18.402843,-33.891567,518.16 18.409611,-33.889847,457.2 18.417234,-33.888336,396.24 18.424353,-33.886963,335.28 18.432369,-33.88649,304.8 18.438377,-33.889286,243.84 18.440666,-33.894218,213.36 18.43803,-33.897995,182.88 18.433514,-33.8992,152.4 18.429398,-33.899872,91.44 18.427162,-33.900829,0 18.427828,-33.899323,121.92 18.430138,-33.894779,152.4 18.430367,-33.890915,213.36 18.429621,-33.886459,243.84 18.427996,-33.882111,304.8 18.425217,-33.878483,365.76 18.420639,-33.876202,396.24 18.414824,-33.875381,426.72 18.408546,-33.875565,487.68 18.402786,-33.876434,518.16 18.397408,-33.878017,548.64 18.391056,-33.880486,579.12 18.385792,-33.883091,579.12 18.380743,-33.886322,579.12 18.375721,-33.890495,609.6 18.371326,-33.894653,609.6 18.36729,-33.899323,609.6 18.363533,-33.904274,609.6 18.360443,-33.908745,609.6 18.357296,-33.913818,609.6 18.354492,-33.919125,609.6 18.351988,-33.924683,609.6 18.344193,-33.939514,609.6 18.332651,-33.962448,609.6 18.321304,-33.985882,579.12 18.330345,-33.985184,640.08 18.338757,-33.969494,640.08 18.350195,-33.947525,640.08 18.358715,-33.933609,609.6 18.370228,-33.916889,609.6 18.376987,-33.908478,609.6 18.381329,-33.904041,609.6 18.386021,-33.899944,609.6 18.391685,-33.896034,609.6 18.398209,-33.893196,548.64 18.405132,-33.891052,487.68 18.411684,-33.889389,457.2 18.419094,-33.887749,396.24 18.427435,-33.886185,335.28 18.433937,-33.886917,304.8 18.439487,-33.890442,274.32 18.441168,-33.895981,213.36 18.43775,-33.899277,182.88 18.433056,-33.900085,121.92 18.427492,-33.900742,91.44 18.427105,-33.900223,60.96 18.427219,-33.89999,91.44 18.428478,-33.898129,121.92 18.428949,-33.897491,121.92 18.431053,-33.894871,152.4 18.431568,-33.894264,152.4 18.433714,-33.891541,182.88 18.435284,-33.889252,213.36 18.437119,-33.885933,243.84 18.437412,-33.885086,243.84 18.43792,-33.881557,274.32 18.43803,-33.880829,274.32 18.439865,-33.877785,335.28 18.440781,-33.87746,335.28 18.444475,-33.878494,396.24 18.444786,-33.879322,396.24 18.443241,-33.88179,457.2 18.442497,-33.882069,457.2 18.438869,-33.883255,457.2 18.438263,-33.883793,457.2 18.437576,-33.887005,457.2 18.437805,-33.887741,457.2 18.439922,-33.890915,426.72 18.44072,-33.891815,426.72 18.443523,-33.894836,396.24 18.444363,-33.895798,396.24 18.446999,-33.898956,396.24 18.447783,-33.899918,396.24 18.457312,-33.912094,365.76 18.45789,-33.912933,365.76 18.461666,-33.918613,365.76 18.462238,-33.919498,365.76 18.467159,-33.925922,365.76 18.46813,-33.92688,365.76 18.47295,-33.933334,396.24 18.473904,-33.935211,396.24 18.475685,-33.939468,365.76 18.476089,-33.940567,365.76 18.477631,-33.945053,365.76 18.47794,-33.946243,335.28 18.478949,-33.950363,335.28 18.479116,-33.951416,365.76 18.479462,-33.955761,365.76 18.479519,-33.9566,396.24 18.479565,-33.960754,396.24 18.479576,-33.96172,396.24 18.47962,-33.965744,426.72 18.479788,-33.968857,457.2 18.480125,-33.983414,487.68 18.480091,-33.984531,487.68 18.479233,-33.988861,487.68 18.478891,-33.989868,487.68 18.476944,-33.993839,518.16 18.476425,-33.99472,518.16 18.473511,-33.998108,548.64 18.47267,-33.998749,548.64 18.468132,-34.000961,548.64 18.466873,-34.001289,579.12 18.461609,-34.002079,609.6 18.460236,-34.00222,609.6 18.454733,-34.002777,609.6 18.453484,-34.002827,609.6 18.448288,-34.003189,609.6 18.443859,-34.003555,609.6 18.434544,-34.004875,609.6 18.433546,-34.00502,640.08 18.42865,-34.005852,640.08 18.42453,-34.00655,640.08 18.404961,-34.009853,701.04 18.400755,-34.010605,701.04 18.391113,-34.012939,701.04 18.389936,-34.013306,670.56 18.384666,-34.015091,701.04 18.383217,-34.015675,701.04 18.37895,-34.018066,731.52 18.37801,-34.018791,731.52 18.374805,-34.02261,762 18.374233,-34.023495,762 18.37183,-34.027359,762 18.371214,-34.028412,792.48 18.369196,-34.032394,762 18.368797,-34.033222,762 18.367252,-34.037785,762 18.366966,-34.038811,762 18.365946,-34.04306,762 18.365778,-34.044113,762 18.36561,-34.048599,762 18.365593,-34.049843,762 18.365833,-34.054504,762 18.365891,-34.055557,762 18.366169,-34.060272,762 18.366222,-34.061619,762 18.367851,-34.075699,762 18.368111,-34.078983,762 18.36834,-34.087177,762 18.36834,-34.088203,762 18.367996,-34.0923,762 18.367825,-34.093697,731.52 18.367123,-34.098404,731.52 18.366955,-34.099686,731.52 18.366282,-34.104172,701.04 18.365498,-34.109299,670.56 18.364151,-34.124039,640.08 18.364151,-34.125366,640.08 18.364162,-34.129772,640.08 18.364162,-34.130798,640.08 18.364321,-34.135162,640.08 18.364449,-34.136478,640.08 18.364992,-34.140701,640.08 18.36516,-34.141708,640.08 18.365778,-34.145782,640.08 18.365993,-34.146904,640.08 18.367825,-34.155842,670.56 18.368168,-34.157005,670.56 18.36937,-34.161289,640.08 18.369701,-34.162216,670.56 18.371326,-34.166748,640.08 18.371775,-34.16803,640.08 18.373344,-34.171967,640.08 18.373718,-34.172882,670.56 18.379173,-34.186066,640.08 18.38047,-34.189686,640.08 18.382257,-34.195633,640.08 18.382425,-34.19632,640.08 18.383547,-34.200806,609.6 18.383883,-34.201996,609.6 18.387337,-34.21487,609.6 18.388653,-34.218826,609.6 18.390427,-34.223389,640.08 18.390888,-34.224518,640.08 18.394253,-34.233215,640.08 18.395823,-34.237015,640.08 18.401413,-34.250343,609.6 18.402042,-34.252018,0 18.421942,-34.292908,487.68 18.424816,-34.297176,487.68 18.427505,-34.30048,518.16 18.428164,-34.301285,518.16 18.433041,-34.307373,518.16 18.433342,-34.307835,518.16 18.437805,-34.316116,487.68 18.438263,-34.316959,487.68 18.443184,-34.327946,487.68 18.443527,-34.328876,487.68 18.444643,-34.333099,487.68 18.444923,-34.334244,487.68 18.447018,-34.340237,457.2 18.448277,-34.342888,457.2 18.450529,-34.346786,457.2 18.451426,-34.348251,457.2 18.453484,-34.351688,487.68 18.45406,-34.352646,487.68 18.458347,-34.359089,487.68 18.459034,-34.359928,487.68 18.463646,-34.36409,457.2 18.464527,-34.364723,457.2 18.467905,-34.366791,457.2 18.46899,-34.367329,457.2 18.472767,-34.36882,457.2 18.473736,-34.369125,457.2 18.47777,-34.369995,487.68 18.478661,-34.370121,487.68 18.482952,-34.370495,487.68 18.484049,-34.370544,487.68 18.488533,-34.370682,487.68 18.489647,-34.370728,487.68 18.493914,-34.370819,487.68 18.494867,-34.370819,487.68 18.508644,-34.371334,518.16 18.509552,-34.371185,518.16 18.512747,-34.369629,518.16 18.51342,-34.369034,518.16 18.515213,-34.365829,518.16 18.515326,-34.365005,518.16 18.513794,-34.36137,518.16 18.512691,-34.360703,518.16 18.507704,-34.360519,518.16 18.506525,-34.360931,518.16 18.502153,-34.362808,518.16 18.501202,-34.36322,518.16 18.496742,-34.364815,548.64 18.495426,-34.365143,548.64 18.488926,-34.365738,579.12 18.487692,-34.365692,579.12 18.482437,-34.365093,579.12 18.480967,-34.364822,579.12 18.475641,-34.363495,579.12 18.474197,-34.362999,579.12 18.469643,-34.360565,579.12 18.468914,-34.35997,579.12 18.465672,-34.35611,579.12 18.465157,-34.355133,548.64 18.464298,-34.350525,548.64 18.464355,-34.349499,548.64 18.465832,-34.345139,548.64 18.466244,-34.344517,548.64 18.46981,-34.340927,518.16 18.470535,-34.340374,518.16 18.47414,-34.338047,518.16 18.475056,-34.337627,518.16 18.479404,-34.336327,518.16 18.480686,-34.336121,548.64 18.48489,-34.335938,548.64 18.486122,-34.336029,548.64 18.490383,-34.336899,548.64 18.491249,-34.337212,548.64 18.496212,-34.339783,548.64 18.496885,-34.34024,548.64 18.499968,-34.343079,579.12 18.500528,-34.343765,579.12 18.502827,-34.346695,579.12 18.504066,-34.348244,579.12 18.508881,-34.349304,579.12 18.50996,-34.348846,579.12 18.51202,-34.34573,579.12 18.512018,-34.344864,609.6 18.510532,-34.341305,609.6 18.509846,-34.340561,609.6 18.505383,-34.337723,609.6 18.504295,-34.337212,609.6 18.499374,-34.334557,579.12 18.498001,-34.333626,579.12 18.492849,-34.328934,548.64 18.492165,-34.328133,548.64 18.489361,-34.323246,518.16 18.488869,-34.322067,518.16 18.48753,-34.316914,518.16 18.487301,-34.315563,518.16 18.486729,-34.310814,487.68 18.486614,-34.309513,487.68 18.48646,-34.304855,487.68 18.48646,-34.303482,487.68 18.486628,-34.298355,487.68 18.486683,-34.297211,487.68 18.486908,-34.292267,457.2 18.487019,-34.291077,457.2 18.486795,-34.273865,487.68 18.486786,-34.269012,487.68 18.487411,-34.252167,457.2 18.487411,-34.248505,457.2 18.486795,-34.241226,487.68 18.48657,-34.240036,487.68 18.485451,-34.235458,487.68 18.485069,-34.234097,487.68 18.483656,-34.229279,487.68 18.483208,-34.227951,487.68 18.48135,-34.223064,457.2 18.480721,-34.221527,457.2 18.478611,-34.21701,457.2 18.478107,-34.215958,457.2 18.475473,-34.210922,457.2 18.474712,-34.209518,457.2 18.469334,-34.199833,457.2 18.466644,-34.195503,457.2 18.460693,-34.185215,457.2 18.460281,-34.18428,457.2 18.458714,-34.179016,457.2 18.458488,-34.177734,457.2 18.45789,-34.173065,457.2 18.457947,-34.17181,457.2 18.458376,-34.167252,457.2 18.458633,-34.166176,457.2 18.459778,-34.161621,457.2 18.460171,-34.160568,457.2 18.461683,-34.156265,457.2 18.462124,-34.15519,457.2 18.463869,-34.150726,457.2 18.46443,-34.149307,457.2 18.468073,-34.140106,457.2 18.46981,-34.135666,457.2 18.476429,-34.118507,457.2 18.47683,-34.117157,457.2 18.477602,-34.112457,457.2 18.477659,-34.111084,457.2 18.477402,-34.106079,457.2 18.477211,-34.105042,457.2 18.476032,-34.099915,457.2 18.475685,-34.098862,457.2 18.474184,-34.094238,457.2 18.473791,-34.093185,457.2 18.471886,-34.088608,457.2 18.471279,-34.087505,457.2 18.468746,-34.083206,457.2 18.467905,-34.082062,457.2 18.464642,-34.078239,426.72 18.463814,-34.077438,457.2 18.460281,-34.073959,457.2 18.459492,-34.073257,457.2 18.455715,-34.070045,457.2 18.454685,-34.06916,457.2 18.451138,-34.066135,457.2 18.448511,-34.063934,457.2 18.443184,-34.05864,426.72 18.442554,-34.057941,426.72 18.439768,-34.054916,396.24 18.439064,-34.054218,396.24 18.433514,-34.048588,304.8 18.432873,-34.048141,304.8 18.430138,-34.046909,274.32 18.429398,-34.046722,274.32 18.426315,-34.04631,243.84 18.425697,-34.046265,243.84 18.423042,-34.045792,213.36 18.422615,-34.045624,213.36 18.421045,-34.044662,182.88 18.420753,-34.044491,182.88 18.419552,-34.043743,152.4 18.419266,-34.043606,152.4 18.417683,-34.04306,0 18.417463,-34.043011,0 18.418467,-34.042694,152.4 18.420116,-34.042606,213.36 18.430742,-34.039764,335.28 18.431583,-34.03949,335.28 18.435516,-34.037834,335.28 18.436775,-34.037228,335.28 18.44038,-34.035038,365.76 18.441181,-34.034481,365.76 18.444271,-34.032013,426.72 18.445129,-34.031315,426.72 18.448391,-34.028477,487.68 18.449184,-34.027771,487.68 18.452772,-34.0242,487.68 18.453827,-34.023121,487.68 18.456974,-34.019539,487.68 18.457705,-34.018661,487.68 18.460842,-34.014771,487.68 18.461895,-34.013439,487.68 18.464655,-34.009506,487.68 18.465496,-34.008224,487.68 18.468418,-34.003708,487.68 18.469219,-34.002361,487.68 18.471737,-33.997845,487.68 18.472221,-33.996872,487.68 18.474352,-33.992294,487.68 18.4748,-33.991241,487.68 18.476593,-33.986481,457.2 18.477041,-33.985153,457.2 18.478546,-33.980015,426.72 18.478947,-33.978664,426.72 18.480238,-33.973663,396.24 18.480549,-33.972519,396.24 18.482592,-33.963776,396.24 18.48332,-33.959656,365.76 18.484049,-33.954941,365.76 18.484217,-33.953659,365.76 18.484552,-33.948349,365.76 18.484497,-33.947113,365.76 18.483488,-33.942398,335.28 18.483124,-33.94133,335.28 18.480949,-33.936813,335.28 18.480349,-33.93576,335.28 18.478146,-33.931881,335.28 18.477631,-33.930996,335.28 18.475416,-33.927063,304.8 18.474827,-33.92606,304.8 18.47208,-33.921917,335.28 18.471268,-33.920746,335.28 18.468298,-33.916992,335.28 18.46756,-33.91605,335.28 18.464355,-33.912235,304.8 18.463589,-33.911316,304.8 18.458862,-33.905857,304.8 18.458233,-33.905205,274.32 18.454733,-33.902252,243.84 18.453611,-33.901611,243.84 18.449465,-33.900009,213.36 18.448288,-33.899872,213.36 18.444042,-33.899944,182.88 18.443127,-33.89999,182.88 18.438721,-33.900223,152.4 18.437412,-33.900238,121.92 18.432999,-33.900505,121.92 18.431511,-33.900688,91.44 18.428535,-33.901203,91.44 18.42802,-33.901154,60.96 18.426987,-33.900833,60.96 18.427099,-33.90033,60.96 18.428307,-33.89864,91.44 18.42865,-33.898129,91.44 18.430519,-33.895844,121.92 18.431053,-33.895149,152.4 18.433113,-33.892448,182.88 18.435226,-33.889526,213.36 18.437634,-33.885189,274.32 18.437805,-33.884209,274.32 18.437462,-33.880905,304.8 18.437119,-33.880112,335.28 18.434715,-33.877274,365.76 18.4338,-33.876717,365.76 18.430294,-33.87529,396.24 18.428993,-33.874947,396.24 18.424702,-33.874203,426.72 18.423386,-33.874107,426.72 18.418808,-33.874294,457.2 18.417835,-33.874435,457.2 18.412189,-33.875519,518.16 18.411026,-33.875786,518.16 18.406563,-33.876995,548.64 18.405304,-33.877319,548.64 18.401413,-33.878437,579.12 18.400154,-33.878811,579.12 18.395863,-33.880299,609.6 18.394775,-33.880672,609.6 18.390369,-33.882393,609.6 18.389263,-33.882889,640.08 18.385105,-33.885002,640.08 18.383995,-33.885635,640.08 18.379734,-33.88829,640.08 18.378639,-33.889053,640.08 18.374578,-33.89209,640.08 18.373625,-33.892822,670.56 18.370457,-33.895428,670.56 18.369255,-33.8965,701.04 18.365707,-33.89957,701.04 18.364937,-33.900284,701.04 18.361742,-33.903534,701.04 18.361015,-33.904274,701.04 18.357868,-33.90786,701.04 18.357201,-33.908752,701.04 18.354624,-33.912506,701.04 18.353951,-33.913742,670.56 18.351765,-33.917633,670.56 18.351116,-33.918751,701.04 18.348942,-33.922661,701.04 18.348484,-33.9235,701.04 18.341619,-33.935989,731.52 18.340162,-33.939011,731.52 18.33847,-33.943005,762 18.337955,-33.944122,762 18.332119,-33.958881,762 18.330288,-33.964279,762 18.324337,-33.98616,792.48 18.323193,-33.989792,792.48 18.319927,-33.999481,792.48 18.318958,-34.002686,792.48 18.317814,-34.009018,792.48 18.317699,-34.010319,792.48 18.318077,-34.014954,792.48 18.31819,-34.015961,792.48 18.319244,-34.020142,792.48 18.319534,-34.021088,792.48 18.320656,-34.025299,792.48 18.320879,-34.02626,792.48 18.322001,-34.030472,792.48 18.322334,-34.031406,792.48 18.32626,-34.044342,792.48 18.32682,-34.046677,762 18.327381,-34.051025,762 18.327484,-34.0518,762 18.329086,-34.058361,762 18.329679,-34.059357,762 18.33292,-34.062225,731.52 18.334164,-34.062744,731.52 18.33876,-34.062653,731.52 18.339825,-34.062149,731.52 18.343357,-34.058578,701.04 18.343792,-34.057476,701.04 18.344135,-34.052265,701.04 18.343973,-34.051163,701.04 18.342739,-34.046127,701.04 18.342476,-34.045094,701.04 18.341045,-34.040253,670.56 18.340553,-34.038803,670.56 18.338928,-34.034203,670.56 18.33847,-34.032898,670.56 18.336517,-34.028229,670.56 18.33601,-34.027126,670.56 18.33366,-34.022552,640.08 18.333035,-34.021355,640.08 18.329624,-34.013031,640.08 18.329372,-34.011902,640.08 18.329006,-34.00708,640.08 18.329086,-34.005806,640.08 18.329945,-34.001057,640.08 18.33024,-34.000076,640.08 18.334724,-33.9879,640.08 18.335789,-33.985565,670.56 18.345509,-33.963955,609.6 18.348122,-33.958191,640.08 18.354231,-33.946335,640.08 18.356081,-33.942993,640.08 18.362694,-33.931229,640.08 18.364506,-33.927738,609.6 18.371143,-33.916565,640.08 18.371832,-33.915573,640.08 18.374521,-33.911865,640.08 18.375378,-33.910793,609.6 18.378725,-33.907013,609.6 18.379511,-33.906189,609.6 18.383045,-33.902786,609.6 18.384108,-33.90184,609.6 18.388023,-33.898781,609.6 18.388927,-33.898178,609.6 18.39323,-33.895847,579.12 18.394421,-33.89534,579.12 18.399639,-33.893333,518.16 18.401299,-33.892731,487.68 18.406506,-33.891193,457.2 18.407761,-33.890854,457.2 18.413143,-33.88961,426.72 18.414345,-33.889378,396.24 18.419533,-33.88829,365.76 18.421045,-33.887924,365.76 18.429565,-33.886459,304.8 18.430574,-33.886551,274.32 18.435003,-33.888016,274.32 18.435974,-33.888584,243.84 18.438927,-33.891632,213.36 18.439375,-33.892593,213.36 18.439318,-33.896164,182.88 18.439039,-33.896667,182.88 18.435516,-33.898827,152.4 18.434666,-33.899094,152.4 18.431225,-33.90004,121.92 18.430014,-33.900421,91.44 18.427141,-33.901165,0 18.427113,-33.900925,0 18.42766,-33.899231,121.92 18.428053,-33.898636,121.92 18.429565,-33.896393,152.4 18.430138,-33.895615,152.4 18.431751,-33.892731,182.88 18.432083,-33.892033,182.88 18.435787,-33.88559,274.32 18.436089,-33.884674,274.32 18.43618,-33.881561,335.28 18.435917,-33.880859,335.28 18.434105,-33.878128,365.76 18.433399,-33.877415,396.24 18.430349,-33.875656,426.72 18.429279,-33.87532,426.72 18.425217,-33.874714,457.2 18.42424,-33.874649,487.68 18.419724,-33.874619,518.16 18.418579,-33.874668,518.16 18.414631,-33.875088,548.64 18.413366,-33.87529,579.12 18.409105,-33.876068,609.6 18.407873,-33.876297,609.6 18.403276,-33.877213,609.6 18.402214,-33.877506,609.6 18.397615,-33.879364,640.08 18.396664,-33.879833,640.08 18.39229,-33.882202,670.56 18.391394,-33.882706,670.56 18.387526,-33.884903,701.04 18.386364,-33.885559,701.04 18.382425,-33.888107,701.04 18.3815,-33.888771,701.04 18.377605,-33.891541,731.52 18.376808,-33.89217,731.52 18.373232,-33.895065,762 18.372402,-33.89571,762 18.368855,-33.898735,762 18.368053,-33.899433,762 18.364334,-33.903019,762 18.363592,-33.903763,762 18.360397,-33.907379,762 18.359528,-33.908417,762 18.35681,-33.912231,762 18.356249,-33.913147,762 18.353691,-33.917263,792.48 18.353054,-33.918274,792.48 18.348827,-33.925129,792.48 18.347111,-33.928204,792.48 18.343245,-33.935806,762 18.342762,-33.936859,762 18.338184,-33.947197,762 18.33663,-33.950546,762 18.337694,-33.963913,701.04 18.340834,-33.964554,670.56 18.349241,-33.957184,640.08 18.349628,-33.956413,640.08 18.35182,-33.951553,640.08 18.352318,-33.950359,640.08 18.354836,-33.944962,640.08 18.35692,-33.940659,640.08 18.364431,-33.926651,609.6 18.366282,-33.923401,640.08 18.372402,-33.91312,640.08 18.373177,-33.912094,640.08 18.37635,-33.908138,609.6 18.377155,-33.907288,609.6 18.380575,-33.903763,640.08 18.381584,-33.902756,640.08 18.385117,-33.899734,640.08 18.386236,-33.898865,640.08 18.39016,-33.896347,640.08 18.391342,-33.895756,640.08 18.396326,-33.893784,609.6 18.397503,-33.893372,609.6 18.40266,-33.891861,579.12 18.403782,-33.891586,579.12 18.409163,-33.890442,518.16 18.410282,-33.890167,518.16 18.415661,-33.889004,457.2 18.416977,-33.88868,457.2 18.42951,-33.886139,335.28 18.431282,-33.885979,335.28 18.436571,-33.886093,304.8 18.43803,-33.886368,274.32 18.442154,-33.888493,274.32 18.44313,-33.889389,243.84 18.445644,-33.89217,213.36 18.446213,-33.893005,213.36 18.445709,-33.895569,213.36 18.445036,-33.895706,182.88 18.443298,-33.894962,152.4 18.443186,-33.894516,152.4 18.445244,-33.893475,182.88 18.445873,-33.893753,182.88 18.44627,-33.895981,182.88 18.445702,-33.896545,182.88 18.442177,-33.897766,182.88 18.440838,-33.898037,152.4 18.437347,-33.89864,152.4 18.436546,-33.898827,152.4 18.431911,-33.900223,121.92 18.430653,-33.900597,91.44 18.428276,-33.901016,91.44 18.42762,-33.901154,60.96 18.427044,-33.900558,91.44 18.427155,-33.900238,91.44 18.428249,-33.898407,121.92 18.428556,-33.897949,121.92 18.430294,-33.895523,152.4 18.430653,-33.895103,182.88 18.432873,-33.891998,213.36 18.434887,-33.889004,243.84 18.436604,-33.885048,304.8 18.436571,-33.884308,304.8 18.435226,-33.881241,365.76 18.434544,-33.880581,365.76 18.430595,-33.878765,396.24 18.429398,-33.878586,396.24 18.424473,-33.878532,457.2 18.423386,-33.878624,457.2 18.419094,-33.879089,487.68 18.417778,-33.879322,487.68 18.413311,-33.880096,518.16 18.412342,-33.880207,518.16 18.405127,-33.881241,579.12 18.4021,-33.881607,579.12 18.397223,-33.883026,609.6 18.396378,-33.883373,609.6 18.392067,-33.885086,670.56 18.390945,-33.88559,670.56 18.387133,-33.887421,701.04 18.385963,-33.888027,701.04 18.381958,-33.890308,701.04 18.381023,-33.8909,731.52 18.376694,-33.893612,731.52 18.375778,-33.894218,731.52 18.37183,-33.897011,731.52 18.370653,-33.897903,731.52 18.366795,-33.901154,731.52 18.366001,-33.901886,731.52 18.362471,-33.905457,731.52 18.361702,-33.906322,731.52 18.358555,-33.910141,731.52 18.357761,-33.911224,731.52 18.355295,-33.914932,731.52 18.354624,-33.916077,762 18.352547,-33.920147,762 18.352032,-33.921219,762 18.35014,-33.925095,762 18.349579,-33.926285,792.48 18.346832,-33.932419,762 18.344925,-33.936768,762 18.338816,-33.950363,762 18.33848,-33.951324,731.52 18.340588,-33.958416,731.52 18.342018,-33.959114,731.52 18.350487,-33.956367,670.56 18.351002,-33.95562,670.56 18.353165,-33.950958,670.56 18.353691,-33.949615,670.56 18.355576,-33.944412,640.08 18.355968,-33.943451,640.08 18.35907,-33.936443,640.08 18.361181,-33.931915,640.08 18.367178,-33.919647,640.08 18.367767,-33.918659,640.08 18.370457,-33.914654,640.08 18.371258,-33.91354,640.08 18.37429,-33.909676,609.6 18.375195,-33.908661,609.6 18.37841,-33.904972,609.6 18.379211,-33.904133,609.6 18.382988,-33.900642,609.6 18.383938,-33.899826,609.6 18.388081,-33.896732,609.6 18.389282,-33.895943,609.6 18.393805,-33.8936,609.6 18.395004,-33.893101,609.6 18.400211,-33.89138,579.12 18.401371,-33.891083,548.64 18.406919,-33.889938,518.16 18.408051,-33.889751,518.16 18.413086,-33.888931,487.68 18.414207,-33.888748,457.2 18.418922,-33.887981,426.72 18.42256,-33.887238,396.24 18.43008,-33.886631,335.28 18.43111,-33.886864,335.28 18.435339,-33.888657,304.8 18.436317,-33.889332,274.32 18.438663,-33.89259,243.84 18.438927,-33.893509,243.84 18.438086,-33.897034,182.88 18.437357,-33.897858,182.88 18.433434,-33.899277,121.92 18.432816,-33.899368,121.92 18.427563,-33.900642,91.44 18.427177,-33.900959,0 18.427322,-33.899872,91.44 18.42762,-33.899479,91.44 18.42934,-33.897171,121.92 18.429794,-33.896545,152.4 18.431471,-33.89415,182.88 18.431969,-33.893379,213.36 18.43433,-33.889664,274.32 18.43483,-33.888866,274.32 18.43586,-33.885792,304.8 18.435917,-33.885048,335.28 18.434944,-33.881927,365.76 18.43433,-33.881104,365.76 18.431339,-33.878765,396.24 18.430252,-33.878204,426.72 18.42609,-33.877029,426.72 18.425102,-33.876854,457.2 18.420149,-33.876617,457.2 18.418972,-33.876663,487.68 18.414516,-33.877228,487.68 18.413258,-33.87746,518.16 18.408657,-33.878494,548.64 18.407421,-33.878811,548.64 18.402843,-33.880161,579.12 18.401756,-33.880531,579.12 18.39728,-33.882477,609.6 18.396326,-33.882935,609.6 18.3922,-33.884907,640.08 18.391058,-33.885452,640.08 18.387022,-33.887558,640.08 18.38562,-33.888401,670.56 18.381672,-33.890774,670.56 18.380356,-33.891567,701.04 18.37595,-33.894405,701.04 18.374805,-33.895103,701.04 18.370113,-33.898594,731.52 18.369255,-33.899338,731.52 18.365891,-33.902344,731.52 18.364937,-33.903259,731.52 18.361294,-33.906967,731.52 18.36062,-33.907791,731.52 18.357811,-33.911491,701.04 18.357033,-33.912735,701.04 18.354778,-33.916656,731.52 18.354263,-33.917587,731.52 18.352032,-33.921593,731.52 18.351316,-33.922806,731.52 18.348122,-33.92894,731.52 18.346596,-33.931973,731.52 18.339769,-33.946198,731.52 18.33848,-33.949768,731.52 18.338413,-33.954132,701.04 18.33876,-33.954987,701.04 18.349747,-33.955902,670.56 18.351091,-33.9543,640.08 18.353334,-33.950134,640.08 18.353806,-33.949104,640.08 18.355743,-33.944595,640.08 18.356304,-33.943451,640.08 18.360043,-33.935837,640.08 18.361237,-33.933609,640.08 18.363647,-33.929504,640.08 18.365936,-33.925362,640.08 18.372459,-33.91526,640.08 18.373064,-33.914383,640.08 18.376146,-33.9104,640.08 18.376987,-33.909393,640.08 18.380072,-33.905777,640.08 18.380928,-33.904831,640.08 18.384418,-33.901386,640.08 18.385395,-33.900513,640.08 18.389488,-33.897446,609.6 18.390255,-33.896965,609.6 18.395004,-33.894638,579.12 18.396214,-33.89415,579.12 18.401299,-33.892731,518.16 18.402548,-33.892456,487.68 18.407873,-33.89122,457.2 18.40905,-33.890945,426.72 18.414059,-33.889751,396.24 18.415272,-33.889435,396.24 18.427435,-33.88678,304.8 18.428822,-33.886677,304.8 18.433714,-33.887512,274.32 18.434834,-33.888062,274.32 18.438091,-33.890728,243.84 18.438663,-33.89138,243.84 18.439922,-33.894684,213.36 18.439768,-33.895615,213.36 18.438034,-33.898224,182.88 18.43729,-33.898689,152.4 18.4342,-33.899525,121.92 18.433571,-33.89962,121.92 18.429846,-33.900238,91.44 18.429565,-33.900272,91.44 18.427578,-33.900749,0 18.427435,-33.900421,91.44 18.428164,-33.897675,121.92 18.428593,-33.896965,121.92 18.430349,-33.89447,182.88 18.430882,-33.893707,182.88 18.432941,-33.890774,213.36 18.433571,-33.889935,213.36 18.435574,-33.885326,274.32 18.435631,-33.884304,274.32 18.434891,-33.880875,335.28 18.434486,-33.880066,335.28 18.431864,-33.877029,365.76 18.43111,-33.876434,396.24 18.427334,-33.874714,426.72 18.426258,-33.874466,426.72 18.421494,-33.874054,457.2 18.420485,-33.8741,487.68 18.416119,-33.874249,518.16 18.41486,-33.87434,518.16 18.410507,-33.874878,548.64 18.409498,-33.875015,579.12 18.404903,-33.87611,579.12 18.403301,-33.876667,579.12 18.39896,-33.878677,609.6 18.398064,-33.879181,640.08 18.394085,-33.881287,640.08 18.392887,-33.881927,670.56 18.389168,-33.883976,670.56 18.387751,-33.884766,670.56 18.382015,-33.888306,731.52 18.380014,-33.889618,731.52 18.376539,-33.892044,731.52 18.375607,-33.892731,731.52 18.371716,-33.895847,762 18.370743,-33.896687,762 18.367403,-33.899963,762 18.366507,-33.900925,762 18.36348,-33.904449,762 18.362732,-33.905346,762 18.359814,-33.909393,762 18.359219,-33.910263,762 18.356495,-33.914284,762 18.355751,-33.915352,762 18.353558,-33.919098,762 18.352886,-33.920334,762 18.350811,-33.924683,762 18.350372,-33.925594,762 18.348457,-33.929581,762 18.34672,-33.933014,762 18.340359,-33.946682,731.52 18.34013,-33.947895,731.52 18.341059,-33.95224,701.04 18.341846,-33.953293,670.56 18.348885,-33.955154,640.08 18.350201,-33.954597,640.08 18.353806,-33.950779,609.6 18.354321,-33.949802,609.6 18.356552,-33.944866,609.6 18.356977,-33.943726,579.12 18.358955,-33.93877,609.6 18.359356,-33.937698,609.6 18.362503,-33.930157,609.6 18.364096,-33.926926,609.6 18.36668,-33.922195,579.12 18.367481,-33.92094,579.12 18.370113,-33.91703,609.6 18.370766,-33.916122,609.6 18.373604,-33.912468,609.6 18.37429,-33.911629,609.6 18.377266,-33.908184,609.6 18.378239,-33.907066,609.6 18.382015,-33.903435,609.6 18.382818,-33.90271,609.6 18.386742,-33.899506,609.6 18.387693,-33.898773,609.6 18.392544,-33.895893,579.12 18.39386,-33.89534,548.64 18.399181,-33.893475,518.16 18.400497,-33.893147,487.68 18.405647,-33.891891,457.2 18.407307,-33.891472,426.72 18.412743,-33.890217,396.24 18.413715,-33.889984,365.76 18.426189,-33.887051,304.8 18.427435,-33.886871,274.32 18.432713,-33.887188,274.32 18.4338,-33.887516,274.32 18.438141,-33.890213,243.84 18.438778,-33.890961,243.84 18.440037,-33.89473,213.36 18.439823,-33.89566,182.88 18.437634,-33.898689,152.4 18.436909,-33.899048,152.4 18.432999,-33.89962,121.92 18.432026,-33.899666,121.92 18.429165,-33.899899,91.44 18.428276,-33.900192,91.44 18.427057,-33.901176,0 18.427105,-33.900784,91.44 18.428389,-33.898865,121.92 18.42905,-33.898457,121.92 18.432255,-33.897243,182.88 18.433342,-33.897106,182.88 18.437189,-33.897217,213.36 18.43792,-33.897385,243.84 18.442009,-33.89859,274.32 18.443241,-33.899105,274.32 18.446903,-33.901108,304.8 18.447838,-33.90184,304.8 18.450966,-33.904694,304.8 18.451706,-33.905502,335.28 18.454399,-33.908512,335.28 18.455086,-33.90921,335.28 18.458153,-33.91246,335.28 18.459034,-33.913399,365.76 18.46953,-33.924637,365.76 18.471394,-33.926899,365.76 18.473911,-33.930202,365.76 18.474598,-33.931274,365.76 18.476315,-33.934628,426.72 18.476543,-33.935513,426.72 18.476818,-33.938873,457.2 18.476715,-33.939514,457.2 18.475857,-33.943378,457.2 18.475584,-33.944092,457.2 18.474014,-33.947433,487.68 18.473623,-33.948212,487.68 18.471794,-33.951523,487.68 18.471165,-33.952595,487.68 18.468971,-33.955948,487.68 18.46841,-33.956726,487.68 18.465775,-33.960342,487.68 18.465216,-33.961029,487.68 18.462811,-33.964233,487.68 18.460003,-33.96785,487.68 18.449478,-33.981087,487.68 18.447502,-33.983734,518.16 18.438589,-33.996506,518.16 18.438091,-33.997379,518.16 18.435917,-34.001289,518.16 18.435507,-34.002136,487.68 18.433399,-34.006363,487.68 18.432816,-34.007492,487.68 18.427547,-34.018661,426.72 18.427267,-34.01944,426.72 18.423843,-34.027405,365.76 18.423271,-34.028336,365.76 18.420933,-34.03157,304.8 18.420353,-34.032154,304.8 18.416897,-34.034271,274.32 18.416058,-34.0345,274.32 18.412685,-34.034203,304.8 18.412189,-34.033905,304.8 18.411083,-34.032108,304.8 18.41114,-34.031593,304.8 18.412285,-34.030338,274.32 18.412638,-34.030197,243.84 18.414059,-34.029827,243.84 18.41432,-34.029785,243.84 18.415329,-34.029694,213.36 18.415552,-34.029694,213.36 18.416592,-34.029686,0 18.4168,-34.029705,0 18.417377,-34.031689,213.36 18.417606,-34.032154,243.84 18.419209,-34.034016,274.32 18.419666,-34.034481,304.8 18.421612,-34.036484,335.28 18.42211,-34.036926,335.28 18.424473,-34.039181,335.28 18.426876,-34.041695,365.76 18.430424,-34.045887,396.24 18.430996,-34.046539,396.24 18.439293,-34.05566,487.68 18.441124,-34.057709,487.68 18.449575,-34.067276,518.16 18.451986,-34.07016,518.16 18.460394,-34.080734,518.16 18.461494,-34.082336,518.16 18.463701,-34.085587,518.16 18.464207,-34.086365,518.16 18.470316,-34.095932,487.68 18.471565,-34.098118,487.68 18.472557,-34.101196,518.16 18.472652,-34.101887,518.16 18.472424,-34.105381,518.16 18.472334,-34.10614,518.16 18.471451,-34.109615,548.64 18.471165,-34.110409,548.64 18.469755,-34.113556,579.12 18.469219,-34.114597,579.12 18.466988,-34.118183,579.12 18.466301,-34.11916,579.12 18.463646,-34.123077,579.12 18.463085,-34.123901,579.12 18.458462,-34.130657,518.16 18.456078,-34.134613,518.16 18.453892,-34.138733,487.68 18.453426,-34.139736,487.68 18.451763,-34.144043,487.68 18.451426,-34.144958,487.68 18.450136,-34.148895,457.2 18.449821,-34.149979,457.2 18.448963,-34.154026,457.2 18.448904,-34.154755,457.2 18.448792,-34.158775,426.72 18.448847,-34.159927,426.72 18.449352,-34.163956,426.72 18.449535,-34.164688,426.72 18.450417,-34.168213,426.72 18.450565,-34.169018,426.72 18.451595,-34.172417,426.72 18.451931,-34.173248,426.72 18.453611,-34.176132,457.2 18.45417,-34.176884,457.2 18.456287,-34.179539,457.2 18.456745,-34.180096,457.2 18.458994,-34.182816,457.2 18.459497,-34.183411,457.2 18.461952,-34.1861,457.2 18.463612,-34.188011,457.2 18.464878,-34.19133,365.76 18.464878,-34.1922,335.28 18.464767,-34.195953,274.32 18.464985,-34.196949,274.32 18.467737,-34.202179,243.84 18.468189,-34.202862,213.36 18.470135,-34.20612,213.36 18.470484,-34.206757,213.36 18.474369,-34.213333,213.36 18.475977,-34.216232,213.36 18.479733,-34.223923,182.88 18.480091,-34.224785,182.88 18.481302,-34.228043,182.88 18.481522,-34.22879,182.88 18.482592,-34.232437,182.88 18.48278,-34.233257,182.88 18.48381,-34.238426,182.88 18.483881,-34.23912,182.88 18.484211,-34.24313,182.88 18.484268,-34.244152,182.88 18.484049,-34.247864,182.88 18.483982,-34.248714,182.88 18.483601,-34.252441,182.88 18.483543,-34.253265,182.88 18.482872,-34.259171,182.88 18.482534,-34.26178,182.88 18.481236,-34.267849,152.4 18.480797,-34.268692,152.4 18.478107,-34.27066,152.4 18.477058,-34.270641,152.4 18.474312,-34.268265,152.4 18.474127,-34.267548,152.4 18.474998,-34.263798,182.88 18.475628,-34.262772,182.88 18.47805,-34.259308,182.88 18.478611,-34.258484,152.4 18.481121,-34.254627,152.4 18.481525,-34.253815,152.4 18.483095,-34.248322,152.4 18.483208,-34.247223,152.4 18.483263,-34.242691,182.88 18.483152,-34.241272,182.88 18.482151,-34.236889,182.88 18.48175,-34.235458,182.88 18.479958,-34.230927,182.88 18.479462,-34.229721,182.88 18.477379,-34.225204,182.88 18.476715,-34.223763,213.36 18.474464,-34.219391,213.36 18.472782,-34.216003,243.84 18.46756,-34.204395,274.32 18.467064,-34.203094,274.32 18.465384,-34.198563,304.8 18.46487,-34.197227,304.8 18.460751,-34.188148,365.76 18.459949,-34.186848,365.76 18.456516,-34.18261,396.24 18.455687,-34.181763,426.72 18.451939,-34.177769,457.2 18.450697,-34.176544,457.2 18.446381,-34.172928,457.2 18.445372,-34.172379,457.2 18.439636,-34.170368,487.68 18.438253,-34.170135,487.68 18.432941,-34.169807,518.16 18.431358,-34.169907,518.16 18.42581,-34.171005,518.16 18.424473,-34.171391,518.16 18.419552,-34.173393,548.64 18.418694,-34.173859,548.64 18.414001,-34.176975,518.16 18.412861,-34.177872,518.16 18.409367,-34.180981,548.64 18.408489,-34.1819,548.64 18.405687,-34.185425,548.64 18.40519,-34.186195,548.64 18.403072,-34.19001,579.12 18.402615,-34.19099,579.12 18.400898,-34.194805,579.12 18.40053,-34.195587,579.12 18.399017,-34.199432,579.12 18.398666,-34.200348,579.12 18.396158,-34.207123,579.12 18.39489,-34.210728,579.12 18.393002,-34.217663,579.12 18.392738,-34.218796,579.12 18.391972,-34.222553,548.64 18.3918,-34.223717,579.12 18.391228,-34.227531,579.12 18.391171,-34.228371,579.12 18.390484,-34.234238,579.12 18.390049,-34.237244,579.12 18.388824,-34.243641,548.64 18.388138,-34.246574,548.64 18.387245,-34.253952,548.64 18.38719,-34.255005,548.64 18.387077,-34.259583,518.16 18.387108,-34.26049,518.16 18.400923,-34.303528,487.68 18.401426,-34.304123,487.68 18.40395,-34.306503,487.68 18.40456,-34.307045,487.68 18.407249,-34.309139,487.68 18.407879,-34.309605,487.68 18.411852,-34.313416,487.68 18.413887,-34.316261,518.16 18.417402,-34.321701,518.16 18.418747,-34.323761,518.16 18.426987,-34.334198,487.68 18.427505,-34.334789,487.68 18.430309,-34.337536,487.68 18.430996,-34.338142,487.68 18.433971,-34.340328,487.68 18.43483,-34.340981,487.68 18.438721,-34.34354,487.68 18.439655,-34.344269,487.68 18.445709,-34.348389,457.2 18.448277,-34.350105,457.2 18.452267,-34.353745,487.68 18.452995,-34.354706,487.68 18.454742,-34.357506,487.68 18.455029,-34.358204,487.68 18.456287,-34.361465,487.68 18.456631,-34.362209,487.68 18.458769,-34.365692,426.72 18.45989,-34.366837,426.72 18.463253,-34.368118,396.24 18.464012,-34.368214,365.76 18.467503,-34.367935,304.8 18.468647,-34.367702,304.8 18.472595,-34.366676,274.32 18.473454,-34.366444,243.84 18.477098,-34.365829,243.84 18.479677,-34.365692,243.84 18.484497,-34.365692,274.32 18.48517,-34.365692,274.32 18.48896,-34.365887,274.32 18.489765,-34.365967,274.32 18.493309,-34.366352,274.32 18.494225,-34.366444,274.32 18.497486,-34.366772,274.32 18.500118,-34.367004,274.32 18.503437,-34.366631,274.32 18.504295,-34.366165,274.32 18.505516,-34.362808,274.32 18.505236,-34.361938,274.32 18.501257,-34.359741,274.32 18.50008,-34.359787,274.32 18.495148,-34.361069,274.32 18.49369,-34.361526,274.32 18.488253,-34.363037,274.32 18.487873,-34.363094,274.32 18.478388,-34.364502,335.28 18.476772,-34.364582,335.28 18.470484,-34.364273,365.76 18.468859,-34.363953,365.76 18.463366,-34.36171,457.2 18.462132,-34.360931,457.2 18.457947,-34.357834,487.68 18.457031,-34.357086,518.16 18.453051,-34.353699,548.64 18.452322,-34.353058,548.64 18.448399,-34.349304,579.12 18.447533,-34.348431,579.12 18.444082,-34.344727,609.6 18.443069,-34.343681,609.6 18.433208,-34.334518,670.56 18.432257,-34.333649,670.56 18.420868,-34.322964,701.04 18.419981,-34.321976,701.04 18.416691,-34.318218,731.52 18.415718,-34.316959,731.52 18.412582,-34.312592,731.52 18.411884,-34.311558,762 18.409386,-34.307236,731.52 18.408827,-34.306046,731.52 18.406584,-34.301147,701.04 18.405968,-34.299591,670.56 18.404118,-34.29451,670.56 18.403702,-34.293079,670.56 18.402155,-34.287872,670.56 18.401756,-34.286423,670.56 18.400326,-34.280834,640.08 18.40004,-34.279625,640.08 18.395653,-34.261414,609.6 18.394833,-34.257511,609.6 18.391787,-34.245438,609.6 18.390888,-34.243927,609.6 18.387751,-34.239761,609.6 18.386742,-34.238571,609.6 18.382986,-34.234314,640.08 18.382072,-34.233212,640.08 18.378525,-34.228928,640.08 18.375835,-34.225533,640.08 18.371271,-34.21907,640.08 18.370285,-34.217617,640.08 18.367367,-34.212868,640.08 18.366737,-34.211845,640.08 18.36422,-34.20705,640.08 18.363705,-34.205978,609.6 18.361244,-34.201046,609.6 18.36062,-34.199707,609.6 18.353863,-34.185078,640.08 18.353334,-34.183731,640.08 18.351803,-34.178558,640.08 18.35154,-34.177505,640.08 18.350315,-34.172089,640.08 18.35014,-34.171188,640.08 18.349186,-34.16597,640.08 18.348999,-34.164825,640.08 18.348232,-34.159698,640.08 18.347569,-34.154865,640.08 18.345598,-34.138596,640.08 18.344765,-34.133682,640.08 18.342348,-34.117722,640.08 18.34173,-34.112823,640.08 18.339844,-34.096443,609.6 18.3395,-34.091228,609.6 18.339558,-34.084663,609.6 18.339602,-34.083298,609.6 18.339882,-34.078629,609.6 18.339937,-34.077301,609.6 18.341045,-34.066231,640.08 18.341389,-34.061573,640.08 18.341507,-34.051895,670.56 18.34145,-34.050888,670.56 18.341059,-34.045898,640.08 18.340931,-34.044956,640.08 18.340244,-34.040207,640.08 18.340073,-34.038902,640.08 18.338814,-34.033504,640.08 18.338425,-34.032211,640.08 18.336525,-34.027451,640.08 18.336067,-34.026428,640.08 18.334108,-34.02182,640.08 18.333548,-34.020401,640.08 18.330917,-34.012367,640.08 18.330631,-34.01125,640.08 18.329735,-34.006256,640.08 18.329659,-34.005058,640.08 18.329773,-34.000359,670.56 18.329945,-33.999332,670.56 18.332748,-33.987648,731.52 18.333721,-33.98481,731.52 18.3395,-33.971264,670.56 18.340834,-33.968399,640.08 18.346943,-33.954987,609.6 18.348906,-33.950592,609.6 18.353951,-33.940613,609.6 18.354511,-33.939697,609.6 18.356838,-33.935837,609.6 18.357525,-33.934765,609.6 18.361073,-33.928993,609.6 18.363031,-33.925964,609.6 18.369757,-33.91658,640.08 18.370399,-33.915726,640.08 18.373547,-33.911957,609.6 18.374521,-33.910904,609.6 18.377829,-33.907425,609.6 18.378725,-33.906601,609.6 18.382244,-33.903252,609.6 18.383266,-33.90239,609.6 18.387077,-33.899323,579.12 18.387966,-33.898689,579.12 18.392601,-33.89566,579.12 18.393635,-33.895111,579.12 18.398792,-33.892914,548.64 18.400417,-33.892365,548.64 18.405575,-33.890808,487.68 18.406977,-33.890488,487.68 18.412628,-33.889191,426.72 18.414288,-33.888912,426.72 18.420149,-33.887787,365.76 18.421381,-33.887558,365.76 18.428501,-33.886322,304.8 18.429846,-33.886276,304.8 18.435284,-33.887375,274.32 18.436293,-33.887833,274.32 18.439878,-33.891083,243.84 18.440384,-33.892181,243.84 18.440048,-33.896027,213.36 18.439522,-33.896778,182.88 18.436031,-33.898735,152.4 18.435345,-33.898872,152.4 18.432087,-33.899414,121.92 18.431168,-33.899525,121.92 18.42794,-33.900467,91.44 18.427603,-33.90065,91.44 18.427044,-33.900696,91.44 18.427277,-33.900085,91.44 18.428389,-33.898499,121.92 18.428949,-33.89772,121.92 18.430349,-33.893372,182.88 18.430407,-33.892502,182.88 18.430252,-33.889332,213.36 18.430014,-33.888199,243.84 18.429108,-33.884815,274.32 18.428724,-33.883759,274.32 18.427099,-33.8806,335.28 18.426538,-33.879913,335.28 18.423624,-33.877396,365.76 18.422813,-33.876949,365.76 18.418407,-33.875736,396.24 18.417377,-33.875599,426.72 18.412413,-33.875336,457.2 18.41118,-33.875381,457.2 18.406191,-33.875839,487.68 18.405127,-33.875977,487.68 18.400698,-33.876938,518.16 18.39941,-33.877365,518.16 18.395176,-33.878811,548.64 18.393288,-33.879555,548.64 18.388983,-33.88147,579.12 18.387863,-33.881973,579.12 18.383617,-33.88435,579.12 18.382761,-33.884903,579.12 18.378525,-33.888073,609.6 18.377773,-33.888702,609.6 18.373947,-33.89217,609.6 18.372952,-33.893097,609.6 18.369476,-33.896667,609.6 18.368855,-33.897385,609.6 18.365765,-33.901295,609.6 18.365135,-33.902084,609.6 18.362217,-33.906136,609.6 18.361645,-33.906975,609.6 18.359163,-33.910721,609.6 18.358498,-33.911816,609.6 18.356081,-33.915939,609.6 18.355633,-33.916855,609.6 18.353577,-33.921265,609.6 18.353054,-33.92244,609.6 18.349241,-33.92981,609.6 18.347561,-33.932922,609.6 18.340611,-33.946472,579.12 18.338703,-33.950272,609.6 18.327662,-33.972565,609.6 18.325138,-33.977825,579.12 18.324299,-33.990555,609.6 18.326683,-33.989742,609.6 18.33321,-33.980209,640.08 18.334579,-33.977642,640.08 18.344135,-33.959019,640.08 18.346104,-33.955215,640.08 18.353951,-33.941345,640.08 18.354836,-33.939934,640.08 18.363533,-33.926338,609.6 18.365833,-33.92308,609.6 18.374802,-33.911041,609.6 18.375492,-33.910187,609.6 18.378811,-33.906509,609.6 18.379511,-33.905823,609.6 18.383209,-33.902298,609.6 18.384108,-33.90152,609.6 18.388195,-33.898315,609.6 18.389282,-33.897526,609.6 18.394032,-33.894871,579.12 18.395233,-33.89436,579.12 18.400898,-33.892311,518.16 18.4021,-33.891953,518.16 18.407421,-33.89045,487.68 18.409138,-33.889984,457.2 18.414824,-33.888657,426.72 18.416113,-33.888428,426.72 18.421612,-33.887238,365.76 18.424801,-33.886551,365.76 18.429901,-33.886139,335.28 18.431248,-33.886276,304.8 18.436489,-33.888073,274.32 18.437519,-33.888725,274.32 18.440664,-33.892181,243.84 18.441181,-33.893661,243.84 18.440271,-33.897629,213.36 18.439598,-33.898315,182.88 18.435688,-33.899712,152.4 18.434887,-33.899853,152.4 18.430653,-33.900272,121.92 18.42979,-33.90033,121.92
        </coordinates>
      </LineString>
    </Placemark>
  </Document>
</kml>