<?xml version="1.0" encoding="UTF-8"?>
<kml xmlns="http://www.opengis.net/kml/2.2">
  <Document>
    <name>-/ZTRNW - Optimised</name>
    <description><![CDATA[Optimised flight path with 1111 points (decimated from 5551 original points). Source format: Standard KML]]></description>
    
    <Style id="flightPath">
      <LineStyle>
        <color>ff0000ff</color>
        <width>3</width>
      </LineStyle>
    </Style>
    
    <Placemark>
      <name>Flight Path</name>
      <description><![CDATA[<div style="width:220px; text-align:center;">
<div style="width:210px; text-align:center;">
<div style=" background: #000; color: #fff; font-size: 14px; text-align:left; border: 1px solid #000; padding: 2px 6px; text-shadow: 0 1px 0 #000; box-shadow: 0 1px 3px rgba(0,0,0,0.6); background: -webkit-gradient(linear, left top, left bottom, color-stop(0%,#808080), color-stop(2%,#303030), color-stop(100%,#0c0c0c));"><span style="font-size: 14px; font-weight: bold;"><a href="javascript:void(0);" style="color: #fff; cursor: pointer;text-decoration: none;">-</a></span> / ZTRNW<br/>Private owner</div>

<div style="border-top: 1px solid #005c90; color: #fff; padding-bottom: 5px; box-shadow: 0 0 1px #9BE3F6 inset, 0 1px 0 #9BE3F6 inset, 0 -1px 3px rgba(0,0,0,0.4); background:rgba(43,114,173,1); background: -webkit-gradient(linear, left top, left bottom, color-stop(0%,rgba(92,184,229,1)), color-stop(100%,rgba(43,114,173,1)));">
<a style="text-decoration: none; color: rgb(255, 255, 255); font-size: 12px; width:77px; display: inline-block;" title=" Airport" href="javascript:void(0);/departures"><h3 style="padding: 0px; margin: 10px 0px 0px; font-size: 16px; ">?</h3></a>
<span style="background: url(https://www.flightradar24.com/static/images/userUI_sprite.png?14) no-repeat scroll 0 -464px rgba(0, 0, 0, 0); border: medium none; display: inline-block; height: 16px; width: 45px;"></span>
<a style="text-decoration: none; color: rgb(255, 255, 255); font-size: 12px; width:77px; display: inline-block;" title=" Airport" href="javascript:void(0);/arrivals"><h3 style="padding: 0px; margin: 10px 0px 0px; font-size: 16px;">?</h3></a>
<div style=" margin-top:10px;">
<div style="display: inline-block; font-size: 12px; padding: 0 5px;">
<div>
<span style="color: #c1eaff;" title="Actual Time of Departure">ATD </span>
<span title="2025-09-28 09:22">09:22</span> <span title="Coordinated Universal Time">UTC</span>
</div>
</div>
<div style="display: inline-block; font-size: 12px; padding: 0 5px;">
<div>
<span style="color: #c1eaff;" title="Estimated Time of Arrival">ETA </span>
<span title="2025-09-28 09:37">09:37</span> <span title="Coordinated Universal Time">UTC</span>
</div>
</div>
</div>
<br style="clear: both;"/>
</div>

<div style="display: block;">
<table style="border-collapse: collapse; width: 100%;">
<tr style="border-right: 1px solid #dadada; ">
<td style="background: none repeat scroll 0 0 #dadada; padding: 0; width: 31px;">
<span style="background: url(https://www.flightradar24.com/static/images/userUI_sprite.png?14) no-repeat scroll -208px -464px rgba(0, 0, 0, 0); height: 26px; margin: 8px 0 0 4px; width: 23px; display: block;"></span>
</td>
<td colspan="2" style="border-bottom: 1px solid #dadada; border-left: 1px solid #dadada; color: #666; line-height: 1.1em; padding: 3px 6px; vertical-align: top; font-size: 14px;">
Aircraft<span style="float: right; font-size: 12px;">(EC20)</span><br>
<span style="color: #333; font-size: 16px; font-weight: bold; line-height: 1.3em;">Airbus Helicopters H120</span>
</td>
</tr>
<tr style="border-right: 1px solid #dadada; ">
<td style="background: none repeat scroll 0 0 #dadada; padding: 0; width: 31px;">
<td colspan="2" style="border-bottom: 1px solid #dadada; border-left: 1px solid #dadada; color: #666; line-height: 1.1em; padding: 3px 6px; vertical-align: top; font-size: 14px;">
Registration<br>
<span style="color: #333; font-size: 16px; font-weight: bold; line-height: 1.3em;"><a href="https://www.flightradar24.com/reg/zt-rnw" style="text-decoration: none; color: #333;">ZT-RNW</a></span>
</td>
</tr>
</table>
</div>

</div>
</div>]]></description>
      <styleUrl>#flightPath</styleUrl>
      <LineString>
        <extrude>1</extrude>
        <tessellate>1</tessellate>
        <altitudeMode>absolute</altitudeMode>
        <coordinates>
          18.43071,-33.90134,45.72 18.435114,-33.901016,114.3 18.437805,-33.898315,144.78 18.439095,-33.894104,175.26 18.439262,-33.889252,213.36 18.437405,-33.884769,251.46 18.433657,-33.880783,281.94 18.429279,-33.877552,327.66 18.423615,-33.875599,342.9 18.417458,-33.875381,358.14 18.41114,-33.876019,373.38 18.405247,-33.877647,388.62 18.399181,-33.879833,411.48 18.393805,-33.882111,434.34 18.388311,-33.884857,426.72 18.383331,-33.887936,449.58 18.378696,-33.891518,472.44 18.37413,-33.895523,480.06 18.369884,-33.899757,480.06 18.364601,-33.905136,480.06 18.358995,-33.911682,472.44 18.355633,-33.915939,472.44 18.352493,-33.920425,472.44 18.3498,-33.924805,472.44 18.347393,-33.929306,472.44 18.34515,-33.934158,480.06 18.34322,-33.938816,480.06 18.341217,-33.944355,487.68 18.340073,-33.949245,487.68 18.340385,-33.956772,502.92 18.351877,-33.956726,495.3 18.354721,-33.950455,495.3 18.355923,-33.943703,518.16 18.358097,-33.936535,502.92 18.360844,-33.930717,495.3 18.364321,-33.924866,480.06 18.368187,-33.919144,480.06 18.372231,-33.914097,480.06 18.376316,-33.909485,480.06 18.380407,-33.904999,472.44 18.387638,-33.897903,426.72 18.392372,-33.893799,472.44 18.397671,-33.890076,449.58 18.402901,-33.887329,426.72 18.408966,-33.885094,388.62 18.415159,-33.883484,365.76 18.420542,-33.882156,342.9 18.425503,-33.881416,304.8 18.42968,-33.882301,266.7 18.432425,-33.884491,228.6 18.433914,-33.887096,182.88 18.434372,-33.890167,137.16 18.432884,-33.892776,91.44 18.430239,-33.895294,53.34 18.428421,-33.897385,22.86 18.427603,-33.899139,0 18.427492,-33.900421,0 18.42865,-33.901016,7.62 18.429958,-33.901108,30.48 18.433153,-33.900925,83.82 18.436796,-33.899368,129.54 18.439262,-33.895706,175.26 18.439878,-33.890488,220.98 18.438421,-33.884949,289.56 18.436068,-33.880371,335.28 18.43214,-33.875923,381 18.427219,-33.873177,419.1 18.420982,-33.871826,464.82 18.414991,-33.871811,487.68 18.408995,-33.87291,518.16 18.403187,-33.874805,556.26 18.397865,-33.876949,579.12 18.392658,-33.879368,594.36 18.38747,-33.882202,609.6 18.382072,-33.885979,617.22 18.37682,-33.890259,617.22 18.37228,-33.894379,617.22 18.367882,-33.898922,601.98 18.363876,-33.903343,586.74 18.360157,-33.907673,586.74 18.355463,-33.913696,586.74 18.352774,-33.91777,594.36 18.350143,-33.922245,594.36 18.348009,-33.926651,601.98 18.346104,-33.931458,601.98 18.344477,-33.936081,594.36 18.340611,-33.946884,594.36 18.337154,-33.959064,632.46 18.34877,-33.962837,640.08 18.35339,-33.950729,647.7 18.355465,-33.940956,632.46 18.357983,-33.934345,594.36 18.36153,-33.92783,586.74 18.365707,-33.921638,594.36 18.369757,-33.916214,586.74 18.373775,-33.911118,579.12 18.379498,-33.904507,571.5 18.386629,-33.896851,510.54 18.391228,-33.892868,541.02 18.396494,-33.889709,510.54 18.402271,-33.887142,487.68 18.408489,-33.885132,449.58 18.414574,-33.883465,419.1 18.420092,-33.882156,403.86 18.427505,-33.880486,350.52 18.432705,-33.880508,312.42 18.435974,-33.882301,274.32 18.436796,-33.885452,228.6 18.435059,-33.888538,190.5 18.432144,-33.891083,144.78 18.429062,-33.893143,99.06 18.427563,-33.89608,53.34 18.427435,-33.897766,22.86 18.427099,-33.89978,0 18.427212,-33.901154,0 18.428949,-33.90097,22.86 18.433857,-33.901108,91.44 18.437918,-33.898865,144.78 18.439636,-33.89473,198.12 18.439823,-33.889709,259.08 18.438663,-33.884724,327.66 18.436068,-33.879501,373.38 18.432087,-33.875107,419.1 18.426533,-33.872105,449.58 18.420181,-33.870991,487.68 18.414745,-33.871502,518.16 18.409538,-33.87299,541.02 18.403893,-33.875244,571.5 18.39868,-33.87767,579.12 18.393635,-33.880188,571.5 18.388596,-33.883186,594.36 18.383154,-33.886963,594.36 18.378181,-33.890865,586.74 18.37385,-33.894882,571.5 18.368916,-33.899689,563.88 18.357868,-33.911118,609.6 18.354399,-33.91539,601.98 18.351036,-33.920288,586.74 18.348083,-33.925594,563.88 18.345766,-33.931046,556.26 18.343964,-33.936115,556.26 18.342533,-33.941051,563.88 18.341446,-33.945938,563.88 18.34053,-33.95092,563.88 18.34013,-33.959438,586.74 18.354263,-33.958366,624.84 18.354792,-33.950821,624.84 18.355352,-33.943863,601.98 18.358154,-33.935276,594.36 18.360788,-33.929214,601.98 18.363934,-33.923176,601.98 18.367571,-33.917633,601.98 18.371887,-33.912186,594.36 18.376236,-33.907299,586.74 18.380871,-33.902599,563.88 18.385334,-33.898407,480.06 18.390329,-33.894241,495.3 18.396271,-33.890442,480.06 18.401987,-33.887833,441.96 18.408434,-33.885544,396.24 18.414879,-33.883713,342.9 18.420982,-33.882256,304.8 18.426315,-33.881882,274.32 18.429901,-33.883942,228.6 18.431303,-33.886826,182.88 18.431339,-33.889843,137.16 18.429337,-33.893147,99.06 18.427792,-33.895988,53.34 18.427105,-33.898502,15.24 18.427044,-33.900009,0 18.427277,-33.901203,0 18.429909,-33.901527,45.72 18.432713,-33.901619,106.68 18.435974,-33.900551,152.4 18.438663,-33.89743,190.5 18.439878,-33.892593,236.22 18.439751,-33.887562,289.56 18.43803,-33.882797,335.28 18.435284,-33.878494,396.24 18.431225,-33.874668,441.96 18.426132,-33.872524,472.44 18.420353,-33.871826,495.3 18.414288,-33.871967,518.16 18.408222,-33.87299,548.64 18.402828,-33.874329,563.88 18.396942,-33.876022,579.12 18.391617,-33.878311,609.6 18.386629,-33.880875,624.84 18.381901,-33.883793,624.84 18.377037,-33.887375,624.84 18.372391,-33.89122,617.22 18.367907,-33.89566,609.6 18.363762,-33.900318,594.36 18.360157,-33.904926,601.98 18.356977,-33.909805,594.36 18.354174,-33.914566,594.36 18.351746,-33.919312,594.36 18.349514,-33.924339,579.12 18.347504,-33.929672,571.5 18.342705,-33.94133,563.88 18.337097,-33.954132,586.74 18.32811,-33.97229,563.88 18.317629,-33.987717,502.92 18.30534,-34.008087,441.96 18.295727,-34.025356,457.2 18.297001,-34.032394,464.82 18.298645,-34.03653,472.44 18.301598,-34.044205,480.06 18.306082,-34.052078,487.68 18.309574,-34.05608,487.68 18.313065,-34.059807,487.68 18.321047,-34.068604,457.2 18.3288,-34.078194,449.58 18.332062,-34.082943,434.34 18.338871,-34.0923,441.96 18.342419,-34.095791,441.96 18.346552,-34.098679,464.82 18.351372,-34.101059,480.06 18.35638,-34.102913,502.92 18.361629,-34.104767,510.54 18.376204,-34.110718,571.5 18.388081,-34.11525,571.5 18.408623,-34.123348,563.88 18.420238,-34.127258,548.64 18.426987,-34.127655,563.88 18.4338,-34.126934,556.26 18.44072,-34.125366,548.64 18.447166,-34.123627,541.02 18.457775,-34.121719,525.78 18.468521,-34.119644,525.78 18.474941,-34.116924,510.54 18.47794,-34.110718,502.92 18.477745,-34.103703,487.68 18.477547,-34.096756,472.44 18.477459,-34.083408,441.96 18.47723,-34.061153,441.96 18.476887,-34.036156,426.72 18.477859,-34.012321,441.96 18.478163,-33.989868,449.58 18.479059,-33.966248,411.48 18.479284,-33.949127,358.14 18.477827,-33.942123,335.28 18.475285,-33.935093,297.18 18.471493,-33.92775,281.94 18.467445,-33.92136,281.94 18.462811,-33.915119,259.08 18.457705,-33.909256,228.6 18.452454,-33.904366,190.5 18.447132,-33.899853,160.02 18.442039,-33.895523,129.54 18.437004,-33.893333,106.68 18.43214,-33.894218,83.82 18.42923,-33.896072,53.34 18.427677,-33.898037,30.48 18.427099,-33.899551,0 18.427044,-33.901016,0 18.428724,-33.901108,7.62 18.430309,-33.900784,22.86 18.431864,-33.900238,38.1 18.434723,-33.898911,60.96 18.438091,-33.896126,91.44 18.439522,-33.892357,121.92 18.438759,-33.887787,152.4 18.435452,-33.883301,190.5 18.43071,-33.880344,228.6 18.426035,-33.878677,266.7 18.420982,-33.877785,297.18 18.415718,-33.877552,327.66 18.410675,-33.877899,358.14 18.405704,-33.878811,388.62 18.400866,-33.880188,411.48 18.396551,-33.881927,434.34 18.392487,-33.884071,472.44 18.389111,-33.886307,502.92 18.38562,-33.888931,525.78 18.38209,-33.891678,563.88 18.371429,-33.900131,640.08 18.358898,-33.910419,693.42 18.355576,-33.913971,670.56 18.352661,-33.917953,655.32 18.3498,-33.922478,655.32 18.34734,-33.926804,640.08 18.345852,-33.931133,640.08 18.348656,-33.935093,617.22 18.354847,-33.934753,601.98 18.359779,-33.930359,594.36 18.363991,-33.925083,586.74 18.367825,-33.92001,571.5 18.376064,-33.910419,563.88 18.380182,-33.906235,556.26 18.389912,-33.896313,495.3 18.395061,-33.892963,464.82 18.401035,-33.89035,434.34 18.406696,-33.888382,403.86 18.412228,-33.886723,373.38 18.417778,-33.885513,259.08 18.4231,-33.884674,289.56 18.428192,-33.884396,236.22 18.431416,-33.88591,205.74 18.43214,-33.888584,167.64 18.430967,-33.891083,121.92 18.429508,-33.893196,83.82 18.428331,-33.895981,38.1 18.427963,-33.897663,15.24 18.427547,-33.899323,0 18.426991,-33.900455,0 18.428331,-33.901154,7.62 18.430407,-33.900696,30.48 18.433056,-33.899807,45.72 18.436489,-33.897896,76.2 18.439121,-33.894173,121.92 18.439693,-33.889099,160.02 18.437021,-33.884491,190.5 18.432255,-33.881744,236.22 18.427322,-33.880142,266.7 18.421719,-33.878906,297.18 18.415318,-33.8783,335.28 18.409653,-33.8783,373.38 18.40451,-33.878998,403.86 18.399582,-33.880581,441.96 18.395094,-33.882523,487.68 18.390884,-33.884769,525.78 18.386536,-33.887516,548.64 18.381901,-33.890587,579.12 18.373146,-33.896919,594.36 18.367939,-33.90134,624.84 18.364048,-33.905113,632.46 18.360397,-33.909119,662.94 18.357067,-33.913025,670.56 18.354006,-33.916855,678.18 18.351484,-33.9207,678.18 18.349113,-33.924759,678.18 18.346943,-33.92894,670.56 18.344925,-33.933563,670.56 18.3433,-33.937637,655.32 18.342991,-33.942028,655.32 18.347454,-33.944542,647.7 18.353004,-33.942307,632.46 18.357468,-33.93821,609.6 18.36153,-33.933277,601.98 18.365385,-33.927109,594.36 18.36874,-33.92136,594.36 18.374176,-33.914421,563.88 18.378109,-33.910355,563.88 18.382481,-33.906006,548.64 18.391457,-33.897152,518.16 18.396494,-33.893784,480.06 18.402042,-33.891148,457.2 18.407648,-33.88916,426.72 18.413086,-33.887329,388.62 18.418411,-33.885727,342.9 18.423063,-33.884674,259.08 18.427906,-33.884441,274.32 18.430996,-33.885933,243.84 18.432312,-33.88826,228.6 18.432541,-33.8904,190.5 18.432032,-33.892548,137.16 18.430687,-33.894882,83.82 18.429394,-33.896824,45.72 18.42794,-33.898956,7.62 18.427099,-33.900879,0 18.428782,-33.901749,30.48 18.431135,-33.902115,68.58 18.434315,-33.901852,121.92 18.437918,-33.899323,182.88 18.439751,-33.894871,236.22 18.439636,-33.889656,289.56 18.437576,-33.884258,327.66 18.43433,-33.879181,388.62 18.429966,-33.874851,434.34 18.424702,-33.871548,487.68 18.419083,-33.869751,533.4 18.413422,-33.869705,571.5 18.408451,-33.870758,586.74 18.403244,-33.872341,601.98 18.398323,-33.874203,632.46 18.393745,-33.876484,662.94 18.389431,-33.879044,685.8 18.385391,-33.881927,708.66 18.381191,-33.885406,731.52 18.37738,-33.88884,746.76 18.373718,-33.892544,762 18.369827,-33.896732,769.62 18.366108,-33.901108,769.62 18.36256,-33.905716,777.24 18.358898,-33.910652,777.24 18.349522,-33.923996,784.86 18.338642,-33.93998,746.76 18.329344,-33.953934,754.38 18.316843,-33.973984,685.8 18.309612,-33.988083,655.32 18.304735,-33.999664,662.94 18.302942,-34.014084,662.94 18.311743,-34.012802,655.32 18.315868,-34.006737,632.46 18.318693,-33.999664,624.84 18.321419,-33.993237,647.7 18.333721,-33.967537,655.32 18.345337,-33.947941,640.08 18.357182,-33.930157,601.98 18.368855,-33.915119,586.74 18.373289,-33.910355,571.5 18.377548,-33.906006,571.5 18.386404,-33.89772,457.2 18.393631,-33.891846,487.68 18.39941,-33.888401,457.2 18.405304,-33.885838,434.34 18.410683,-33.883884,419.1 18.416113,-33.882339,388.62 18.421326,-33.881138,350.52 18.425922,-33.880692,304.8 18.429623,-33.881603,266.7 18.43214,-33.88356,236.22 18.433514,-33.88612,198.12 18.433285,-33.888866,160.02 18.430939,-33.89175,121.92 18.428764,-33.893799,83.82 18.427448,-33.896641,53.34 18.427219,-33.898083,30.48 18.427048,-33.89962,7.62 18.427219,-33.901108,0 18.429062,-33.901886,38.1 18.431696,-33.902069,83.82 18.43523,-33.900829,144.78 18.437357,-33.896622,198.12 18.437576,-33.891193,259.08 18.43626,-33.886211,312.42 18.432884,-33.880859,350.52 18.42923,-33.875793,388.62 18.4231,-33.866707,441.96 18.411684,-33.849152,480.06 18.402615,-33.832676,464.82 18.398569,-33.823059,449.58 18.396606,-33.816242,457.2 18.395004,-33.809261,472.44 18.391001,-33.797607,487.68 18.387413,-33.791382,480.06 18.381214,-33.785614,480.06 18.374519,-33.782028,472.44 18.367571,-33.780991,464.82 18.362022,-33.783005,457.2 18.357697,-33.786358,449.58 18.354734,-33.790924,426.72 18.353725,-33.796097,426.72 18.35367,-33.800766,441.96 18.354092,-33.805443,441.96 18.354664,-33.810005,480.06 18.356495,-33.821968,541.02 18.358498,-33.83263,594.36 18.359814,-33.837379,601.98 18.362583,-33.849426,601.98 18.366562,-33.866821,594.36 18.36858,-33.878403,601.98 18.368511,-33.883698,601.98 18.36771,-33.889378,594.36 18.365993,-33.895058,586.74 18.363199,-33.90033,571.5 18.359444,-33.905502,571.5 18.355637,-33.910141,586.74 18.34837,-33.919544,609.6 18.34528,-33.924618,609.6 18.342571,-33.929855,632.46 18.34053,-33.934628,632.46 18.338585,-33.939747,655.32 18.333042,-33.953613,617.22 18.338928,-33.958511,624.84 18.344536,-33.954739,640.08 18.347841,-33.948532,617.22 18.350475,-33.943039,609.6 18.355633,-33.932831,609.6 18.360676,-33.924683,586.74 18.364431,-33.919739,579.12 18.368692,-33.914886,571.5 18.373177,-33.9104,556.26 18.377996,-33.905869,548.64 18.385788,-33.899048,525.78 18.394476,-33.892181,487.68 18.400154,-33.888771,449.58 18.406162,-33.88612,426.72 18.412582,-33.883987,403.86 18.418915,-33.882248,373.38 18.424473,-33.881229,312.42 18.42905,-33.882023,281.94 18.431696,-33.884445,236.22 18.432816,-33.887512,190.5 18.432541,-33.890728,152.4 18.43008,-33.893333,114.3 18.427906,-33.895428,76.2 18.427219,-33.897942,45.72 18.427099,-33.89946,15.24 18.427099,-33.90097,0 18.428108,-33.901245,7.62 18.430309,-33.900875,30.48 18.432255,-33.900131,45.72 18.435688,-33.898781,83.82 18.438892,-33.895615,129.54 18.439711,-33.890671,167.64 18.437973,-33.885544,205.74 18.434029,-33.881603,228.6 18.428501,-33.87941,259.08 18.422527,-33.878716,289.56 18.41732,-33.879044,320.04 18.412132,-33.879776,358.14 18.406906,-33.880718,381 18.401819,-33.882111,403.86 18.39695,-33.883839,434.34 18.391972,-33.886166,472.44 18.388142,-33.888382,502.92 18.383995,-33.890991,533.4 18.379902,-33.893875,556.26 18.376122,-33.897011,579.12 18.372517,-33.900688,601.98 18.368969,-33.904972,617.22 18.365891,-33.909027,624.84 18.361294,-33.915344,655.32 18.356304,-33.923172,693.42 18.352947,-33.928947,708.66 18.349113,-33.936676,701.04 18.346046,-33.943771,678.18 18.34156,-33.95171,655.32 18.335953,-33.960743,632.46 18.324108,-33.971123,548.64 18.31802,-33.978378,541.02 18.313236,-33.985649,541.02 18.310661,-33.99007,525.78 18.303223,-34.00351,525.78 18.306978,-34.010376,541.02 18.317404,-34.003601,518.16 18.321047,-33.999069,525.78 18.336182,-33.980026,525.78 18.34487,-33.966797,541.02 18.350418,-33.955353,533.4 18.352716,-33.949585,525.78 18.35907,-33.935463,502.92 18.362846,-33.928341,502.92 18.365879,-33.9235,487.68 18.369421,-33.918915,464.82 18.373232,-33.914749,457.2 18.377716,-33.910629,441.96 18.384361,-33.903435,411.48 18.388138,-33.898735,411.48 18.394533,-33.89296,411.48 18.399801,-33.890213,388.62 18.405407,-33.88797,327.66 18.411573,-33.885956,358.14 18.417009,-33.884583,320.04 18.422167,-33.883987,304.8 18.426035,-33.884903,297.18 18.42794,-33.886826,266.7 18.428879,-33.888771,228.6 18.429285,-33.890854,182.88 18.429165,-33.893009,121.92 18.428724,-33.895111,83.82 18.428108,-33.897079,45.72 18.42738,-33.899323,7.62 18.426987,-33.901154,0 18.434385,-33.901245,99.06 18.435114,-33.901016,114.3 18.437469,-33.898956,137.16 18.437805,-33.898315,144.78 18.438927,-33.894928,167.64 18.439095,-33.894104,175.26 18.43943,-33.890396,198.12 18.439262,-33.889252,213.36 18.43803,-33.885773,243.84 18.437405,-33.884769,251.46 18.43433,-33.881378,281.94 18.433657,-33.880783,281.94 18.430367,-33.878204,312.42 18.429279,-33.877552,327.66 18.424856,-33.875839,342.9 18.423615,-33.875599,342.9 18.418915,-33.875336,350.52 18.417458,-33.875381,358.14 18.412399,-33.875832,365.76 18.41114,-33.876019,373.38 18.406248,-33.87735,381 18.405247,-33.877647,388.62 18.400417,-33.879318,403.86 18.399181,-33.879833,411.48 18.394718,-33.881695,426.72 18.393805,-33.882111,434.34 18.389339,-33.88435,434.34 18.388311,-33.884857,426.72 18.384476,-33.887188,449.58 18.383331,-33.887936,449.58 18.379566,-33.890808,472.44 18.378696,-33.891518,472.44 18.374914,-33.894791,472.44 18.37413,-33.895523,480.06 18.37071,-33.898956,480.06 18.369884,-33.899757,480.06 18.366451,-33.903202,480.06 18.364601,-33.905136,480.06 18.359779,-33.910675,472.44 18.358995,-33.911682,472.44 18.356266,-33.915119,472.44 18.355633,-33.915939,472.44 18.353109,-33.919464,472.44 18.352493,-33.920425,472.44 18.350363,-33.923813,472.44 18.3498,-33.924805,472.44 18.347841,-33.928482,472.44 18.347393,-33.929306,472.44 18.345566,-33.933231,480.06 18.34515,-33.934158,480.06 18.34358,-33.938004,480.06 18.34322,-33.938816,480.06 18.34145,-33.943497,487.68 18.341217,-33.944355,487.68 18.34033,-33.948166,487.68 18.340073,-33.949245,487.68 18.339443,-33.953106,495.3 18.340385,-33.956772,502.92 18.350418,-33.957825,495.3 18.351877,-33.956726,495.3 18.354378,-33.951897,495.3 18.354721,-33.950455,495.3 18.355637,-33.945194,510.54 18.355923,-33.943703,518.16 18.357182,-33.938908,502.92 18.358097,-33.936535,502.92 18.360228,-33.931915,495.3 18.360844,-33.930717,495.3 18.363647,-33.925873,487.68 18.364321,-33.924866,480.06 18.367367,-33.920334,480.06 18.368187,-33.919144,480.06 18.371326,-33.915161,480.06 18.372231,-33.914097,480.06 18.375475,-33.9104,472.44 18.376316,-33.909485,480.06 18.379612,-33.905857,480.06 18.380407,-33.904999,472.44 18.386765,-33.898689,480.06 18.387638,-33.897903,426.72 18.391562,-33.89447,419.1 18.392372,-33.893799,472.44 18.396606,-33.890728,449.58 18.397671,-33.890076,449.58 18.402042,-33.887703,434.34 18.402901,-33.887329,426.72 18.407593,-33.885513,403.86 18.408966,-33.885094,388.62 18.41387,-33.883804,373.38 18.415159,-33.883484,365.76 18.41938,-33.882442,350.52 18.420542,-33.882156,342.9 18.424644,-33.881462,304.8 18.425503,-33.881416,304.8 18.429062,-33.882019,274.32 18.42968,-33.882301,266.7 18.431919,-33.883942,243.84 18.432425,-33.884491,228.6 18.433743,-33.886585,190.5 18.433914,-33.887096,182.88 18.434372,-33.889469,144.78 18.434372,-33.890167,137.16 18.433285,-33.892311,99.06 18.432884,-33.892776,91.44 18.43063,-33.894928,60.96 18.430239,-33.895294,53.34 18.428782,-33.896896,38.1 18.428421,-33.897385,22.86 18.42766,-33.898911,0 18.427603,-33.899139,0 18.427492,-33.900192,0 18.427492,-33.900421,0 18.428444,-33.901016,7.62 18.42865,-33.901016,7.62 18.429678,-33.901108,22.86 18.429958,-33.901108,30.48 18.432426,-33.90097,76.2 18.433153,-33.900925,83.82 18.436146,-33.899807,121.92 18.436796,-33.899368,129.54 18.438982,-33.896439,167.64 18.439262,-33.895706,175.26 18.439936,-33.891403,220.98 18.439878,-33.890488,220.98 18.438869,-33.886139,274.32 18.438421,-33.884949,289.56 18.436546,-33.881229,320.04 18.436068,-33.880371,335.28 18.432928,-33.876572,373.38 18.43214,-33.875923,381 18.42802,-33.873505,419.1 18.427219,-33.873177,419.1 18.422222,-33.871948,457.2 18.420982,-33.871826,464.82 18.416405,-33.871735,487.68 18.414991,-33.871811,487.68 18.410168,-33.872665,510.54 18.408995,-33.87291,518.16 18.404446,-33.874386,548.64 18.403187,-33.874805,556.26 18.399017,-33.876434,571.5 18.397865,-33.876949,579.12 18.39386,-33.878811,594.36 18.392658,-33.879368,594.36 18.388479,-33.881607,609.6 18.38747,-33.882202,609.6 18.382988,-33.885281,617.22 18.382072,-33.885979,617.22 18.377941,-33.889297,617.22 18.37682,-33.890259,617.22 18.373146,-33.893566,617.22 18.37228,-33.894379,617.22 18.368805,-33.897858,601.98 18.367882,-33.898922,601.98 18.364563,-33.902599,594.36 18.363876,-33.903343,586.74 18.360729,-33.906975,586.74 18.360157,-33.907673,586.74 18.356266,-33.912605,586.74 18.355463,-33.913696,586.74 18.353348,-33.916798,586.74 18.352774,-33.91777,594.36 18.350716,-33.921219,594.36 18.350143,-33.922245,594.36 18.348513,-33.925598,601.98 18.348009,-33.926651,601.98 18.346424,-33.930531,601.98 18.346104,-33.931458,601.98 18.344814,-33.935211,601.98 18.344477,-33.936081,594.36 18.34156,-33.944218,594.36 18.340611,-33.946884,594.36 18.337269,-33.957901,624.84 18.337154,-33.959064,632.46 18.346159,-33.964279,640.08 18.34877,-33.962837,640.08 18.353109,-33.952286,647.7 18.35339,-33.950729,647.7 18.354435,-33.945099,640.08 18.355465,-33.940956,632.46 18.35741,-33.935558,601.98 18.357983,-33.934345,594.36 18.360729,-33.929134,586.74 18.36153,-33.92783,586.74 18.364992,-33.922668,594.36 18.365707,-33.921638,594.36 18.36874,-33.917587,594.36 18.369757,-33.916214,586.74 18.372784,-33.912323,571.5 18.373775,-33.911118,579.12 18.378582,-33.905579,571.5 18.379498,-33.904507,571.5 18.386013,-33.897446,579.12 18.386629,-33.896851,510.54 18.390541,-33.893379,548.64 18.391228,-33.892868,541.02 18.39543,-33.890259,464.82 18.396494,-33.889709,510.54 18.400866,-33.887695,434.34 18.402271,-33.887142,487.68 18.406977,-33.88559,464.82 18.408489,-33.885132,449.58 18.413143,-33.883839,426.72 18.414574,-33.883465,419.1 18.419083,-33.882431,403.86 18.420092,-33.882156,403.86 18.426651,-33.880646,358.14 18.427505,-33.880486,350.52 18.431696,-33.880371,320.04 18.432705,-33.880508,312.42 18.435574,-33.881882,281.94 18.435974,-33.882301,274.32 18.43689,-33.884769,236.22 18.436796,-33.885452,228.6 18.435562,-33.887924,198.12 18.435059,-33.888538,190.5 18.432648,-33.890671,152.4 18.432144,-33.891083,144.78 18.429733,-33.892593,106.68 18.429062,-33.893143,99.06 18.427677,-33.895523,22.86 18.427563,-33.89608,53.34 18.427448,-33.897526,30.48 18.427435,-33.897766,22.86 18.427162,-33.899525,0 18.427099,-33.89978,0 18.426987,-33.900925,0 18.427212,-33.901154,0 18.428612,-33.901016,22.86 18.428949,-33.90097,22.86 18.433342,-33.901154,83.82 18.433857,-33.901108,91.44 18.437244,-33.899597,137.16 18.437918,-33.898865,144.78 18.439465,-33.895477,190.5 18.439636,-33.89473,198.12 18.439865,-33.890495,251.46 18.439823,-33.889709,259.08 18.439039,-33.885727,312.42 18.438663,-33.884724,327.66 18.436684,-33.8806,365.76 18.436068,-33.879501,373.38 18.433228,-33.87611,403.86 18.432087,-33.875107,419.1 18.427828,-33.872589,449.58 18.426533,-33.872105,449.58 18.421494,-33.871078,480.06 18.420181,-33.870991,487.68 18.415718,-33.871315,510.54 18.414745,-33.871502,518.16 18.410568,-33.87262,541.02 18.409538,-33.87299,541.02 18.405132,-33.874714,563.88 18.403893,-33.875244,571.5 18.399811,-33.877087,586.74 18.39868,-33.87767,579.12 18.394604,-33.879696,571.5 18.393635,-33.880188,571.5 18.389683,-33.882488,594.36 18.388596,-33.883186,594.36 18.384304,-33.88612,601.98 18.383154,-33.886963,594.36 18.379063,-33.890167,586.74 18.378181,-33.890865,586.74 18.374689,-33.894104,579.12 18.37385,-33.894882,571.5 18.369942,-33.898689,563.88 18.368916,-33.899689,563.88 18.361187,-33.907532,594.36 18.357868,-33.911118,609.6 18.354904,-33.914749,601.98 18.354399,-33.91539,601.98 18.351631,-33.919403,594.36 18.351036,-33.920288,586.74 18.348793,-33.924225,571.5 18.348083,-33.925594,563.88 18.346195,-33.929924,563.88 18.345766,-33.931046,556.26 18.344254,-33.935074,556.26 18.343964,-33.936115,556.26 18.342739,-33.940155,563.88 18.342533,-33.941051,563.88 18.341675,-33.944866,563.88 18.341446,-33.945938,563.88 18.340759,-33.949848,563.88 18.34053,-33.95092,563.88 18.339729,-33.958321,586.74 18.34013,-33.959438,586.74 18.340441,-33.960068,586.74 18.354263,-33.958366,624.84 18.354792,-33.952011,617.22 18.354792,-33.950821,624.84 18.355064,-33.945518,601.98 18.355352,-33.943863,601.98 18.357754,-33.936256,594.36 18.358154,-33.935276,594.36 18.36034,-33.930267,601.98 18.360788,-33.929214,601.98 18.363255,-33.924316,601.98 18.363934,-33.923176,601.98 18.366674,-33.918869,601.98 18.367571,-33.917633,601.98 18.370914,-33.913258,594.36 18.371887,-33.912186,594.36 18.37525,-33.90834,586.74 18.376236,-33.907299,586.74 18.379902,-33.903534,579.12 18.380871,-33.902599,563.88 18.384275,-33.899368,556.26 18.385334,-33.898407,480.06 18.389168,-33.895195,464.82 18.390329,-33.894241,495.3 18.39489,-33.891193,487.68 18.396271,-33.890442,480.06 18.400923,-33.888245,449.58 18.401987,-33.887833,441.96 18.4072,-33.885956,403.86 18.408434,-33.885544,396.24 18.41383,-33.883976,350.52 18.414879,-33.883713,342.9 18.419701,-33.882523,312.42 18.420982,-33.882256,304.8 18.425446,-33.88179,281.94 18.426315,-33.881882,274.32 18.42923,-33.883209,243.84 18.429901,-33.883942,228.6 18.431168,-33.886307,190.5 18.431303,-33.886826,182.88 18.431511,-33.889286,144.78 18.431339,-33.889843,137.16 18.429846,-33.892456,106.68 18.429337,-33.893147,99.06 18.42802,-33.895477,60.96 18.427792,-33.895988,53.34 18.427155,-33.898224,22.86 18.427105,-33.898502,15.24 18.427048,-33.899757,0 18.427044,-33.900009,0 18.427048,-33.901016,0 18.427277,-33.901203,0 18.429451,-33.901482,38.1 18.429909,-33.901527,45.72 18.432083,-33.901669,91.44 18.432713,-33.901619,106.68 18.435226,-33.90097,144.78 18.435974,-33.900551,152.4 18.438309,-33.898132,190.5 18.438663,-33.89743,190.5 18.439693,-33.893661,228.6 18.439878,-33.892593,236.22 18.439922,-33.888634,274.32 18.439751,-33.887562,289.56 18.438534,-33.88385,327.66 18.43803,-33.882797,335.28 18.436068,-33.879547,381 18.435284,-33.878494,396.24 18.432198,-33.87532,434.34 18.431225,-33.874668,441.96 18.427162,-33.872757,464.82 18.426132,-33.872524,472.44 18.421661,-33.871902,495.3 18.420353,-33.871826,495.3 18.415384,-33.871902,510.54 18.414288,-33.871967,518.16 18.409595,-33.872711,541.02 18.408222,-33.87299,548.64 18.403837,-33.874054,556.26 18.402828,-33.874329,563.88 18.398323,-33.875553,571.5 18.396942,-33.876022,579.12 18.392658,-33.877834,601.98 18.391617,-33.878311,609.6 18.38768,-33.880299,624.84 18.386629,-33.880875,624.84 18.382929,-33.883118,624.84 18.381901,-33.883793,624.84 18.378109,-33.886551,624.84 18.377037,-33.887375,624.84 18.373489,-33.890308,617.22 18.372391,-33.89122,617.22 18.368805,-33.894699,609.6 18.367907,-33.89566,609.6 18.36462,-33.899338,601.98 18.363762,-33.900318,594.36 18.360729,-33.904087,594.36 18.360157,-33.904926,601.98 18.357538,-33.908936,594.36 18.356977,-33.909805,594.36 18.354792,-33.913467,594.36 18.354174,-33.914566,594.36 18.3521,-33.918549,594.36 18.351746,-33.919312,594.36 18.349857,-33.923454,586.74 18.349514,-33.924339,579.12 18.347952,-33.928482,571.5 18.347504,-33.929672,571.5 18.344135,-33.937931,556.26 18.342705,-33.94133,563.88 18.338242,-33.951618,586.74 18.337097,-33.954132,586.74 18.329567,-33.969955,571.5 18.32811,-33.97229,563.88 18.320095,-33.984009,518.16 18.317629,-33.987717,502.92 18.309917,-34.000404,487.68 18.30534,-34.008087,441.96 18.296185,-34.023075,449.58 18.295727,-34.025356,457.2 18.296642,-34.031269,457.2 18.297001,-34.032394,464.82 18.298359,-34.035877,472.44 18.298645,-34.03653,472.44 18.30019,-34.040672,472.44 18.301598,-34.044205,480.06 18.305408,-34.051254,487.68 18.306082,-34.052078,487.68 18.308659,-34.055058,487.68 18.309574,-34.05608,487.68 18.31255,-34.0592,487.68 18.313065,-34.059807,487.68 18.318901,-34.066135,457.2 18.321047,-34.068604,457.2 18.32839,-34.077576,449.58 18.3288,-34.078194,449.58 18.331417,-34.082016,441.96 18.332062,-34.082943,434.34 18.338144,-34.0914,419.1 18.338871,-34.0923,441.96 18.341675,-34.095139,449.58 18.342419,-34.095791,441.96 18.34568,-34.098164,449.58 18.346552,-34.098679,464.82 18.350315,-34.100632,480.06 18.351372,-34.101059,480.06 18.355352,-34.102524,502.92 18.35638,-34.102913,502.92 18.360615,-34.104401,510.54 18.361629,-34.104767,510.54 18.372803,-34.109291,563.88 18.376204,-34.110718,571.5 18.386909,-34.114838,579.12 18.388081,-34.11525,571.5 18.404217,-34.121441,563.88 18.408623,-34.123348,563.88 18.418865,-34.127026,563.88 18.420238,-34.127258,548.64 18.425846,-34.127678,556.26 18.426987,-34.127655,563.88 18.432484,-34.127167,556.26 18.4338,-34.126934,556.26 18.439007,-34.125816,548.64 18.44072,-34.125366,548.64 18.445597,-34.124039,548.64 18.447166,-34.123627,541.02 18.456402,-34.121906,525.78 18.457775,-34.121719,525.78 18.463097,-34.12093,525.78 18.468521,-34.119644,525.78 18.473797,-34.117718,518.16 18.474941,-34.116924,510.54 18.47777,-34.11232,495.3 18.47794,-34.110718,502.92 18.477827,-34.105316,495.3 18.477745,-34.103703,487.68 18.477547,-34.098038,472.44 18.477547,-34.096756,472.44 18.477434,-34.087738,449.58 18.477459,-34.083408,441.96 18.477266,-34.06517,441.96 18.47723,-34.061153,441.96 18.47683,-34.040485,434.34 18.476887,-34.036156,426.72 18.477573,-34.017815,441.96 18.477859,-34.012321,441.96 18.478146,-33.993702,457.2 18.478163,-33.989868,449.58 18.478668,-33.971832,419.1 18.479059,-33.966248,411.48 18.479462,-33.950779,365.76 18.479284,-33.949127,358.14 18.478146,-33.943516,335.28 18.477827,-33.942123,335.28 18.475742,-33.936211,304.8 18.475285,-33.935093,297.18 18.472389,-33.929306,274.32 18.471493,-33.92775,281.94 18.468361,-33.92271,274.32 18.467445,-33.92136,281.94 18.463982,-33.916534,259.08 18.462811,-33.915119,259.08 18.45892,-33.910606,236.22 18.457705,-33.909256,228.6 18.453484,-33.905205,198.12 18.452454,-33.904366,190.5 18.448118,-33.900696,167.64 18.447132,-33.899853,160.02 18.443243,-33.896484,137.16 18.442039,-33.895523,129.54 18.438034,-33.89352,114.3 18.437004,-33.893333,106.68 18.433434,-33.893784,83.82 18.43214,-33.894218,83.82 18.429621,-33.89566,60.96 18.42923,-33.896072,53.34 18.42794,-33.897629,38.1 18.427677,-33.898037,30.48 18.427155,-33.899277,7.62 18.427099,-33.899551,0 18.427105,-33.900784,0 18.427044,-33.901016,0 18.428501,-33.901154,7.62 18.428724,-33.901108,7.62 18.429909,-33.900875,22.86 18.430309,-33.900784,22.86 18.431528,-33.90033,30.48 18.431864,-33.900238,38.1 18.434162,-33.899185,53.34 18.434723,-33.898911,60.96 18.437525,-33.896805,83.82 18.438091,-33.896126,91.44 18.439407,-33.893147,114.3 18.439522,-33.892357,121.92 18.439121,-33.888725,144.78 18.438759,-33.887787,152.4 18.436089,-33.883884,182.88 18.435452,-33.883301,190.5 18.431864,-33.88092,220.98 18.43071,-33.880344,228.6 18.427162,-33.878998,259.08 18.426035,-33.878677,266.7 18.421942,-33.877899,289.56 18.420982,-33.877785,297.18 18.416634,-33.877552,320.04 18.415718,-33.877552,327.66 18.411598,-33.877834,350.52 18.410675,-33.877899,358.14 18.406563,-33.878624,388.62 18.405704,-33.878811,388.62 18.401814,-33.879879,403.86 18.400866,-33.880188,411.48 18.397335,-33.881607,426.72 18.396551,-33.881927,434.34 18.393345,-33.883606,457.2 18.392487,-33.884071,472.44 18.389656,-33.885956,495.3 18.389111,-33.886307,502.92 18.386293,-33.888428,518.16 18.38562,-33.888931,525.78 18.383041,-33.890945,548.64 18.38209,-33.891678,563.88 18.374462,-33.897617,617.22 18.371429,-33.900131,640.08 18.360329,-33.909069,685.8 18.358898,-33.910419,693.42 18.356094,-33.913303,678.18 18.355576,-33.913971,670.56 18.353222,-33.91713,655.32 18.352661,-33.917953,655.32 18.350363,-33.921524,655.32 18.3498,-33.922478,655.32 18.347855,-33.925827,647.7 18.34734,-33.926804,640.08 18.345966,-33.930111,647.7 18.345852,-33.931133,640.08 18.347672,-33.934525,624.84 18.348656,-33.935093,617.22 18.353558,-33.935257,601.98 18.354847,-33.934753,601.98 18.358938,-33.93132,601.98 18.359779,-33.930359,594.36 18.363304,-33.926014,586.74 18.363991,-33.925083,586.74 18.366842,-33.921249,579.12 18.367825,-33.92001,571.5 18.37525,-33.91127,563.88 18.376064,-33.910419,563.88 18.379454,-33.906967,563.88 18.380182,-33.906235,556.26 18.388767,-33.897243,510.54 18.389912,-33.896313,495.3 18.393635,-33.893738,472.44 18.395061,-33.892963,464.82 18.399746,-33.890854,434.34 18.401035,-33.89035,434.34 18.405575,-33.888794,403.86 18.406696,-33.888382,403.86 18.411293,-33.887009,381 18.412228,-33.886723,373.38 18.417067,-33.885681,274.32 18.417778,-33.885513,259.08 18.421942,-33.884857,297.18 18.4231,-33.884674,289.56 18.427391,-33.88435,243.84 18.428192,-33.884396,236.22 18.430996,-33.885513,205.74 18.431416,-33.88591,205.74 18.432198,-33.887886,175.26 18.43214,-33.888584,167.64 18.431358,-33.890533,137.16 18.430967,-33.891083,121.92 18.42968,-33.892914,91.44 18.429508,-33.893196,83.82 18.428535,-33.895336,45.72 18.428331,-33.895981,38.1 18.427996,-33.897354,15.24 18.427963,-33.897663,15.24 18.427677,-33.899105,0 18.427547,-33.899323,0 18.427044,-33.900192,0 18.426991,-33.900455,0 18.427828,-33.901108,0 18.428331,-33.901154,7.62 18.430195,-33.900784,22.86 18.430407,-33.900696,30.48 18.432257,-33.900146,38.1 18.433056,-33.899807,45.72 18.435732,-33.898499,68.58 18.436489,-33.897896,76.2 18.438778,-33.894917,114.3 18.439121,-33.894173,121.92 18.439808,-33.890121,152.4 18.439693,-33.889099,160.02 18.43775,-33.885223,182.88 18.437021,-33.884491,190.5 18.433113,-33.882114,228.6 18.432255,-33.881744,236.22 18.428276,-33.880417,266.7 18.427322,-33.880142,266.7 18.422951,-33.879135,289.56 18.421719,-33.878906,297.18 18.416616,-33.878357,327.66 18.415318,-33.8783,335.28 18.41074,-33.87825,365.76 18.409653,-33.8783,373.38 18.40519,-33.878857,403.86 18.40451,-33.878998,403.86 18.40044,-33.880253,434.34 18.399582,-33.880581,441.96 18.395823,-33.882202,480.06 18.395094,-33.882523,487.68 18.391628,-33.88435,518.16 18.390884,-33.884769,525.78 18.387302,-33.887009,548.64 18.386536,-33.887516,548.64 18.382874,-33.889938,571.5 18.381901,-33.890587,579.12 18.37389,-33.896358,586.74 18.373146,-33.896919,594.36 18.368855,-33.900551,624.84 18.367939,-33.90134,624.84 18.364906,-33.904274,632.46 18.364048,-33.905113,632.46 18.361181,-33.908157,655.32 18.360397,-33.909119,662.94 18.357761,-33.912186,662.94 18.357067,-33.913025,670.56 18.354679,-33.915985,678.18 18.354006,-33.916855,678.18 18.351988,-33.919876,678.18 18.351484,-33.9207,678.18 18.349628,-33.923824,678.18 18.349113,-33.924759,678.18 18.34734,-33.928062,670.56 18.346943,-33.92894,670.56 18.345337,-33.932625,670.56 18.344925,-33.933563,670.56 18.343693,-33.93663,655.32 18.3433,-33.937637,655.32 18.342684,-33.941116,662.94 18.342991,-33.942028,655.32 18.346272,-33.944458,647.7 18.347454,-33.944542,647.7 18.351877,-33.943039,632.46 18.353004,-33.942307,632.46 18.356667,-33.939095,617.22 18.357468,-33.93821,609.6 18.360901,-33.934113,601.98 18.36153,-33.933277,601.98 18.364656,-33.928436,601.98 18.365385,-33.927109,594.36 18.368076,-33.922485,594.36 18.36874,-33.92136,594.36 18.373146,-33.915493,571.5 18.374176,-33.914421,563.88 18.377495,-33.911026,563.88 18.378109,-33.910355,563.88 18.381697,-33.906738,548.64 18.382481,-33.906006,548.64 18.390312,-33.898083,518.16 18.391457,-33.897152,518.16 18.395405,-33.894405,487.68 18.396494,-33.893784,480.06 18.401091,-33.891541,464.82 18.402042,-33.891148,457.2 18.406792,-33.889423,426.72 18.407648,-33.88916,426.72 18.412189,-33.88765,396.24 18.413086,-33.887329,388.62 18.417206,-33.886074,350.52 18.418411,-33.885727,342.9 18.422167,-33.884857,327.66 18.423063,-33.884674,259.08 18.427099,-33.884354,228.6 18.427906,-33.884441,274.32 18.430574,-33.885544,259.08 18.430996,-33.885933,243.84 18.432087,-33.887695,236.22 18.432312,-33.88826,228.6 18.432541,-33.889984,198.12 18.432541,-33.8904,190.5 18.432198,-33.89217,144.78 18.432032,-33.892548,137.16 18.430996,-33.89436,99.06 18.430687,-33.894882,83.82 18.429565,-33.896545,45.72 18.429394,-33.896824,45.72 18.428612,-33.897995,22.86 18.42794,-33.898956,7.62 18.426933,-33.900597,0 18.427099,-33.900879,0 18.428556,-33.901703,30.48 18.428782,-33.901749,30.48 18.430574,-33.902069,60.96 18.431135,-33.902115,68.58 18.433714,-33.901978,114.3 18.434315,-33.901852,121.92 18.437357,-33.899963,167.64 18.437918,-33.899323,182.88 18.439543,-33.895981,220.98 18.439751,-33.894871,236.22 18.439808,-33.890587,274.32 18.439636,-33.889656,289.56 18.438148,-33.885372,327.66 18.437576,-33.884258,327.66 18.435001,-33.880112,381 18.43433,-33.879181,388.62 18.431023,-33.875793,426.72 18.429966,-33.874851,434.34 18.425732,-33.872059,480.06 18.424702,-33.871548,487.68 18.420204,-33.869934,525.78 18.419083,-33.869751,533.4 18.414402,-33.869595,563.88 18.413422,-33.869705,571.5 18.409218,-33.870575,586.74 18.408451,-33.870758,586.74 18.404453,-33.871948,601.98 18.403244,-33.872341,601.98 18.399408,-33.873779,624.84 18.398323,-33.874203,632.46 18.394604,-33.876064,655.32 18.393745,-33.876484,662.94 18.390217,-33.87854,685.8 18.389431,-33.879044,685.8 18.386068,-33.881378,701.04 18.385391,-33.881927,708.66 18.382244,-33.884537,723.9 18.381191,-33.885406,731.52 18.378109,-33.888153,746.76 18.37738,-33.88884,746.76 18.374353,-33.891861,762 18.373718,-33.892544,762 18.370485,-33.896027,769.62 18.369827,-33.896732,769.62 18.366737,-33.900364,769.62 18.366108,-33.901108,769.62 18.363199,-33.904907,769.62 18.36256,-33.905716,777.24 18.359699,-33.909534,777.24 18.358898,-33.910652,777.24 18.351652,-33.921021,792.48 18.349522,-33.923996,784.86 18.340588,-33.937092,746.76 18.338642,-33.93998,746.76 18.330746,-33.951523,754.38 18.329344,-33.953934,754.38 18.319702,-33.969177,723.9 18.316843,-33.973984,685.8 18.310118,-33.986984,655.32 18.309612,-33.988083,655.32 18.305914,-33.996872,662.94 18.304735,-33.999664,662.94 18.301048,-34.00967,662.94 18.302942,-34.014084,662.94 18.310547,-34.013672,655.32 18.311743,-34.012802,655.32 18.315105,-34.008224,640.08 18.315868,-34.006737,632.46 18.318245,-34.0009,624.84 18.318693,-33.999664,624.84 18.321047,-33.99408,632.46 18.321419,-33.993237,647.7 18.332119,-33.970516,655.32 18.333721,-33.967537,655.32 18.3433,-33.951279,647.7 18.345337,-33.947941,640.08 18.354847,-33.933426,601.98 18.357182,-33.930157,601.98 18.368053,-33.9161,586.74 18.368855,-33.915119,586.74 18.37228,-33.911362,571.5 18.373289,-33.910355,571.5 18.376596,-33.906967,571.5 18.377548,-33.906006,571.5 18.382645,-33.901108,548.64 18.386404,-33.89772,457.2 18.392403,-33.892731,487.68 18.393631,-33.891846,487.68 18.398344,-33.888977,464.82 18.39941,-33.888401,457.2 18.404274,-33.886257,441.96 18.405304,-33.885838,434.34 18.409367,-33.88435,419.1 18.410683,-33.883884,419.1 18.415104,-33.882614,388.62 18.416113,-33.882339,388.62 18.420372,-33.881332,358.14 18.421326,-33.881138,350.52 18.424931,-33.880672,297.18 18.425922,-33.880692,304.8 18.428822,-33.881279,274.32 18.429623,-33.881603,266.7 18.431797,-33.883141,243.84 18.43214,-33.88356,236.22 18.433342,-33.885654,205.74 18.433514,-33.88612,198.12 18.433571,-33.888119,160.02 18.433285,-33.888866,160.02 18.431454,-33.891285,129.54 18.430939,-33.89175,121.92 18.429173,-33.893326,91.44 18.428764,-33.893799,83.82 18.427603,-33.896072,60.96 18.427448,-33.896641,53.34 18.427277,-33.89785,38.1 18.427219,-33.898083,30.48 18.427105,-33.899387,15.24 18.427048,-33.89962,7.62 18.426987,-33.901108,0 18.427219,-33.901108,0 18.428764,-33.901806,38.1 18.429062,-33.901886,38.1 18.431339,-33.902084,76.2 18.431696,-33.902069,83.82 18.43461,-33.901291,137.16 18.43523,-33.900829,144.78 18.437132,-33.897812,182.88 18.437357,-33.896622,198.12 18.437637,-33.892456,251.46 18.437576,-33.891193,259.08 18.436628,-33.8871,297.18 18.43626,-33.886211,312.42 18.433714,-33.882019,350.52 18.432884,-33.880859,350.52 18.429966,-33.876762,381 18.42923,-33.875793,388.62 18.425978,-33.871078,419.1 18.4231,-33.866707,441.96 18.412342,-33.850368,472.44 18.411684,-33.849152,480.06 18.404675,-33.836636,457.2 18.402615,-33.832676,464.82 18.399017,-33.824249,449.58 18.398569,-33.823059,449.58 18.396942,-33.817657,457.2 18.396606,-33.816242,457.2 18.395262,-33.810516,472.44 18.395004,-33.809261,472.44 18.391514,-33.798786,495.3 18.391001,-33.797607,487.68 18.388254,-33.792526,487.68 18.387413,-33.791382,480.06 18.382416,-33.786495,487.68 18.381214,-33.785614,480.06 18.376293,-33.782726,472.44 18.374519,-33.782028,472.44 18.368805,-33.780945,464.82 18.367571,-33.780991,464.82 18.363144,-33.78241,457.2 18.362022,-33.783005,457.2 18.358383,-33.78566,449.58 18.357697,-33.786358,449.58 18.355183,-33.789871,434.34 18.354734,-33.790924,426.72 18.353806,-33.794968,426.72 18.353725,-33.796097,426.72 18.353577,-33.799858,434.34 18.35367,-33.800766,441.96 18.353951,-33.804474,441.96 18.354092,-33.805443,441.96 18.354549,-33.809307,472.44 18.354664,-33.810005,480.06 18.356094,-33.819317,525.78 18.356495,-33.821968,541.02 18.358269,-33.831841,594.36 18.358498,-33.83263,594.36 18.359499,-33.836288,594.36 18.359814,-33.837379,601.98 18.36191,-33.846359,609.6 18.362583,-33.849426,601.98 18.365822,-33.863586,601.98 18.366562,-33.866821,594.36 18.368467,-33.87735,601.98 18.36858,-33.878403,601.98 18.36858,-33.882614,601.98 18.368511,-33.883698,601.98 18.367939,-33.888119,594.36 18.36771,-33.889378,594.36 18.366451,-33.893845,594.36 18.365993,-33.895058,586.74 18.363876,-33.899246,571.5 18.363199,-33.90033,571.5 18.360214,-33.904461,571.5 18.359444,-33.905502,571.5 18.356361,-33.909256,579.12 18.355637,-33.910141,586.74 18.350201,-33.916935,609.6 18.34837,-33.919544,609.6 18.345934,-33.923538,601.98 18.34528,-33.924618,609.6 18.343163,-33.928528,624.84 18.342571,-33.929855,632.46 18.340874,-33.933743,640.08 18.34053,-33.934628,632.46 18.338928,-33.938736,655.32 18.338585,-33.939747,655.32 18.333721,-33.951523,609.6 18.333042,-33.953613,617.22 18.33704,-33.958553,617.22 18.338928,-33.958511,624.84 18.343861,-33.955582,640.08 18.344536,-33.954739,640.08 18.347225,-33.949802,624.84 18.347841,-33.948532,617.22 18.349859,-33.944321,617.22 18.350475,-33.943039,609.6 18.35392,-33.935928,617.22 18.355633,-33.932831,609.6 18.359985,-33.92569,586.74 18.360676,-33.924683,586.74 18.363703,-33.920609,579.12 18.364431,-33.919739,579.12 18.367683,-33.915939,571.5 18.368692,-33.914886,571.5 18.372335,-33.911179,563.88 18.373177,-33.9104,556.26 18.377045,-33.906784,548.64 18.377996,-33.905869,548.64 18.38192,-33.902344,548.64 18.385788,-33.899048,525.78 18.39323,-33.893101,502.92 18.394476,-33.892181,487.68 18.398624,-33.889618,457.2 18.400154,-33.888771,449.58 18.404791,-33.886642,426.72 18.406162,-33.88612,426.72 18.411484,-33.884304,403.86 18.412582,-33.883987,403.86 18.417892,-33.882534,373.38 18.418915,-33.882248,373.38 18.423328,-33.881371,335.28 18.424473,-33.881229,312.42 18.428164,-33.881653,289.56 18.42905,-33.882023,281.94 18.431303,-33.88385,251.46 18.431696,-33.884445,236.22 18.432713,-33.886955,198.12 18.432816,-33.887512,190.5 18.432816,-33.889984,160.02 18.432541,-33.890728,152.4 18.430767,-33.892822,121.92 18.43008,-33.893333,114.3 18.428249,-33.894917,83.82 18.427906,-33.895428,76.2 18.427334,-33.897526,45.72 18.427219,-33.897942,45.72 18.427099,-33.899185,15.24 18.427099,-33.89946,15.24 18.427105,-33.900738,0 18.427099,-33.90097,0 18.427792,-33.901203,7.62 18.428108,-33.901245,7.62 18.429909,-33.901016,22.86 18.430309,-33.900875,30.48 18.431639,-33.900375,38.1 18.432255,-33.900131,45.72 18.435003,-33.899094,76.2 18.435688,-33.898781,83.82 18.438435,-33.896408,121.92 18.438892,-33.895615,129.54 18.439711,-33.891769,160.02 18.439711,-33.890671,167.64 18.438606,-33.886631,190.5 18.437973,-33.885544,205.74 18.434944,-33.882256,220.98 18.434029,-33.881603,228.6 18.429285,-33.879639,259.08 18.428501,-33.87941,259.08 18.423615,-33.878716,289.56 18.422527,-33.878716,289.56 18.418467,-33.878906,312.42 18.41732,-33.879044,320.04 18.413366,-33.879593,342.9 18.412132,-33.879776,358.14 18.407707,-33.880531,373.38 18.406906,-33.880718,381 18.402672,-33.881836,396.24 18.401819,-33.882111,403.86 18.397783,-33.88353,426.72 18.39695,-33.883839,434.34 18.392906,-33.885681,464.82 18.391972,-33.886166,472.44 18.38871,-33.888027,495.3 18.388142,-33.888382,502.92 18.384892,-33.890396,518.16 18.383995,-33.890991,533.4 18.380743,-33.893234,548.64 18.379902,-33.893875,556.26 18.376932,-33.896301,571.5 18.376122,-33.897011,579.12 18.373121,-33.900009,601.98 18.372517,-33.900688,601.98 18.36977,-33.903996,609.6 18.368969,-33.904972,617.22 18.366339,-33.908386,624.84 18.365891,-33.909027,624.84 18.36319,-33.912746,640.08 18.361294,-33.915344,655.32 18.356865,-33.922165,693.42 18.356304,-33.923172,693.42 18.354454,-33.926422,693.42 18.352947,-33.928947,708.66 18.350082,-33.934525,716.28 18.349113,-33.936676,701.04 18.347336,-33.940979,693.42 18.346046,-33.943771,678.18 18.342123,-33.950821,655.32 18.34156,-33.95171,655.32 18.337584,-33.958191,640.08 18.335953,-33.960743,632.46 18.325979,-33.969315,541.02 18.324108,-33.971123,548.64 18.318638,-33.9776,541.02 18.31802,-33.978378,541.02 18.313808,-33.984669,548.64 18.313236,-33.985649,541.02 18.311119,-33.989185,533.4 18.310661,-33.99007,525.78 18.304653,-34.000916,541.02 18.303223,-34.00351,525.78 18.304253,-34.010506,541.02 18.306978,-34.010376,541.02 18.316212,-34.004826,518.16 18.317404,-34.003601,518.16 18.320503,-33.999939,525.78 18.321047,-33.999069,525.78 18.332594,-33.984283,525.78 18.336182,-33.980026,525.78 18.343357,-33.969452,541.02 18.34487,-33.966797,541.02 18.349859,-33.95668,533.4 18.350418,-33.955353,533.4 18.352318,-33.950642,525.78 18.352716,-33.949585,525.78 18.358498,-33.936489,510.54 18.35907,-33.935463,502.92 18.362274,-33.929413,510.54 18.362846,-33.928341,502.92 18.365273,-33.924454,487.68 18.365879,-33.9235,487.68 18.368568,-33.919914,464.82 18.369421,-33.918915,464.82 18.372459,-33.915539,457.2 18.373232,-33.914749,457.2 18.376932,-33.911362,441.96 18.377716,-33.910629,441.96 18.382587,-33.905624,411.48 18.384361,-33.903435,411.48 18.387302,-33.899689,419.1 18.388138,-33.898735,411.48 18.393356,-33.893784,419.1 18.394533,-33.89296,411.48 18.398724,-33.890728,396.24 18.399801,-33.890213,388.62 18.404217,-33.888401,381 18.405407,-33.88797,327.66 18.410282,-33.886353,350.52 18.411573,-33.885956,358.14 18.416058,-33.884766,335.28 18.417009,-33.884583,320.04 18.421097,-33.884026,312.42 18.422167,-33.883987,304.8 18.425331,-33.884537,304.8 18.426035,-33.884903,297.18 18.42762,-33.886398,274.32 18.42794,-33.886826,266.7 18.428782,-33.888382,236.22 18.428879,-33.888771,228.6 18.429279,-33.89045,190.5 18.429285,-33.890854,182.88 18.429279,-33.892448,137.16 18.429165,-33.893009,121.92 18.428822,-33.894684,91.44 18.428724,-33.895111,83.82 18.428221,-33.896759,53.34 18.428108,-33.897079,45.72 18.427677,-33.898457,22.86 18.42738,-33.899323,7.62 18.427044,-33.900925,0 18.426987,-33.901154,0
        </coordinates>
      </LineString>
    </Placemark>
  </Document>
</kml>