<?xml version="1.0" encoding="UTF-8"?>
<kml xmlns="http://www.opengis.net/kml/2.2">
  <Document>
    <name>-/ZTHOT - Optimised</name>
    <description><![CDATA[Optimised flight path with 1124 points (decimated from 5619 original points). Source format: Standard KML]]></description>
    
    <Style id="flightPath">
      <LineStyle>
        <color>ff0000ff</color>
        <width>3</width>
      </LineStyle>
    </Style>
    
    <Placemark>
      <name>Flight Path</name>
      <description><![CDATA[<div style="width:220px; text-align:center;">
<div style="width:210px; text-align:center;">
<div style=" background: #000; color: #fff; font-size: 14px; text-align:left; border: 1px solid #000; padding: 2px 6px; text-shadow: 0 1px 0 #000; box-shadow: 0 1px 3px rgba(0,0,0,0.6); background: -webkit-gradient(linear, left top, left bottom, color-stop(0%,#808080), color-stop(2%,#303030), color-stop(100%,#0c0c0c));"><span style="font-size: 14px; font-weight: bold;"><a href="javascript:void(0);" style="color: #fff; cursor: pointer;text-decoration: none;">-</a></span> / ZTHOT<br/>Cape Town Helicopters</div>

<div style="border-top: 1px solid #005c90; color: #fff; padding-bottom: 5px; box-shadow: 0 0 1px #9BE3F6 inset, 0 1px 0 #9BE3F6 inset, 0 -1px 3px rgba(0,0,0,0.4); background:rgba(43,114,173,1); background: -webkit-gradient(linear, left top, left bottom, color-stop(0%,rgba(92,184,229,1)), color-stop(100%,rgba(43,114,173,1)));">
<a style="text-decoration: none; color: rgb(255, 255, 255); font-size: 12px; width:77px; display: inline-block;" title=" Airport" href="javascript:void(0);/departures"><h3 style="padding: 0px; margin: 10px 0px 0px; font-size: 16px; ">?</h3></a>
<span style="background: url(https://www.flightradar24.com/static/images/userUI_sprite.png?14) no-repeat scroll 0 -464px rgba(0, 0, 0, 0); border: medium none; display: inline-block; height: 16px; width: 45px;"></span>
<a style="text-decoration: none; color: rgb(255, 255, 255); font-size: 12px; width:77px; display: inline-block;" title=" Airport" href="javascript:void(0);/arrivals"><h3 style="padding: 0px; margin: 10px 0px 0px; font-size: 16px;">?</h3></a>
<div style=" margin-top:10px;">
<div style="display: inline-block; font-size: 12px; padding: 0 5px;">
<div>
<span style="color: #c1eaff;" title="Actual Time of Departure">ATD </span>
<span title="2025-11-29 06:52">06:52</span> <span title="Coordinated Universal Time">UTC</span>
</div>
</div>
<div style="display: inline-block; font-size: 12px; padding: 0 5px;">
<div>
<span style="color: #c1eaff;" title="Estimated Time of Arrival">ETA </span>
<span title="2025-11-29 07:16">07:16</span> <span title="Coordinated Universal Time">UTC</span>
</div>
</div>
</div>
<br style="clear: both;"/>
</div>

<div style="display: block;">
<table style="border-collapse: collapse; width: 100%;">
<tr style="border-right: 1px solid #dadada; ">
<td style="background: none repeat scroll 0 0 #dadada; padding: 0; width: 31px;">
<span style="background: url(https://www.flightradar24.com/static/images/userUI_sprite.png?14) no-repeat scroll -208px -464px rgba(0, 0, 0, 0); height: 26px; margin: 8px 0 0 4px; width: 23px; display: block;"></span>
</td>
<td colspan="2" style="border-bottom: 1px solid #dadada; border-left: 1px solid #dadada; color: #666; line-height: 1.1em; padding: 3px 6px; vertical-align: top; font-size: 14px;">
Aircraft<span style="float: right; font-size: 12px;">(AS50)</span><br>
<span style="color: #333; font-size: 16px; font-weight: bold; line-height: 1.3em;">Airbus Helicopters H125</span>
</td>
</tr>
<tr style="border-right: 1px solid #dadada; ">
<td style="background: none repeat scroll 0 0 #dadada; padding: 0; width: 31px;">
<td colspan="2" style="border-bottom: 1px solid #dadada; border-left: 1px solid #dadada; color: #666; line-height: 1.1em; padding: 3px 6px; vertical-align: top; font-size: 14px;">
Registration<br>
<span style="color: #333; font-size: 16px; font-weight: bold; line-height: 1.3em;"><a href="https://www.flightradar24.com/reg/zt-hot" style="text-decoration: none; color: #333;">ZT-HOT</a></span>
</td>
</tr>
</table>
</div>

</div>
</div>]]></description>
      <styleUrl>#flightPath</styleUrl>
      <LineString>
        <extrude>1</extrude>
        <tessellate>1</tessellate>
        <altitudeMode>absolute</altitudeMode>
        <coordinates>
          18.428108,-33.898499,60.96 18.43111,-33.893333,152.4 18.432367,-33.889481,182.88 18.431969,-33.885326,243.84 18.428535,-33.881557,274.32 18.423176,-33.878677,304.8 18.417263,-33.877132,365.76 18.411484,-33.876949,396.24 18.405819,-33.877785,426.72 18.399982,-33.879463,457.2 18.394146,-33.881977,457.2 18.388882,-33.884956,487.68 18.384108,-33.888153,518.16 18.379097,-33.891983,548.64 18.375027,-33.895706,579.12 18.371487,-33.899338,579.12 18.367996,-33.903389,609.6 18.364824,-33.907516,609.6 18.361797,-33.911865,640.08 18.358828,-33.916443,640.08 18.355463,-33.922256,640.08 18.352997,-33.926926,640.08 18.350487,-33.932251,609.6 18.344366,-33.945374,609.6 18.341282,-33.958374,701.04 18.346195,-33.954456,640.08 18.350195,-33.948807,640.08 18.353895,-33.942856,640.08 18.357353,-33.937,609.6 18.360729,-33.930901,609.6 18.365135,-33.922848,579.12 18.37326,-33.909626,548.64 18.3771,-33.904312,548.64 18.381752,-33.899048,518.16 18.386536,-33.894684,548.64 18.392029,-33.890915,548.64 18.398344,-33.887878,518.16 18.40456,-33.8857,518.16 18.411684,-33.884079,518.16 18.418524,-33.883347,487.68 18.425903,-33.883419,487.68 18.432713,-33.884258,426.72 18.438263,-33.885933,396.24 18.442795,-33.88916,365.76 18.444475,-33.893097,304.8 18.442064,-33.896118,274.32 18.438034,-33.897385,182.88 18.433971,-33.898502,121.92 18.430239,-33.899368,60.96 18.426819,-33.900505,30.48 18.428364,-33.897991,60.96 18.430653,-33.892776,182.88 18.431797,-33.888912,243.84 18.431696,-33.884491,274.32 18.429678,-33.880188,335.28 18.426132,-33.876156,396.24 18.421669,-33.87299,426.72 18.416176,-33.871128,457.2 18.409481,-33.871037,487.68 18.403334,-33.872452,518.16 18.397408,-33.875179,548.64 18.392403,-33.878174,579.12 18.387583,-33.88179,579.12 18.382593,-33.886093,579.12 18.378334,-33.890213,579.12 18.374298,-33.894379,609.6 18.370399,-33.899014,609.6 18.366955,-33.903305,640.08 18.363647,-33.90781,640.08 18.36062,-33.912506,640.08 18.356609,-33.918892,670.56 18.346195,-33.937885,670.56 18.341675,-33.94701,670.56 18.339937,-33.96048,701.04 18.344135,-33.955715,670.56 18.347729,-33.949814,640.08 18.351597,-33.943909,609.6 18.360443,-33.928993,579.12 18.369701,-33.912552,609.6 18.373547,-33.906929,579.12 18.377996,-33.901886,579.12 18.382818,-33.897171,579.12 18.388311,-33.892593,548.64 18.393972,-33.88884,548.64 18.400417,-33.885727,548.64 18.406864,-33.883667,518.16 18.413544,-33.882393,518.16 18.420811,-33.88221,487.68 18.427773,-33.883255,487.68 18.433714,-33.885315,457.2 18.439064,-33.888493,426.72 18.442955,-33.892216,365.76 18.443069,-33.895893,335.28 18.439579,-33.89706,274.32 18.435917,-33.897942,182.88 18.430855,-33.899139,91.44 18.426819,-33.900642,30.48 18.427773,-33.899689,30.48 18.428782,-33.897858,60.96 18.430462,-33.894699,121.92 18.431919,-33.891083,152.4 18.432928,-33.8871,213.36 18.432484,-33.882858,243.84 18.430538,-33.878391,274.32 18.427099,-33.874969,335.28 18.421497,-33.872757,365.76 18.415489,-33.87262,396.24 18.408434,-33.873779,426.72 18.402729,-33.875553,457.2 18.397179,-33.877926,487.68 18.391972,-33.880764,518.16 18.386854,-33.883942,548.64 18.381809,-33.887375,579.12 18.377438,-33.890728,609.6 18.372574,-33.894962,640.08 18.368568,-33.898872,640.08 18.36462,-33.903111,670.56 18.360786,-33.907673,701.04 18.357296,-33.912327,701.04 18.354092,-33.917076,731.52 18.350887,-33.92215,731.52 18.342852,-33.935806,762 18.333321,-33.957157,762 18.427492,-33.900742,30.48 18.427563,-33.89827,60.96 18.430424,-33.895756,91.44 18.433546,-33.892685,121.92 18.43626,-33.888771,152.4 18.437469,-33.884583,213.36 18.434834,-33.880508,243.84 18.42934,-33.878403,304.8 18.424185,-33.877579,335.28 18.418579,-33.877228,365.76 18.413141,-33.877258,396.24 18.40765,-33.877598,426.72 18.4021,-33.878345,457.2 18.396719,-33.879364,487.68 18.391514,-33.880905,518.16 18.38625,-33.882813,548.64 18.3811,-33.885235,548.64 18.375978,-33.888016,579.12 18.371271,-33.89122,609.6 18.36673,-33.894974,609.6 18.362638,-33.899002,609.6 18.358955,-33.903252,609.6 18.355856,-33.907196,640.08 18.352549,-33.911591,670.56 18.349972,-33.915585,670.56 18.347397,-33.919914,701.04 18.344994,-33.923965,731.52 18.342348,-33.928482,731.52 18.33876,-33.93187,762 18.336798,-33.936401,762 18.341446,-33.939514,762 18.34857,-33.937637,731.52 18.354174,-33.93338,701.04 18.358715,-33.928482,670.56 18.363422,-33.922943,670.56 18.370628,-33.914654,640.08 18.380856,-33.904312,579.12 18.386307,-33.899807,548.64 18.391857,-33.895847,548.64 18.398457,-33.892502,548.64 18.40535,-33.890396,518.16 18.412514,-33.888912,518.16 18.41938,-33.887886,487.68 18.426538,-33.886734,487.68 18.43317,-33.886585,426.72 18.439936,-33.88797,365.76 18.445148,-33.890442,335.28 18.44795,-33.894196,335.28 18.447279,-33.896942,335.28 18.444443,-33.897106,274.32 18.441238,-33.896641,213.36 18.43626,-33.897385,152.4 18.432985,-33.898682,91.44 18.429909,-33.89962,60.96 18.427677,-33.900642,30.48 18.435974,-33.900085,121.92 18.440327,-33.897491,152.4 18.441696,-33.892963,182.88 18.44038,-33.888027,213.36 18.437347,-33.88356,243.84 18.433456,-33.880161,304.8 18.429108,-33.878204,365.76 18.424017,-33.877258,426.72 18.418524,-33.876892,426.72 18.412685,-33.876621,457.2 18.406696,-33.876892,487.68 18.400698,-33.877716,518.16 18.395094,-33.879227,548.64 18.389544,-33.881195,579.12 18.384418,-33.883186,579.12 18.379326,-33.885422,609.6 18.373905,-33.888016,609.6 18.368916,-33.891129,640.08 18.364489,-33.89447,670.56 18.360558,-33.898037,701.04 18.356781,-33.901947,701.04 18.353462,-33.905716,731.52 18.349802,-33.910629,731.52 18.346996,-33.915215,731.52 18.344479,-33.920055,731.52 18.34219,-33.925037,731.52 18.340359,-33.930202,701.04 18.336754,-33.934719,731.52 18.335037,-33.939514,762 18.338242,-33.94389,762 18.343861,-33.946243,762 18.350307,-33.945419,731.52 18.355122,-33.941006,701.04 18.358727,-33.93565,670.56 18.362078,-33.930084,640.08 18.365665,-33.9245,640.08 18.369982,-33.918915,609.6 18.374119,-33.913773,579.12 18.378124,-33.908836,579.12 18.382818,-33.904129,579.12 18.387909,-33.899807,548.64 18.393915,-33.896072,548.64 18.400497,-33.893379,548.64 18.407145,-33.89122,518.16 18.41387,-33.889297,487.68 18.42071,-33.88765,457.2 18.427547,-33.886459,426.72 18.434544,-33.886353,396.24 18.441296,-33.887562,396.24 18.446732,-33.889984,365.76 18.449856,-33.893692,335.28 18.448906,-33.89706,304.8 18.444811,-33.896896,243.84 18.440384,-33.896713,182.88 18.435732,-33.897629,121.92 18.429958,-33.899918,60.96 18.42766,-33.90033,30.48 18.428444,-33.898453,30.48 18.43071,-33.895245,91.44 18.433208,-33.891815,152.4 18.435619,-33.88797,213.36 18.437302,-33.883942,243.84 18.436203,-33.879601,304.8 18.433153,-33.875885,335.28 18.428612,-33.872864,335.28 18.423008,-33.871307,396.24 18.417149,-33.870991,426.72 18.411427,-33.871689,457.2 18.404903,-33.873455,487.68 18.400137,-33.875427,518.16 18.395462,-33.877785,548.64 18.39061,-33.880646,548.64 18.385956,-33.883759,579.12 18.3815,-33.887051,579.12 18.377436,-33.890396,609.6 18.3734,-33.894058,609.6 18.369541,-33.89785,640.08 18.366051,-33.901669,640.08 18.362638,-33.905594,670.56 18.359331,-33.909668,670.56 18.354034,-33.916843,701.04 18.351036,-33.921387,701.04 18.34837,-33.925735,731.52 18.345966,-33.929924,731.52 18.343678,-33.934441,731.52 18.34156,-33.938862,762 18.339329,-33.943333,762 18.340162,-33.948212,762 18.346195,-33.950222,731.52 18.35146,-33.946682,731.52 18.35524,-33.940933,670.56 18.358603,-33.934845,670.56 18.361855,-33.928391,640.08 18.367964,-33.916077,609.6 18.374805,-33.904598,579.12 18.378639,-33.899059,579.12 18.382706,-33.894058,579.12 18.387806,-33.889206,579.12 18.394146,-33.885605,579.12 18.400417,-33.883255,579.12 18.407368,-33.881607,579.12 18.414574,-33.880814,579.12 18.421612,-33.881184,548.64 18.428249,-33.883327,518.16 18.4338,-33.88612,457.2 18.439007,-33.889236,426.72 18.443584,-33.892216,396.24 18.44593,-33.895893,365.76 18.443914,-33.899231,304.8 18.440266,-33.899666,274.32 18.436661,-33.899433,182.88 18.433113,-33.8992,121.92 18.428593,-33.89957,30.48 18.427715,-33.899872,30.48 18.430349,-33.896393,91.44 18.432816,-33.892731,152.4 18.435402,-33.888401,182.88 18.436604,-33.88393,243.84 18.435345,-33.879696,274.32 18.431911,-33.875832,335.28 18.427563,-33.872898,365.76 18.421942,-33.870712,396.24 18.416176,-33.869827,426.72 18.411123,-33.869888,487.68 18.404959,-33.871124,548.64 18.399639,-33.872944,579.12 18.394814,-33.875153,609.6 18.390049,-33.877808,640.08 18.385391,-33.880814,670.56 18.380985,-33.884026,701.04 18.377094,-33.887283,731.52 18.373121,-33.890991,731.52 18.369255,-33.894962,762 18.365479,-33.899338,731.52 18.362274,-33.903252,762 18.358727,-33.907951,731.52 18.355801,-33.912323,731.52 18.352947,-33.916702,762 18.348427,-33.923824,762 18.345509,-33.92918,762 18.342909,-33.93457,762 18.340721,-33.940201,762 18.338585,-33.945705,762 18.341339,-33.950317,731.52 18.347569,-33.94701,731.52 18.352213,-33.941895,731.52 18.35638,-33.936722,762 18.3601,-33.931416,731.52 18.363533,-33.925457,701.04 18.366623,-33.919636,670.56 18.370342,-33.913399,640.08 18.374634,-33.907562,609.6 18.378925,-33.901947,609.6 18.383266,-33.896164,609.6 18.387358,-33.890991,609.6 18.392487,-33.886539,640.08 18.398624,-33.883392,640.08 18.404903,-33.881416,640.08 18.411884,-33.880207,640.08 18.41942,-33.880051,609.6 18.426247,-33.881371,548.64 18.432705,-33.884216,457.2 18.438198,-33.887558,426.72 18.442554,-33.891006,365.76 18.44593,-33.894917,304.8 18.445036,-33.898636,304.8 18.44128,-33.900192,243.84 18.436832,-33.899712,182.88 18.433285,-33.899155,121.92 18.428556,-33.89978,30.48 18.43091,-33.901474,91.44 18.434315,-33.901573,152.4 18.437977,-33.899899,182.88 18.440271,-33.895615,243.84 18.439236,-33.8904,274.32 18.436489,-33.885048,304.8 18.432873,-33.880234,335.28 18.428478,-33.876202,365.76 18.422699,-33.873131,396.24 18.41629,-33.872574,396.24 18.410053,-33.873455,426.72 18.403612,-33.875473,426.72 18.398008,-33.877945,457.2 18.392906,-33.880737,487.68 18.388596,-33.883465,487.68 18.383675,-33.887142,487.68 18.379511,-33.890625,487.68 18.375721,-33.894218,487.68 18.372116,-33.897663,518.16 18.368412,-33.901474,548.64 18.365498,-33.904953,548.64 18.362217,-33.909256,548.64 18.359444,-33.913422,548.64 18.35701,-33.917728,548.64 18.354343,-33.922668,548.64 18.348541,-33.933929,609.6 18.340645,-33.9505,609.6 18.347055,-33.952835,579.12 18.351259,-33.946701,548.64 18.354624,-33.940338,518.16 18.358435,-33.932327,548.64 18.360901,-33.926331,548.64 18.363533,-33.920662,548.64 18.366507,-33.914978,548.64 18.36977,-33.909023,548.64 18.373375,-33.903389,548.64 18.377661,-33.89772,548.64 18.38209,-33.892822,518.16 18.387751,-33.888245,518.16 18.394375,-33.885094,518.16 18.40147,-33.882393,487.68 18.407993,-33.880299,487.68 18.414574,-33.878716,457.2 18.421783,-33.878204,457.2 18.426483,-33.880188,426.72 18.428501,-33.883209,365.76 18.429852,-33.886539,304.8 18.430595,-33.889889,243.84 18.430742,-33.892822,182.88 18.429958,-33.895798,121.92 18.42794,-33.898773,60.96 18.426876,-33.900551,30.48 18.428879,-33.90097,30.48 18.432598,-33.900551,91.44 18.436775,-33.898315,152.4 18.438549,-33.893333,182.88 18.437973,-33.88829,243.84 18.435171,-33.882523,304.8 18.429678,-33.879501,304.8 18.42396,-33.878311,365.76 18.417458,-33.877899,426.72 18.411573,-33.877762,457.2 18.405519,-33.878311,487.68 18.399582,-33.879555,518.16 18.394089,-33.881603,548.64 18.38887,-33.884171,548.64 18.383846,-33.887421,579.12 18.379343,-33.890945,609.6 18.375195,-33.894745,640.08 18.371372,-33.89864,670.56 18.367767,-33.902599,701.04 18.363928,-33.906967,701.04 18.360729,-33.910885,701.04 18.35737,-33.915436,701.04 18.354492,-33.920197,701.04 18.35186,-33.925224,701.04 18.349689,-33.929993,701.04 18.346214,-33.938965,701.04 18.34219,-33.950359,731.52 18.340105,-33.955261,731.52 18.332348,-33.975079,701.04 18.329344,-33.987305,701.04 18.328838,-33.998016,731.52 18.329006,-34.003052,731.52 18.329487,-34.00827,731.52 18.330688,-34.01302,701.04 18.33292,-34.01786,701.04 18.335621,-34.022141,731.52 18.338535,-34.026855,731.52 18.340946,-34.031387,731.52 18.343132,-34.035873,762 18.344982,-34.040451,731.52 18.346159,-34.045349,731.52 18.346939,-34.050354,731.52 18.347054,-34.055614,731.52 18.347,-34.060822,731.52 18.346832,-34.066177,731.52 18.346495,-34.074417,701.04 18.34631,-34.08173,701.04 18.346943,-34.087097,670.56 18.348738,-34.092224,670.56 18.352146,-34.096909,640.08 18.357819,-34.10083,640.08 18.364208,-34.103531,640.08 18.370628,-34.105984,640.08 18.376751,-34.108406,609.6 18.384611,-34.111771,609.6 18.390656,-34.114273,609.6 18.403587,-34.119392,579.12 18.414459,-34.123814,548.64 18.42127,-34.126556,548.64 18.427773,-34.128983,548.64 18.433914,-34.13131,548.64 18.440552,-34.133591,518.16 18.447533,-34.134056,518.16 18.454678,-34.131317,518.16 18.460751,-34.127213,518.16 18.466244,-34.122231,487.68 18.471451,-34.116459,487.68 18.475864,-34.11113,518.16 18.478891,-34.105362,518.16 18.480125,-34.099045,518.16 18.479919,-34.092346,518.16 18.479633,-34.085407,487.68 18.480034,-34.078472,487.68 18.480854,-34.071854,487.68 18.481695,-34.064713,487.68 18.484329,-34.043198,548.64 18.484898,-34.027824,579.12 18.485506,-34.004929,579.12 18.486729,-33.981735,518.16 18.4865,-33.970284,518.16 18.485899,-33.963501,518.16 18.485394,-33.956177,487.68 18.48461,-33.948853,487.68 18.483467,-33.94175,457.2 18.481525,-33.934479,457.2 18.478163,-33.927658,457.2 18.47374,-33.921963,457.2 18.468819,-33.916889,457.2 18.464149,-33.912003,457.2 18.459606,-33.907066,426.72 18.451818,-33.898224,426.72 18.448162,-33.893707,396.24 18.444027,-33.890579,365.76 18.43943,-33.8909,335.28 18.435955,-33.894012,243.84 18.433285,-33.896034,182.88 18.430767,-33.897385,121.92 18.427996,-33.899963,60.96 18.427505,-33.900784,30.48 18.432884,-33.901154,91.44 18.437132,-33.900375,152.4 18.44128,-33.898315,182.88 18.445091,-33.894562,213.36 18.445597,-33.889938,243.84 18.442841,-33.885139,274.32 18.438721,-33.881184,304.8 18.433376,-33.878448,365.76 18.428331,-33.877533,426.72 18.423344,-33.877167,457.2 18.417835,-33.877041,518.16 18.41217,-33.876762,548.64 18.40608,-33.876846,579.12 18.400642,-33.877441,609.6 18.393805,-33.878403,609.6 18.387974,-33.879639,609.6 18.382145,-33.88179,640.08 18.376408,-33.884537,640.08 18.371326,-33.887466,640.08 18.366339,-33.890762,640.08 18.361759,-33.894314,670.56 18.357983,-33.898129,670.56 18.354778,-33.902134,670.56 18.351652,-33.906464,670.56 18.348885,-33.910278,701.04 18.346495,-33.914291,701.04 18.344307,-33.918613,701.04 18.342291,-33.923035,731.52 18.340611,-33.927338,731.52 18.337919,-33.931458,701.04 18.334108,-33.934891,731.52 18.32996,-33.937912,762 18.326204,-33.940613,853.44 18.329029,-33.943516,822.96 18.334122,-33.945751,792.48 18.339882,-33.947708,762 18.345623,-33.948963,701.04 18.351974,-33.947662,640.08 18.35681,-33.943314,609.6 18.359947,-33.938141,579.12 18.363087,-33.93251,579.12 18.366114,-33.927109,579.12 18.368969,-33.922012,579.12 18.372288,-33.916843,579.12 18.375893,-33.911816,609.6 18.379898,-33.906975,609.6 18.384476,-33.902317,579.12 18.389376,-33.898453,609.6 18.394533,-33.895294,579.12 18.400755,-33.89241,579.12 18.406919,-33.890076,548.64 18.413031,-33.888153,518.16 18.419781,-33.886307,487.68 18.426075,-33.884724,518.16 18.431282,-33.884304,518.16 18.429846,-33.88623,457.2 18.427391,-33.887794,396.24 18.429678,-33.89003,304.8 18.43277,-33.891983,274.32 18.433937,-33.894333,213.36 18.430767,-33.89529,152.4 18.42738,-33.897079,91.44 18.427212,-33.89946,60.96 18.428108,-33.898499,60.96 18.42934,-33.896622,91.44 18.43111,-33.893333,152.4 18.431358,-33.892731,152.4 18.432367,-33.889481,182.88 18.43248,-33.88884,182.88 18.431969,-33.885326,243.84 18.431396,-33.88435,243.84 18.428535,-33.881557,274.32 18.42794,-33.881104,274.32 18.423176,-33.878677,304.8 18.42239,-33.878403,335.28 18.417263,-33.877132,365.76 18.416168,-33.877029,365.76 18.411484,-33.876949,396.24 18.410397,-33.877041,396.24 18.405819,-33.877785,426.72 18.404566,-33.878036,426.72 18.399982,-33.879463,457.2 18.398792,-33.879913,457.2 18.394146,-33.881977,457.2 18.393059,-33.882488,457.2 18.388882,-33.884956,487.68 18.387794,-33.885654,487.68 18.384108,-33.888153,518.16 18.383099,-33.888931,518.16 18.379097,-33.891983,548.64 18.378239,-33.892681,548.64 18.375027,-33.895706,579.12 18.374519,-33.896221,579.12 18.371487,-33.899338,579.12 18.370914,-33.899944,579.12 18.367996,-33.903389,609.6 18.36731,-33.904274,609.6 18.364824,-33.907516,609.6 18.364277,-33.90823,609.6 18.361797,-33.911865,640.08 18.361126,-33.912872,640.08 18.358828,-33.916443,640.08 18.358267,-33.91745,640.08 18.355463,-33.922256,640.08 18.35495,-33.923176,640.08 18.352997,-33.926926,640.08 18.352606,-33.927841,609.6 18.350487,-33.932251,609.6 18.35014,-33.933151,609.6 18.344366,-33.945374,609.6 18.343906,-33.946262,609.6 18.341282,-33.958374,701.04 18.342348,-33.958008,701.04 18.346195,-33.954456,640.08 18.347225,-33.95306,640.08 18.350195,-33.948807,640.08 18.351059,-33.947475,640.08 18.353895,-33.942856,640.08 18.354679,-33.94162,609.6 18.357353,-33.937,609.6 18.357925,-33.935928,609.6 18.360729,-33.930901,609.6 18.361359,-33.929783,609.6 18.365135,-33.922848,579.12 18.367628,-33.918411,579.12 18.37326,-33.909626,548.64 18.374018,-33.908569,548.64 18.3771,-33.904312,548.64 18.377884,-33.903397,518.16 18.381752,-33.899048,518.16 18.382645,-33.898129,518.16 18.386536,-33.894684,548.64 18.387394,-33.894032,548.64 18.392029,-33.890915,548.64 18.393356,-33.890167,548.64 18.398344,-33.887878,518.16 18.39924,-33.887512,518.16 18.40456,-33.8857,518.16 18.405855,-33.885361,518.16 18.411684,-33.884079,518.16 18.412973,-33.883896,518.16 18.418524,-33.883347,487.68 18.419895,-33.883327,487.68 18.425903,-33.883419,487.68 18.427105,-33.883511,487.68 18.432713,-33.884258,426.72 18.433769,-33.884491,426.72 18.438263,-33.885933,396.24 18.439522,-33.886585,396.24 18.442795,-33.88916,365.76 18.443356,-33.889889,335.28 18.444475,-33.893097,304.8 18.444307,-33.893875,304.8 18.442064,-33.896118,274.32 18.441582,-33.896313,243.84 18.438034,-33.897385,182.88 18.437132,-33.897629,182.88 18.433971,-33.898502,121.92 18.433056,-33.898735,121.92 18.430239,-33.899368,60.96 18.428724,-33.899643,30.48 18.426819,-33.900505,30.48 18.426916,-33.900742,0 18.428364,-33.897991,60.96 18.429565,-33.895477,121.92 18.430653,-33.892776,182.88 18.43091,-33.892044,182.88 18.431797,-33.888912,243.84 18.431919,-33.88829,243.84 18.431696,-33.884491,274.32 18.431396,-33.88356,274.32 18.429678,-33.880188,335.28 18.429117,-33.879364,335.28 18.426132,-33.876156,396.24 18.425417,-33.875565,396.24 18.421669,-33.87299,426.72 18.420696,-33.872478,426.72 18.416176,-33.871128,457.2 18.415031,-33.870991,457.2 18.409481,-33.871037,487.68 18.408222,-33.871269,518.16 18.403334,-33.872452,518.16 18.402214,-33.872852,518.16 18.397408,-33.875179,548.64 18.396492,-33.87569,548.64 18.392403,-33.878174,579.12 18.391506,-33.878815,579.12 18.387583,-33.88179,579.12 18.386517,-33.88266,579.12 18.382593,-33.886093,579.12 18.381752,-33.886871,579.12 18.378334,-33.890213,579.12 18.377548,-33.890991,579.12 18.374298,-33.894379,609.6 18.373432,-33.895382,609.6 18.370399,-33.899014,609.6 18.369713,-33.899899,609.6 18.366955,-33.903305,640.08 18.366169,-33.904266,640.08 18.363647,-33.90781,640.08 18.363031,-33.908752,640.08 18.36062,-33.912506,640.08 18.3601,-33.913303,640.08 18.356609,-33.918892,670.56 18.354893,-33.921638,670.56 18.346195,-33.937885,670.56 18.344707,-33.940865,670.56 18.341675,-33.94701,670.56 18.339729,-33.950642,701.04 18.339937,-33.96048,701.04 18.34116,-33.959717,701.04 18.344135,-33.955715,670.56 18.34487,-33.954529,640.08 18.347729,-33.949814,640.08 18.348625,-33.948395,640.08 18.351597,-33.943909,609.6 18.352203,-33.942959,609.6 18.360443,-33.928993,579.12 18.362526,-33.925323,579.12 18.369701,-33.912552,609.6 18.370457,-33.911304,609.6 18.373547,-33.906929,579.12 18.374241,-33.906097,579.12 18.377996,-33.901886,579.12 18.379118,-33.900742,579.12 18.382818,-33.897171,579.12 18.383732,-33.896313,579.12 18.388311,-33.892593,548.64 18.389601,-33.891678,548.64 18.393972,-33.88884,548.64 18.395317,-33.888107,548.64 18.400417,-33.885727,548.64 18.401527,-33.885281,548.64 18.406864,-33.883667,518.16 18.408154,-33.883347,518.16 18.413544,-33.882393,518.16 18.414974,-33.882256,518.16 18.420811,-33.88221,487.68 18.422054,-33.882294,487.68 18.427773,-33.883255,487.68 18.428949,-33.883575,487.68 18.433714,-33.885315,457.2 18.435116,-33.886024,457.2 18.439064,-33.888493,426.72 18.440151,-33.889332,396.24 18.442955,-33.892216,365.76 18.443411,-33.893005,335.28 18.443069,-33.895893,335.28 18.442514,-33.896255,304.8 18.439579,-33.89706,274.32 18.438927,-33.897217,243.84 18.435917,-33.897942,182.88 18.435173,-33.898129,152.4 18.430855,-33.899139,91.44 18.428949,-33.899551,60.96 18.426819,-33.900642,30.48 18.427029,-33.90081,0 18.427773,-33.899689,30.48 18.427906,-33.899479,30.48 18.428782,-33.897858,60.96 18.429108,-33.897339,60.96 18.430462,-33.894699,121.92 18.43071,-33.894173,121.92 18.431919,-33.891083,152.4 18.432198,-33.890354,182.88 18.432928,-33.8871,213.36 18.432999,-33.886307,213.36 18.432484,-33.882858,243.84 18.432199,-33.881836,243.84 18.430538,-33.878391,274.32 18.430138,-33.877834,304.8 18.427099,-33.874969,335.28 18.426018,-33.87434,335.28 18.421497,-33.872757,365.76 18.420429,-33.872589,365.76 18.415489,-33.87262,396.24 18.414263,-33.872726,396.24 18.408434,-33.873779,426.72 18.407364,-33.874062,426.72 18.402729,-33.875553,457.2 18.401814,-33.875877,457.2 18.397179,-33.877926,487.68 18.396271,-33.878448,487.68 18.391972,-33.880764,518.16 18.391056,-33.881325,518.16 18.386854,-33.883942,548.64 18.3859,-33.884583,548.64 18.381809,-33.887375,579.12 18.380968,-33.888016,579.12 18.377438,-33.890728,609.6 18.376427,-33.891495,609.6 18.372574,-33.894962,640.08 18.371719,-33.895752,640.08 18.368568,-33.898872,640.08 18.367796,-33.899643,640.08 18.36462,-33.903111,670.56 18.363705,-33.904087,670.56 18.360786,-33.907673,701.04 18.360172,-33.908478,701.04 18.357296,-33.912327,701.04 18.356724,-33.913166,701.04 18.354092,-33.917076,731.52 18.353405,-33.918148,731.52 18.350887,-33.92215,731.52 18.350372,-33.922989,731.52 18.342852,-33.935806,762 18.340759,-33.93998,762 18.333321,-33.957157,762 18.331604,-33.961765,762 18.427492,-33.900742,30.48 18.426819,-33.900364,30.48 18.427563,-33.89827,60.96 18.427996,-33.897858,60.96 18.430424,-33.895756,91.44 18.431023,-33.895294,91.44 18.433546,-33.892685,121.92 18.434086,-33.892033,121.92 18.43626,-33.888771,152.4 18.436661,-33.888027,182.88 18.437469,-33.884583,213.36 18.437189,-33.883392,213.36 18.434834,-33.880508,243.84 18.433685,-33.879879,274.32 18.42934,-33.878403,304.8 18.428389,-33.87822,304.8 18.424185,-33.877579,335.28 18.423063,-33.877487,335.28 18.418579,-33.877228,365.76 18.417738,-33.877213,365.76 18.413141,-33.877258,396.24 18.41217,-33.877274,396.24 18.40765,-33.877598,426.72 18.406391,-33.877739,426.72 18.4021,-33.878345,457.2 18.401146,-33.878494,457.2 18.396719,-33.879364,487.68 18.395653,-33.879639,487.68 18.391514,-33.880905,518.16 18.39072,-33.881195,518.16 18.38625,-33.882813,548.64 18.385277,-33.883232,548.64 18.3811,-33.885235,548.64 18.380239,-33.885681,548.64 18.375978,-33.888016,579.12 18.375137,-33.888519,579.12 18.371271,-33.89122,609.6 18.370317,-33.891953,609.6 18.36673,-33.894974,609.6 18.365778,-33.895844,609.6 18.362638,-33.899002,609.6 18.361855,-33.899872,609.6 18.358955,-33.903252,609.6 18.358154,-33.904221,609.6 18.355856,-33.907196,640.08 18.355015,-33.908295,640.08 18.352549,-33.911591,670.56 18.352045,-33.912277,670.56 18.349972,-33.915585,670.56 18.349411,-33.916489,701.04 18.347397,-33.919914,701.04 18.346943,-33.9207,701.04 18.344994,-33.923965,731.52 18.344421,-33.924957,731.52 18.342348,-33.928482,731.52 18.341787,-33.92926,731.52 18.33876,-33.93187,762 18.337555,-33.932903,762 18.336798,-33.936401,762 18.337212,-33.937233,762 18.341446,-33.939514,762 18.342909,-33.939514,762 18.34857,-33.937637,731.52 18.349634,-33.936996,731.52 18.354174,-33.93338,701.04 18.355293,-33.932297,701.04 18.358715,-33.928482,670.56 18.359724,-33.927338,670.56 18.363422,-33.922943,670.56 18.364208,-33.922073,640.08 18.370628,-33.914654,640.08 18.374176,-33.910744,609.6 18.380856,-33.904312,579.12 18.38213,-33.903202,579.12 18.386307,-33.899807,548.64 18.387526,-33.898911,548.64 18.391857,-33.895847,548.64 18.393173,-33.895058,548.64 18.398457,-33.892502,548.64 18.399578,-33.89209,548.64 18.40535,-33.890396,518.16 18.406864,-33.89003,518.16 18.412514,-33.888912,518.16 18.413815,-33.888657,518.16 18.41938,-33.887886,487.68 18.420696,-33.887703,487.68 18.426538,-33.886734,487.68 18.427906,-33.886585,457.2 18.43317,-33.886585,426.72 18.434658,-33.886723,426.72 18.439936,-33.88797,365.76 18.440777,-33.888245,365.76 18.445148,-33.890442,335.28 18.44593,-33.891148,335.28 18.44795,-33.894196,335.28 18.448231,-33.894882,335.28 18.447279,-33.896942,335.28 18.446829,-33.897125,335.28 18.444443,-33.897106,274.32 18.443813,-33.896965,274.32 18.441238,-33.896641,213.36 18.440271,-33.896622,182.88 18.43626,-33.897385,152.4 18.435562,-33.897629,121.92 18.432985,-33.898682,91.44 18.432426,-33.898872,91.44 18.429909,-33.89962,60.96 18.429165,-33.899899,60.96 18.427677,-33.900642,30.48 18.43063,-33.900833,60.96 18.435974,-33.900085,121.92 18.437021,-33.899597,121.92 18.440327,-33.897491,152.4 18.440838,-33.896824,152.4 18.441696,-33.892963,182.88 18.441561,-33.891861,182.88 18.44038,-33.888027,213.36 18.439936,-33.887146,243.84 18.437347,-33.88356,243.84 18.436684,-33.882935,274.32 18.433456,-33.880161,304.8 18.432648,-33.879639,335.28 18.429108,-33.878204,365.76 18.428249,-33.877972,365.76 18.424017,-33.877258,426.72 18.422895,-33.877167,426.72 18.418524,-33.876892,426.72 18.417234,-33.876846,426.72 18.412685,-33.876621,457.2 18.411484,-33.876621,457.2 18.406696,-33.876892,487.68 18.405476,-33.876995,487.68 18.400698,-33.877716,518.16 18.399696,-33.877926,518.16 18.395094,-33.879227,548.64 18.394308,-33.879456,548.64 18.389544,-33.881195,579.12 18.388596,-33.881512,579.12 18.384418,-33.883186,579.12 18.383322,-33.883667,579.12 18.379326,-33.885422,609.6 18.377838,-33.886024,609.6 18.373905,-33.888016,609.6 18.372974,-33.888584,640.08 18.368916,-33.891129,640.08 18.367939,-33.891846,670.56 18.364489,-33.89447,670.56 18.36376,-33.895065,670.56 18.360558,-33.898037,701.04 18.359985,-33.898594,701.04 18.356781,-33.901947,701.04 18.356209,-33.902554,731.52 18.353462,-33.905716,731.52 18.352774,-33.906601,762 18.349802,-33.910629,731.52 18.349354,-33.91127,731.52 18.346996,-33.915215,731.52 18.346539,-33.91605,731.52 18.344479,-33.920055,731.52 18.344028,-33.920975,701.04 18.34219,-33.925037,731.52 18.341789,-33.926155,701.04 18.340359,-33.930202,701.04 18.339712,-33.93132,701.04 18.336754,-33.934719,731.52 18.336407,-33.93512,731.52 18.335037,-33.939514,762 18.33534,-33.940567,762 18.338242,-33.94389,762 18.339272,-33.944542,762 18.343861,-33.946243,762 18.34515,-33.946426,762 18.350307,-33.945419,731.52 18.351402,-33.944729,731.52 18.355122,-33.941006,701.04 18.355865,-33.940071,701.04 18.358727,-33.93565,670.56 18.359444,-33.934479,670.56 18.362078,-33.930084,640.08 18.362846,-33.928761,640.08 18.365665,-33.9245,640.08 18.366508,-33.923359,640.08 18.369982,-33.918915,609.6 18.3708,-33.917866,609.6 18.374119,-33.913773,579.12 18.374859,-33.912872,579.12 18.378124,-33.908836,579.12 18.37895,-33.90802,579.12 18.382818,-33.904129,579.12 18.383657,-33.903351,579.12 18.387909,-33.899807,548.64 18.389168,-33.898922,548.64 18.393915,-33.896072,548.64 18.395372,-33.895386,548.64 18.400497,-33.893379,548.64 18.401871,-33.892914,548.64 18.407145,-33.89122,518.16 18.408377,-33.890854,518.16 18.41387,-33.889297,487.68 18.414879,-33.889023,487.68 18.42071,-33.88765,457.2 18.421999,-33.887329,457.2 18.427547,-33.886459,426.72 18.428949,-33.886322,426.72 18.434544,-33.886353,396.24 18.436012,-33.886505,396.24 18.441296,-33.887562,396.24 18.442383,-33.887936,365.76 18.446732,-33.889984,365.76 18.447762,-33.89082,365.76 18.449856,-33.893692,335.28 18.450165,-33.894638,335.28 18.448906,-33.89706,304.8 18.448448,-33.897198,304.8 18.444811,-33.896896,243.84 18.444027,-33.896759,243.84 18.440384,-33.896713,182.88 18.439522,-33.896824,182.88 18.435732,-33.897629,121.92 18.434772,-33.897991,121.92 18.429958,-33.899918,60.96 18.429165,-33.900272,60.96 18.42766,-33.90033,30.48 18.427883,-33.899597,30.48 18.428444,-33.898453,30.48 18.428724,-33.898087,30.48 18.43071,-33.895245,91.44 18.431168,-33.894638,91.44 18.433208,-33.891815,152.4 18.433714,-33.891037,152.4 18.435619,-33.88797,213.36 18.436031,-33.887238,213.36 18.437302,-33.883942,243.84 18.437347,-33.883141,274.32 18.436203,-33.879601,304.8 18.435787,-33.878952,304.8 18.433153,-33.875885,335.28 18.432367,-33.875244,335.28 18.428612,-33.872864,335.28 18.42766,-33.872452,365.76 18.423008,-33.871307,396.24 18.421774,-33.871124,396.24 18.417149,-33.870991,426.72 18.415833,-33.871082,426.72 18.411427,-33.871689,457.2 18.409252,-33.872105,487.68 18.404903,-33.873455,487.68 18.403816,-33.873875,487.68 18.400137,-33.875427,518.16 18.399067,-33.875923,518.16 18.395462,-33.877785,548.64 18.394432,-33.878345,548.64 18.39061,-33.880646,548.64 18.389769,-33.881195,548.64 18.385956,-33.883759,579.12 18.385172,-33.884308,579.12 18.3815,-33.887051,579.12 18.380688,-33.88765,579.12 18.377436,-33.890396,609.6 18.376652,-33.891129,609.6 18.3734,-33.894058,609.6 18.372671,-33.894745,609.6 18.369541,-33.89785,640.08 18.36886,-33.898499,640.08 18.366051,-33.901669,640.08 18.365553,-33.902206,640.08 18.362638,-33.905594,670.56 18.362022,-33.906372,670.56 18.359331,-33.909668,670.56 18.357468,-33.912094,701.04 18.354034,-33.916843,701.04 18.353519,-33.917587,701.04 18.351036,-33.921387,701.04 18.35043,-33.922382,701.04 18.34837,-33.925735,731.52 18.347784,-33.926651,731.52 18.345966,-33.929924,731.52 18.345598,-33.930634,731.52 18.343678,-33.934441,731.52 18.343277,-33.93523,762 18.34156,-33.938862,762 18.341045,-33.939934,762 18.339329,-33.943333,762 18.339096,-33.944,762 18.340162,-33.948212,762 18.340988,-33.948917,762 18.346195,-33.950222,731.52 18.347282,-33.949944,731.52 18.35146,-33.946682,731.52 18.352432,-33.945332,701.04 18.35524,-33.940933,670.56 18.355923,-33.939747,670.56 18.358603,-33.934845,670.56 18.359127,-33.933834,670.56 18.361855,-33.928391,640.08 18.362446,-33.927177,640.08 18.367964,-33.916077,609.6 18.37043,-33.911545,609.6 18.374805,-33.904598,579.12 18.375607,-33.903389,579.12 18.378639,-33.899059,579.12 18.379343,-33.898132,579.12 18.382706,-33.894058,579.12 18.383602,-33.893097,579.12 18.387806,-33.889206,579.12 18.38904,-33.888336,579.12 18.394146,-33.885605,579.12 18.39543,-33.88504,579.12 18.400417,-33.883255,579.12 18.401987,-33.882843,579.12 18.407368,-33.881607,579.12 18.409023,-33.881371,579.12 18.414574,-33.880814,579.12 18.41589,-33.880764,548.64 18.421612,-33.881184,548.64 18.423214,-33.881512,548.64 18.428249,-33.883327,518.16 18.429565,-33.883942,518.16 18.4338,-33.88612,457.2 18.435001,-33.886772,457.2 18.439007,-33.889236,426.72 18.439693,-33.889656,426.72 18.443584,-33.892216,396.24 18.444328,-33.892868,396.24 18.44593,-33.895893,365.76 18.445877,-33.896759,335.28 18.443914,-33.899231,304.8 18.443186,-33.899506,304.8 18.440266,-33.899666,274.32 18.439579,-33.89962,243.84 18.436661,-33.899433,182.88 18.435843,-33.899414,182.88 18.433113,-33.8992,121.92 18.432087,-33.899139,91.44 18.428593,-33.89957,30.48 18.428164,-33.899734,30.48 18.427715,-33.899872,30.48 18.428135,-33.899155,30.48 18.430349,-33.896393,91.44 18.43091,-33.895569,91.44 18.432816,-33.892731,152.4 18.433399,-33.8918,152.4 18.435402,-33.888401,182.88 18.435843,-33.887558,213.36 18.436604,-33.88393,243.84 18.436516,-33.883118,243.84 18.435345,-33.879696,274.32 18.43483,-33.878948,274.32 18.431911,-33.875832,335.28 18.43111,-33.875179,335.28 18.427563,-33.872898,365.76 18.426361,-33.872292,365.76 18.421942,-33.870712,396.24 18.420765,-33.870438,396.24 18.416176,-33.869827,426.72 18.414974,-33.869778,457.2 18.411123,-33.869888,487.68 18.409653,-33.87006,487.68 18.404959,-33.871124,548.64 18.404062,-33.871353,548.64 18.399639,-33.872944,579.12 18.398781,-33.873318,579.12 18.394814,-33.875153,609.6 18.393974,-33.875599,609.6 18.390049,-33.877808,640.08 18.388927,-33.878494,640.08 18.385391,-33.880814,670.56 18.384476,-33.881462,670.56 18.380985,-33.884026,701.04 18.380241,-33.884583,701.04 18.377094,-33.887283,731.52 18.376236,-33.888027,731.52 18.373121,-33.890991,731.52 18.372335,-33.891769,731.52 18.369255,-33.894962,762 18.368525,-33.895844,762 18.365479,-33.899338,731.52 18.364824,-33.900101,762 18.362274,-33.903252,762 18.361244,-33.904598,731.52 18.358727,-33.907951,731.52 18.35821,-33.908707,731.52 18.355801,-33.912323,731.52 18.355183,-33.913193,762 18.352947,-33.916702,762 18.352604,-33.917263,762 18.348427,-33.923824,762 18.347282,-33.925735,762 18.345509,-33.92918,762 18.344879,-33.930344,792.48 18.342909,-33.93457,762 18.34259,-33.935417,762 18.340721,-33.940201,762 18.34033,-33.941162,762 18.338585,-33.945705,762 18.3382,-33.947617,762 18.341339,-33.950317,731.52 18.343048,-33.950222,701.04 18.347569,-33.94701,731.52 18.34877,-33.945847,731.52 18.352213,-33.941895,731.52 18.35289,-33.941097,731.52 18.35638,-33.936722,762 18.356865,-33.936035,762 18.3601,-33.931416,731.52 18.360844,-33.930157,731.52 18.363533,-33.925457,701.04 18.364151,-33.924316,701.04 18.366623,-33.919636,670.56 18.367403,-33.918228,670.56 18.370342,-33.913399,640.08 18.371159,-33.912231,640.08 18.374634,-33.907562,609.6 18.375587,-33.906372,609.6 18.378925,-33.901947,609.6 18.379726,-33.900921,609.6 18.383266,-33.896164,609.6 18.383995,-33.895157,609.6 18.387358,-33.890991,609.6 18.388535,-33.889801,609.6 18.392487,-33.886539,640.08 18.393579,-33.885818,640.08 18.398624,-33.883392,640.08 18.399582,-33.882999,640.08 18.404903,-33.881416,640.08 18.406471,-33.881058,640.08 18.411884,-33.880207,640.08 18.413366,-33.880051,609.6 18.41942,-33.880051,609.6 18.420639,-33.880161,609.6 18.426247,-33.881371,548.64 18.427773,-33.881882,548.64 18.432705,-33.884216,457.2 18.433769,-33.884811,457.2 18.438198,-33.887558,426.72 18.439178,-33.888306,396.24 18.442554,-33.891006,365.76 18.443527,-33.891846,335.28 18.44593,-33.894917,304.8 18.4461,-33.895706,304.8 18.445036,-33.898636,304.8 18.444443,-33.899155,304.8 18.44128,-33.900192,243.84 18.440271,-33.900192,243.84 18.436832,-33.899712,182.88 18.436375,-33.899666,182.88 18.433285,-33.899155,121.92 18.432369,-33.899014,91.44 18.428556,-33.89978,30.48 18.42794,-33.900009,30.48 18.43091,-33.901474,91.44 18.431511,-33.901573,91.44 18.434315,-33.901573,152.4 18.43523,-33.901436,152.4 18.437977,-33.899899,182.88 18.438646,-33.899139,213.36 18.440271,-33.895615,243.84 18.440323,-33.894684,243.84 18.439236,-33.8904,274.32 18.438835,-33.889469,274.32 18.436489,-33.885048,304.8 18.435917,-33.884117,304.8 18.432873,-33.880234,335.28 18.431911,-33.87923,335.28 18.428478,-33.876202,365.76 18.427492,-33.875473,365.76 18.422699,-33.873131,396.24 18.421438,-33.872818,396.24 18.41629,-33.872574,396.24 18.41486,-33.872711,396.24 18.410053,-33.873455,426.72 18.408489,-33.873871,426.72 18.403612,-33.875473,426.72 18.402443,-33.875923,457.2 18.398008,-33.877945,457.2 18.397007,-33.878437,457.2 18.392906,-33.880737,487.68 18.392067,-33.881241,487.68 18.388596,-33.883465,487.68 18.387394,-33.884304,487.68 18.383675,-33.887142,487.68 18.382931,-33.887749,487.68 18.379511,-33.890625,487.68 18.378754,-33.891285,487.68 18.375721,-33.894218,487.68 18.375034,-33.894871,487.68 18.372116,-33.897663,518.16 18.371159,-33.89859,518.16 18.368412,-33.901474,548.64 18.367964,-33.901978,548.64 18.365498,-33.904953,548.64 18.364792,-33.905811,548.64 18.362217,-33.909256,548.64 18.361685,-33.909988,548.64 18.359444,-33.913422,548.64 18.358955,-33.914238,548.64 18.35701,-33.917728,548.64 18.35638,-33.918797,548.64 18.354343,-33.922668,548.64 18.35392,-33.923546,548.64 18.348541,-33.933929,609.6 18.346024,-33.938675,609.6 18.340645,-33.9505,609.6 18.340611,-33.951508,609.6 18.347055,-33.952835,579.12 18.348141,-33.951618,548.64 18.351259,-33.946701,548.64 18.351988,-33.945328,518.16 18.354624,-33.940338,518.16 18.355072,-33.939468,518.16 18.358435,-33.932327,548.64 18.358883,-33.931229,548.64 18.360901,-33.926331,548.64 18.361404,-33.925278,548.64 18.363533,-33.920662,548.64 18.364264,-33.919235,548.64 18.366507,-33.914978,548.64 18.367252,-33.913677,548.64 18.36977,-33.909023,548.64 18.370571,-33.907673,548.64 18.373375,-33.903389,548.64 18.37413,-33.902298,548.64 18.377661,-33.89772,548.64 18.378353,-33.896824,548.64 18.38209,-33.892822,518.16 18.383274,-33.891705,518.16 18.387751,-33.888245,518.16 18.38887,-33.887604,518.16 18.394375,-33.885094,518.16 18.39599,-33.884445,487.68 18.40147,-33.882393,487.68 18.402773,-33.881973,487.68 18.407993,-33.880299,487.68 18.40933,-33.879913,487.68 18.414574,-33.878716,457.2 18.416168,-33.878494,457.2 18.421783,-33.878204,457.2 18.422951,-33.878403,457.2 18.426483,-33.880188,426.72 18.427044,-33.880737,396.24 18.428501,-33.883209,365.76 18.428837,-33.883942,365.76 18.429852,-33.886539,304.8 18.430014,-33.8871,304.8 18.430595,-33.889889,243.84 18.430653,-33.890633,213.36 18.430742,-33.892822,182.88 18.430687,-33.893463,182.88 18.429958,-33.895798,121.92 18.429733,-33.89621,121.92 18.42794,-33.898773,60.96 18.427715,-33.899094,60.96 18.426876,-33.900551,30.48 18.427002,-33.900799,0 18.428879,-33.90097,30.48 18.42968,-33.90097,60.96 18.432598,-33.900551,91.44 18.433601,-33.900284,91.44 18.436775,-33.898315,152.4 18.437519,-33.897385,152.4 18.438549,-33.893333,182.88 18.438534,-33.892365,213.36 18.437973,-33.88829,243.84 18.437634,-33.887051,243.84 18.435171,-33.882523,304.8 18.434105,-33.881561,304.8 18.429678,-33.879501,304.8 18.428535,-33.879135,335.28 18.42396,-33.878311,365.76 18.422503,-33.878174,396.24 18.417458,-33.877899,426.72 18.416225,-33.877853,426.72 18.411573,-33.877762,457.2 18.410454,-33.877785,457.2 18.405519,-33.878311,487.68 18.404453,-33.878494,487.68 18.399582,-33.879555,518.16 18.398609,-33.879833,518.16 18.394089,-33.881603,548.64 18.392906,-33.882111,548.64 18.38887,-33.884171,548.64 18.387794,-33.884815,579.12 18.383846,-33.887421,579.12 18.382986,-33.888016,609.6 18.379343,-33.890945,609.6 18.37867,-33.891541,640.08 18.375195,-33.894745,640.08 18.374578,-33.89534,640.08 18.371372,-33.89864,670.56 18.370686,-33.899338,670.56 18.367767,-33.902599,701.04 18.366955,-33.903534,701.04 18.363928,-33.906967,701.04 18.363367,-33.907654,701.04 18.360729,-33.910885,701.04 18.359814,-33.912003,701.04 18.35737,-33.915436,701.04 18.356865,-33.916168,701.04 18.354492,-33.920197,701.04 18.354006,-33.921066,701.04 18.35186,-33.925224,701.04 18.351402,-33.926201,701.04 18.349689,-33.929993,701.04 18.349228,-33.931087,701.04 18.346214,-33.938965,701.04 18.346138,-33.93919,701.04 18.34219,-33.950359,731.52 18.34173,-33.951462,731.52 18.340105,-33.955261,731.52 18.339558,-33.956646,731.52 18.332348,-33.975079,701.04 18.331547,-33.977455,701.04 18.329344,-33.987305,701.04 18.328915,-33.990536,731.52 18.328838,-33.998016,731.52 18.328838,-33.999161,731.52 18.329006,-34.003052,731.52 18.329063,-34.004242,731.52 18.329487,-34.00827,731.52 18.329624,-34.00914,731.52 18.330688,-34.01302,701.04 18.331081,-34.01413,701.04 18.33292,-34.01786,701.04 18.333435,-34.0187,701.04 18.335621,-34.022141,731.52 18.336182,-34.022984,731.52 18.338535,-34.026855,731.52 18.339043,-34.027779,731.52 18.340946,-34.031387,731.52 18.341339,-34.032211,731.52 18.343132,-34.035873,762 18.343412,-34.03656,762 18.344982,-34.040451,731.52 18.345205,-34.041321,731.52 18.346159,-34.045349,731.52 18.346327,-34.046265,731.52 18.346939,-34.050354,731.52 18.346996,-34.051285,731.52 18.347054,-34.055614,731.52 18.347055,-34.056519,731.52 18.347,-34.060822,731.52 18.346996,-34.061806,731.52 18.346832,-34.066177,731.52 18.34671,-34.069302,731.52 18.346495,-34.074417,701.04 18.346439,-34.075607,701.04 18.34631,-34.08173,701.04 18.346367,-34.08271,701.04 18.346943,-34.087097,670.56 18.347168,-34.088058,670.56 18.348738,-34.092224,670.56 18.349186,-34.092957,670.56 18.352146,-34.096909,640.08 18.353222,-34.0979,640.08 18.357819,-34.10083,640.08 18.359127,-34.101421,640.08 18.364208,-34.103531,640.08 18.36533,-34.103989,640.08 18.370628,-34.105984,640.08 18.371716,-34.106403,640.08 18.376751,-34.108406,609.6 18.377953,-34.108871,609.6 18.384611,-34.111771,609.6 18.385677,-34.112225,609.6 18.390656,-34.114273,609.6 18.39201,-34.114792,609.6 18.403587,-34.119392,579.12 18.407368,-34.120926,579.12 18.414459,-34.123814,548.64 18.415888,-34.124405,548.64 18.42127,-34.126556,548.64 18.422699,-34.127071,548.64 18.427773,-34.128983,548.64 18.428892,-34.12944,548.64 18.433914,-34.13131,548.64 18.435171,-34.131775,518.16 18.440552,-34.133591,518.16 18.441811,-34.133869,518.16 18.447533,-34.134056,518.16 18.448904,-34.133743,518.16 18.454678,-34.131317,518.16 18.45619,-34.130447,518.16 18.460751,-34.127213,518.16 18.461964,-34.12619,487.68 18.466244,-34.122231,487.68 18.467388,-34.121021,518.16 18.471451,-34.116459,487.68 18.472366,-34.115437,487.68 18.475864,-34.11113,518.16 18.476538,-34.110123,518.16 18.478891,-34.105362,518.16 18.47934,-34.104172,518.16 18.480125,-34.099045,518.16 18.480148,-34.097885,518.16 18.479919,-34.092346,518.16 18.479862,-34.090855,518.16 18.479633,-34.085407,487.68 18.479633,-34.084011,487.68 18.480034,-34.078472,487.68 18.480206,-34.076843,487.68 18.480854,-34.071854,487.68 18.481022,-34.070343,487.68 18.481695,-34.064713,487.68 18.481863,-34.063339,487.68 18.484329,-34.043198,548.64 18.484552,-34.038208,548.64 18.484898,-34.027824,579.12 18.485058,-34.022324,609.6 18.485506,-34.004929,579.12 18.485674,-34.000809,579.12 18.486729,-33.981735,518.16 18.48674,-33.976318,518.16 18.4865,-33.970284,518.16 18.486403,-33.968948,518.16 18.485899,-33.963501,518.16 18.485756,-33.961811,487.68 18.485394,-33.956177,487.68 18.485281,-33.954575,487.68 18.48461,-33.948853,487.68 18.484325,-33.94701,487.68 18.483467,-33.94175,457.2 18.483181,-33.940491,457.2 18.481525,-33.934479,457.2 18.480949,-33.932903,457.2 18.478163,-33.927658,457.2 18.47723,-33.926247,457.2 18.47374,-33.921963,457.2 18.472782,-33.920929,457.2 18.468819,-33.916889,457.2 18.468073,-33.916077,457.2 18.464149,-33.912003,457.2 18.463211,-33.911072,426.72 18.459606,-33.907066,426.72 18.458748,-33.906136,426.72 18.451818,-33.898224,426.72 18.450977,-33.897171,426.72 18.448162,-33.893707,396.24 18.447279,-33.892776,396.24 18.444027,-33.890579,365.76 18.443012,-33.890263,365.76 18.43943,-33.8909,335.28 18.438927,-33.891266,335.28 18.435955,-33.894012,243.84 18.43523,-33.894592,243.84 18.433285,-33.896034,182.88 18.432816,-33.896301,182.88 18.430767,-33.897385,121.92 18.430023,-33.89785,91.44 18.427996,-33.899963,60.96 18.42794,-33.900284,30.48 18.427505,-33.900784,30.48 18.428221,-33.900833,60.96 18.432884,-33.901154,91.44 18.433657,-33.901108,121.92 18.437132,-33.900375,152.4 18.437918,-33.900055,152.4 18.44128,-33.898315,182.88 18.442122,-33.89772,182.88 18.445091,-33.894562,213.36 18.445429,-33.893784,213.36 18.445597,-33.889938,243.84 18.445204,-33.888794,243.84 18.442841,-33.885139,274.32 18.442122,-33.884399,274.32 18.438721,-33.881184,304.8 18.437805,-33.880531,304.8 18.433376,-33.878448,365.76 18.432425,-33.878174,365.76 18.428331,-33.877533,426.72 18.427212,-33.877396,426.72 18.423344,-33.877167,457.2 18.422184,-33.877182,487.68 18.417835,-33.877041,518.16 18.416805,-33.876995,518.16 18.41217,-33.876762,548.64 18.411123,-33.876709,548.64 18.40608,-33.876846,579.12 18.405127,-33.876938,579.12 18.400642,-33.877441,609.6 18.399578,-33.877579,609.6 18.393805,-33.878403,609.6 18.392715,-33.878578,609.6 18.387974,-33.879639,609.6 18.386629,-33.880051,609.6 18.382145,-33.88179,640.08 18.380911,-33.882339,640.08 18.376408,-33.884537,640.08 18.375263,-33.885139,640.08 18.371326,-33.887466,640.08 18.370094,-33.888199,640.08 18.366339,-33.890762,640.08 18.365217,-33.891541,640.08 18.361759,-33.894314,670.56 18.361013,-33.894974,670.56 18.357983,-33.898129,670.56 18.357353,-33.898827,670.56 18.354778,-33.902134,670.56 18.354149,-33.903019,670.56 18.351652,-33.906464,670.56 18.351091,-33.90715,701.04 18.348885,-33.910278,701.04 18.348427,-33.911072,701.04 18.346495,-33.914291,701.04 18.346081,-33.915119,701.04 18.344307,-33.918613,701.04 18.343861,-33.919556,701.04 18.342291,-33.923035,731.52 18.341961,-33.923874,731.52 18.340611,-33.927338,731.52 18.340273,-33.928162,731.52 18.337919,-33.931458,701.04 18.337154,-33.932251,731.52 18.334108,-33.934891,731.52 18.333321,-33.935463,731.52 18.32996,-33.937912,762 18.329315,-33.938351,792.48 18.326204,-33.940613,853.44 18.326429,-33.941345,822.96 18.329029,-33.943516,822.96 18.330128,-33.944046,822.96 18.334122,-33.945751,792.48 18.335228,-33.946152,762 18.339882,-33.947708,762 18.340702,-33.947941,762 18.345623,-33.948963,701.04 18.346882,-33.948963,701.04 18.351974,-33.947662,640.08 18.353233,-33.946964,640.08 18.35681,-33.943314,609.6 18.35737,-33.942398,609.6 18.359947,-33.938141,579.12 18.36062,-33.936859,579.12 18.363087,-33.93251,579.12 18.363647,-33.931461,579.12 18.366114,-33.927109,579.12 18.366737,-33.925968,579.12 18.368969,-33.922012,579.12 18.369598,-33.920986,609.6 18.372288,-33.916843,579.12 18.372917,-33.915867,579.12 18.375893,-33.911816,609.6 18.376539,-33.91095,579.12 18.379898,-33.906975,609.6 18.380814,-33.905998,609.6 18.384476,-33.902317,579.12 18.38534,-33.90152,579.12 18.389376,-33.898453,609.6 18.390385,-33.897812,609.6 18.394533,-33.895294,579.12 18.395634,-33.89473,579.12 18.400755,-33.89241,579.12 18.401875,-33.891953,579.12 18.406919,-33.890076,548.64 18.408041,-33.889664,548.64 18.413031,-33.888153,518.16 18.414488,-33.887741,518.16 18.419781,-33.886307,487.68 18.421211,-33.885979,518.16 18.426075,-33.884724,518.16 18.427219,-33.884441,518.16 18.431282,-33.884304,518.16 18.431528,-33.884766,518.16 18.429846,-33.88623,457.2 18.429062,-33.886459,457.2 18.427391,-33.887794,396.24 18.427563,-33.888306,365.76 18.429678,-33.89003,304.8 18.430294,-33.89035,304.8 18.43277,-33.891983,274.32 18.433208,-33.892456,243.84 18.433937,-33.894333,213.36 18.433546,-33.894791,213.36 18.430767,-33.89529,152.4 18.430349,-33.89534,121.92 18.42738,-33.897079,91.44 18.427162,-33.897663,60.96 18.427212,-33.89946,60.96 18.427277,-33.899757,60.96
        </coordinates>
      </LineString>
    </Placemark>
  </Document>
</kml>