<?xml version="1.0" encoding="UTF-8"?>
<kml xmlns="http://www.opengis.net/kml/2.2">
  <Document>
    <name>-/ZTHOT - Optimised</name>
    <description><![CDATA[Optimised flight path with 1347 points (decimated from 6731 original points). Source format: Standard KML]]></description>
    
    <Style id="flightPath">
      <LineStyle>
        <color>ff0000ff</color>
        <width>3</width>
      </LineStyle>
    </Style>
    
    <Placemark>
      <name>Flight Path</name>
      <description><![CDATA[<div style="width:220px; text-align:center;">
<div style="width:210px; text-align:center;">
<div style=" background: #000; color: #fff; font-size: 14px; text-align:left; border: 1px solid #000; padding: 2px 6px; text-shadow: 0 1px 0 #000; box-shadow: 0 1px 3px rgba(0,0,0,0.6); background: -webkit-gradient(linear, left top, left bottom, color-stop(0%,#808080), color-stop(2%,#303030), color-stop(100%,#0c0c0c));"><span style="font-size: 14px; font-weight: bold;"><a href="javascript:void(0);" style="color: #fff; cursor: pointer;text-decoration: none;">-</a></span> / ZTHOT<br/>Cape Town Helicopters</div>

<div style="border-top: 1px solid #005c90; color: #fff; padding-bottom: 5px; box-shadow: 0 0 1px #9BE3F6 inset, 0 1px 0 #9BE3F6 inset, 0 -1px 3px rgba(0,0,0,0.4); background:rgba(43,114,173,1); background: -webkit-gradient(linear, left top, left bottom, color-stop(0%,rgba(92,184,229,1)), color-stop(100%,rgba(43,114,173,1)));">
<a style="text-decoration: none; color: rgb(255, 255, 255); font-size: 12px; width:77px; display: inline-block;" title=" Airport" href="javascript:void(0);/departures"><h3 style="padding: 0px; margin: 10px 0px 0px; font-size: 16px; ">?</h3></a>
<span style="background: url(https://www.flightradar24.com/static/images/userUI_sprite.png?14) no-repeat scroll 0 -464px rgba(0, 0, 0, 0); border: medium none; display: inline-block; height: 16px; width: 45px;"></span>
<a style="text-decoration: none; color: rgb(255, 255, 255); font-size: 12px; width:77px; display: inline-block;" title=" Airport" href="javascript:void(0);/arrivals"><h3 style="padding: 0px; margin: 10px 0px 0px; font-size: 16px;">?</h3></a>
<div style=" margin-top:10px;">
<div style="display: inline-block; font-size: 12px; padding: 0 5px;">
<div>
<span style="color: #c1eaff;" title="Actual Time of Departure">ATD </span>
<span title="2025-04-02 14:18">14:18</span> <span title="Coordinated Universal Time">UTC</span>
</div>
</div>
<div style="display: inline-block; font-size: 12px; padding: 0 5px;">
<div>
<span style="color: #c1eaff;" title="Estimated Time of Arrival">ETA </span>
<span title="2025-04-02 10:04">10:04</span> <span title="Coordinated Universal Time">UTC</span>
</div>
</div>
</div>
<br style="clear: both;"/>
</div>

<div style="display: block;">
<table style="border-collapse: collapse; width: 100%;">
<tr style="border-right: 1px solid #dadada; ">
<td style="background: none repeat scroll 0 0 #dadada; padding: 0; width: 31px;">
<span style="background: url(https://www.flightradar24.com/static/images/userUI_sprite.png?14) no-repeat scroll -208px -464px rgba(0, 0, 0, 0); height: 26px; margin: 8px 0 0 4px; width: 23px; display: block;"></span>
</td>
<td colspan="2" style="border-bottom: 1px solid #dadada; border-left: 1px solid #dadada; color: #666; line-height: 1.1em; padding: 3px 6px; vertical-align: top; font-size: 14px;">
Aircraft<span style="float: right; font-size: 12px;">(AS50)</span><br>
<span style="color: #333; font-size: 16px; font-weight: bold; line-height: 1.3em;">Airbus Helicopters H125</span>
</td>
</tr>
<tr style="border-right: 1px solid #dadada; ">
<td style="background: none repeat scroll 0 0 #dadada; padding: 0; width: 31px;">
<td colspan="2" style="border-bottom: 1px solid #dadada; border-left: 1px solid #dadada; color: #666; line-height: 1.1em; padding: 3px 6px; vertical-align: top; font-size: 14px;">
Registration<br>
<span style="color: #333; font-size: 16px; font-weight: bold; line-height: 1.3em;"><a href="https://www.flightradar24.com/reg/zt-hot" style="text-decoration: none; color: #333;">ZT-HOT</a></span>
</td>
</tr>
</table>
</div>

</div>
</div>]]></description>
      <styleUrl>#flightPath</styleUrl>
      <LineString>
        <extrude>1</extrude>
        <tessellate>1</tessellate>
        <altitudeMode>absolute</altitudeMode>
        <coordinates>
          18.429621,-33.901062,60.96 18.437233,-33.902134,182.88 18.441467,-33.901154,213.36 18.445187,-33.897385,243.84 18.446617,-33.892033,274.32 18.445652,-33.886093,304.8 18.441673,-33.879639,304.8 18.436146,-33.874016,335.28 18.428782,-33.870575,365.76 18.420925,-33.869453,365.76 18.4132,-33.870338,365.76 18.406416,-33.872086,396.24 18.399353,-33.874603,396.24 18.393574,-33.876995,426.72 18.387909,-33.879742,457.2 18.382313,-33.883072,487.68 18.3771,-33.887009,487.68 18.372917,-33.890728,518.16 18.368805,-33.894928,518.16 18.364992,-33.899414,548.64 18.36153,-33.904228,548.64 18.358498,-33.90921,579.12 18.355751,-33.914562,579.12 18.353445,-33.919739,609.6 18.351316,-33.925232,609.6 18.347672,-33.935532,640.08 18.343525,-33.945099,670.56 18.340498,-33.9505,670.56 18.334637,-33.959393,701.04 18.323593,-33.978153,701.04 18.319702,-33.98909,762 18.318525,-33.994583,792.48 18.318043,-33.999939,822.96 18.318693,-34.005341,822.96 18.320543,-34.010376,822.96 18.322842,-34.015091,792.48 18.325481,-34.019398,762 18.328285,-34.023869,731.52 18.332577,-34.031826,701.04 18.334465,-34.035969,701.04 18.338255,-34.040955,731.52 18.342068,-34.038574,762 18.339489,-34.033493,792.48 18.334837,-34.028732,762 18.329454,-34.023926,762 18.32159,-34.015862,762 18.317757,-34.010506,762 18.315554,-34.004288,762 18.314825,-33.998016,762 18.315611,-33.991745,762 18.317699,-33.985928,731.52 18.324795,-33.974056,762 18.334499,-33.957596,701.04 18.345566,-33.939236,640.08 18.35849,-33.920334,640.08 18.371944,-33.902878,609.6 18.381844,-33.8918,609.6 18.387222,-33.888073,609.6 18.393019,-33.88504,640.08 18.398905,-33.882706,609.6 18.405247,-33.880905,609.6 18.411713,-33.879974,579.12 18.417778,-33.879787,579.12 18.423399,-33.880737,548.64 18.427155,-33.882935,487.68 18.42905,-33.8857,457.2 18.430294,-33.88829,365.76 18.431416,-33.890671,304.8 18.433228,-33.894871,152.4 18.432705,-33.897034,121.92 18.42923,-33.898544,60.96 18.427505,-33.900177,30.48 18.431751,-33.901428,60.96 18.437412,-33.90152,182.88 18.441696,-33.898594,213.36 18.443813,-33.893475,243.84 18.44244,-33.887188,304.8 18.438206,-33.881229,304.8 18.431797,-33.876808,304.8 18.42396,-33.874329,335.28 18.415216,-33.873688,335.28 18.407021,-33.874481,335.28 18.399466,-33.876297,335.28 18.392851,-33.878586,335.28 18.386684,-33.881653,365.76 18.380968,-33.885361,365.76 18.376293,-33.889191,396.24 18.371544,-33.893799,396.24 18.367348,-33.89859,396.24 18.363592,-33.903488,426.72 18.360285,-33.908478,426.72 18.357468,-33.91354,426.72 18.354836,-33.918938,457.2 18.352203,-33.924759,426.72 18.347672,-33.935806,426.72 18.3433,-33.94519,426.72 18.340105,-33.951141,426.72 18.3288,-33.968655,457.2 18.318693,-33.987854,487.68 18.316956,-33.995983,518.16 18.317699,-34.001801,487.68 18.319254,-34.006393,518.16 18.321648,-34.011158,518.16 18.323906,-34.014908,548.64 18.327942,-34.021168,548.64 18.331032,-34.027405,579.12 18.332481,-34.031891,609.6 18.333435,-34.036423,609.6 18.334051,-34.041092,609.6 18.334557,-34.046082,640.08 18.335037,-34.053429,609.6 18.334219,-34.059677,579.12 18.332634,-34.06525,579.12 18.330576,-34.070663,640.08 18.327942,-34.077587,670.56 18.319366,-34.098175,670.56 18.316498,-34.103657,640.08 18.310118,-34.116989,609.6 18.308043,-34.12262,609.6 18.30677,-34.128239,609.6 18.306753,-34.133652,609.6 18.307571,-34.13871,609.6 18.308828,-34.143494,609.6 18.310173,-34.148346,609.6 18.311687,-34.153015,609.6 18.313761,-34.157455,579.12 18.316097,-34.161568,579.12 18.318443,-34.165573,579.12 18.321047,-34.169678,579.12 18.32777,-34.180191,609.6 18.329905,-34.184326,609.6 18.331865,-34.188766,609.6 18.334669,-34.195541,609.6 18.34145,-34.21051,609.6 18.348312,-34.224461,609.6 18.350418,-34.229874,640.08 18.35598,-34.24564,609.6 18.362526,-34.261963,609.6 18.368797,-34.276737,609.6 18.37385,-34.286911,609.6 18.378725,-34.295013,640.08 18.386404,-34.307739,640.08 18.391506,-34.315292,640.08 18.394869,-34.31868,640.08 18.398495,-34.321896,640.08 18.403053,-34.325317,640.08 18.407368,-34.327835,640.08 18.41177,-34.330318,579.12 18.420933,-34.335114,579.12 18.430462,-34.340607,548.64 18.434723,-34.343491,548.64 18.444868,-34.349991,518.16 18.455238,-34.3564,518.16 18.458714,-34.359421,518.16 18.463783,-34.363605,548.64 18.468578,-34.365921,548.64 18.473118,-34.367065,579.12 18.478718,-34.368027,548.64 18.483982,-34.368866,548.64 18.495827,-34.370773,548.64 18.501377,-34.369705,548.64 18.50647,-34.366726,579.12 18.509789,-34.361698,579.12 18.51017,-34.355576,579.12 18.506695,-34.348526,548.64 18.500347,-34.342422,518.16 18.494194,-34.336166,518.16 18.490438,-34.329575,518.16 18.488646,-34.322571,518.16 18.488085,-34.315475,518.16 18.488159,-34.308628,518.16 18.488503,-34.301971,548.64 18.48959,-34.288284,518.16 18.492451,-34.264587,548.64 18.493465,-34.25061,548.64 18.492107,-34.243454,548.64 18.490046,-34.23587,548.64 18.487524,-34.228317,518.16 18.484552,-34.221405,518.16 18.480797,-34.214172,518.16 18.476538,-34.207031,518.16 18.472502,-34.200577,518.16 18.467846,-34.19397,518.16 18.463308,-34.184418,518.16 18.462132,-34.177597,518.16 18.461666,-34.170551,518.16 18.461838,-34.163616,518.16 18.462696,-34.156681,518.16 18.464069,-34.150024,518.16 18.465672,-34.1436,518.16 18.46796,-34.137127,487.68 18.470819,-34.131134,487.68 18.473911,-34.125397,487.68 18.478718,-34.11483,487.68 18.480293,-34.108017,487.68 18.480967,-34.101379,518.16 18.481302,-34.095108,518.16 18.482199,-34.082748,518.16 18.483656,-34.073502,487.68 18.484833,-34.067551,518.16 18.488159,-34.04393,548.64 18.488533,-34.031433,548.64 18.488085,-34.024933,548.64 18.487415,-34.018047,548.64 18.486515,-34.002823,548.64 18.487076,-33.995499,487.68 18.488365,-33.988403,457.2 18.489532,-33.980946,396.24 18.491447,-33.964417,335.28 18.490103,-33.95723,335.28 18.487587,-33.950127,335.28 18.484955,-33.94347,335.28 18.482031,-33.936539,335.28 18.475864,-33.925735,335.28 18.470596,-33.920197,335.28 18.46471,-33.91452,304.8 18.45462,-33.903625,274.32 18.449913,-33.897537,274.32 18.442905,-33.888794,304.8 18.436123,-33.887833,243.84 18.432705,-33.891312,182.88 18.432985,-33.894516,121.92 18.433285,-33.896641,91.44 18.43063,-33.898041,60.96 18.428108,-33.899139,30.48 18.427448,-33.900597,0 18.43895,-33.901619,152.4 18.443298,-33.902737,182.88 18.447132,-33.904274,213.36 18.451483,-33.906189,243.84 18.457146,-33.908791,243.84 18.461123,-33.911087,243.84 18.465042,-33.913864,243.84 18.468933,-33.916935,274.32 18.472614,-33.919922,274.32 18.482311,-33.928574,274.32 18.489374,-33.934067,274.32 18.49369,-33.937134,274.32 18.50029,-33.941471,304.8 18.504957,-33.944138,304.8 18.509789,-33.946404,304.8 18.515493,-33.948532,304.8 18.521061,-33.950222,304.8 18.527208,-33.951874,304.8 18.533306,-33.952362,304.8 18.539932,-33.952057,304.8 18.546753,-33.95129,304.8 18.558426,-33.951107,304.8 18.565102,-33.951233,304.8 18.575863,-33.950684,304.8 18.582813,-33.950226,304.8 18.604338,-33.948761,243.84 18.627768,-33.94812,274.32 18.634071,-33.948406,304.8 18.640251,-33.948963,274.32 18.656559,-33.950222,304.8 18.672409,-33.95092,335.28 18.679047,-33.950779,335.28 18.696671,-33.950642,335.28 18.703382,-33.949539,335.28 18.709885,-33.948349,335.28 18.721376,-33.946243,335.28 18.744392,-33.942261,396.24 18.761845,-33.939423,365.76 18.78763,-33.934891,365.76 18.812349,-33.930542,304.8 18.835556,-33.926514,335.28 18.856888,-33.922989,335.28 18.863245,-33.922714,335.28 18.86986,-33.92276,335.28 18.876249,-33.922989,365.76 18.891945,-33.923264,365.76 18.901024,-33.923035,396.24 18.921204,-33.923126,426.72 18.922997,-33.922897,426.72 18.925856,-33.921158,457.2 18.930788,-33.919281,457.2 18.936113,-33.917084,487.68 18.947754,-33.912281,487.68 18.955021,-33.908558,457.2 18.960743,-33.905346,426.72 18.965664,-33.902084,457.2 19.083767,-33.889984,457.2 19.103107,-33.892265,518.16 19.079933,-33.885979,518.16 18.978481,-33.852276,518.16 18.9508,-33.843246,487.68 18.942448,-33.841232,487.68 18.931406,-33.838943,487.68 18.921652,-33.837616,487.68 18.912964,-33.837147,487.68 18.90534,-33.836929,487.68 18.892784,-33.836838,487.68 18.885105,-33.83757,457.2 18.877258,-33.8391,426.72 18.869934,-33.841427,426.72 18.862909,-33.844391,396.24 18.856462,-33.847366,396.24 18.843269,-33.853394,396.24 18.823528,-33.863262,365.76 18.808422,-33.870243,335.28 18.792973,-33.876389,304.8 18.771572,-33.884724,274.32 18.752918,-33.892124,304.8 18.741892,-33.897354,274.32 18.736679,-33.900192,274.32 18.725567,-33.906368,274.32 18.715265,-33.911499,274.32 18.700333,-33.918613,274.32 18.680134,-33.928295,304.8 18.661022,-33.937931,304.8 18.651123,-33.940678,335.28 18.644863,-33.938416,365.76 18.638699,-33.935211,365.76 18.632364,-33.931915,365.76 18.621771,-33.927383,365.76 18.614931,-33.925644,365.76 18.60775,-33.924709,365.76 18.600655,-33.925503,335.28 18.594305,-33.927429,335.28 18.588531,-33.929581,335.28 18.582533,-33.932007,335.28 18.571659,-33.935715,335.28 18.565044,-33.937408,335.28 18.558369,-33.938862,335.28 18.551649,-33.939926,335.28 18.537312,-33.94212,304.8 18.530216,-33.94212,335.28 18.522892,-33.940956,335.28 18.515718,-33.938782,335.28 18.508991,-33.935715,335.28 18.502602,-33.932144,335.28 18.496227,-33.928341,335.28 18.487411,-33.922852,304.8 18.464298,-33.908279,335.28 18.45417,-33.900688,335.28 18.447933,-33.895523,335.28 18.436068,-33.886368,365.76 18.429453,-33.882019,396.24 18.422615,-33.878448,396.24 18.414574,-33.875553,426.72 18.406334,-33.87434,457.2 18.398232,-33.875107,457.2 18.391113,-33.877029,487.68 18.384836,-33.879593,518.16 18.378983,-33.882812,548.64 18.373661,-33.886723,548.64 18.369196,-33.891357,548.64 18.365553,-33.896164,548.64 18.361874,-33.901482,548.64 18.358995,-33.906921,548.64 18.356642,-33.912506,548.64 18.354567,-33.918457,548.64 18.350811,-33.929169,548.64 18.343132,-33.949173,518.16 18.332426,-33.976639,609.6 18.329601,-33.991093,640.08 18.329201,-34.002129,640.08 18.329847,-34.007721,640.08 18.330746,-34.013065,609.6 18.332146,-34.017975,609.6 18.334051,-34.023148,609.6 18.336697,-34.031826,609.6 18.337727,-34.037086,609.6 18.337919,-34.042282,640.08 18.337584,-34.047501,640.08 18.336582,-34.053429,640.08 18.335285,-34.059219,640.08 18.333603,-34.064713,670.56 18.331032,-34.075821,701.04 18.331261,-34.081963,701.04 18.331032,-34.087273,701.04 18.330288,-34.095139,670.56 18.329287,-34.100784,640.08 18.327885,-34.106312,609.6 18.326111,-34.112175,609.6 18.324051,-34.117809,609.6 18.319931,-34.129726,609.6 18.319086,-34.135345,609.6 18.318958,-34.140713,579.12 18.320274,-34.146019,579.12 18.322224,-34.150269,579.12 18.324692,-34.154663,548.64 18.327269,-34.158875,548.64 18.329905,-34.16272,548.64 18.332977,-34.166504,548.64 18.336126,-34.169861,548.64 18.339769,-34.173203,548.64 18.345451,-34.178375,548.64 18.350027,-34.183456,548.64 18.353277,-34.187576,548.64 18.359528,-34.196018,548.64 18.361742,-34.200073,548.64 18.363873,-34.204971,548.64 18.365421,-34.209332,548.64 18.367628,-34.215546,548.64 18.37286,-34.229443,548.64 18.37413,-34.234222,548.64 18.376877,-34.245712,518.16 18.379791,-34.260681,487.68 18.381191,-34.265488,518.16 18.382929,-34.269791,518.16 18.395233,-34.298199,457.2 18.398552,-34.303555,457.2 18.401356,-34.307465,457.2 18.404331,-34.310909,426.72 18.407537,-34.314194,426.72 18.411198,-34.317566,396.24 18.414598,-34.320419,396.24 18.421158,-34.325638,396.24 18.427162,-34.329903,396.24 18.434778,-34.335022,426.72 18.44767,-34.344223,426.72 18.453655,-34.349129,457.2 18.46628,-34.359421,457.2 18.470535,-34.361835,457.2 18.475742,-34.36393,426.72 18.481415,-34.365509,426.72 18.486958,-34.366772,426.72 18.491936,-34.367657,426.72 18.497726,-34.367661,426.72 18.503162,-34.365875,457.2 18.506756,-34.361698,487.68 18.507254,-34.356354,518.16 18.50441,-34.350384,518.16 18.500462,-34.344193,518.16 18.496548,-34.334702,518.16 18.49474,-34.327293,487.68 18.493465,-34.320236,487.68 18.490494,-34.302979,487.68 18.488388,-34.281345,518.16 18.484612,-34.257839,487.68 18.480349,-34.239532,457.2 18.477322,-34.231979,426.72 18.473568,-34.224319,396.24 18.469563,-34.216408,365.76 18.456001,-34.1922,304.8 18.449633,-34.182999,365.76 18.44739,-34.174026,396.24 18.448563,-34.167294,396.24 18.450336,-34.160915,396.24 18.452435,-34.154938,396.24 18.454901,-34.148849,396.24 18.457489,-34.142853,396.24 18.464413,-34.126373,426.72 18.471325,-34.106506,457.2 18.472727,-34.09996,487.68 18.473911,-34.093136,487.68 18.478779,-34.071808,457.2 18.484104,-34.047501,457.2 18.484777,-34.041046,457.2 18.485355,-34.034714,457.2 18.487015,-34.022099,457.2 18.49156,-34.016876,457.2 18.497389,-34.013443,396.24 18.504009,-34.010227,365.76 18.510225,-34.007538,335.28 18.516769,-34.004734,274.32 18.52684,-34.001011,274.32 18.535938,-33.997982,274.32 18.558369,-33.991093,304.8 18.579506,-33.983871,304.8 18.583775,-33.980015,304.8 18.587074,-33.975037,304.8 18.590885,-33.975403,274.32 18.591782,-33.978882,274.32 18.594475,-33.980854,274.32 18.597107,-33.981079,274.32 18.598564,-33.98085,274.32 18.600695,-33.980713,243.84 18.605576,-33.979362,243.84 18.613867,-33.9776,243.84 18.622723,-33.976227,274.32 18.642769,-33.972519,274.32 18.666,-33.967632,274.32 18.691578,-33.962418,274.32 18.715097,-33.956909,304.8 18.73892,-33.951233,335.28 18.761847,-33.944733,365.76 18.78336,-33.939003,365.76 18.802128,-33.934952,365.76 18.825817,-33.930809,304.8 18.849567,-33.927704,335.28 18.872452,-33.924618,365.76 18.893852,-33.922195,396.24 18.917616,-33.919601,487.68 18.924398,-33.917862,457.2 18.930588,-33.915726,457.2 18.936882,-33.91349,457.2 18.948555,-33.909069,457.2 18.956741,-33.905319,457.2 19.089025,-33.890442,426.72 19.076077,-33.888474,426.72 19.066887,-33.88747,426.72 19.043312,-33.8857,426.72 18.949398,-33.90834,487.68 18.936996,-33.913166,457.2 18.927145,-33.916443,457.2 18.919888,-33.919125,426.72 18.919601,-33.922569,426.72 18.921932,-33.922897,426.72 18.923725,-33.922211,457.2 18.92807,-33.919357,487.68 18.924522,-33.917728,487.68 18.919487,-33.920334,457.2 18.913078,-33.921825,426.72 18.906555,-33.922615,426.72 18.899174,-33.923592,426.72 18.876978,-33.927246,365.76 18.869648,-33.927876,365.76 18.855858,-33.929646,365.76 18.838133,-33.932556,365.76 18.831024,-33.934345,365.76 18.823503,-33.936356,365.76 18.802357,-33.942493,365.76 18.77924,-33.949757,335.28 18.762127,-33.954208,335.28 18.751888,-33.956318,335.28 18.732033,-33.959484,365.76 18.722591,-33.960323,365.76 18.706284,-33.962139,365.76 18.692228,-33.964188,304.8 18.669949,-33.967072,274.32 18.651867,-33.968983,274.32 18.645515,-33.970238,274.32 18.635784,-33.971603,243.84 18.630638,-33.972099,243.84 18.62154,-33.97224,243.84 18.617649,-33.968143,243.84 18.614788,-33.963211,274.32 18.611927,-33.957485,274.32 18.607464,-33.950035,304.8 18.602432,-33.945419,304.8 18.595791,-33.943192,304.8 18.589035,-33.943039,274.32 18.58263,-33.943565,274.32 18.575993,-33.944218,274.32 18.569809,-33.945145,274.32 18.555683,-33.946976,274.32 18.549406,-33.947388,274.32 18.54229,-33.947475,304.8 18.534945,-33.947433,304.8 18.527601,-33.947113,304.8 18.520775,-33.945847,304.8 18.513622,-33.94305,335.28 18.507385,-33.939606,335.28 18.501089,-33.935577,335.28 18.495083,-33.931416,335.28 18.47665,-33.918915,304.8 18.461266,-33.907207,274.32 18.456001,-33.901806,274.32 18.451538,-33.89621,304.8 18.443914,-33.887558,274.32 18.436947,-33.885838,274.32 18.433994,-33.889023,213.36 18.432827,-33.89217,182.88 18.43071,-33.896313,91.44 18.428164,-33.898773,60.96 18.426987,-33.900421,30.48 18.428192,-33.900875,60.96 18.430967,-33.901291,91.44 18.435459,-33.900688,121.92 18.438702,-33.896896,182.88 18.438435,-33.890961,213.36 18.435562,-33.885681,243.84 18.430574,-33.880829,304.8 18.42424,-33.877258,335.28 18.416977,-33.875645,335.28 18.41011,-33.875877,365.76 18.403221,-33.877167,396.24 18.396378,-33.878811,396.24 18.390049,-33.880737,396.24 18.383732,-33.883373,396.24 18.37801,-33.886444,396.24 18.372631,-33.890263,426.72 18.367996,-33.894592,426.72 18.36359,-33.899433,426.72 18.359892,-33.904129,426.72 18.356495,-33.908928,426.72 18.353334,-33.914291,457.2 18.350698,-33.918961,457.2 18.345509,-33.928619,457.2 18.346882,-33.933788,487.68 18.352203,-33.933929,518.16 18.356136,-33.930038,518.16 18.35844,-33.925362,518.16 18.35844,-33.920429,518.16 18.354063,-33.917999,518.16 18.347897,-33.920197,487.68 18.34322,-33.924385,487.68 18.339214,-33.929317,457.2 18.335566,-33.933975,457.2 18.326569,-33.945614,457.2 18.313122,-33.965675,457.2 18.298794,-33.990005,457.2 18.294647,-33.999939,457.2 18.289825,-34.017975,457.2 18.288174,-34.033829,426.72 18.288574,-34.03923,396.24 18.289776,-34.044537,396.24 18.290806,-34.049286,396.24 18.292122,-34.05352,396.24 18.294199,-34.058075,396.24 18.296272,-34.062012,396.24 18.298702,-34.065716,365.76 18.301735,-34.069302,365.76 18.304825,-34.072514,335.28 18.308029,-34.075634,335.28 18.316788,-34.083618,335.28 18.320847,-34.086807,335.28 18.323879,-34.088947,365.76 18.327198,-34.090485,426.72 18.329287,-34.087006,457.2 18.326454,-34.081314,457.2 18.320675,-34.077122,487.68 18.313751,-34.074188,487.68 18.308716,-34.07634,487.68 18.310204,-34.079914,426.72 18.313637,-34.08271,396.24 18.317127,-34.085037,365.76 18.320879,-34.087601,365.76 18.326054,-34.090717,335.28 18.329847,-34.092728,335.28 18.336353,-34.095978,335.28 18.350195,-34.102982,365.76 18.356417,-34.105774,335.28 18.360453,-34.107193,335.28 18.367252,-34.109661,335.28 18.38253,-34.114456,365.76 18.392796,-34.117996,365.76 18.398895,-34.120136,365.76 18.403416,-34.121346,396.24 18.411655,-34.124001,396.24 18.425388,-34.128796,396.24 18.433041,-34.131775,396.24 18.439823,-34.133789,396.24 18.444475,-34.13443,426.72 18.449821,-34.133915,426.72 18.455013,-34.132187,426.72 18.460178,-34.129868,426.72 18.465384,-34.12674,426.72 18.469868,-34.122391,396.24 18.473969,-34.116879,396.24 18.477573,-34.1105,396.24 18.479691,-34.104076,396.24 18.480125,-34.097076,365.76 18.4799,-34.089844,365.76 18.479862,-34.079311,335.28 18.480629,-34.070618,335.28 18.481525,-34.063156,335.28 18.484722,-34.042694,335.28 18.485674,-34.030792,365.76 18.485756,-34.023914,365.76 18.485561,-34.017014,365.76 18.485985,-33.995331,396.24 18.486156,-33.969635,396.24 18.484833,-33.951233,365.76 18.482927,-33.943909,365.76 18.480835,-33.937279,365.76 18.478107,-33.930084,365.76 18.474541,-33.923267,365.76 18.469475,-33.916809,365.76 18.46443,-33.911041,365.76 18.45623,-33.899899,335.28 18.447361,-33.888584,274.32 18.441896,-33.88385,274.32 18.435802,-33.883091,243.84 18.433228,-33.885838,213.36 18.432598,-33.888771,152.4 18.431797,-33.891705,121.92 18.430424,-33.894917,91.44 18.428822,-33.897339,60.96 18.427492,-33.89946,30.48 18.427105,-33.901016,30.48 18.436403,-33.902115,182.88 18.437233,-33.902134,182.88 18.440496,-33.901611,213.36 18.441467,-33.901154,213.36 18.444643,-33.89827,243.84 18.445187,-33.897385,243.84 18.446548,-33.893143,274.32 18.446617,-33.892033,274.32 18.44593,-33.886955,304.8 18.445652,-33.886093,304.8 18.442682,-33.88092,304.8 18.441673,-33.879639,304.8 18.437469,-33.875061,335.28 18.436146,-33.874016,335.28 18.430424,-33.871082,335.28 18.428782,-33.870575,365.76 18.422335,-33.869476,365.76 18.420925,-33.869453,365.76 18.414879,-33.870026,365.76 18.4132,-33.870338,365.76 18.408041,-33.871582,396.24 18.406416,-33.872086,396.24 18.40081,-33.874054,396.24 18.399353,-33.874603,396.24 18.39489,-33.876434,426.72 18.393574,-33.876995,426.72 18.388927,-33.879227,457.2 18.387909,-33.879742,457.2 18.383377,-33.882385,457.2 18.382313,-33.883072,487.68 18.378109,-33.886185,487.68 18.3771,-33.887009,487.68 18.373569,-33.890121,518.16 18.372917,-33.890728,518.16 18.369656,-33.894032,518.16 18.368805,-33.894928,518.16 18.36561,-33.89859,548.64 18.364992,-33.899414,548.64 18.362103,-33.903343,548.64 18.36153,-33.904228,548.64 18.359051,-33.908203,579.12 18.358498,-33.90921,579.12 18.356323,-33.913399,579.12 18.355751,-33.914562,579.12 18.35392,-33.918613,609.6 18.353445,-33.919739,609.6 18.351765,-33.924088,609.6 18.351316,-33.925232,609.6 18.348713,-33.932484,640.08 18.347672,-33.935532,640.08 18.343973,-33.944229,670.56 18.343525,-33.945099,670.56 18.341045,-33.949615,670.56 18.340498,-33.9505,670.56 18.337864,-33.954712,701.04 18.334637,-33.959393,701.04 18.325138,-33.974846,701.04 18.323593,-33.978153,701.04 18.320103,-33.987648,762 18.319702,-33.98909,762 18.318693,-33.993668,792.48 18.318525,-33.994583,792.48 18.318077,-33.998932,822.96 18.318043,-33.999939,822.96 18.318443,-34.004128,822.96 18.318693,-34.005341,822.96 18.320103,-34.009342,822.96 18.320543,-34.010376,822.96 18.322336,-34.01413,792.48 18.322842,-34.015091,792.48 18.32486,-34.018433,792.48 18.325481,-34.019398,762 18.327599,-34.022655,762 18.328285,-34.023869,731.52 18.332291,-34.031174,701.04 18.332577,-34.031826,701.04 18.334007,-34.034992,701.04 18.334465,-34.035969,701.04 18.337383,-34.040627,731.52 18.338255,-34.040955,731.52 18.341843,-34.039398,762 18.342068,-34.038574,762 18.340244,-34.034389,792.48 18.339489,-34.033493,792.48 18.335566,-34.029465,792.48 18.334837,-34.028732,762 18.330631,-34.024937,762 18.329454,-34.023926,762 18.322392,-34.016838,762 18.32159,-34.015862,762 18.318357,-34.01152,762 18.317757,-34.010506,762 18.315811,-34.005665,762 18.315554,-34.004288,762 18.314882,-33.999481,762 18.314825,-33.998016,762 18.315273,-33.993118,762 18.315611,-33.991745,762 18.31707,-33.987415,731.52 18.317699,-33.985928,731.52 18.323822,-33.975685,762 18.324795,-33.974056,762 18.332691,-33.96088,701.04 18.334499,-33.957596,701.04 18.342705,-33.943752,640.08 18.345566,-33.939236,640.08 18.355751,-33.924198,640.08 18.35849,-33.920334,640.08 18.368805,-33.906876,609.6 18.371944,-33.902878,609.6 18.380911,-33.892639,609.6 18.381844,-33.8918,609.6 18.38625,-33.888725,609.6 18.387222,-33.888073,609.6 18.391787,-33.885635,640.08 18.393019,-33.88504,640.08 18.39784,-33.883026,640.08 18.398905,-33.882706,609.6 18.403816,-33.881229,609.6 18.405247,-33.880905,609.6 18.41011,-33.880112,609.6 18.411713,-33.879974,579.12 18.416462,-33.879742,579.12 18.417778,-33.879787,579.12 18.422335,-33.880508,548.64 18.423399,-33.880737,548.64 18.426647,-33.882393,487.68 18.427155,-33.882935,487.68 18.428764,-33.885189,457.2 18.42905,-33.8857,457.2 18.430023,-33.887703,396.24 18.430294,-33.88829,365.76 18.431225,-33.890263,304.8 18.431416,-33.890671,304.8 18.433056,-33.894405,182.88 18.433228,-33.894871,152.4 18.433096,-33.896622,121.92 18.432705,-33.897034,121.92 18.429901,-33.898361,60.96 18.42923,-33.898544,60.96 18.427492,-33.899918,30.48 18.427505,-33.900177,30.48 18.42905,-33.90097,30.48 18.431751,-33.901428,60.96 18.436775,-33.901714,182.88 18.437412,-33.90152,182.88 18.440952,-33.899433,213.36 18.441696,-33.898594,213.36 18.443584,-33.894638,243.84 18.443813,-33.893475,243.84 18.443184,-33.888771,274.32 18.44244,-33.887188,304.8 18.439318,-33.882523,304.8 18.438206,-33.881229,304.8 18.433376,-33.877625,304.8 18.431797,-33.876808,304.8 18.425503,-33.874619,335.28 18.42396,-33.874329,335.28 18.416805,-33.873688,335.28 18.415216,-33.873688,335.28 18.408434,-33.874283,335.28 18.407021,-33.874481,335.28 18.401146,-33.875793,335.28 18.399466,-33.876297,335.28 18.394032,-33.878113,335.28 18.392851,-33.878586,335.28 18.387806,-33.881058,365.76 18.386684,-33.881653,365.76 18.382072,-33.884537,365.76 18.380968,-33.885361,365.76 18.37738,-33.888245,365.76 18.376293,-33.889191,396.24 18.372288,-33.893009,396.24 18.371544,-33.893799,396.24 18.36834,-33.897385,396.24 18.367348,-33.89859,396.24 18.364334,-33.902458,426.72 18.363592,-33.903488,426.72 18.360844,-33.907578,426.72 18.360285,-33.908478,426.72 18.357925,-33.912701,426.72 18.357468,-33.91354,426.72 18.355293,-33.918007,426.72 18.354836,-33.918938,457.2 18.352606,-33.923767,426.72 18.352203,-33.924759,426.72 18.349056,-33.932438,426.72 18.347672,-33.935806,426.72 18.343849,-33.944077,426.72 18.3433,-33.94519,426.72 18.340816,-33.949802,426.72 18.340105,-33.951141,426.72 18.332119,-33.96349,457.2 18.3288,-33.968655,457.2 18.319757,-33.985382,457.2 18.318693,-33.987854,487.68 18.317011,-33.994308,487.68 18.316956,-33.995983,518.16 18.317471,-34.000961,518.16 18.317699,-34.001801,487.68 18.318861,-34.005386,518.16 18.319254,-34.006393,518.16 18.321159,-34.01033,548.64 18.321648,-34.011158,518.16 18.323402,-34.01413,548.64 18.323906,-34.014908,548.64 18.32626,-34.018387,548.64 18.327942,-34.021168,548.64 18.330633,-34.026489,579.12 18.331032,-34.027405,579.12 18.332233,-34.030849,579.12 18.332481,-34.031891,609.6 18.333206,-34.035366,609.6 18.333435,-34.036423,609.6 18.33395,-34.040066,609.6 18.334051,-34.041092,609.6 18.334444,-34.04512,640.08 18.334557,-34.046082,640.08 18.335005,-34.052719,640.08 18.335037,-34.053429,609.6 18.334465,-34.05864,579.12 18.334219,-34.059677,579.12 18.332932,-34.064301,579.12 18.332634,-34.06525,579.12 18.330917,-34.069859,640.08 18.330576,-34.070663,640.08 18.329144,-34.074421,640.08 18.327942,-34.077587,670.56 18.320936,-34.094879,670.56 18.319366,-34.098175,670.56 18.317236,-34.102386,640.08 18.316498,-34.103657,640.08 18.311462,-34.113758,609.6 18.310118,-34.116989,609.6 18.308487,-34.121395,609.6 18.308043,-34.12262,609.6 18.306923,-34.12706,609.6 18.30677,-34.128239,609.6 18.306656,-34.132706,609.6 18.306753,-34.133652,609.6 18.3074,-34.137779,609.6 18.307571,-34.13871,609.6 18.308548,-34.142487,609.6 18.308828,-34.143494,609.6 18.30986,-34.147324,609.6 18.310173,-34.148346,609.6 18.311295,-34.151917,609.6 18.311687,-34.153015,609.6 18.313368,-34.156677,579.12 18.313761,-34.157455,579.12 18.315611,-34.160751,579.12 18.316097,-34.161568,579.12 18.317965,-34.16478,579.12 18.318443,-34.165573,579.12 18.320446,-34.168785,579.12 18.321047,-34.169678,579.12 18.32634,-34.177723,609.6 18.32777,-34.180191,609.6 18.329512,-34.183502,609.6 18.329905,-34.184326,609.6 18.331417,-34.187714,609.6 18.331865,-34.188766,609.6 18.333149,-34.192154,609.6 18.334669,-34.195541,609.6 18.339769,-34.206985,609.6 18.34145,-34.21051,609.6 18.347168,-34.221806,609.6 18.348312,-34.224461,609.6 18.350027,-34.228912,640.08 18.350418,-34.229874,640.08 18.354734,-34.242371,609.6 18.35598,-34.24564,609.6 18.361181,-34.258347,609.6 18.362526,-34.261963,609.6 18.367367,-34.273479,609.6 18.368797,-34.276737,609.6 18.373009,-34.285355,609.6 18.37385,-34.286911,609.6 18.376764,-34.291809,640.08 18.378725,-34.295013,640.08 18.384666,-34.304764,640.08 18.386404,-34.307739,640.08 18.390827,-34.314491,640.08 18.391506,-34.315292,640.08 18.394089,-34.317936,640.08 18.394869,-34.31868,640.08 18.397865,-34.321381,640.08 18.398495,-34.321896,640.08 18.402214,-34.324734,640.08 18.403053,-34.325317,640.08 18.406563,-34.327389,640.08 18.407368,-34.327835,640.08 18.411013,-34.329849,609.6 18.41177,-34.330318,579.12 18.418007,-34.333626,548.64 18.420933,-34.335114,579.12 18.429733,-34.340149,579.12 18.430462,-34.340607,548.64 18.434143,-34.343075,548.64 18.434723,-34.343491,548.64 18.442122,-34.348297,518.16 18.444868,-34.349991,518.16 18.454399,-34.355785,518.16 18.455238,-34.3564,518.16 18.458004,-34.358765,518.16 18.458714,-34.359421,518.16 18.461403,-34.361984,518.16 18.463783,-34.363605,548.64 18.467617,-34.365513,548.64 18.468578,-34.365921,548.64 18.472424,-34.366909,579.12 18.473118,-34.367065,579.12 18.477459,-34.36784,548.64 18.478718,-34.368027,548.64 18.482952,-34.368679,548.64 18.483982,-34.368866,548.64 18.492737,-34.370407,518.16 18.495827,-34.370773,548.64 18.500193,-34.370087,548.64 18.501377,-34.369705,548.64 18.505629,-34.367386,579.12 18.50647,-34.366726,579.12 18.509272,-34.363083,579.12 18.509789,-34.361698,579.12 18.510281,-34.356628,579.12 18.51017,-34.355576,579.12 18.507704,-34.349625,548.64 18.506695,-34.348526,548.64 18.501537,-34.343582,518.16 18.500347,-34.342422,518.16 18.495426,-34.337582,518.16 18.494194,-34.336166,518.16 18.490999,-34.330856,518.16 18.490438,-34.329575,518.16 18.488903,-34.323895,518.16 18.488646,-34.322571,518.16 18.488102,-34.316818,518.16 18.488085,-34.315475,518.16 18.488102,-34.310116,518.16 18.488159,-34.308628,518.16 18.488445,-34.303181,518.16 18.488503,-34.301971,548.64 18.489262,-34.292313,518.16 18.48959,-34.288284,518.16 18.491728,-34.268875,548.64 18.492451,-34.264587,548.64 18.493746,-34.252304,548.64 18.493465,-34.25061,548.64 18.492401,-34.244888,548.64 18.492107,-34.243454,548.64 18.490505,-34.23745,548.64 18.490046,-34.23587,548.64 18.488216,-34.230141,518.16 18.487524,-34.228317,518.16 18.485184,-34.222832,518.16 18.484552,-34.221405,518.16 18.481522,-34.215523,518.16 18.480797,-34.214172,518.16 18.477573,-34.208725,518.16 18.476538,-34.207031,518.16 18.473167,-34.201649,518.16 18.472502,-34.200577,518.16 18.468691,-34.195175,518.16 18.467846,-34.19397,518.16 18.463726,-34.185963,518.16 18.463308,-34.184418,518.16 18.462296,-34.178978,518.16 18.462132,-34.177597,518.16 18.461723,-34.171764,518.16 18.461666,-34.170551,518.16 18.461723,-34.164921,518.16 18.461838,-34.163616,518.16 18.462524,-34.157913,518.16 18.462696,-34.156681,518.16 18.46384,-34.151142,518.16 18.464069,-34.150024,518.16 18.465326,-34.144821,518.16 18.465672,-34.1436,518.16 18.467289,-34.13855,487.68 18.46796,-34.137127,487.68 18.470135,-34.132427,487.68 18.470819,-34.131134,487.68 18.473343,-34.126419,487.68 18.473911,-34.125397,487.68 18.478331,-34.115982,487.68 18.478718,-34.11483,487.68 18.480068,-34.109482,487.68 18.480293,-34.108017,487.68 18.480854,-34.10289,518.16 18.480967,-34.101379,518.16 18.481236,-34.096348,518.16 18.481302,-34.095108,518.16 18.48175,-34.087784,518.16 18.482199,-34.082748,518.16 18.48341,-34.074936,487.68 18.483656,-34.073502,487.68 18.484552,-34.069016,518.16 18.484833,-34.067551,518.16 18.487692,-34.048874,548.64 18.488159,-34.04393,548.64 18.488617,-34.033039,548.64 18.488533,-34.031433,548.64 18.488159,-34.02615,548.64 18.488085,-34.024933,548.64 18.487524,-34.019302,548.64 18.487415,-34.018047,548.64 18.4865,-34.004456,548.64 18.486515,-34.002823,548.64 18.486851,-33.997238,518.16 18.487076,-33.995499,487.68 18.488045,-33.99007,457.2 18.488365,-33.988403,457.2 18.489374,-33.982224,396.24 18.489532,-33.980946,396.24 18.491535,-33.966049,365.76 18.491447,-33.964417,335.28 18.490562,-33.958973,335.28 18.490103,-33.95723,335.28 18.488159,-33.951664,335.28 18.487587,-33.950127,335.28 18.485413,-33.944588,335.28 18.484955,-33.94347,335.28 18.482552,-33.937744,335.28 18.482031,-33.936539,335.28 18.47683,-33.926899,335.28 18.475864,-33.925735,335.28 18.471605,-33.921158,335.28 18.470596,-33.920197,335.28 18.466015,-33.915771,304.8 18.46471,-33.91452,304.8 18.455519,-33.904724,274.32 18.45462,-33.903625,274.32 18.450754,-33.898682,274.32 18.449913,-33.897537,274.32 18.446381,-33.892639,274.32 18.442905,-33.888794,304.8 18.437405,-33.887562,243.84 18.436123,-33.887833,243.84 18.432985,-33.890488,182.88 18.432705,-33.891312,182.88 18.432816,-33.894012,152.4 18.432985,-33.894516,121.92 18.433489,-33.896255,121.92 18.433285,-33.896641,91.44 18.431248,-33.897858,91.44 18.43063,-33.898041,60.96 18.428478,-33.898922,30.48 18.428108,-33.899139,30.48 18.427391,-33.900272,0 18.427448,-33.900597,0 18.437973,-33.901474,152.4 18.43895,-33.901619,152.4 18.442326,-33.902412,182.88 18.443298,-33.902737,182.88 18.446438,-33.903992,213.36 18.447132,-33.904274,213.36 18.45068,-33.905857,243.84 18.451483,-33.906189,243.84 18.456459,-33.908417,243.84 18.457146,-33.908791,243.84 18.460339,-33.910629,243.84 18.461123,-33.911087,243.84 18.464317,-33.913284,243.84 18.465042,-33.913864,243.84 18.468073,-33.91626,274.32 18.468933,-33.916935,274.32 18.471909,-33.919312,274.32 18.472614,-33.919922,274.32 18.479176,-33.92569,274.32 18.482311,-33.928574,274.32 18.488533,-33.933472,274.32 18.489374,-33.934067,274.32 18.492508,-33.936348,274.32 18.49369,-33.937134,274.32 18.497601,-33.939793,274.32 18.50029,-33.941471,304.8 18.504066,-33.943611,304.8 18.504957,-33.944138,304.8 18.50893,-33.94603,304.8 18.509789,-33.946404,304.8 18.514149,-33.948074,304.8 18.515493,-33.948532,304.8 18.519922,-33.949905,304.8 18.521061,-33.950222,304.8 18.525753,-33.951523,304.8 18.527208,-33.951874,304.8 18.53203,-33.952377,304.8 18.533306,-33.952362,304.8 18.53898,-33.952194,304.8 18.539932,-33.952057,304.8 18.545258,-33.951416,304.8 18.546753,-33.95129,304.8 18.557253,-33.951096,304.8 18.558426,-33.951107,304.8 18.563805,-33.951244,304.8 18.565102,-33.951233,304.8 18.574619,-33.950779,304.8 18.575863,-33.950684,304.8 18.581429,-33.950314,304.8 18.582813,-33.950226,304.8 18.599909,-33.94899,243.84 18.604338,-33.948761,243.84 18.623957,-33.94812,274.32 18.627768,-33.94812,274.32 18.633156,-33.948311,304.8 18.634071,-33.948406,304.8 18.639034,-33.948853,304.8 18.640251,-33.948963,274.32 18.651409,-33.949802,304.8 18.656559,-33.950222,304.8 18.670979,-33.950966,335.28 18.672409,-33.95092,335.28 18.677788,-33.950779,335.28 18.679047,-33.950779,335.28 18.694324,-33.950874,335.28 18.696671,-33.950642,335.28 18.702106,-33.949757,335.28 18.703382,-33.949539,335.28 18.708687,-33.948593,335.28 18.709885,-33.948349,335.28 18.71734,-33.947021,335.28 18.721376,-33.946243,335.28 18.739985,-33.942856,396.24 18.744392,-33.942261,396.24 18.757439,-33.940212,365.76 18.761845,-33.939423,365.76 18.783033,-33.935715,365.76 18.78763,-33.934891,365.76 18.80809,-33.931412,335.28 18.812349,-33.930542,304.8 18.830509,-33.927273,335.28 18.835556,-33.926514,335.28 18.852764,-33.923492,365.76 18.856888,-33.922989,335.28 18.86198,-33.922756,335.28 18.863245,-33.922714,335.28 18.868389,-33.922756,335.28 18.86986,-33.92276,335.28 18.874905,-33.922943,365.76 18.876249,-33.922989,365.76 18.890375,-33.923309,365.76 18.891945,-33.923264,365.76 18.897228,-33.92308,396.24 18.901024,-33.923035,396.24 18.920362,-33.92308,426.72 18.921204,-33.923126,426.72 18.922829,-33.923126,426.72 18.922997,-33.922897,426.72 18.924751,-33.921452,426.72 18.925856,-33.921158,457.2 18.929672,-33.919731,457.2 18.930788,-33.919281,457.2 18.934544,-33.917725,487.68 18.936113,-33.917084,487.68 18.943405,-33.914238,487.68 18.947754,-33.912281,487.68 18.95405,-33.909073,457.2 18.955021,-33.908558,457.2 18.959713,-33.905949,426.72 18.960743,-33.905346,426.72 18.964588,-33.902847,457.2 18.965664,-33.902084,457.2 19.080105,-33.889191,457.2 19.083767,-33.889984,457.2 19.094868,-33.8918,426.72 19.103107,-33.892265,518.16 19.084339,-33.887283,518.16 19.079933,-33.885979,518.16 18.983646,-33.854187,518.16 18.978481,-33.852276,518.16 18.956629,-33.84494,487.68 18.9508,-33.843246,487.68 18.944035,-33.841568,487.68 18.942448,-33.841232,487.68 18.933479,-33.839401,487.68 18.931406,-33.838943,487.68 18.923054,-33.837753,487.68 18.921652,-33.837616,487.68 18.914909,-33.837193,487.68 18.912964,-33.837147,487.68 18.906784,-33.83696,487.68 18.90534,-33.836929,487.68 18.894253,-33.836773,487.68 18.892784,-33.836838,487.68 18.886452,-33.837387,457.2 18.885105,-33.83757,457.2 18.878603,-33.83876,457.2 18.877258,-33.8391,426.72 18.871429,-33.840866,426.72 18.869934,-33.841427,426.72 18.864498,-33.843662,426.72 18.862909,-33.844391,396.24 18.857803,-33.846737,396.24 18.856462,-33.847366,396.24 18.848448,-33.851074,396.24 18.843269,-33.853394,396.24 18.827248,-33.861305,365.76 18.823528,-33.863262,365.76 18.80991,-33.86964,335.28 18.808422,-33.870243,335.28 18.796879,-33.874969,304.8 18.792973,-33.876389,304.8 18.77615,-33.882858,274.32 18.771572,-33.884724,274.32 18.754784,-33.891266,304.8 18.752918,-33.892124,304.8 18.745535,-33.895523,304.8 18.741892,-33.897354,274.32 18.737583,-33.899666,274.32 18.736679,-33.900192,274.32 18.729,-33.904461,274.32 18.725567,-33.906368,274.32 18.716722,-33.910858,274.32 18.715265,-33.911499,274.32 18.705025,-33.916424,274.32 18.700333,-33.918613,274.32 18.683876,-33.926422,274.32 18.680134,-33.928295,304.8 18.664169,-33.936211,304.8 18.661022,-33.937931,304.8 18.652374,-33.940842,335.28 18.651123,-33.940678,335.28 18.646042,-33.938919,335.28 18.644863,-33.938416,365.76 18.639875,-33.935852,365.76 18.638699,-33.935211,365.76 18.633934,-33.932693,335.28 18.632364,-33.931915,365.76 18.623451,-33.928024,365.76 18.621771,-33.927383,365.76 18.616505,-33.926014,365.76 18.614931,-33.925644,365.76 18.609047,-33.924774,365.76 18.60775,-33.924709,365.76 18.602152,-33.925186,365.76 18.600655,-33.925503,335.28 18.59539,-33.927036,335.28 18.594305,-33.927429,335.28 18.589428,-33.929214,335.28 18.588531,-33.929581,335.28 18.583878,-33.931412,335.28 18.582533,-33.932007,335.28 18.572948,-33.935394,335.28 18.571659,-33.935715,335.28 18.566391,-33.937088,335.28 18.565044,-33.937408,335.28 18.559551,-33.938644,335.28 18.558369,-33.938862,335.28 18.552881,-33.939743,335.28 18.551649,-33.939926,335.28 18.539093,-33.941986,304.8 18.537312,-33.94212,304.8 18.531475,-33.942215,335.28 18.530216,-33.94212,335.28 18.524551,-33.94133,335.28 18.522892,-33.940956,335.28 18.517284,-33.939373,335.28 18.515718,-33.938782,335.28 18.510532,-33.936443,335.28 18.508991,-33.935715,335.28 18.503836,-33.932877,335.28 18.502602,-33.932144,335.28 18.497726,-33.92926,335.28 18.496227,-33.928341,335.28 18.491392,-33.925369,335.28 18.487411,-33.922852,304.8 18.469391,-33.911583,335.28 18.464298,-33.908279,335.28 18.455601,-33.901852,335.28 18.45417,-33.900688,335.28 18.449306,-33.896641,335.28 18.447933,-33.895523,335.28 18.437519,-33.887375,365.76 18.436068,-33.886368,365.76 18.430939,-33.882908,396.24 18.429453,-33.882019,396.24 18.423615,-33.878902,396.24 18.422615,-33.878448,396.24 18.416061,-33.875969,426.72 18.414574,-33.875553,426.72 18.407705,-33.87442,457.2 18.406334,-33.87434,457.2 18.399868,-33.874805,457.2 18.398232,-33.875107,457.2 18.392487,-33.876575,487.68 18.391113,-33.877029,487.68 18.385849,-33.879135,518.16 18.384836,-33.879593,518.16 18.379847,-33.882294,548.64 18.378983,-33.882812,548.64 18.374466,-33.886002,548.64 18.373661,-33.886723,548.64 18.369925,-33.890488,548.64 18.369196,-33.891357,548.64 18.36628,-33.895058,548.64 18.365553,-33.896164,548.64 18.362526,-33.900513,548.64 18.361874,-33.901482,548.64 18.359556,-33.905731,548.64 18.358995,-33.906921,548.64 18.35709,-33.911499,548.64 18.356642,-33.912506,548.64 18.35495,-33.917355,548.64 18.354567,-33.918457,548.64 18.352146,-33.925594,548.64 18.350811,-33.929169,548.64 18.344707,-33.945148,548.64 18.343132,-33.949173,518.16 18.33321,-33.973892,609.6 18.332426,-33.976639,609.6 18.329945,-33.988113,640.08 18.329601,-33.991093,640.08 18.329144,-34.000683,640.08 18.329201,-34.002129,640.08 18.329601,-34.00655,640.08 18.329847,-34.007721,640.08 18.330576,-34.012161,640.08 18.330746,-34.013065,609.6 18.331833,-34.017025,609.6 18.332146,-34.017975,609.6 18.333603,-34.022003,609.6 18.334051,-34.023148,609.6 18.335901,-34.029007,609.6 18.336697,-34.031826,609.6 18.337639,-34.036102,609.6 18.337727,-34.037086,609.6 18.337919,-34.041092,640.08 18.337919,-34.042282,640.08 18.337727,-34.046444,640.08 18.337584,-34.047501,640.08 18.336811,-34.052311,640.08 18.336582,-34.053429,640.08 18.335621,-34.057983,640.08 18.335285,-34.059219,640.08 18.333996,-34.063385,640.08 18.333603,-34.064713,670.56 18.331146,-34.074654,701.04 18.331032,-34.075821,701.04 18.331203,-34.080662,670.56 18.331261,-34.081963,701.04 18.331081,-34.086273,701.04 18.331032,-34.087273,701.04 18.330463,-34.093918,670.56 18.330288,-34.095139,670.56 18.329601,-34.099468,640.08 18.329287,-34.100784,640.08 18.328171,-34.105286,609.6 18.327885,-34.106312,609.6 18.326429,-34.111176,609.6 18.326111,-34.112175,609.6 18.324509,-34.116692,609.6 18.324051,-34.117809,609.6 18.320879,-34.126373,609.6 18.319931,-34.129726,609.6 18.319244,-34.134243,609.6 18.319086,-34.135345,609.6 18.318918,-34.13974,579.12 18.318958,-34.140713,579.12 18.319874,-34.14481,579.12 18.320274,-34.146019,579.12 18.321833,-34.149536,579.12 18.322224,-34.150269,579.12 18.324299,-34.153931,579.12 18.324692,-34.154663,548.64 18.326626,-34.15789,548.64 18.327269,-34.158875,548.64 18.329399,-34.162033,548.64 18.329905,-34.16272,548.64 18.332314,-34.165741,548.64 18.332977,-34.166504,548.64 18.335552,-34.169296,548.64 18.336126,-34.169861,548.64 18.338985,-34.172508,548.64 18.339769,-34.173203,548.64 18.342876,-34.175861,548.64 18.345451,-34.178375,548.64 18.349241,-34.182495,548.64 18.350027,-34.183456,548.64 18.352716,-34.186844,548.64 18.353277,-34.187576,548.64 18.35821,-34.194077,548.64 18.359528,-34.196018,548.64 18.361244,-34.199089,548.64 18.361742,-34.200073,548.64 18.36348,-34.20401,548.64 18.363873,-34.204971,548.64 18.365078,-34.208305,548.64 18.365421,-34.209332,548.64 18.366619,-34.212662,548.64 18.367628,-34.215546,548.64 18.372059,-34.226788,548.64 18.37286,-34.229443,548.64 18.37389,-34.233166,548.64 18.37413,-34.234222,548.64 18.376036,-34.24205,518.16 18.376877,-34.245712,518.16 18.37923,-34.258209,487.68 18.379791,-34.260681,487.68 18.380856,-34.264297,518.16 18.381191,-34.265488,518.16 18.382481,-34.268875,518.16 18.382929,-34.269791,518.16 18.394421,-34.296707,457.2 18.395233,-34.298199,457.2 18.398119,-34.302887,457.2 18.398552,-34.303555,457.2 18.400755,-34.306641,457.2 18.401356,-34.307465,457.2 18.403873,-34.310444,426.72 18.404331,-34.310909,426.72 18.406906,-34.31356,426.72 18.407537,-34.314194,426.72 18.410397,-34.316818,396.24 18.411198,-34.317566,396.24 18.413982,-34.319916,396.24 18.414598,-34.320419,396.24 18.418922,-34.323944,396.24 18.421158,-34.325638,396.24 18.426533,-34.329483,396.24 18.427162,-34.329903,396.24 18.432144,-34.333145,396.24 18.434778,-34.335022,426.72 18.4447,-34.342117,426.72 18.44767,-34.344223,426.72 18.452154,-34.347885,457.2 18.453655,-34.349129,457.2 18.463898,-34.357647,457.2 18.46628,-34.359421,457.2 18.46981,-34.361526,426.72 18.470535,-34.361835,457.2 18.4748,-34.363586,426.72 18.475742,-34.36393,426.72 18.480206,-34.365234,426.72 18.481415,-34.365509,426.72 18.485899,-34.366562,426.72 18.486958,-34.366772,426.72 18.490944,-34.367523,426.72 18.491936,-34.367657,426.72 18.496571,-34.367794,426.72 18.497726,-34.367661,426.72 18.502064,-34.366444,457.2 18.503162,-34.365875,457.2 18.506189,-34.3629,487.68 18.506756,-34.361698,487.68 18.507442,-34.357647,518.16 18.507254,-34.356354,518.16 18.505268,-34.35178,518.16 18.50441,-34.350384,518.16 18.501148,-34.34531,518.16 18.500462,-34.344193,518.16 18.496914,-34.336044,518.16 18.496548,-34.334702,518.16 18.495026,-34.32869,487.68 18.49474,-34.327293,487.68 18.49369,-34.321793,487.68 18.493465,-34.320236,487.68 18.491306,-34.308487,487.68 18.490494,-34.302979,487.68 18.488813,-34.285217,487.68 18.488388,-34.281345,518.16 18.485413,-34.262306,518.16 18.484612,-34.257839,487.68 18.480778,-34.240986,457.2 18.480349,-34.239532,457.2 18.478031,-34.233631,426.72 18.477322,-34.231979,426.72 18.474255,-34.22567,396.24 18.473568,-34.224319,396.24 18.470316,-34.21788,365.76 18.469563,-34.216408,365.76 18.458376,-34.196045,274.32 18.456001,-34.1922,304.8 18.452099,-34.187164,335.28 18.449633,-34.182999,365.76 18.447334,-34.175354,365.76 18.44739,-34.174026,396.24 18.448231,-34.168762,396.24 18.448563,-34.167294,396.24 18.449968,-34.162079,396.24 18.450336,-34.160915,396.24 18.451931,-34.156311,396.24 18.452435,-34.154938,396.24 18.454342,-34.150116,396.24 18.454901,-34.148849,396.24 18.457031,-34.14386,396.24 18.457489,-34.142853,396.24 18.46314,-34.129669,426.72 18.464413,-34.126373,426.72 18.470879,-34.108128,457.2 18.471325,-34.106506,457.2 18.472481,-34.101284,487.68 18.472727,-34.09996,487.68 18.473679,-34.094604,487.68 18.473911,-34.093136,487.68 18.477995,-34.07547,457.2 18.478779,-34.071808,457.2 18.483467,-34.051285,457.2 18.484104,-34.047501,457.2 18.484669,-34.04221,457.2 18.484777,-34.041046,457.2 18.485226,-34.036194,457.2 18.485355,-34.034714,457.2 18.486557,-34.023449,457.2 18.487015,-34.022099,457.2 18.490505,-34.017673,457.2 18.49156,-34.016876,457.2 18.496325,-34.014038,426.72 18.497389,-34.013443,396.24 18.502769,-34.010788,365.76 18.504009,-34.010227,365.76 18.508987,-34.008038,335.28 18.510225,-34.007538,335.28 18.515339,-34.005291,304.8 18.516769,-34.004734,274.32 18.525471,-34.001495,304.8 18.52684,-34.001011,274.32 18.533487,-33.998795,274.32 18.535938,-33.997982,274.32 18.553442,-33.992477,304.8 18.558369,-33.991093,304.8 18.57605,-33.985134,304.8 18.579506,-33.983871,304.8 18.583145,-33.981133,304.8 18.583775,-33.980015,304.8 18.586233,-33.976181,304.8 18.587074,-33.975037,304.8 18.590584,-33.974709,274.32 18.590885,-33.975403,274.32 18.591446,-33.978149,274.32 18.591782,-33.978882,274.32 18.593857,-33.980621,274.32 18.594475,-33.980854,274.32 18.596603,-33.981125,274.32 18.597107,-33.981079,274.32 18.598309,-33.980854,274.32 18.598564,-33.98085,274.32 18.599968,-33.980854,243.84 18.600695,-33.980713,243.84 18.604546,-33.979691,243.84 18.605576,-33.979362,243.84 18.612671,-33.977825,243.84 18.613867,-33.9776,243.84 18.621323,-33.976456,274.32 18.622723,-33.976227,274.32 18.637905,-33.97345,274.32 18.642769,-33.972519,274.32 18.660839,-33.968719,304.8 18.666,-33.967632,274.32 18.686399,-33.963455,274.32 18.691578,-33.962418,274.32 18.710117,-33.958183,304.8 18.715097,-33.956909,304.8 18.733978,-33.952503,335.28 18.73892,-33.951233,335.28 18.756809,-33.946262,335.28 18.761847,-33.944733,365.76 18.779165,-33.940109,365.76 18.78336,-33.939003,365.76 18.797607,-33.93576,365.76 18.802128,-33.934952,365.76 18.821526,-33.931461,335.28 18.825817,-33.930809,304.8 18.844299,-33.928482,335.28 18.849567,-33.927704,335.28 18.867336,-33.925232,365.76 18.872452,-33.924618,365.76 18.88858,-33.922852,396.24 18.893852,-33.922195,396.24 18.912403,-33.920334,457.2 18.917616,-33.919601,487.68 18.923277,-33.918228,487.68 18.924398,-33.917862,457.2 18.929276,-33.91626,457.2 18.930588,-33.915726,457.2 18.935337,-33.914051,457.2 18.936882,-33.91349,457.2 18.944578,-33.910629,457.2 18.948555,-33.909069,457.2 18.95562,-33.905869,457.2 18.956741,-33.905319,457.2 19.093952,-33.891613,426.72 19.089025,-33.890442,426.72 19.077646,-33.888611,426.72 19.076077,-33.888474,426.72 19.069748,-33.887749,426.72 19.066887,-33.88747,426.72 19.048805,-33.885979,396.24 19.043312,-33.8857,426.72 18.953075,-33.906788,457.2 18.949398,-33.90834,487.68 18.940773,-33.91177,457.2 18.936996,-33.913166,457.2 18.928013,-33.916145,457.2 18.927145,-33.916443,457.2 18.920574,-33.918613,426.72 18.919888,-33.919125,426.72 18.919144,-33.92215,426.72 18.919601,-33.922569,426.72 18.921652,-33.922943,426.72 18.921932,-33.922897,426.72 18.923025,-33.922737,0 18.923725,-33.922211,457.2 18.927593,-33.920197,487.68 18.92807,-33.919357,487.68 18.925632,-33.91745,487.68 18.924522,-33.917728,487.68 18.92053,-33.91983,457.2 18.919487,-33.920334,457.2 18.914623,-33.921638,426.72 18.913078,-33.921825,426.72 18.907814,-33.922478,426.72 18.906555,-33.922615,426.72 18.900576,-33.923401,426.72 18.899174,-33.923592,426.72 18.879501,-33.926971,365.76 18.876978,-33.927246,365.76 18.871078,-33.927738,365.76 18.869648,-33.927876,365.76 18.860264,-33.929039,365.76 18.855858,-33.929646,365.76 18.841272,-33.931915,365.76 18.838133,-33.932556,365.76 18.832283,-33.934021,365.76 18.831024,-33.934345,365.76 18.824793,-33.935989,365.76 18.823503,-33.936356,365.76 18.803774,-33.941986,365.76 18.802357,-33.942493,365.76 18.784323,-33.948257,335.28 18.77924,-33.949757,335.28 18.763676,-33.953899,335.28 18.762127,-33.954208,335.28 18.755894,-33.955528,335.28 18.751888,-33.956318,335.28 18.733807,-33.959251,365.76 18.732033,-33.959484,365.76 18.724136,-33.960232,365.76 18.722591,-33.960323,365.76 18.707699,-33.961945,365.76 18.706284,-33.962139,365.76 18.697872,-33.963394,335.28 18.692228,-33.964188,304.8 18.675098,-33.966373,274.32 18.669949,-33.967072,274.32 18.655472,-33.96833,274.32 18.651867,-33.968983,274.32 18.64677,-33.970001,274.32 18.645515,-33.970238,274.32 18.636875,-33.971497,274.32 18.635784,-33.971603,243.84 18.631468,-33.972015,243.84 18.630638,-33.972099,243.84 18.622398,-33.972565,243.84 18.62154,-33.97224,243.84 18.618406,-33.969223,243.84 18.617649,-33.968143,243.84 18.61536,-33.964233,274.32 18.614788,-33.963211,274.32 18.612577,-33.95874,274.32 18.611927,-33.957485,274.32 18.608206,-33.951141,304.8 18.607464,-33.950035,304.8 18.603664,-33.946289,304.8 18.602432,-33.945419,304.8 18.597219,-33.943405,304.8 18.595791,-33.943192,304.8 18.590641,-33.942959,274.32 18.589035,-33.943039,274.32 18.583775,-33.943424,274.32 18.58263,-33.943565,274.32 18.577208,-33.944046,274.32 18.575993,-33.944218,274.32 18.570957,-33.945007,274.32 18.569809,-33.945145,274.32 18.558487,-33.946747,274.32 18.555683,-33.946976,274.32 18.550358,-33.947334,274.32 18.549406,-33.947388,274.32 18.543549,-33.947475,304.8 18.54229,-33.947475,304.8 18.536453,-33.94743,304.8 18.534945,-33.947433,304.8 18.529301,-33.947243,304.8 18.527601,-33.947113,304.8 18.522053,-33.946198,304.8 18.520775,-33.945847,304.8 18.515282,-33.943752,335.28 18.513622,-33.94305,335.28 18.508472,-33.940304,335.28 18.507385,-33.939606,335.28 18.502489,-33.936493,335.28 18.501089,-33.935577,335.28 18.496628,-33.932438,335.28 18.495083,-33.931416,335.28 18.481358,-33.922073,335.28 18.47665,-33.918915,304.8 18.462637,-33.908432,274.32 18.461266,-33.907207,274.32 18.456806,-33.90271,274.32 18.456001,-33.901806,274.32 18.452379,-33.897263,304.8 18.451538,-33.89621,304.8 18.447018,-33.890682,274.32 18.443914,-33.887558,274.32 18.438263,-33.885513,274.32 18.436947,-33.885838,274.32 18.43433,-33.88829,243.84 18.433994,-33.889023,213.36 18.432985,-33.891724,182.88 18.432827,-33.89217,182.88 18.431751,-33.894791,121.92 18.43071,-33.896313,91.44 18.428669,-33.89827,60.96 18.428164,-33.898773,60.96 18.427162,-33.90004,30.48 18.426987,-33.900421,30.48 18.42762,-33.900829,30.48 18.428192,-33.900875,60.96 18.430367,-33.901203,91.44 18.430967,-33.901291,91.44 18.433685,-33.901203,121.92 18.435459,-33.900688,121.92 18.438377,-33.89785,152.4 18.438702,-33.896896,182.88 18.438814,-33.892273,213.36 18.438435,-33.890961,213.36 18.436203,-33.886631,243.84 18.435562,-33.885681,243.84 18.431511,-33.881557,274.32 18.430574,-33.880829,304.8 18.425529,-33.877808,304.8 18.42424,-33.877258,335.28 18.418522,-33.875832,335.28 18.416977,-33.875645,335.28 18.411541,-33.87569,365.76 18.41011,-33.875877,365.76 18.404503,-33.8769,365.76 18.403221,-33.877167,396.24 18.397636,-33.878483,396.24 18.396378,-33.878811,396.24 18.391457,-33.880253,396.24 18.390049,-33.880737,396.24 18.384991,-33.882812,396.24 18.383732,-33.883373,396.24 18.37923,-33.885727,426.72 18.37801,-33.886444,396.24 18.373512,-33.889526,426.72 18.372631,-33.890263,426.72 18.368973,-33.8936,426.72 18.367996,-33.894592,426.72 18.364431,-33.898407,426.72 18.36359,-33.899433,426.72 18.3605,-33.903297,426.72 18.359892,-33.904129,426.72 18.356953,-33.90823,426.72 18.356495,-33.908928,426.72 18.353895,-33.91333,426.72 18.353334,-33.914291,457.2 18.351091,-33.918182,457.2 18.350698,-33.918961,457.2 18.345991,-33.927429,457.2 18.345509,-33.928619,457.2 18.346081,-33.933044,487.68 18.346882,-33.933788,487.68 18.351173,-33.934345,518.16 18.352203,-33.933929,518.16 18.355408,-33.931183,518.16 18.356136,-33.930038,518.16 18.35804,-33.926525,518.16 18.35844,-33.925362,518.16 18.358727,-33.92131,518.16 18.35844,-33.920429,518.16 18.35524,-33.918045,518.16 18.354063,-33.917999,518.16 18.349186,-33.919418,487.68 18.347897,-33.920197,487.68 18.343964,-33.923592,487.68 18.34322,-33.924385,487.68 18.339958,-33.928387,457.2 18.339214,-33.929317,457.2 18.336239,-33.93309,457.2 18.335566,-33.933975,457.2 18.329258,-33.941841,457.2 18.326569,-33.945614,457.2 18.316227,-33.960709,457.2 18.313122,-33.965675,457.2 18.301277,-33.985134,457.2 18.298794,-33.990005,457.2 18.295544,-33.997604,457.2 18.294647,-33.999939,457.2 18.290863,-34.012741,457.2 18.289825,-34.017975,457.2 18.288425,-34.028732,457.2 18.288174,-34.033829,426.72 18.288403,-34.038158,426.72 18.288574,-34.03923,396.24 18.289547,-34.043839,396.24 18.289776,-34.044537,396.24 18.290611,-34.048325,396.24 18.290806,-34.049286,396.24 18.291779,-34.052635,396.24 18.292122,-34.05352,396.24 18.293781,-34.057152,396.24 18.294199,-34.058075,396.24 18.295824,-34.061234,396.24 18.296272,-34.062012,396.24 18.298178,-34.064987,365.76 18.298702,-34.065716,365.76 18.301105,-34.068604,365.76 18.301735,-34.069302,365.76 18.304138,-34.071861,335.28 18.304825,-34.072514,335.28 18.307371,-34.074966,335.28 18.308029,-34.075634,335.28 18.316326,-34.083221,335.28 18.316788,-34.083618,335.28 18.32016,-34.086292,335.28 18.320847,-34.086807,335.28 18.323345,-34.088562,365.76 18.323879,-34.088947,365.76 18.326597,-34.090485,396.24 18.327198,-34.090485,426.72 18.329258,-34.087875,457.2 18.329287,-34.087006,457.2 18.327494,-34.082428,457.2 18.326454,-34.081314,457.2 18.32172,-34.077759,487.68 18.320675,-34.077122,487.68 18.315331,-34.074554,487.68 18.313751,-34.074188,487.68 18.309219,-34.075562,487.68 18.308716,-34.07634,487.68 18.309517,-34.07917,426.72 18.310204,-34.079914,426.72 18.312864,-34.082153,396.24 18.313637,-34.08271,396.24 18.316507,-34.084625,365.76 18.317127,-34.085037,365.76 18.320206,-34.087143,365.76 18.320879,-34.087601,365.76 18.32542,-34.090347,335.28 18.326054,-34.090717,335.28 18.329258,-34.092392,335.28 18.329847,-34.092728,335.28 18.333206,-34.094395,335.28 18.336353,-34.095978,335.28 18.347111,-34.101238,365.76 18.350195,-34.102982,365.76 18.355633,-34.105499,335.28 18.356417,-34.105774,335.28 18.359871,-34.10701,335.28 18.360453,-34.107193,335.28 18.364489,-34.108658,365.76 18.367252,-34.109661,335.28 18.379063,-34.113464,365.76 18.38253,-34.114456,365.76 18.3918,-34.117577,365.76 18.392796,-34.117996,365.76 18.398037,-34.119904,365.76 18.398895,-34.120136,365.76 18.40238,-34.121063,365.76 18.403416,-34.121346,396.24 18.408882,-34.123077,396.24 18.411655,-34.124001,396.24 18.423679,-34.128113,396.24 18.425388,-34.128796,396.24 18.43063,-34.130905,396.24 18.433041,-34.131775,396.24 18.439007,-34.133636,396.24 18.439823,-34.133789,396.24 18.443642,-34.13438,426.72 18.444475,-34.13443,426.72 18.448563,-34.134148,396.24 18.449821,-34.133915,426.72 18.454285,-34.132507,426.72 18.455013,-34.132187,426.72 18.459217,-34.13031,426.72 18.460178,-34.129868,426.72 18.46443,-34.127426,426.72 18.465384,-34.12674,426.72 18.469105,-34.123257,396.24 18.469868,-34.122391,396.24 18.47323,-34.11795,396.24 18.473969,-34.116879,396.24 18.476818,-34.112091,396.24 18.477573,-34.1105,396.24 18.47934,-34.105682,396.24 18.479691,-34.104076,396.24 18.480148,-34.098209,396.24 18.480125,-34.097076,365.76 18.4799,-34.091171,365.76 18.4799,-34.089844,365.76 18.479805,-34.083641,365.76 18.479862,-34.079311,335.28 18.480492,-34.071861,335.28 18.480629,-34.070618,335.28 18.481358,-34.064575,335.28 18.481525,-34.063156,335.28 18.484154,-34.046818,335.28 18.484722,-34.042694,335.28 18.485619,-34.032074,365.76 18.485674,-34.030792,365.76 18.485756,-34.025402,365.76 18.485756,-34.023914,365.76 18.485584,-34.018467,365.76 18.485561,-34.017014,365.76 18.485699,-34.00045,396.24 18.485985,-33.995331,396.24 18.48629,-33.973663,396.24 18.486156,-33.969635,396.24 18.485058,-33.952698,365.76 18.484833,-33.951233,365.76 18.483353,-33.945286,365.76 18.482927,-33.943909,365.76 18.481121,-33.938259,365.76 18.480835,-33.937279,365.76 18.478661,-33.931274,365.76 18.478107,-33.930084,365.76 18.475285,-33.924477,365.76 18.474541,-33.923267,365.76 18.470592,-33.918098,365.76 18.469475,-33.916809,365.76 18.465326,-33.912094,365.76 18.46443,-33.911041,365.76 18.456919,-33.900833,335.28 18.45623,-33.899899,335.28 18.448343,-33.889664,274.32 18.447361,-33.888584,274.32 18.443018,-33.884583,274.32 18.441896,-33.88385,274.32 18.436741,-33.882843,243.84 18.435802,-33.883091,243.84 18.433399,-33.885235,213.36 18.433228,-33.885838,213.36 18.43277,-33.888119,182.88 18.432598,-33.888771,152.4 18.431969,-33.891098,152.4 18.431797,-33.891705,121.92 18.43071,-33.894314,121.92 18.430424,-33.894917,91.44 18.429173,-33.896805,60.96 18.428822,-33.897339,60.96 18.427677,-33.8992,30.48 18.427492,-33.89946,30.48 18.427044,-33.900742,30.48 18.427105,-33.901016,30.48
        </coordinates>
      </LineString>
    </Placemark>
  </Document>
</kml>