<?xml version="1.0" encoding="UTF-8"?>
<kml xmlns="http://www.opengis.net/kml/2.2">
  <Document>
    <name>-/ZTHOT - Optimised</name>
    <description><![CDATA[Optimised flight path with 279 points (decimated from 1391 original points). Source format: Standard KML]]></description>
    
    <Style id="flightPath">
      <LineStyle>
        <color>ff0000ff</color>
        <width>3</width>
      </LineStyle>
    </Style>
    
    <Placemark>
      <name>Flight Path</name>
      <description><![CDATA[<div style="width:220px; text-align:center;">
<div style="width:210px; text-align:center;">
<div style=" background: #000; color: #fff; font-size: 14px; text-align:left; border: 1px solid #000; padding: 2px 6px; text-shadow: 0 1px 0 #000; box-shadow: 0 1px 3px rgba(0,0,0,0.6); background: -webkit-gradient(linear, left top, left bottom, color-stop(0%,#808080), color-stop(2%,#303030), color-stop(100%,#0c0c0c));"><span style="font-size: 14px; font-weight: bold;"><a href="javascript:void(0);" style="color: #fff; cursor: pointer;text-decoration: none;">-</a></span> / ZTHOT<br/>Cape Town Helicopters</div>

<div style="border-top: 1px solid #005c90; color: #fff; padding-bottom: 5px; box-shadow: 0 0 1px #9BE3F6 inset, 0 1px 0 #9BE3F6 inset, 0 -1px 3px rgba(0,0,0,0.4); background:rgba(43,114,173,1); background: -webkit-gradient(linear, left top, left bottom, color-stop(0%,rgba(92,184,229,1)), color-stop(100%,rgba(43,114,173,1)));">
<a style="text-decoration: none; color: rgb(255, 255, 255); font-size: 12px; width:77px; display: inline-block;" title=" Airport" href="javascript:void(0);/departures"><h3 style="padding: 0px; margin: 10px 0px 0px; font-size: 16px; ">?</h3></a>
<span style="background: url(https://www.flightradar24.com/static/images/userUI_sprite.png?14) no-repeat scroll 0 -464px rgba(0, 0, 0, 0); border: medium none; display: inline-block; height: 16px; width: 45px;"></span>
<a style="text-decoration: none; color: rgb(255, 255, 255); font-size: 12px; width:77px; display: inline-block;" title=" Airport" href="javascript:void(0);/arrivals"><h3 style="padding: 0px; margin: 10px 0px 0px; font-size: 16px;">?</h3></a>
<div style=" margin-top:10px;">
<div style="display: inline-block; font-size: 12px; padding: 0 5px;">
<div>
<span style="color: #c1eaff;" title="Actual Time of Departure">ATD </span>
<span title="2025-08-28 13:13">13:13</span> <span title="Coordinated Universal Time">UTC</span>
</div>
</div>
<div style="display: inline-block; font-size: 12px; padding: 0 5px;">
<div>
<span style="color: #c1eaff;" title="Estimated Time of Arrival">ETA </span>
<span title="2025-08-28 13:37">13:37</span> <span title="Coordinated Universal Time">UTC</span>
</div>
</div>
</div>
<br style="clear: both;"/>
</div>

<div style="display: block;">
<table style="border-collapse: collapse; width: 100%;">
<tr style="border-right: 1px solid #dadada; ">
<td style="background: none repeat scroll 0 0 #dadada; padding: 0; width: 31px;">
<span style="background: url(https://www.flightradar24.com/static/images/userUI_sprite.png?14) no-repeat scroll -208px -464px rgba(0, 0, 0, 0); height: 26px; margin: 8px 0 0 4px; width: 23px; display: block;"></span>
</td>
<td colspan="2" style="border-bottom: 1px solid #dadada; border-left: 1px solid #dadada; color: #666; line-height: 1.1em; padding: 3px 6px; vertical-align: top; font-size: 14px;">
Aircraft<span style="float: right; font-size: 12px;">(AS50)</span><br>
<span style="color: #333; font-size: 16px; font-weight: bold; line-height: 1.3em;">Airbus Helicopters H125</span>
</td>
</tr>
<tr style="border-right: 1px solid #dadada; ">
<td style="background: none repeat scroll 0 0 #dadada; padding: 0; width: 31px;">
<td colspan="2" style="border-bottom: 1px solid #dadada; border-left: 1px solid #dadada; color: #666; line-height: 1.1em; padding: 3px 6px; vertical-align: top; font-size: 14px;">
Registration<br>
<span style="color: #333; font-size: 16px; font-weight: bold; line-height: 1.3em;"><a href="https://www.flightradar24.com/reg/zt-hot" style="text-decoration: none; color: #333;">ZT-HOT</a></span>
</td>
</tr>
</table>
</div>

</div>
</div>]]></description>
      <styleUrl>#flightPath</styleUrl>
      <LineString>
        <extrude>1</extrude>
        <tessellate>1</tessellate>
        <altitudeMode>absolute</altitudeMode>
        <coordinates>
          18.429337,-33.898174,60.96 18.432873,-33.893875,152.4 18.435516,-33.890263,213.36 18.437233,-33.886307,243.84 18.436741,-33.882019,304.8 18.434723,-33.877945,335.28 18.431528,-33.874283,396.24 18.426315,-33.872635,457.2 18.421829,-33.873962,487.68 18.420982,-33.876949,548.64 18.424358,-33.878624,579.12 18.427322,-33.876114,579.12 18.425922,-33.871628,548.64 18.420317,-33.868744,579.12 18.412857,-33.868942,579.12 18.406334,-33.870708,579.12 18.400154,-33.872711,609.6 18.394028,-33.875107,670.56 18.388031,-33.878082,701.04 18.383617,-33.881649,731.52 18.379118,-33.88591,762 18.375206,-33.89003,762 18.370823,-33.894882,762 18.364544,-33.902618,731.52 18.358938,-33.910263,731.52 18.355579,-33.91605,731.52 18.352213,-33.922256,762 18.348885,-33.9296,762 18.346939,-33.935928,731.52 18.345566,-33.94347,731.52 18.344822,-33.949848,701.04 18.342934,-33.965908,609.6 18.337807,-33.983139,518.16 18.330631,-33.996353,457.2 18.315582,-34.019165,365.76 18.348198,-34.086666,396.24 18.348738,-34.092133,396.24 18.349859,-34.097351,396.24 18.351988,-34.102341,426.72 18.356136,-34.106918,426.72 18.362675,-34.110455,426.72 18.370228,-34.113155,426.72 18.377325,-34.115662,426.72 18.40044,-34.123859,457.2 18.425274,-34.13303,426.72 18.43915,-34.13736,396.24 18.44599,-34.137543,396.24 18.454678,-34.135025,426.72 18.461208,-34.132099,426.72 18.467102,-34.128052,426.72 18.472309,-34.122929,426.72 18.475977,-34.117493,426.72 18.477827,-34.111633,426.72 18.477827,-34.103668,426.72 18.477322,-34.096344,426.72 18.475023,-34.090164,426.72 18.47208,-34.08485,426.72 18.468018,-34.076191,457.2 18.465832,-34.069885,457.2 18.464037,-34.063934,457.2 18.462469,-34.055832,457.2 18.462132,-34.049194,457.2 18.46241,-34.04179,426.72 18.462973,-34.035187,426.72 18.464413,-34.023869,426.72 18.467009,-34.001587,426.72 18.471222,-33.978756,396.24 18.476202,-33.960846,426.72 18.477491,-33.95105,426.72 18.477434,-33.944687,396.24 18.476032,-33.9375,365.76 18.473566,-33.930679,335.28 18.470135,-33.924526,304.8 18.465439,-33.918274,274.32 18.460636,-33.912979,243.84 18.456001,-33.908463,213.36 18.451651,-33.904495,182.88 18.446661,-33.900238,182.88 18.442097,-33.897758,152.4 18.438034,-33.898083,121.92 18.434715,-33.89864,91.44 18.429958,-33.899551,30.48 18.428221,-33.899231,30.48 18.430367,-33.8965,60.96 18.432713,-33.893196,152.4 18.435171,-33.888428,213.36 18.435452,-33.883804,274.32 18.432369,-33.878857,335.28 18.427162,-33.874619,396.24 18.421438,-33.872818,457.2 18.414431,-33.873459,518.16 18.407822,-33.875134,548.64 18.401985,-33.877041,579.12 18.395176,-33.879974,609.6 18.389339,-33.883278,640.08 18.38356,-33.887421,701.04 18.379154,-33.891285,731.52 18.374073,-33.896255,762 18.369598,-33.900921,762 18.361742,-33.910217,731.52 18.35741,-33.916424,731.52 18.354206,-33.922104,762 18.35154,-33.928528,762 18.349241,-33.935303,762 18.34425,-33.95092,731.52 18.338032,-33.972794,731.52 18.33478,-33.989227,731.52 18.327381,-34.000214,731.52 18.322504,-34.006027,731.52 18.313648,-34.016281,731.52 18.308716,-34.024063,792.48 18.311749,-34.024284,792.48 18.316784,-34.0187,762 18.320904,-34.013065,731.52 18.325024,-34.006924,731.52 18.328342,-34.001614,701.04 18.343861,-33.97554,579.12 18.353334,-33.953293,609.6 18.35741,-33.939888,609.6 18.361816,-33.928619,609.6 18.36533,-33.922302,609.6 18.369757,-33.916031,640.08 18.374521,-33.910446,609.6 18.380352,-33.904312,579.12 18.388538,-33.896313,518.16 18.395348,-33.891331,487.68 18.402996,-33.887695,457.2 18.41118,-33.884949,426.72 18.418634,-33.883026,396.24 18.426203,-33.882202,335.28 18.433056,-33.883698,304.8 18.440104,-33.887009,274.32 18.444981,-33.89003,243.84 18.448679,-33.894745,213.36 18.446789,-33.899059,182.88 18.441616,-33.900146,121.92 18.437693,-33.899643,121.92 18.433456,-33.8992,60.96 18.428822,-33.899899,30.48 18.427048,-33.900932,0 18.43248,-33.894424,121.92 18.432873,-33.893875,152.4 18.434887,-33.891148,182.88 18.435516,-33.890263,213.36 18.437021,-33.887192,243.84 18.437233,-33.886307,243.84 18.437077,-33.882889,274.32 18.436741,-33.882019,304.8 18.435116,-33.87867,335.28 18.434723,-33.877945,335.28 18.432312,-33.874878,396.24 18.431528,-33.874283,396.24 18.427828,-33.872818,426.72 18.426315,-33.872635,457.2 18.422642,-33.873363,487.68 18.421829,-33.873962,487.68 18.420811,-33.876484,548.64 18.420982,-33.876949,548.64 18.423328,-33.878624,579.12 18.424358,-33.878624,579.12 18.426987,-33.876984,579.12 18.427322,-33.876114,579.12 18.426594,-33.872406,548.64 18.425922,-33.871628,548.64 18.421719,-33.86911,579.12 18.420317,-33.868744,579.12 18.414488,-33.868652,579.12 18.412857,-33.868942,579.12 18.407421,-33.870384,579.12 18.406334,-33.870708,579.12 18.401241,-33.872341,609.6 18.400154,-33.872711,609.6 18.395405,-33.874527,640.08 18.394028,-33.875107,670.56 18.389626,-33.877132,670.56 18.388031,-33.878082,701.04 18.384533,-33.880905,731.52 18.383617,-33.881649,731.52 18.379955,-33.885094,762 18.379118,-33.88591,762 18.376036,-33.889114,762 18.375206,-33.89003,762 18.37183,-33.893707,731.52 18.370823,-33.894882,762 18.36729,-33.899139,731.52 18.364544,-33.902618,731.52 18.359499,-33.909393,731.52 18.358938,-33.910263,731.52 18.356249,-33.914841,731.52 18.355579,-33.91605,731.52 18.352774,-33.921204,762 18.352213,-33.922256,762 18.3498,-33.927597,762 18.348885,-33.9296,762 18.347111,-33.935093,731.52 18.346939,-33.935928,731.52 18.345737,-33.94212,731.52 18.345566,-33.94347,731.52 18.344925,-33.948807,701.04 18.344822,-33.949848,701.04 18.343792,-33.959995,640.08 18.342934,-33.965908,609.6 18.338984,-33.980392,548.64 18.337807,-33.983139,518.16 18.332348,-33.993793,457.2 18.330631,-33.996353,457.2 18.31707,-34.01651,365.76 18.315582,-34.019165,365.76 18.348427,-34.082569,396.24 18.348198,-34.086666,396.24 18.348541,-34.091087,396.24 18.348738,-34.092133,396.24 18.349571,-34.096348,396.24 18.349859,-34.097351,396.24 18.351484,-34.101471,426.72 18.351988,-34.102341,426.72 18.355236,-34.106216,426.72 18.356136,-34.106918,426.72 18.361629,-34.110031,426.72 18.362675,-34.110455,426.72 18.369028,-34.112732,426.72 18.370228,-34.113155,426.72 18.376122,-34.115204,426.72 18.377325,-34.115662,426.72 18.396381,-34.122391,457.2 18.40044,-34.123859,457.2 18.421213,-34.1315,426.72 18.425274,-34.13303,426.72 18.437576,-34.137035,396.24 18.43915,-34.13736,396.24 18.4447,-34.13768,396.24 18.44599,-34.137543,396.24 18.45294,-34.135712,426.72 18.454678,-34.135025,426.72 18.459778,-34.132828,426.72 18.461208,-34.132099,426.72 18.465887,-34.129028,426.72 18.467102,-34.128052,426.72 18.471548,-34.123856,426.72 18.472309,-34.122929,426.72 18.475416,-34.1185,426.72 18.475977,-34.117493,426.72 18.477602,-34.112732,426.72 18.477827,-34.111633,426.72 18.477917,-34.105148,426.72 18.477827,-34.103668,426.72 18.477491,-34.097488,426.72 18.477322,-34.096344,426.72 18.475742,-34.091507,426.72 18.475023,-34.090164,426.72 18.472652,-34.085827,426.72 18.47208,-34.08485,426.72 18.469448,-34.07959,457.2 18.468018,-34.076191,457.2 18.466225,-34.07103,457.2 18.465832,-34.069885,457.2 18.46443,-34.065308,457.2 18.464037,-34.063934,457.2 18.462696,-34.057476,457.2 18.462469,-34.055832,457.2 18.462124,-34.0504,457.2 18.462132,-34.049194,457.2 18.462299,-34.043793,426.72 18.46241,-34.04179,426.72 18.462811,-34.036621,426.72 18.462973,-34.035187,426.72 18.463726,-34.029362,426.72 18.464413,-34.023869,426.72 18.466393,-34.006668,426.72 18.467009,-34.001587,426.72 18.470371,-33.98259,396.24 18.471222,-33.978756,396.24 18.475023,-33.965012,426.72 18.476202,-33.960846,426.72 18.477345,-33.952782,426.72 18.477491,-33.95105,426.72 18.477516,-33.945892,396.24 18.477434,-33.944687,396.24 18.476429,-33.938862,365.76 18.476032,-33.9375,365.76 18.474255,-33.932297,335.28 18.473566,-33.930679,335.28 18.470879,-33.925735,304.8 18.470135,-33.924526,304.8 18.466187,-33.91917,274.32 18.465439,-33.918274,274.32 18.462021,-33.914383,243.84 18.460636,-33.912979,243.84 18.456974,-33.909393,213.36 18.456001,-33.908463,213.36 18.452435,-33.905182,182.88 18.451651,-33.904495,182.88 18.447361,-33.900784,182.88 18.446661,-33.900238,182.88 18.442783,-33.897896,152.4 18.442097,-33.897758,152.4 18.438814,-33.897995,121.92 18.438034,-33.898083,121.92 18.435402,-33.898548,91.44 18.434715,-33.89864,91.44 18.431808,-33.899139,60.96 18.429958,-33.899551,30.48 18.427828,-33.899734,30.48 18.428221,-33.899231,30.48 18.430014,-33.896988,60.96 18.430367,-33.8965,60.96 18.432255,-33.893845,121.92 18.432713,-33.893196,152.4 18.434778,-33.889389,182.88 18.435171,-33.888428,213.36 18.435619,-33.884445,243.84 18.435452,-33.883804,274.32 18.433228,-33.879833,304.8 18.432369,-33.878857,335.28 18.428556,-33.875565,365.76 18.427162,-33.874619,396.24 18.422615,-33.872955,426.72 18.421438,-33.872818,457.2 18.415546,-33.873272,487.68 18.414431,-33.873459,518.16 18.408937,-33.874832,548.64 18.407822,-33.875134,548.64 18.403221,-33.876572,579.12 18.401985,-33.877041,579.12 18.39695,-33.879089,609.6 18.395176,-33.879974,609.6 18.390272,-33.882706,640.08 18.389339,-33.883278,640.08 18.385004,-33.886322,701.04 18.38356,-33.887421,701.04 18.379623,-33.890854,731.52 18.379154,-33.891285,731.52 18.375137,-33.895157,762 18.374073,-33.896255,762 18.370262,-33.900192,762 18.369598,-33.900921,762 18.362526,-33.909164,731.52 18.361742,-33.910217,731.52 18.358379,-33.914886,731.52 18.35741,-33.916424,731.52 18.354792,-33.920929,762 18.354206,-33.922104,762 18.352089,-33.927132,762 18.35154,-33.928528,762 18.349747,-33.933655,762 18.349241,-33.935303,762 18.345337,-33.94743,731.52 18.34425,-33.95092,731.52 18.338312,-33.968628,731.52 18.338032,-33.972794,731.52 18.335846,-33.986618,731.52 18.33478,-33.989227,731.52 18.329624,-33.997421,731.52 18.327381,-34.000214,731.52 18.323193,-34.005245,731.52 18.322504,-34.006027,731.52 18.3169,-34.012344,731.52 18.313648,-34.016281,731.52 18.309109,-34.023331,762 18.308716,-34.024063,792.48 18.310547,-34.025078,822.96 18.311749,-34.024284,792.48 18.315722,-34.020035,762 18.316784,-34.0187,762 18.319874,-34.014557,731.52 18.320904,-34.013065,731.52 18.32428,-34.008087,731.52 18.325024,-34.006924,731.52 18.327599,-34.002827,731.52 18.328342,-34.001614,701.04 18.341002,-33.980804,609.6 18.343861,-33.97554,579.12 18.352829,-33.955032,609.6 18.353334,-33.953293,609.6 18.356152,-33.943985,609.6 18.35741,-33.939888,609.6 18.361126,-33.930084,609.6 18.361816,-33.928619,609.6 18.364334,-33.923874,609.6 18.36533,-33.922302,609.6 18.368568,-33.917542,640.08 18.369757,-33.916031,640.08 18.373489,-33.911629,609.6 18.374521,-33.910446,609.6 18.379454,-33.905273,579.12 18.380352,-33.904312,579.12 18.38719,-33.897537,548.64 18.388538,-33.896313,518.16 18.393631,-33.892403,487.68 18.395348,-33.891331,487.68 18.401413,-33.888351,457.2 18.402996,-33.887695,457.2 18.409767,-33.885422,426.72 18.41118,-33.884949,426.72 18.416862,-33.883465,396.24 18.418634,-33.883026,396.24 18.424473,-33.88221,335.28 18.426203,-33.882202,335.28 18.431511,-33.883186,304.8 18.433056,-33.883698,304.8 18.438778,-33.886307,274.32 18.440104,-33.887009,274.32 18.444214,-33.889469,243.84 18.444981,-33.89003,243.84 18.448511,-33.894012,213.36 18.448679,-33.894745,213.36 18.447647,-33.898361,182.88 18.446789,-33.899059,182.88 18.442738,-33.900192,152.4 18.441616,-33.900146,121.92 18.438534,-33.899734,121.92 18.437693,-33.899643,121.92 18.434217,-33.899231,91.44 18.433456,-33.8992,60.96 18.429398,-33.899506,30.48 18.428822,-33.899899,30.48 18.427292,-33.900829,0 18.427048,-33.900932,0
        </coordinates>
      </LineString>
    </Placemark>
  </Document>
</kml>