<?xml version="1.0" encoding="UTF-8"?>
<kml xmlns="http://www.opengis.net/kml/2.2">
  <Document>
    <name>-/ZTHOT - Optimised</name>
    <description><![CDATA[Optimised flight path with 957 points (decimated from 4783 original points). Source format: Standard KML]]></description>
    
    <Style id="flightPath">
      <LineStyle>
        <color>ff0000ff</color>
        <width>3</width>
      </LineStyle>
    </Style>
    
    <Placemark>
      <name>Flight Path</name>
      <description><![CDATA[<div style="width:220px; text-align:center;">
<div style="width:210px; text-align:center;">
<div style=" background: #000; color: #fff; font-size: 14px; text-align:left; border: 1px solid #000; padding: 2px 6px; text-shadow: 0 1px 0 #000; box-shadow: 0 1px 3px rgba(0,0,0,0.6); background: -webkit-gradient(linear, left top, left bottom, color-stop(0%,#808080), color-stop(2%,#303030), color-stop(100%,#0c0c0c));"><span style="font-size: 14px; font-weight: bold;"><a href="javascript:void(0);" style="color: #fff; cursor: pointer;text-decoration: none;">-</a></span> / ZTHOT<br/>Cape Town Helicopters</div>

<div style="border-top: 1px solid #005c90; color: #fff; padding-bottom: 5px; box-shadow: 0 0 1px #9BE3F6 inset, 0 1px 0 #9BE3F6 inset, 0 -1px 3px rgba(0,0,0,0.4); background:rgba(43,114,173,1); background: -webkit-gradient(linear, left top, left bottom, color-stop(0%,rgba(92,184,229,1)), color-stop(100%,rgba(43,114,173,1)));">
<a style="text-decoration: none; color: rgb(255, 255, 255); font-size: 12px; width:77px; display: inline-block;" title=" Airport" href="javascript:void(0);/departures"><h3 style="padding: 0px; margin: 10px 0px 0px; font-size: 16px; ">?</h3></a>
<span style="background: url(https://www.flightradar24.com/static/images/userUI_sprite.png?14) no-repeat scroll 0 -464px rgba(0, 0, 0, 0); border: medium none; display: inline-block; height: 16px; width: 45px;"></span>
<a style="text-decoration: none; color: rgb(255, 255, 255); font-size: 12px; width:77px; display: inline-block;" title="Cape Town Airport" href="https://www.flightradar24.com/airport/cpt/arrivals"><h3 style="padding: 0px; margin: 10px 0px 0px; font-size: 16px;">CPT</h3>Cape Town</a>
<div style=" margin-top:10px;">
<div style="display: inline-block; font-size: 12px; padding: 0 5px;">
<div>
<span style="color: #c1eaff;" title="Actual Time of Departure">ATD </span>
<span title="2025-04-25 14:48">14:48</span> <span title="Coordinated Universal Time">UTC</span>
</div>
</div>
<div style="display: inline-block; font-size: 12px; padding: 0 5px;">
<div>
<span style="color: #c1eaff;" title="Estimated Time of Arrival">ETA </span>
<span title="2025-04-25 15:00">15:00</span> <span title="Coordinated Universal Time">UTC</span>
</div>
</div>
</div>
<br style="clear: both;"/>
</div>

<div style="display: block;">
<table style="border-collapse: collapse; width: 100%;">
<tr style="border-right: 1px solid #dadada; ">
<td style="background: none repeat scroll 0 0 #dadada; padding: 0; width: 31px;">
<span style="background: url(https://www.flightradar24.com/static/images/userUI_sprite.png?14) no-repeat scroll -208px -464px rgba(0, 0, 0, 0); height: 26px; margin: 8px 0 0 4px; width: 23px; display: block;"></span>
</td>
<td colspan="2" style="border-bottom: 1px solid #dadada; border-left: 1px solid #dadada; color: #666; line-height: 1.1em; padding: 3px 6px; vertical-align: top; font-size: 14px;">
Aircraft<span style="float: right; font-size: 12px;">(AS50)</span><br>
<span style="color: #333; font-size: 16px; font-weight: bold; line-height: 1.3em;">Airbus Helicopters H125</span>
</td>
</tr>
<tr style="border-right: 1px solid #dadada; ">
<td style="background: none repeat scroll 0 0 #dadada; padding: 0; width: 31px;">
<td colspan="2" style="border-bottom: 1px solid #dadada; border-left: 1px solid #dadada; color: #666; line-height: 1.1em; padding: 3px 6px; vertical-align: top; font-size: 14px;">
Registration<br>
<span style="color: #333; font-size: 16px; font-weight: bold; line-height: 1.3em;"><a href="https://www.flightradar24.com/reg/zt-hot" style="text-decoration: none; color: #333;">ZT-HOT</a></span>
</td>
</tr>
</table>
</div>

</div>
</div>]]></description>
      <styleUrl>#flightPath</styleUrl>
      <LineString>
        <extrude>1</extrude>
        <tessellate>1</tessellate>
        <altitudeMode>absolute</altitudeMode>
        <coordinates>
          18.432999,-33.897526,60.96 18.43646,-33.891449,121.92 18.436684,-33.886871,182.88 18.435226,-33.882339,213.36 18.431864,-33.878677,274.32 18.42609,-33.877533,365.76 18.423271,-33.88221,457.2 18.424015,-33.885559,548.64 18.425903,-33.887981,640.08 18.424128,-33.89035,670.56 18.418186,-33.889755,640.08 18.411852,-33.88884,670.56 18.40416,-33.888401,701.04 18.397615,-33.889206,731.52 18.391171,-33.89138,731.52 18.385395,-33.894516,762 18.379679,-33.898544,762 18.374353,-33.90271,762 18.369141,-33.907837,762 18.364656,-33.913055,762 18.360117,-33.918503,762 18.35289,-33.928204,762 18.349131,-33.935898,792.48 18.35043,-33.940399,914.4 18.354174,-33.940338,975.36 18.356642,-33.938004,1036.32 18.359127,-33.935417,1097.28 18.362471,-33.933609,1188.72 18.367348,-33.93544,1188.72 18.370262,-33.941162,1188.72 18.369312,-33.947567,1158.24 18.366787,-33.954208,1127.76 18.363815,-33.960892,1097.28 18.354607,-33.981968,1066.8 18.352089,-33.990303,1066.8 18.350945,-33.996681,1066.8 18.350143,-34.003525,1066.8 18.3498,-34.010086,1066.8 18.349579,-34.016556,1036.32 18.350029,-34.027779,1005.84 18.351688,-34.034573,975.36 18.35289,-34.044582,975.36 18.352942,-34.051575,944.88 18.350601,-34.058224,883.92 18.346767,-34.064648,853.44 18.343964,-34.071304,853.44 18.347336,-34.076935,822.96 18.354721,-34.077915,853.44 18.361237,-34.079819,853.44 18.367907,-34.085312,853.44 18.372561,-34.090714,822.96 18.377209,-34.096581,792.48 18.386965,-34.107834,731.52 18.392601,-34.11264,731.52 18.398905,-34.116211,731.52 18.405462,-34.119141,701.04 18.412357,-34.121704,670.56 18.419588,-34.12413,640.08 18.427044,-34.126236,640.08 18.434143,-34.126469,640.08 18.440952,-34.124374,640.08 18.447502,-34.120926,609.6 18.453051,-34.117355,579.12 18.458714,-34.11351,579.12 18.462973,-34.108795,548.64 18.465158,-34.103622,548.64 18.467216,-34.098396,548.64 18.469105,-34.093044,579.12 18.470249,-34.088062,579.12 18.469307,-34.082886,579.12 18.466644,-34.078098,579.12 18.462917,-34.073822,579.12 18.458633,-34.069859,579.12 18.454056,-34.066181,609.6 18.449306,-34.063065,640.08 18.444082,-34.060638,670.56 18.438198,-34.058945,701.04 18.434715,-34.054779,701.04 18.432816,-34.049561,731.52 18.431023,-34.044571,731.52 18.427563,-34.033829,731.52 18.427773,-34.028275,731.52 18.428892,-34.022781,731.52 18.430742,-34.017471,731.52 18.433153,-34.012344,731.52 18.436348,-34.007172,731.52 18.442154,-33.996449,701.04 18.446438,-33.991608,670.56 18.451706,-33.987167,609.6 18.458862,-33.979828,579.12 18.46258,-33.975037,548.64 18.468859,-33.970367,548.64 18.475513,-33.967724,518.16 18.480721,-33.962044,487.68 18.483238,-33.956646,457.2 18.485012,-33.950592,426.72 18.485731,-33.944778,426.72 18.48444,-33.938862,396.24 18.481806,-33.933243,365.76 18.478546,-33.928295,365.76 18.473911,-33.923313,335.28 18.468971,-33.918869,335.28 18.463383,-33.914562,304.8 18.456247,-33.908249,304.8 18.452492,-33.903305,304.8 18.448563,-33.898502,304.8 18.441238,-33.891891,274.32 18.436293,-33.888885,304.8 18.434217,-33.890533,335.28 18.436718,-33.894032,304.8 18.439579,-33.89743,243.84 18.440552,-33.900597,213.36 18.438148,-33.901295,152.4 18.434944,-33.899059,121.92 18.431135,-33.898544,60.96 18.427044,-33.900146,30.48 18.42738,-33.900375,30.48 18.427734,-33.899014,30.48 18.42905,-33.896919,60.96 18.431248,-33.893463,91.44 18.434666,-33.887421,182.88 18.435631,-33.882767,243.84 18.433434,-33.87854,274.32 18.428837,-33.875839,335.28 18.423624,-33.875107,426.72 18.418243,-33.875702,457.2 18.413029,-33.876808,518.16 18.407873,-33.879089,548.64 18.402557,-33.881927,609.6 18.398037,-33.884674,670.56 18.39077,-33.889191,731.52 18.373547,-33.900784,731.52 18.368299,-33.905365,731.52 18.363255,-33.910629,762 18.359756,-33.915352,762 18.356529,-33.921066,792.48 18.353405,-33.926758,792.48 18.350979,-33.932236,822.96 18.348541,-33.938072,822.96 18.341217,-33.959114,792.48 18.35146,-33.969959,792.48 18.358326,-33.96386,762 18.358322,-33.956543,731.52 18.358097,-33.950592,701.04 18.358326,-33.942493,701.04 18.358841,-33.936859,701.04 18.359642,-33.93132,701.04 18.361574,-33.926102,701.04 18.364769,-33.921066,670.56 18.368454,-33.916237,670.56 18.372952,-33.911453,670.56 18.376923,-33.907299,670.56 18.389168,-33.895245,640.08 18.396778,-33.888821,640.08 18.402729,-33.8857,609.6 18.409498,-33.883392,609.6 18.41729,-33.882889,579.12 18.424759,-33.884724,579.12 18.431339,-33.887188,548.64 18.438091,-33.890633,457.2 18.444214,-33.894638,396.24 18.447279,-33.899048,365.76 18.442064,-33.900742,213.36 18.437693,-33.897491,182.88 18.434029,-33.899014,152.4 18.430653,-33.899059,60.96 18.426819,-33.90041,30.48 18.42762,-33.899479,30.48 18.428724,-33.897354,30.48 18.431528,-33.894379,30.48 18.433857,-33.892448,60.96 18.435452,-33.888016,182.88 18.435003,-33.884491,274.32 18.431511,-33.882393,335.28 18.426874,-33.881195,396.24 18.422054,-33.880508,457.2 18.416842,-33.880417,518.16 18.411236,-33.880875,579.12 18.4058,-33.882111,640.08 18.400307,-33.883896,640.08 18.394718,-33.886257,701.04 18.389225,-33.889099,731.52 18.383789,-33.892448,762 18.378983,-33.895756,792.48 18.373718,-33.899757,822.96 18.368805,-33.904037,853.44 18.364544,-33.908295,853.44 18.360285,-33.912918,883.92 18.356024,-33.91864,853.44 18.352381,-33.924683,853.44 18.349131,-33.930725,853.44 18.346081,-33.937092,822.96 18.34358,-33.944321,792.48 18.34145,-33.951096,792.48 18.350945,-33.962372,762 18.357481,-33.954071,670.56 18.357819,-33.948166,640.08 18.357929,-33.941574,609.6 18.358955,-33.933464,609.6 18.360901,-33.928154,609.6 18.363705,-33.923126,609.6 18.367516,-33.917679,579.12 18.371315,-33.912979,579.12 18.375607,-33.908604,579.12 18.380352,-33.904221,548.64 18.385334,-33.90004,548.64 18.390255,-33.896175,548.64 18.400194,-33.888519,548.64 18.410452,-33.882111,548.64 18.417549,-33.881649,487.68 18.425026,-33.883713,426.72 18.432032,-33.886597,365.76 18.438663,-33.889935,335.28 18.444252,-33.893692,304.8 18.446325,-33.898636,243.84 18.441982,-33.900551,182.88 18.437077,-33.89859,121.92 18.430182,-33.898911,60.96 18.42738,-33.90057,0 18.42762,-33.898872,30.48 18.428892,-33.896942,60.96 18.430996,-33.893612,91.44 18.4342,-33.887653,213.36 18.43461,-33.88266,243.84 18.430996,-33.879555,304.8 18.425846,-33.878998,335.28 18.420822,-33.879135,396.24 18.415272,-33.879547,426.72 18.409996,-33.88044,487.68 18.404678,-33.882019,518.16 18.399578,-33.884125,548.64 18.394924,-33.886459,579.12 18.389992,-33.889297,609.6 18.384724,-33.892639,609.6 18.379841,-33.896126,640.08 18.375206,-33.899807,670.56 18.370878,-33.903717,701.04 18.366909,-33.90786,731.52 18.363087,-33.912323,731.52 18.35947,-33.917217,731.52 18.356361,-33.922623,731.52 18.353519,-33.928017,731.52 18.350531,-33.934525,731.52 18.345108,-33.947613,731.52 18.347969,-33.966423,731.52 18.358322,-33.958878,670.56 18.358322,-33.952377,640.08 18.35849,-33.946518,609.6 18.359667,-33.938232,579.12 18.361301,-33.932766,579.12 18.363247,-33.927456,579.12 18.365721,-33.922119,579.12 18.368525,-33.916855,579.12 18.371887,-33.911907,579.12 18.376236,-33.907578,548.64 18.381214,-33.90353,548.64 18.38625,-33.89962,548.64 18.395262,-33.892593,548.64 18.404503,-33.886539,518.16 18.411827,-33.884956,487.68 18.419037,-33.884769,487.68 18.426819,-33.884857,426.72 18.434498,-33.886093,396.24 18.441467,-33.889656,365.76 18.446157,-33.894241,335.28 18.44656,-33.899479,274.32 18.441124,-33.901249,182.88 18.436489,-33.899014,121.92 18.432484,-33.89864,91.44 18.427849,-33.899807,30.48 18.427162,-33.900784,30.48 18.437405,-33.901386,91.44 18.443747,-33.902527,182.88 18.448219,-33.904831,243.84 18.452322,-33.908066,274.32 18.456745,-33.91177,304.8 18.466225,-33.919693,335.28 18.474998,-33.928482,365.76 18.477802,-33.933464,365.76 18.479404,-33.93956,365.76 18.479977,-33.945564,396.24 18.479919,-33.951618,396.24 18.479452,-33.957642,396.24 18.478832,-33.964092,396.24 18.476931,-33.984375,396.24 18.475227,-34.004875,396.24 18.473854,-34.02475,396.24 18.472727,-34.044022,426.72 18.470877,-34.063156,457.2 18.469082,-34.082062,487.68 18.466784,-34.099594,487.68 18.464262,-34.104813,518.16 18.460619,-34.109619,487.68 18.456116,-34.114319,487.68 18.451426,-34.118912,487.68 18.446381,-34.125412,487.68 18.443813,-34.130985,487.68 18.441868,-34.136383,487.68 18.440437,-34.14183,457.2 18.439579,-34.147415,457.2 18.440266,-34.153049,457.2 18.442154,-34.158916,457.2 18.4447,-34.164322,457.2 18.447247,-34.169388,457.2 18.451763,-34.177277,457.2 18.460058,-34.193527,426.72 18.469448,-34.210636,335.28 18.477154,-34.224747,274.32 18.478775,-34.22963,243.84 18.477434,-34.23468,243.84 18.472837,-34.235184,243.84 18.470148,-34.231934,213.36 18.471045,-34.227859,121.92 18.473398,-34.229416,91.44 18.474184,-34.232391,60.96 18.474941,-34.233864,30.48 18.47517,-34.23526,30.48 18.476313,-34.237198,121.92 18.476873,-34.23912,182.88 18.476486,-34.242245,213.36 18.476143,-34.246155,274.32 18.475571,-34.255138,335.28 18.475685,-34.260632,396.24 18.476143,-34.265427,396.24 18.476593,-34.275192,426.72 18.476202,-34.280685,426.72 18.475571,-34.286282,457.2 18.473791,-34.301422,457.2 18.47311,-34.313793,487.68 18.47323,-34.319778,487.68 18.47208,-34.328457,487.68 18.47826,-34.340839,518.16 18.491306,-34.349594,487.68 18.501818,-34.353653,579.12 18.499743,-34.349716,548.64 18.493767,-34.347218,548.64 18.487759,-34.344845,579.12 18.478718,-34.340981,609.6 18.473797,-34.337723,609.6 18.468801,-34.334061,579.12 18.463669,-34.330086,579.12 18.459217,-34.32605,579.12 18.455372,-34.321709,579.12 18.451252,-34.316868,579.12 18.445988,-34.310535,579.12 18.441238,-34.304066,609.6 18.438034,-34.299175,609.6 18.433456,-34.291634,640.08 18.423176,-34.275558,609.6 18.411255,-34.255512,579.12 18.400383,-34.237774,548.64 18.390942,-34.222225,487.68 18.388535,-34.217056,487.68 18.384247,-34.207748,457.2 18.381443,-34.1996,426.72 18.375206,-34.192387,396.24 18.367067,-34.186752,365.76 18.370285,-34.184982,335.28 18.367195,-34.184425,396.24 18.366898,-34.180389,457.2 18.364964,-34.17223,518.16 18.362358,-34.162903,579.12 18.356838,-34.14616,579.12 18.354231,-34.137085,579.12 18.353445,-34.131821,579.12 18.352718,-34.126747,579.12 18.349747,-34.109711,548.64 18.347111,-34.097561,579.12 18.345623,-34.088249,609.6 18.346653,-34.083267,609.6 18.349073,-34.076614,609.6 18.350811,-34.068283,609.6 18.352833,-34.055801,609.6 18.353109,-34.050888,640.08 18.35289,-34.046024,640.08 18.352213,-34.041183,670.56 18.351427,-34.036743,670.56 18.350658,-34.028847,670.56 18.351917,-34.024052,701.04 18.352375,-34.017208,670.56 18.351746,-34.011902,670.56 18.350658,-34.006828,670.56 18.346552,-33.996643,640.08 18.347729,-33.98172,609.6 18.356152,-33.967445,609.6 18.359585,-33.957111,609.6 18.3601,-33.951851,609.6 18.36034,-33.946518,579.12 18.359985,-33.94133,609.6 18.356895,-33.938023,670.56 18.352032,-33.939606,731.52 18.352318,-33.944218,792.48 18.356417,-33.945511,822.96 18.360329,-33.942585,792.48 18.361301,-33.937466,731.52 18.361702,-33.932159,731.52 18.362751,-33.92601,701.04 18.364769,-33.920837,670.56 18.36771,-33.915726,640.08 18.371544,-33.910976,609.6 18.376091,-33.906601,579.12 18.381023,-33.90239,548.64 18.386135,-33.898129,548.64 18.391285,-33.894547,518.16 18.396999,-33.891357,518.16 18.403334,-33.888245,487.68 18.409939,-33.8857,487.68 18.416748,-33.884304,457.2 18.42396,-33.884949,426.72 18.430595,-33.886585,396.24 18.428894,-33.883114,365.76 18.434429,-33.878624,304.8 18.42968,-33.879414,274.32 18.429337,-33.883327,243.84 18.432199,-33.887054,243.84 18.434944,-33.890961,213.36 18.434666,-33.894608,182.88 18.431135,-33.897583,91.44 18.427773,-33.899048,30.48 18.426987,-33.900787,30.48 18.429005,-33.90184,30.48 18.432367,-33.901611,91.44 18.436375,-33.90041,182.88 18.439487,-33.898178,213.36 18.439936,-33.894012,274.32 18.439465,-33.889236,304.8 18.437347,-33.884907,335.28 18.43317,-33.88221,365.76 18.427792,-33.880672,396.24 18.422222,-33.879639,426.72 18.416561,-33.879135,487.68 18.411655,-33.879322,518.16 18.406219,-33.880207,548.64 18.401127,-33.881744,579.12 18.395653,-33.88385,609.6 18.390598,-33.886353,640.08 18.385284,-33.889618,640.08 18.381042,-33.893475,670.56 18.376877,-33.89772,670.56 18.372391,-33.90239,701.04 18.359051,-33.91745,731.52 18.355122,-33.9235,731.52 18.352436,-33.928391,731.52 18.3494,-33.934486,762 18.347168,-33.939835,792.48 18.343906,-33.948498,822.96 18.336798,-33.969864,853.44 18.337416,-33.973892,1005.84 18.342075,-33.972752,944.88 18.347055,-33.97023,914.4 18.351316,-33.964966,883.92 18.353348,-33.959297,822.96 18.354792,-33.953018,792.48 18.356209,-33.946545,731.52 18.359699,-33.932999,701.04 18.361797,-33.927383,670.56 18.364151,-33.921707,670.56 18.367516,-33.916397,640.08 18.371487,-33.911209,640.08 18.37532,-33.906555,609.6 18.380184,-33.901669,609.6 18.384836,-33.897537,579.12 18.390329,-33.89328,579.12 18.396206,-33.889145,579.12 18.401932,-33.88559,579.12 18.407764,-33.88216,579.12 18.414116,-33.879276,548.64 18.421045,-33.878998,518.16 18.427547,-33.882202,457.2 18.433228,-33.885979,426.72 18.438198,-33.889481,396.24 18.443413,-33.893333,335.28 18.445587,-33.89743,304.8 18.439636,-33.897476,182.88 18.434372,-33.894497,152.4 18.431454,-33.894264,243.84 18.430996,-33.896687,152.4 18.427448,-33.899338,30.48 18.426987,-33.900787,30.48 18.436123,-33.893051,121.92 18.436317,-33.892311,121.92 18.436628,-33.888748,152.4 18.436628,-33.887787,152.4 18.436203,-33.884163,213.36 18.435843,-33.883301,213.36 18.433266,-33.880005,243.84 18.432598,-33.879322,243.84 18.429337,-33.877182,304.8 18.427906,-33.877041,335.28 18.423904,-33.880692,426.72 18.423557,-33.881512,426.72 18.423176,-33.884445,518.16 18.423624,-33.885086,518.16 18.425249,-33.887054,579.12 18.425585,-33.887466,609.6 18.425674,-33.889889,670.56 18.424988,-33.890217,670.56 18.420652,-33.890076,640.08 18.419266,-33.889889,640.08 18.414431,-33.889206,670.56 18.412973,-33.888977,670.56 18.407761,-33.888428,670.56 18.40563,-33.888382,701.04 18.400497,-33.888634,731.52 18.39901,-33.888866,731.52 18.393803,-33.890354,731.52 18.392544,-33.89082,731.52 18.387751,-33.893097,731.52 18.386478,-33.893845,762 18.381809,-33.896988,762 18.380585,-33.89785,762 18.376522,-33.901016,762 18.37532,-33.901993,762 18.370934,-33.905823,762 18.369982,-33.906876,762 18.366394,-33.911026,762 18.365707,-33.91177,762 18.361988,-33.916237,762 18.36113,-33.917263,762 18.356024,-33.923767,762 18.353558,-33.927246,762 18.350868,-33.93187,762 18.350315,-33.932949,762 18.349171,-33.938816,853.44 18.349686,-33.939701,883.92 18.352718,-33.941006,944.88 18.353519,-33.940769,975.36 18.35552,-33.939011,1005.84 18.356136,-33.938461,1036.32 18.358267,-33.93631,1066.8 18.358658,-33.935852,1097.28 18.360733,-33.934067,1158.24 18.361574,-33.933746,1158.24 18.365553,-33.93425,1188.72 18.366449,-33.934799,1188.72 18.369541,-33.938583,1188.72 18.369982,-33.939926,1188.72 18.370056,-33.944916,1188.72 18.369644,-33.946426,1158.24 18.367825,-33.95171,1127.76 18.367252,-33.95306,1127.76 18.364906,-33.958508,1097.28 18.364321,-33.959702,1097.28 18.360004,-33.96936,1097.28 18.357819,-33.97435,1066.8 18.352716,-33.987671,1066.8 18.352375,-33.989044,1066.8 18.351402,-33.993935,1066.8 18.351173,-33.995468,1066.8 18.350418,-34.000854,1066.8 18.350315,-34.002079,1066.8 18.349915,-34.007248,1066.8 18.349857,-34.008553,1066.8 18.349686,-34.014137,1036.32 18.349628,-34.015396,1036.32 18.3494,-34.024891,1005.84 18.349689,-34.026443,1005.84 18.351116,-34.031921,975.36 18.351427,-34.033356,975.36 18.352325,-34.039078,975.36 18.352489,-34.040298,975.36 18.353109,-34.048691,944.88 18.353062,-34.0504,944.88 18.35182,-34.055786,914.4 18.351259,-34.056976,883.92 18.348289,-34.062057,883.92 18.347393,-34.063568,883.92 18.344765,-34.068558,853.44 18.344366,-34.069656,853.44 18.345037,-34.075058,853.44 18.346367,-34.076332,853.44 18.351652,-34.077988,822.96 18.353165,-34.077942,853.44 18.35877,-34.078583,853.44 18.359892,-34.079086,853.44 18.366108,-34.083546,853.44 18.367081,-34.084431,853.44 18.37071,-34.08847,853.44 18.371719,-34.089706,822.96 18.375435,-34.094345,822.96 18.376204,-34.095337,792.48 18.380013,-34.099888,792.48 18.383045,-34.103378,762 18.390104,-34.110809,731.52 18.391228,-34.111664,731.52 18.396091,-34.114738,731.52 18.397335,-34.115387,731.52 18.402828,-34.118042,701.04 18.404118,-34.118591,701.04 18.409723,-34.120743,670.56 18.411013,-34.121246,670.56 18.416748,-34.123257,670.56 18.418411,-34.123764,640.08 18.424072,-34.125458,640.08 18.425697,-34.125916,640.08 18.431248,-34.126694,640.08 18.432713,-34.126656,640.08 18.438377,-34.125397,640.08 18.439878,-34.124817,640.08 18.445091,-34.122345,609.6 18.446445,-34.121578,609.6 18.450737,-34.118881,609.6 18.452042,-34.118042,579.12 18.456573,-34.115063,579.12 18.457647,-34.114288,579.12 18.461552,-34.11092,548.64 18.46241,-34.109802,548.64 18.464207,-34.105774,548.64 18.464655,-34.104767,548.64 18.466415,-34.100353,548.64 18.466702,-34.099606,548.64 18.46841,-34.095154,548.64 18.468801,-34.094009,548.64 18.469849,-34.090252,579.12 18.47002,-34.089272,579.12 18.46998,-34.084946,579.12 18.4697,-34.083984,579.12 18.467905,-34.07991,579.12 18.467176,-34.078812,579.12 18.464413,-34.075306,579.12 18.463612,-34.074516,579.12 18.46035,-34.071396,579.12 18.45932,-34.070465,579.12 18.455967,-34.067596,609.6 18.455086,-34.066929,609.6 18.451195,-34.064228,609.6 18.450249,-34.063614,640.08 18.446445,-34.061436,670.56 18.445091,-34.060913,670.56 18.440495,-34.059898,701.04 18.439318,-34.059494,701.04 18.435955,-34.056839,701.04 18.435339,-34.055969,701.04 18.433601,-34.051758,731.52 18.433266,-34.050797,731.52 18.431751,-34.046539,731.52 18.431339,-34.045376,731.52 18.428724,-34.038391,731.52 18.427734,-34.035038,731.52 18.427492,-34.030609,731.52 18.427563,-34.029499,731.52 18.428389,-34.025116,731.52 18.42865,-34.023819,731.52 18.429794,-34.019722,731.52 18.430349,-34.018433,731.52 18.432144,-34.014404,731.52 18.43276,-34.013123,731.52 18.435001,-34.009201,731.52 18.435619,-34.008224,731.52 18.438534,-34.003876,731.52 18.439991,-34.000717,731.52 18.444475,-33.993622,670.56 18.445541,-33.992477,670.56 18.449421,-33.988998,640.08 18.450474,-33.988174,609.6 18.454857,-33.984531,609.6 18.455658,-33.983646,609.6 18.461123,-33.976822,579.12 18.461895,-33.975872,579.12 18.466129,-33.971729,548.64 18.467388,-33.970982,548.64 18.472939,-33.968937,518.16 18.474239,-33.968399,518.16 18.479229,-33.964371,487.68 18.480013,-33.963226,487.68 18.482254,-33.958969,487.68 18.482666,-33.957996,487.68 18.484442,-33.953018,457.2 18.484722,-33.951874,457.2 18.485699,-33.947102,426.72 18.485756,-33.945892,426.72 18.48517,-33.941116,396.24 18.484783,-33.939793,396.24 18.48304,-33.935623,396.24 18.482424,-33.934433,396.24 18.479958,-33.930176,365.76 18.479229,-33.929169,365.76 18.475809,-33.925232,365.76 18.474941,-33.924339,335.28 18.471212,-33.920792,335.28 18.470148,-33.91983,335.28 18.465607,-33.91626,304.8 18.464655,-33.915482,304.8 18.460236,-33.91214,304.8 18.457317,-33.909443,304.8 18.453949,-33.905228,304.8 18.453388,-33.904495,304.8 18.450304,-33.900513,304.8 18.449575,-33.899689,304.8 18.443298,-33.893475,274.32 18.442326,-33.892681,274.32 18.438263,-33.889889,274.32 18.437412,-33.889435,274.32 18.434162,-33.889297,365.76 18.434029,-33.889889,365.76 18.435675,-33.892776,335.28 18.436146,-33.893333,304.8 18.438492,-33.896034,274.32 18.439007,-33.896687,274.32 18.440552,-33.899292,243.84 18.440664,-33.900055,243.84 18.439236,-33.901482,182.88 18.438646,-33.901428,182.88 18.436068,-33.900009,121.92 18.435452,-33.89946,121.92 18.43248,-33.89827,91.44 18.431797,-33.898361,91.44 18.428221,-33.899597,30.48 18.427435,-33.899872,30.48 18.427128,-33.90073,0 18.427334,-33.900631,0 18.427505,-33.899525,30.48 18.427603,-33.899277,30.48 18.428364,-33.897991,30.48 18.428556,-33.89772,30.48 18.430407,-33.894836,91.44 18.430855,-33.894104,91.44 18.43277,-33.890865,121.92 18.433228,-33.89003,121.92 18.435732,-33.884674,213.36 18.435745,-33.883606,213.36 18.43461,-33.880142,274.32 18.434162,-33.87941,274.32 18.43071,-33.876575,335.28 18.42979,-33.87616,335.28 18.425978,-33.875244,396.24 18.424801,-33.875153,396.24 18.420542,-33.875381,457.2 18.419266,-33.875553,457.2 18.415146,-33.876202,487.68 18.414095,-33.876434,518.16 18.409946,-33.878082,548.64 18.409023,-33.878532,548.64 18.404846,-33.880672,579.12 18.403782,-33.881241,609.6 18.399696,-33.883652,640.08 18.398905,-33.884125,670.56 18.394947,-33.886539,701.04 18.39386,-33.887192,701.04 18.38007,-33.896175,762 18.37682,-33.898407,731.52 18.37043,-33.903397,731.52 18.369421,-33.904312,731.52 18.365192,-33.908417,762 18.364376,-33.909348,762 18.361015,-33.91354,762 18.360228,-33.914566,762 18.357819,-33.918732,792.48 18.357258,-33.919785,792.48 18.354836,-33.924107,792.48 18.354092,-33.925407,792.48 18.351988,-33.929718,822.96 18.351427,-33.931137,822.96 18.349571,-33.93565,822.96 18.349113,-33.936768,822.96 18.345737,-33.945053,792.48 18.343637,-33.950134,792.48 18.344814,-33.967896,792.48 18.348064,-33.969635,792.48 18.357761,-33.965744,762 18.358154,-33.964691,762 18.358435,-33.958923,731.52 18.358379,-33.95755,731.52 18.358154,-33.952969,701.04 18.358099,-33.951599,701.04 18.358154,-33.944775,701.04 18.358212,-33.943752,701.04 18.358555,-33.939236,701.04 18.358715,-33.938095,701.04 18.359241,-33.933647,701.04 18.35947,-33.932346,701.04 18.360672,-33.928062,701.04 18.361073,-33.927086,701.04 18.363422,-33.92308,670.56 18.364151,-33.921982,670.56 18.366966,-33.918053,670.56 18.367653,-33.917168,670.56 18.371143,-33.913353,670.56 18.371944,-33.912468,670.56 18.37525,-33.909027,670.56 18.376179,-33.908092,670.56 18.38209,-33.902069,670.56 18.385733,-33.89859,640.08 18.394588,-33.89035,640.08 18.395805,-33.889423,640.08 18.400326,-33.886818,609.6 18.401527,-33.886211,609.6 18.406639,-33.884216,609.6 18.408165,-33.883743,609.6 18.414173,-33.882767,609.6 18.415661,-33.882767,579.12 18.421726,-33.883793,579.12 18.423119,-33.884216,579.12 18.428892,-33.886139,548.64 18.430126,-33.886642,548.64 18.435675,-33.889297,487.68 18.436964,-33.889984,487.68 18.441896,-33.892914,426.72 18.443073,-33.893692,396.24 18.446674,-33.897106,365.76 18.447247,-33.898224,365.76 18.444868,-33.901108,274.32 18.443241,-33.901062,213.36 18.439178,-33.898689,182.88 18.438606,-33.898174,182.88 18.435284,-33.89772,152.4 18.434601,-33.898361,152.4 18.432198,-33.89962,121.92 18.431396,-33.899338,91.44 18.427435,-33.899918,30.48 18.427162,-33.900085,30.48 18.427435,-33.90033,30.48 18.427505,-33.899757,30.48 18.428276,-33.898132,30.48 18.428444,-33.897812,30.48 18.430653,-33.894962,30.48 18.431053,-33.894684,30.48 18.432713,-33.893612,30.48 18.433113,-33.893288,30.48 18.435001,-33.889565,152.4 18.43523,-33.888821,182.88 18.435787,-33.88591,243.84 18.435452,-33.88504,243.84 18.432941,-33.882999,304.8 18.432199,-33.88266,335.28 18.428822,-33.881603,365.76 18.427677,-33.881371,396.24 18.423847,-33.880692,457.2 18.422951,-33.8806,457.2 18.418865,-33.880394,518.16 18.417963,-33.880371,518.16 18.413887,-33.880581,548.64 18.412525,-33.880692,579.12 18.407822,-33.881557,609.6 18.407135,-33.881744,609.6 18.402557,-33.883091,640.08 18.401596,-33.883438,640.08 18.396999,-33.885269,670.56 18.395691,-33.885792,670.56 18.391281,-33.88797,701.04 18.390026,-33.88868,731.52 18.385845,-33.891129,762 18.384892,-33.891724,762 18.381081,-33.894287,762 18.379898,-33.895103,792.48 18.375643,-33.898224,792.48 18.374577,-33.899059,822.96 18.370766,-33.902206,822.96 18.36977,-33.903156,822.96 18.366337,-33.906414,853.44 18.365479,-33.907299,853.44 18.361816,-33.911259,853.44 18.361069,-33.912094,883.92 18.357468,-33.91647,883.92 18.356697,-33.917633,883.92 18.353725,-33.922348,853.44 18.353176,-33.923359,853.44 18.350531,-33.927933,853.44 18.3498,-33.929317,853.44 18.347281,-33.934433,822.96 18.34671,-33.935696,822.96 18.344479,-33.941422,822.96 18.344078,-33.942867,822.96 18.342361,-33.948265,792.48 18.341955,-33.949493,792.48 18.34425,-33.9613,762 18.347672,-33.962494,762 18.356977,-33.956818,701.04 18.357313,-33.955124,670.56 18.357697,-33.950409,640.08 18.357761,-33.949265,640.08 18.357868,-33.944263,640.08 18.357929,-33.942856,609.6 18.358379,-33.93576,609.6 18.358612,-33.934719,609.6 18.360043,-33.930111,609.6 18.360443,-33.929134,609.6 18.362694,-33.92482,609.6 18.363132,-33.924057,609.6 18.365891,-33.919968,609.6 18.36668,-33.918846,609.6 18.369713,-33.914886,579.12 18.370399,-33.914051,579.12 18.373833,-33.910278,579.12 18.374802,-33.909348,579.12 18.378582,-33.905811,579.12 18.379211,-33.905205,579.12 18.383389,-33.901619,548.64 18.38419,-33.90097,548.64 18.388424,-33.897572,548.64 18.389431,-33.896759,548.64 18.393356,-33.893829,548.64 18.397179,-33.890865,548.64 18.40765,-33.883232,548.64 18.408995,-33.882614,548.64 18.414431,-33.881424,518.16 18.416225,-33.88147,518.16 18.422241,-33.882767,457.2 18.423615,-33.883232,426.72 18.429508,-33.885422,396.24 18.430519,-33.885864,396.24 18.436293,-33.888657,365.76 18.437525,-33.889343,365.76 18.442122,-33.891998,335.28 18.443356,-33.892914,304.8 18.446157,-33.896484,274.32 18.446381,-33.897446,274.32 18.444214,-33.900642,213.36 18.443018,-33.900742,213.36 18.438589,-33.899277,152.4 18.437918,-33.898956,152.4 18.433657,-33.897903,121.92 18.430799,-33.898636,60.96 18.427828,-33.900375,30.48 18.42762,-33.900455,30.48 18.427322,-33.899506,30.48 18.427391,-33.899246,30.48 18.428164,-33.898041,30.48 18.428478,-33.897572,30.48 18.430138,-33.895058,60.96 18.430538,-33.894405,91.44 18.432199,-33.891403,152.4 18.433321,-33.889252,182.88 18.435114,-33.884171,243.84 18.434946,-33.883392,243.84 18.432705,-33.880463,274.32 18.432026,-33.88002,274.32 18.427906,-33.879089,335.28 18.427162,-33.879044,335.28 18.422728,-33.879044,365.76 18.421942,-33.879044,365.76 18.417606,-33.879322,426.72 18.416576,-33.879414,426.72 18.412245,-33.879959,457.2 18.411123,-33.880142,457.2 18.407078,-33.881229,487.68 18.405933,-33.881603,487.68 18.401651,-33.883163,518.16 18.400784,-33.88356,548.64 18.39695,-33.885422,579.12 18.395823,-33.885956,579.12 18.391787,-33.888245,579.12 18.390888,-33.888748,609.6 18.386965,-33.89122,609.6 18.385849,-33.891937,609.6 18.381844,-33.894684,640.08 18.380968,-33.895294,640.08 18.376808,-33.898457,670.56 18.376007,-33.899155,670.56 18.372631,-33.902039,701.04 18.371662,-33.902939,701.04 18.368454,-33.906181,701.04 18.36771,-33.906929,731.52 18.364656,-33.910446,731.52 18.363928,-33.911316,731.52 18.360733,-33.915298,731.52 18.3601,-33.916286,731.52 18.357594,-33.920334,731.52 18.357033,-33.921341,731.52 18.354721,-33.92569,731.52 18.354174,-33.926743,731.52 18.351688,-33.93174,731.52 18.351002,-33.933369,731.52 18.348713,-33.938862,731.52 18.347336,-33.942169,731.52 18.342403,-33.962906,762 18.344702,-33.965103,762 18.356895,-33.96307,701.04 18.35804,-33.960602,670.56 18.358379,-33.954666,640.08 18.358383,-33.953293,640.08 18.358383,-33.948776,609.6 18.35844,-33.947613,609.6 18.359163,-33.940567,609.6 18.35947,-33.93919,579.12 18.360729,-33.934673,579.12 18.361073,-33.933647,579.12 18.362413,-33.929581,579.12 18.362806,-33.928665,579.12 18.364712,-33.924179,579.12 18.365192,-33.923222,579.12 18.36729,-33.919052,579.12 18.367851,-33.918091,579.12 18.370399,-33.913864,579.12 18.371029,-33.912933,579.12 18.374298,-33.909302,548.64 18.375307,-33.908386,548.64 18.379118,-33.905182,548.64 18.380239,-33.904312,548.64 18.384018,-33.901386,548.64 18.385227,-33.900421,548.64 18.389095,-33.897446,548.64 18.3922,-33.895012,548.64 18.401871,-33.887794,518.16 18.402958,-33.887238,518.16 18.408623,-33.885422,487.68 18.410282,-33.885139,487.68 18.416004,-33.884724,487.68 18.417549,-33.884724,487.68 18.423901,-33.884815,457.2 18.425362,-33.884811,426.72 18.431625,-33.885326,396.24 18.433096,-33.885681,396.24 18.438892,-33.887981,365.76 18.439991,-33.888657,365.76 18.444443,-33.892216,335.28 18.445541,-33.893417,335.28 18.447334,-33.897446,304.8 18.447075,-33.898594,274.32 18.443527,-33.901295,213.36 18.442097,-33.901386,213.36 18.438141,-33.899918,152.4 18.437347,-33.899433,152.4 18.433857,-33.898502,91.44 18.433266,-33.898544,91.44 18.429958,-33.899139,60.96 18.428389,-33.899643,30.48 18.426931,-33.900238,30.48 18.426874,-33.900604,30.48 18.430367,-33.900829,30.48 18.4338,-33.901062,30.48 18.442097,-33.902084,182.88 18.442955,-33.902317,182.88 18.446493,-33.903717,213.36 18.447279,-33.904221,213.36 18.45068,-33.906742,243.84 18.451595,-33.907486,274.32 18.454971,-33.910233,274.32 18.455742,-33.910858,304.8 18.459385,-33.913971,304.8 18.462299,-33.916397,304.8 18.473118,-33.926331,365.76 18.474072,-33.927383,365.76 18.476887,-33.931416,365.76 18.477491,-33.932693,365.76 18.478891,-33.936905,365.76 18.479233,-33.938492,396.24 18.479862,-33.943146,365.76 18.4799,-33.944,396.24 18.480013,-33.948807,396.24 18.479977,-33.950176,396.24 18.479691,-33.955154,396.24 18.479576,-33.956272,396.24 18.479116,-33.961395,396.24 18.478949,-33.962814,396.24 18.477688,-33.975639,396.24 18.477266,-33.98053,396.24 18.475977,-33.996323,396.24 18.475628,-34.001057,396.24 18.474127,-34.017288,396.24 18.473959,-34.020859,396.24 18.473282,-34.036949,396.24 18.473007,-34.040497,396.24 18.471565,-34.056126,457.2 18.471222,-34.059711,457.2 18.470036,-34.074554,487.68 18.469563,-34.078007,487.68 18.467789,-34.092999,487.68 18.467445,-34.096069,487.68 18.465385,-34.102913,487.68 18.464878,-34.10376,487.68 18.462076,-34.10788,487.68 18.46138,-34.10878,487.68 18.458004,-34.112457,487.68 18.457031,-34.113434,487.68 18.45322,-34.117172,487.68 18.452396,-34.11795,487.68 18.447557,-34.123489,487.68 18.446886,-34.124588,487.68 18.4447,-34.128799,487.68 18.444328,-34.129726,487.68 18.442612,-34.134102,487.68 18.442289,-34.135117,457.2 18.441055,-34.139282,457.2 18.440723,-34.140526,457.2 18.439808,-34.145042,457.2 18.439655,-34.146378,457.2 18.439865,-34.150909,457.2 18.440048,-34.151962,457.2 18.441238,-34.156403,457.2 18.441696,-34.157703,457.2 18.443642,-34.162174,457.2 18.444139,-34.163132,457.2 18.446213,-34.167389,457.2 18.446774,-34.168488,457.2 18.448963,-34.172462,457.2 18.449575,-34.173477,457.2 18.456863,-34.187164,457.2 18.458347,-34.190243,426.72 18.466,-34.204605,365.76 18.467617,-34.20747,335.28 18.475113,-34.220455,274.32 18.476772,-34.223763,274.32 18.478275,-34.227768,243.84 18.478603,-34.228882,243.84 18.478718,-34.232792,243.84 18.478088,-34.233955,243.84 18.474712,-34.23568,243.84 18.473904,-34.23555,243.84 18.470993,-34.233444,213.36 18.470539,-34.232666,213.36 18.469791,-34.229347,152.4 18.470249,-34.228416,152.4 18.473343,-34.228546,91.44 18.473398,-34.229141,91.44 18.47374,-34.231441,60.96 18.473911,-34.231907,60.96 18.474745,-34.233353,30.48 18.474827,-34.233585,30.48 18.475361,-34.234772,30.48 18.475361,-34.235046,30.48 18.475628,-34.235771,60.96 18.475809,-34.236145,60.96 18.476706,-34.238159,152.4 18.47683,-34.238659,182.88 18.476658,-34.240799,213.36 18.476601,-34.241405,213.36 18.476313,-34.244247,243.84 18.476202,-34.245255,243.84 18.475914,-34.248714,274.32 18.475641,-34.252075,304.8 18.475571,-34.258537,365.76 18.475584,-34.259308,365.76 18.475914,-34.263424,396.24 18.476028,-34.264263,396.24 18.476543,-34.270641,396.24 18.476601,-34.273899,426.72 18.476425,-34.278305,426.72 18.476257,-34.279678,426.72 18.475809,-34.284119,426.72 18.475685,-34.285164,457.2 18.47477,-34.292286,457.2 18.474295,-34.296844,457.2 18.47311,-34.311279,487.68 18.473063,-34.31282,487.68 18.473175,-34.317307,487.68 18.473175,-34.318176,487.68 18.47267,-34.326462,487.68 18.472334,-34.327652,487.68 18.473398,-34.336899,487.68 18.478546,-34.341072,518.16 18.483582,-34.344425,487.68 18.486908,-34.346603,487.68 18.500023,-34.354752,548.64 18.500977,-34.354385,579.12 18.50148,-34.350998,579.12 18.500751,-34.350311,548.64 18.496212,-34.348206,548.64 18.49481,-34.347656,548.64 18.490158,-34.345779,548.64 18.488903,-34.34531,548.64 18.484268,-34.343403,579.12 18.480892,-34.342007,609.6 18.475697,-34.33905,609.6 18.4748,-34.338409,609.6 18.470879,-34.335579,609.6 18.469755,-34.334747,579.12 18.465607,-34.331635,579.12 18.46471,-34.330902,579.12 18.460899,-34.327652,579.12 18.460064,-34.326874,579.12 18.456974,-34.32357,579.12 18.456022,-34.322479,579.12 18.45294,-34.318863,579.12 18.452168,-34.317936,579.12 18.448906,-34.314072,579.12 18.448105,-34.313095,579.12 18.44244,-34.305832,579.12 18.441696,-34.304718,609.6 18.439207,-34.301056,609.6 18.438478,-34.299957,609.6 18.436375,-34.296337,609.6 18.435843,-34.295425,609.6 18.427492,-34.282379,609.6 18.424931,-34.278416,609.6 18.416616,-34.264481,609.6 18.414745,-34.26133,579.12 18.405294,-34.245758,548.64 18.403072,-34.242149,548.64 18.393116,-34.226509,518.16 18.391394,-34.223236,518.16 18.389376,-34.218887,487.68 18.38887,-34.217743,487.68 18.386707,-34.213287,487.68 18.386236,-34.212296,487.68 18.3822,-34.201996,457.2 18.381786,-34.200626,426.72 18.377495,-34.193691,396.24 18.376694,-34.193176,396.24 18.367653,-34.188522,365.76 18.367178,-34.187576,365.76 18.368467,-34.184967,365.76 18.369255,-34.184799,365.76 18.372,-34.186249,335.28 18.367596,-34.185917,365.76 18.367081,-34.182098,426.72 18.36701,-34.181213,457.2 18.365364,-34.173763,518.16 18.365135,-34.172974,518.16 18.364162,-34.169342,548.64 18.363132,-34.165665,579.12 18.359299,-34.152908,579.12 18.358154,-34.149883,579.12 18.354624,-34.139236,579.12 18.354378,-34.137966,579.12 18.353748,-34.133965,579.12 18.353558,-34.132782,579.12 18.352997,-34.128662,579.12 18.352886,-34.127792,579.12 18.351002,-34.115574,548.64 18.350195,-34.111542,548.64 18.34837,-34.103798,579.12 18.347841,-34.101151,579.12 18.345623,-34.090202,609.6 18.345598,-34.08934,609.6 18.346024,-34.085175,609.6 18.346327,-34.084305,609.6 18.347784,-34.080414,609.6 18.348232,-34.079269,609.6 18.35025,-34.071304,609.6 18.350544,-34.069813,609.6 18.352032,-34.061806,609.6 18.352489,-34.058826,609.6 18.353054,-34.052765,640.08 18.353054,-34.051712,640.08 18.353004,-34.047703,640.08 18.353004,-34.046864,640.08 18.352549,-34.04306,670.56 18.352381,-34.042191,640.08 18.351746,-34.038624,670.56 18.351574,-34.037552,670.56 18.350601,-34.030663,670.56 18.350601,-34.029732,670.56 18.351427,-34.026123,701.04 18.351707,-34.025024,701.04 18.352381,-34.020905,670.56 18.352436,-34.020035,670.56 18.352089,-34.014183,670.56 18.351917,-34.012928,670.56 18.351204,-34.009003,670.56 18.350945,-34.007854,670.56 18.349915,-34.003967,670.56 18.349522,-34.002777,670.56 18.344925,-33.986526,609.6 18.346195,-33.984203,609.6 18.352381,-33.974533,609.6 18.355015,-33.969772,609.6 18.358784,-33.960835,609.6 18.359413,-33.958042,609.6 18.359947,-33.954071,609.6 18.359985,-33.95306,609.6 18.360228,-33.948578,579.12 18.360285,-33.947571,579.12 18.360285,-33.943314,579.12 18.360172,-33.942352,579.12 18.358658,-33.938919,640.08 18.357651,-33.938278,670.56 18.353863,-33.93821,701.04 18.353176,-33.938583,701.04 18.351574,-33.9431,792.48 18.351877,-33.943634,792.48 18.354492,-33.945518,822.96 18.355352,-33.945602,822.96 18.359108,-33.944183,792.48 18.359892,-33.943314,792.48 18.361069,-33.939651,762 18.361181,-33.93869,762 18.361574,-33.93425,731.52 18.361629,-33.933334,731.52 18.362022,-33.929031,731.52 18.362246,-33.92807,701.04 18.363876,-33.922802,670.56 18.364264,-33.92189,670.56 18.366507,-33.917633,640.08 18.367023,-33.916752,640.08 18.369925,-33.912735,640.08 18.37071,-33.911819,609.6 18.374233,-33.908325,609.6 18.375027,-33.907562,579.12 18.37923,-33.9039,579.12 18.38007,-33.903202,548.64 18.384075,-33.899853,548.64 18.385048,-33.899014,548.64 18.389095,-33.895981,548.64 18.390026,-33.895336,548.64 18.394756,-33.892548,518.16 18.395863,-33.891937,518.16 18.400587,-33.889526,487.68 18.401932,-33.888885,487.68 18.407307,-33.886631,487.68 18.408827,-33.886093,487.68 18.413927,-33.884674,457.2 18.415604,-33.884396,457.2 18.42104,-33.884441,426.72 18.42256,-33.884674,426.72 18.427883,-33.886047,396.24 18.429398,-33.886414,396.24 18.4342,-33.885887,365.76 18.435059,-33.885372,365.76 18.435917,-33.879646,335.28 18.435003,-33.878952,304.8 18.431625,-33.878345,304.8 18.430367,-33.878857,274.32 18.428949,-33.881836,274.32 18.429108,-33.882721,243.84 18.431023,-33.885818,243.84 18.431528,-33.886368,243.84 18.434105,-33.889343,213.36 18.434555,-33.890076,213.36 18.435226,-33.893143,182.88 18.435059,-33.893799,182.88 18.432598,-33.896732,121.92 18.432087,-33.897034,121.92 18.429222,-33.89827,60.96 18.428593,-33.898502,60.96 18.427044,-33.900238,30.48 18.426931,-33.900467,30.48 18.427849,-33.901527,30.48 18.428078,-33.901619,30.48 18.430855,-33.901794,60.96 18.431568,-33.90176,91.44 18.43483,-33.900921,152.4 18.435516,-33.900688,152.4 18.438206,-33.89957,182.88 18.439095,-33.898773,213.36 18.440037,-33.895847,243.84 18.439991,-33.894699,243.84 18.439751,-33.891098,274.32 18.439598,-33.890305,304.8 18.438478,-33.886459,335.28 18.437977,-33.885746,335.28 18.435171,-33.883072,365.76 18.43405,-33.882523,365.76 18.429846,-33.881149,396.24 18.429062,-33.880966,396.24 18.424465,-33.880005,396.24 18.423271,-33.879787,426.72 18.418692,-33.879227,457.2 18.41785,-33.879181,457.2 18.413601,-33.879181,518.16 18.412638,-33.879272,518.16 18.408337,-33.879787,548.64 18.40748,-33.879959,548.64 18.403444,-33.881012,579.12 18.402267,-33.881378,579.12 18.398094,-33.882858,609.6 18.39711,-33.883255,609.6 18.392796,-33.885223,609.6 18.3918,-33.8857,609.6 18.387133,-33.88829,640.08 18.386293,-33.888885,640.08 18.382648,-33.891907,640.08 18.381729,-33.892776,670.56 18.378445,-33.896072,670.56 18.377716,-33.896851,670.56 18.374634,-33.900009,670.56 18.373661,-33.901062,670.56 18.36544,-33.910263,731.52 18.362135,-33.913925,731.52 18.356323,-33.92136,731.52 18.355743,-33.922394,731.52 18.353405,-33.926571,731.52 18.352886,-33.927567,731.52 18.350588,-33.932007,762 18.34997,-33.933334,762 18.348009,-33.937729,792.48 18.347626,-33.938629,792.48 18.345823,-33.943359,792.48 18.34543,-33.944321,792.48 18.339264,-33.961487,792.48 18.337416,-33.967438,822.96 18.336525,-33.973591,975.36 18.336811,-33.973824,1005.84 18.339958,-33.973358,944.88 18.341002,-33.973068,944.88 18.345375,-33.97142,944.88 18.346214,-33.970871,944.88 18.349915,-33.967163,883.92 18.350544,-33.966236,883.92 18.352718,-33.961628,853.44 18.353062,-33.960369,853.44 18.354286,-33.955353,792.48 18.354454,-33.954437,792.48 18.355633,-33.949081,762 18.355911,-33.947845,731.52 18.358883,-33.935577,701.04 18.359276,-33.934296,701.04 18.360956,-33.929581,701.04 18.361404,-33.928253,670.56 18.363144,-33.92395,670.56 18.363705,-33.92271,670.56 18.365993,-33.918518,640.08 18.366842,-33.917313,640.08 18.369999,-33.913166,640.08 18.370653,-33.912277,640.08 18.37389,-33.90823,640.08 18.374634,-33.907345,609.6 18.378181,-33.903622,609.6 18.379326,-33.902554,609.6 18.382931,-33.8992,579.12 18.384132,-33.898174,579.12 18.388031,-33.894928,579.12 18.389282,-33.894032,579.12 18.393688,-33.890915,579.12 18.394924,-33.89003,579.12 18.399754,-33.886909,579.12 18.400669,-33.886353,579.12 18.405304,-33.883606,579.12 18.406391,-33.882999,579.12 18.411236,-33.88028,579.12 18.412514,-33.879787,579.12 18.41835,-33.878624,548.64 18.419756,-33.878723,518.16 18.425159,-33.880814,487.68 18.426418,-33.881512,457.2 18.431023,-33.884491,457.2 18.432198,-33.885281,426.72 18.436375,-33.888214,426.72 18.437412,-33.888931,396.24 18.441393,-33.891769,335.28 18.442289,-33.892456,335.28 18.445541,-33.895569,335.28 18.44582,-33.896439,335.28 18.442612,-33.898407,213.36 18.441393,-33.898178,182.88 18.436317,-33.895569,152.4 18.435562,-33.895157,152.4 18.431976,-33.893509,213.36 18.431511,-33.893753,243.84 18.431416,-33.895752,182.88 18.431303,-33.896164,182.88 18.428993,-33.897896,60.96 18.427963,-33.89864,60.96 18.427044,-33.90033,30.48 18.426876,-33.900551,30.48
        </coordinates>
      </LineString>
    </Placemark>
  </Document>
</kml>