<?xml version="1.0" encoding="UTF-8"?>
<kml xmlns="http://www.opengis.net/kml/2.2">
  <Document>
    <name>-/ZTHOT - Optimised</name>
    <description><![CDATA[Optimised flight path with 822 points (decimated from 4109 original points). Source format: Standard KML]]></description>
    
    <Style id="flightPath">
      <LineStyle>
        <color>ff0000ff</color>
        <width>3</width>
      </LineStyle>
    </Style>
    
    <Placemark>
      <name>Flight Path</name>
      <description><![CDATA[<div style="width:220px; text-align:center;">
<div style="width:210px; text-align:center;">
<div style=" background: #000; color: #fff; font-size: 14px; text-align:left; border: 1px solid #000; padding: 2px 6px; text-shadow: 0 1px 0 #000; box-shadow: 0 1px 3px rgba(0,0,0,0.6); background: -webkit-gradient(linear, left top, left bottom, color-stop(0%,#808080), color-stop(2%,#303030), color-stop(100%,#0c0c0c));"><span style="font-size: 14px; font-weight: bold;"><a href="javascript:void(0);" style="color: #fff; cursor: pointer;text-decoration: none;">-</a></span> / ZTHOT<br/>Cape Town Helicopters</div>

<div style="border-top: 1px solid #005c90; color: #fff; padding-bottom: 5px; box-shadow: 0 0 1px #9BE3F6 inset, 0 1px 0 #9BE3F6 inset, 0 -1px 3px rgba(0,0,0,0.4); background:rgba(43,114,173,1); background: -webkit-gradient(linear, left top, left bottom, color-stop(0%,rgba(92,184,229,1)), color-stop(100%,rgba(43,114,173,1)));">
<a style="text-decoration: none; color: rgb(255, 255, 255); font-size: 12px; width:77px; display: inline-block;" title="Cape Town Airport" href="https://www.flightradar24.com/airport/cpt/departures"><h3 style="padding: 0px; margin: 10px 0px 0px; font-size: 16px; ">CPT</h3>Cape Town</a>
<span style="background: url(https://www.flightradar24.com/static/images/userUI_sprite.png?14) no-repeat scroll 0 -464px rgba(0, 0, 0, 0); border: medium none; display: inline-block; height: 16px; width: 45px;"></span>
<a style="text-decoration: none; color: rgb(255, 255, 255); font-size: 12px; width:77px; display: inline-block;" title=" Airport" href="javascript:void(0);/arrivals"><h3 style="padding: 0px; margin: 10px 0px 0px; font-size: 16px;">?</h3></a>
<div style=" margin-top:10px;">
<div style="display: inline-block; font-size: 12px; padding: 0 5px;">
<div>
<span style="color: #c1eaff;" title="Actual Time of Departure">ATD </span>
<span title="2025-12-03 08:37">08:37</span> <span title="Coordinated Universal Time">UTC</span>
</div>
</div>
<div style="display: inline-block; font-size: 12px; padding: 0 5px;">
<div>
<span style="color: #c1eaff;" title="Estimated Time of Arrival">ETA </span>
<span title="2025-12-03 08:54">08:54</span> <span title="Coordinated Universal Time">UTC</span>
</div>
</div>
</div>
<br style="clear: both;"/>
</div>

<div style="display: block;">
<table style="border-collapse: collapse; width: 100%;">
<tr style="border-right: 1px solid #dadada; ">
<td style="background: none repeat scroll 0 0 #dadada; padding: 0; width: 31px;">
<span style="background: url(https://www.flightradar24.com/static/images/userUI_sprite.png?14) no-repeat scroll -208px -464px rgba(0, 0, 0, 0); height: 26px; margin: 8px 0 0 4px; width: 23px; display: block;"></span>
</td>
<td colspan="2" style="border-bottom: 1px solid #dadada; border-left: 1px solid #dadada; color: #666; line-height: 1.1em; padding: 3px 6px; vertical-align: top; font-size: 14px;">
Aircraft<span style="float: right; font-size: 12px;">(AS50)</span><br>
<span style="color: #333; font-size: 16px; font-weight: bold; line-height: 1.3em;">Airbus Helicopters H125</span>
</td>
</tr>
<tr style="border-right: 1px solid #dadada; ">
<td style="background: none repeat scroll 0 0 #dadada; padding: 0; width: 31px;">
<td colspan="2" style="border-bottom: 1px solid #dadada; border-left: 1px solid #dadada; color: #666; line-height: 1.1em; padding: 3px 6px; vertical-align: top; font-size: 14px;">
Registration<br>
<span style="color: #333; font-size: 16px; font-weight: bold; line-height: 1.3em;"><a href="https://www.flightradar24.com/reg/zt-hot" style="text-decoration: none; color: #333;">ZT-HOT</a></span>
</td>
</tr>
</table>
</div>

</div>
</div>]]></description>
      <styleUrl>#flightPath</styleUrl>
      <LineString>
        <extrude>1</extrude>
        <tessellate>1</tessellate>
        <altitudeMode>absolute</altitudeMode>
        <coordinates>
          18.427048,-33.901203,30.48 18.429565,-33.899918,60.96 18.433041,-33.898727,91.44 18.436741,-33.897491,152.4 18.439711,-33.894562,182.88 18.440159,-33.889801,243.84 18.437977,-33.885422,274.32 18.433994,-33.881516,304.8 18.428949,-33.879364,365.76 18.423271,-33.878345,396.24 18.417778,-33.87788,426.72 18.41217,-33.877926,487.68 18.406563,-33.878532,518.16 18.401146,-33.880005,579.12 18.395765,-33.882339,579.12 18.390385,-33.885452,609.6 18.385956,-33.888611,640.08 18.381361,-33.892136,701.04 18.377155,-33.895477,731.52 18.373146,-33.898922,762 18.369026,-33.902737,792.48 18.365307,-33.906555,822.96 18.361742,-33.910812,883.92 18.35849,-33.915298,914.4 18.355633,-33.920151,914.4 18.353405,-33.925083,914.4 18.351091,-33.93251,914.4 18.349579,-33.938095,914.4 18.346024,-33.948311,914.4 18.343334,-33.953991,914.4 18.337383,-33.964977,944.88 18.328054,-33.980713,944.88 18.326092,-33.988632,944.88 18.325539,-33.99482,914.4 18.326036,-34.000763,914.4 18.327713,-34.006783,914.4 18.330072,-34.012711,914.4 18.332426,-34.018066,914.4 18.334694,-34.023075,914.4 18.336697,-34.027962,914.4 18.336855,-34.033035,914.4 18.334637,-34.038113,944.88 18.332539,-34.043701,914.4 18.335566,-34.047821,914.4 18.340666,-34.047226,914.4 18.34322,-34.04258,914.4 18.342571,-34.03688,914.4 18.339844,-34.031406,914.4 18.335609,-34.025822,883.92 18.332577,-34.02084,883.92 18.330574,-34.015629,914.4 18.330296,-34.010468,883.92 18.330803,-34.005619,883.92 18.332005,-34.001289,883.92 18.334164,-33.996643,883.92 18.337154,-33.992073,883.92 18.340666,-33.987534,914.4 18.344028,-33.983002,914.4 18.347168,-33.978619,883.92 18.350082,-33.973663,883.92 18.352493,-33.968124,853.44 18.354435,-33.962559,822.96 18.356266,-33.957157,792.48 18.357986,-33.951141,762 18.359499,-33.944962,731.52 18.361294,-33.938919,701.04 18.36319,-33.932999,670.56 18.36533,-33.9272,640.08 18.367964,-33.921799,609.6 18.371601,-33.916702,609.6 18.37553,-33.912506,609.6 18.379566,-33.908432,579.12 18.383732,-33.904228,579.12 18.387863,-33.899826,548.64 18.392544,-33.89608,548.64 18.39784,-33.893234,487.68 18.403837,-33.890854,487.68 18.409836,-33.889114,457.2 18.415546,-33.887749,457.2 18.421101,-33.886551,426.72 18.426371,-33.886047,396.24 18.430349,-33.886917,365.76 18.433342,-33.888866,304.8 18.43483,-33.891567,243.84 18.434105,-33.89447,182.88 18.430996,-33.896545,121.92 18.428307,-33.898548,60.96 18.42709,-33.900898,0 18.428164,-33.901657,30.48 18.431568,-33.901482,91.44 18.435459,-33.900177,121.92 18.438982,-33.897263,182.88 18.440552,-33.892776,243.84 18.439865,-33.887703,274.32 18.436628,-33.883026,335.28 18.432083,-33.880112,365.76 18.426476,-33.878067,396.24 18.421097,-33.877132,457.2 18.41526,-33.876995,487.68 18.409498,-33.877487,548.64 18.404062,-33.878723,579.12 18.398399,-33.880554,609.6 18.393019,-33.88298,640.08 18.387966,-33.885933,670.56 18.383154,-33.889206,701.04 18.378782,-33.892273,762 18.372335,-33.896942,792.48 18.368187,-33.900284,822.96 18.364376,-33.903854,883.92 18.360397,-33.908112,883.92 18.356495,-33.912933,914.4 18.352829,-33.917953,914.4 18.349466,-33.923584,914.4 18.347,-33.928665,914.4 18.344421,-33.934937,914.4 18.340441,-33.945374,914.4 18.337212,-33.951057,914.4 18.337358,-33.958145,883.92 18.349285,-33.958832,853.44 18.352716,-33.9543,822.96 18.355688,-33.94899,792.48 18.357983,-33.943985,762 18.360386,-33.938583,731.52 18.362471,-33.933151,701.04 18.364506,-33.927738,670.56 18.367739,-33.922165,640.08 18.371544,-33.9174,640.08 18.375811,-33.912735,609.6 18.380013,-33.908371,609.6 18.383961,-33.903809,609.6 18.388538,-33.899059,579.12 18.393692,-33.895386,548.64 18.399525,-33.892822,518.16 18.405361,-33.890682,487.68 18.411348,-33.88884,457.2 18.417234,-33.887192,457.2 18.423042,-33.88612,396.24 18.427963,-33.886166,365.76 18.432032,-33.88765,335.28 18.43461,-33.889664,274.32 18.436089,-33.892078,243.84 18.435459,-33.894497,182.88 18.432484,-33.896267,121.92 18.429394,-33.897896,60.96 18.426764,-33.900558,30.48 18.429733,-33.901382,60.96 18.433514,-33.899757,121.92 18.436235,-33.89621,152.4 18.436832,-33.891052,182.88 18.43586,-33.886444,243.84 18.432369,-33.881649,274.32 18.424015,-33.879135,365.76 18.41692,-33.879879,396.24 18.411404,-33.880417,457.2 18.405533,-33.881462,487.68 18.400154,-33.883419,518.16 18.395317,-33.885864,579.12 18.390553,-33.888931,609.6 18.386536,-33.891891,640.08 18.382244,-33.895245,670.56 18.375978,-33.900009,731.52 18.365891,-33.908066,822.96 18.362303,-33.911911,853.44 18.359163,-33.915939,883.92 18.355856,-33.9207,914.4 18.352997,-33.925461,914.4 18.350658,-33.930622,914.4 18.348402,-33.936905,914.4 18.345566,-33.944866,914.4 18.342934,-33.950687,914.4 18.339993,-33.955856,914.4 18.331432,-33.968704,914.4 18.318638,-33.990097,944.88 18.313984,-33.997513,914.4 18.310341,-34.002823,914.4 18.306978,-34.007996,914.4 18.303738,-34.013439,914.4 18.301149,-34.018661,914.4 18.299299,-34.023926,914.4 18.298458,-34.029785,914.4 18.299355,-34.035507,914.4 18.30225,-34.040348,914.4 18.307482,-34.04393,914.4 18.313751,-34.046257,914.4 18.320446,-34.047329,914.4 18.326653,-34.046356,914.4 18.331249,-34.043655,914.4 18.334122,-34.039555,914.4 18.335037,-34.034573,914.4 18.334694,-34.02964,883.92 18.333035,-34.024052,883.92 18.331697,-34.019394,883.92 18.330914,-34.014038,883.92 18.331089,-34.008877,883.92 18.332233,-34.00399,914.4 18.334444,-33.999207,914.4 18.337416,-33.994492,914.4 18.340359,-33.990025,883.92 18.343637,-33.985474,914.4 18.347626,-33.980572,914.4 18.350487,-33.976383,914.4 18.35289,-33.971218,914.4 18.354511,-33.965836,914.4 18.355801,-33.960251,914.4 18.357145,-33.954758,853.44 18.358555,-33.949337,822.96 18.359985,-33.943424,792.48 18.361416,-33.93779,762 18.362864,-33.932098,731.52 18.365049,-33.926559,670.56 18.368053,-33.92136,640.08 18.372448,-33.916351,609.6 18.376465,-33.911861,609.6 18.380352,-33.907516,609.6 18.38768,-33.899853,579.12 18.392458,-33.896027,548.64 18.398266,-33.892963,518.16 18.404062,-33.890854,518.16 18.410168,-33.889053,487.68 18.416061,-33.887562,457.2 18.421438,-33.886459,396.24 18.426987,-33.886002,365.76 18.431303,-33.887009,304.8 18.433769,-33.889023,274.32 18.434443,-33.891815,213.36 18.433399,-33.894127,182.88 18.430407,-33.896805,121.92 18.426991,-33.900272,30.48 18.427996,-33.900833,60.96 18.430967,-33.899551,91.44 18.434601,-33.898361,121.92 18.437637,-33.895157,182.88 18.438421,-33.89003,213.36 18.437132,-33.884766,243.84 18.43277,-33.879929,274.32 18.427448,-33.877598,304.8 18.420982,-33.877319,365.76 18.418522,-33.880066,426.72 18.420597,-33.881516,487.68 18.419724,-33.884117,487.68 18.414598,-33.884079,518.16 18.408937,-33.883621,579.12 18.40353,-33.883839,579.12 18.397728,-33.884949,609.6 18.392429,-33.886909,640.08 18.387966,-33.889053,670.56 18.382587,-33.891239,701.04 18.378582,-33.894917,731.52 18.374859,-33.898544,762 18.370914,-33.901669,762 18.367067,-33.905319,792.48 18.363592,-33.90921,792.48 18.3605,-33.913586,822.96 18.357925,-33.918053,853.44 18.355856,-33.922714,883.92 18.354286,-33.927887,914.4 18.352716,-33.93306,914.4 18.351059,-33.939003,944.88 18.349131,-33.944962,944.88 18.347168,-33.951828,944.88 18.344479,-33.95739,944.88 18.337269,-33.972847,944.88 18.335846,-33.97879,944.88 18.333607,-33.984436,944.88 18.331547,-33.989975,944.88 18.330185,-33.995865,944.88 18.329945,-34.001846,914.4 18.330631,-34.007572,944.88 18.331697,-34.012894,914.4 18.332977,-34.017582,914.4 18.334499,-34.022415,914.4 18.336124,-34.027172,914.4 18.337864,-34.031982,883.92 18.33876,-34.037018,914.4 18.338593,-34.042236,914.4 18.337326,-34.047981,914.4 18.335323,-34.053379,914.4 18.333263,-34.058361,914.4 18.330631,-34.063995,914.4 18.327101,-34.070847,914.4 18.327213,-34.076019,944.88 18.330408,-34.074738,975.36 18.33046,-34.071259,1005.84 18.33292,-34.068977,975.36 18.334444,-34.073181,944.88 18.333893,-34.078426,914.4 18.335173,-34.084213,914.4 18.338242,-34.088993,883.92 18.342304,-34.093044,853.44 18.346775,-34.096664,792.48 18.351877,-34.099319,762 18.357651,-34.101379,731.52 18.363703,-34.102936,701.04 18.369827,-34.104355,701.04 18.379343,-34.106735,670.56 18.385162,-34.108639,640.08 18.390598,-34.110592,640.08 18.395233,-34.112408,609.6 18.399467,-34.114132,609.6 18.40451,-34.116257,609.6 18.408546,-34.118134,609.6 18.412685,-34.120182,640.08 18.416897,-34.122116,640.08 18.421999,-34.123444,640.08 18.427219,-34.123814,640.08 18.432537,-34.123032,640.08 18.43832,-34.121162,640.08 18.443985,-34.119904,640.08 18.450279,-34.118275,640.08 18.456919,-34.116348,640.08 18.463758,-34.114609,609.6 18.470535,-34.11227,609.6 18.4758,-34.107986,609.6 18.478374,-34.101749,579.12 18.478432,-34.095417,579.12 18.477491,-34.088699,579.12 18.476257,-34.082104,548.64 18.475304,-34.075562,518.16 18.473904,-34.068695,487.68 18.47168,-34.062225,487.68 18.469334,-34.055569,487.68 18.467674,-34.049286,487.68 18.466816,-34.042721,487.68 18.46653,-34.035923,457.2 18.46653,-34.029362,457.2 18.466873,-34.022236,457.2 18.467274,-34.015907,487.68 18.467569,-34.010788,548.64 18.468246,-34.005108,487.68 18.469105,-33.999008,457.2 18.470192,-33.993237,457.2 18.471622,-33.987648,426.72 18.473343,-33.981903,396.24 18.475529,-33.975769,396.24 18.477516,-33.970005,365.76 18.479507,-33.964371,365.76 18.481358,-33.958466,365.76 18.482424,-33.952332,365.76 18.482367,-33.945694,335.28 18.480406,-33.939148,304.8 18.477459,-33.932949,304.8 18.473625,-33.927689,304.8 18.468634,-33.922302,304.8 18.463898,-33.91782,304.8 18.458824,-33.913055,274.32 18.450417,-33.904129,274.32 18.446325,-33.898956,274.32 18.442612,-33.894264,243.84 18.437061,-33.892265,213.36 18.432648,-33.893692,152.4 18.427162,-33.900085,60.96 18.427322,-33.901245,60.96 18.430939,-33.901901,121.92 18.434891,-33.900284,152.4 18.43832,-33.896221,213.36 18.43935,-33.891239,274.32 18.438377,-33.885746,304.8 18.434891,-33.880966,335.28 18.429117,-33.877808,396.24 18.423119,-33.875977,426.72 18.416449,-33.875061,487.68 18.410339,-33.875366,518.16 18.40416,-33.876064,548.64 18.398119,-33.87735,579.12 18.39257,-33.879227,609.6 18.38728,-33.881325,609.6 18.38237,-33.883804,640.08 18.377941,-33.886963,670.56 18.374409,-33.890945,670.56 18.371326,-33.895203,701.04 18.367596,-33.898827,701.04 18.362806,-33.901794,731.52 18.358784,-33.905533,731.52 18.356081,-33.909897,762 18.354231,-33.914841,762 18.352829,-33.91951,762 18.351259,-33.925049,792.48 18.349571,-33.930531,792.48 18.347912,-33.935883,792.48 18.34631,-33.943237,792.48 18.344534,-33.949905,792.48 18.34201,-33.955353,792.48 18.345451,-33.967121,731.52 18.356895,-33.95874,701.04 18.358498,-33.953156,670.56 18.359779,-33.947342,670.56 18.361126,-33.941666,670.56 18.362503,-33.936161,640.08 18.365049,-33.930405,640.08 18.368076,-33.925552,609.6 18.371315,-33.921219,609.6 18.374748,-33.916798,609.6 18.378054,-33.912643,609.6 18.381248,-33.908432,609.6 18.384499,-33.904312,609.6 18.388081,-33.899899,609.6 18.392487,-33.895943,579.12 18.397448,-33.893051,548.64 18.40266,-33.890808,518.16 18.408222,-33.889004,487.68 18.4132,-33.887608,487.68 18.418018,-33.886322,457.2 18.422615,-33.885498,426.72 18.426426,-33.885956,396.24 18.428993,-33.887562,365.76 18.430742,-33.889297,304.8 18.43214,-33.891285,274.32 18.432484,-33.893288,243.84 18.431911,-33.895149,182.88 18.430239,-33.897034,121.92 18.42766,-33.899323,60.96 18.427048,-33.901203,30.48 18.427305,-33.901039,0 18.429565,-33.899918,60.96 18.430069,-33.899689,60.96 18.433041,-33.898727,91.44 18.433769,-33.898544,121.92 18.436741,-33.897491,152.4 18.437405,-33.897106,152.4 18.439711,-33.894562,182.88 18.440151,-33.893612,213.36 18.440159,-33.889801,243.84 18.439922,-33.889004,243.84 18.437977,-33.885422,274.32 18.437233,-33.884491,274.32 18.433994,-33.881516,304.8 18.432985,-33.880829,335.28 18.428949,-33.879364,365.76 18.427849,-33.879135,365.76 18.423271,-33.878345,396.24 18.422279,-33.87822,396.24 18.417778,-33.87788,426.72 18.416506,-33.877853,457.2 18.41217,-33.877926,487.68 18.411083,-33.877972,487.68 18.406563,-33.878532,518.16 18.40559,-33.878716,548.64 18.401146,-33.880005,579.12 18.40004,-33.88044,579.12 18.395765,-33.882339,579.12 18.39489,-33.882767,609.6 18.390385,-33.885452,609.6 18.389488,-33.886002,609.6 18.385956,-33.888611,640.08 18.384933,-33.889378,640.08 18.381361,-33.892136,701.04 18.380575,-33.892776,701.04 18.377155,-33.895477,731.52 18.37635,-33.896175,731.52 18.373146,-33.898922,762 18.372561,-33.899414,762 18.369026,-33.902737,792.48 18.368525,-33.903259,792.48 18.365307,-33.906555,822.96 18.364506,-33.90744,853.44 18.361742,-33.910812,883.92 18.361181,-33.911545,883.92 18.35849,-33.915298,914.4 18.357929,-33.916168,914.4 18.355633,-33.920151,914.4 18.355127,-33.921204,914.4 18.353405,-33.925083,914.4 18.353109,-33.925919,914.4 18.351091,-33.93251,914.4 18.350811,-33.933517,914.4 18.349579,-33.938095,914.4 18.349241,-33.93924,914.4 18.346024,-33.948311,914.4 18.345509,-33.949429,914.4 18.343334,-33.953991,914.4 18.342739,-33.955124,914.4 18.337383,-33.964977,944.88 18.335733,-33.967438,944.88 18.328054,-33.980713,944.88 18.327606,-33.982315,944.88 18.326092,-33.988632,944.88 18.325939,-33.989742,944.88 18.325539,-33.99482,914.4 18.325531,-33.995956,914.4 18.326036,-34.000763,914.4 18.32626,-34.001816,914.4 18.327713,-34.006783,914.4 18.328056,-34.007854,914.4 18.330072,-34.012711,914.4 18.330463,-34.013672,914.4 18.332426,-34.018066,914.4 18.332874,-34.019028,914.4 18.334694,-34.023075,914.4 18.335094,-34.02396,914.4 18.336697,-34.027962,914.4 18.336855,-34.028595,914.4 18.336855,-34.033035,914.4 18.336575,-34.033905,944.88 18.334637,-34.038113,944.88 18.334122,-34.039043,944.88 18.332539,-34.043701,914.4 18.332651,-34.044708,914.4 18.335566,-34.047821,914.4 18.336517,-34.048096,914.4 18.340666,-34.047226,914.4 18.341618,-34.046444,914.4 18.34322,-34.04258,914.4 18.3433,-34.04155,914.4 18.342571,-34.03688,914.4 18.342236,-34.035828,914.4 18.339844,-34.031406,914.4 18.338928,-34.030151,914.4 18.335609,-34.025822,883.92 18.334948,-34.024841,883.92 18.332577,-34.02084,883.92 18.332033,-34.019806,883.92 18.330574,-34.015629,914.4 18.330408,-34.01445,914.4 18.330296,-34.010468,883.92 18.330296,-34.009552,883.92 18.330803,-34.005619,883.92 18.330969,-34.004837,883.92 18.332005,-34.001289,883.92 18.332426,-34.000168,914.4 18.334164,-33.996643,883.92 18.334637,-33.995888,883.92 18.337154,-33.992073,883.92 18.337694,-33.991333,883.92 18.340666,-33.987534,914.4 18.341227,-33.986755,914.4 18.344028,-33.983002,914.4 18.34465,-33.982155,914.4 18.347168,-33.978619,883.92 18.348026,-33.97736,883.92 18.350082,-33.973663,883.92 18.350643,-33.972473,883.92 18.352493,-33.968124,853.44 18.352942,-33.966751,853.44 18.354435,-33.962559,822.96 18.354792,-33.961578,822.96 18.356266,-33.957157,792.48 18.356697,-33.955673,792.48 18.357986,-33.951141,762 18.358322,-33.949722,762 18.359499,-33.944962,731.52 18.359814,-33.943611,731.52 18.361294,-33.938919,701.04 18.361685,-33.937637,701.04 18.36319,-33.932999,670.56 18.363647,-33.931595,670.56 18.36533,-33.9272,640.08 18.365946,-33.925781,640.08 18.367964,-33.921799,609.6 18.368683,-33.920612,609.6 18.371601,-33.916702,609.6 18.372335,-33.915894,609.6 18.37553,-33.912506,609.6 18.376427,-33.911591,609.6 18.379566,-33.908432,579.12 18.380527,-33.907486,579.12 18.383732,-33.904228,579.12 18.384476,-33.903435,579.12 18.387863,-33.899826,548.64 18.388815,-33.898865,548.64 18.392544,-33.89608,548.64 18.393131,-33.895706,518.16 18.39784,-33.893234,487.68 18.399124,-33.892635,487.68 18.403837,-33.890854,487.68 18.405132,-33.8904,487.68 18.409836,-33.889114,457.2 18.411198,-33.888771,457.2 18.415546,-33.887749,457.2 18.416576,-33.887516,457.2 18.421101,-33.886551,426.72 18.422054,-33.886368,426.72 18.426371,-33.886047,396.24 18.427267,-33.886139,396.24 18.430349,-33.886917,365.76 18.431053,-33.887188,335.28 18.433342,-33.888866,304.8 18.433685,-33.889236,274.32 18.43483,-33.891567,243.84 18.434887,-33.892216,213.36 18.434105,-33.89447,182.88 18.43317,-33.895382,152.4 18.430996,-33.896545,121.92 18.430407,-33.896851,91.44 18.428307,-33.898548,60.96 18.427322,-33.89978,30.48 18.42709,-33.900898,0 18.427099,-33.901108,0 18.428164,-33.901657,30.48 18.428782,-33.901703,60.96 18.431568,-33.901482,91.44 18.432087,-33.901382,91.44 18.435459,-33.900177,121.92 18.436203,-33.899757,152.4 18.438982,-33.897263,182.88 18.43943,-33.89653,182.88 18.440552,-33.892776,243.84 18.440609,-33.891567,243.84 18.439865,-33.887703,274.32 18.43935,-33.886631,274.32 18.436628,-33.883026,335.28 18.435802,-33.882393,335.28 18.432083,-33.880112,365.76 18.43091,-33.879593,365.76 18.426476,-33.878067,396.24 18.425217,-33.877785,426.72 18.421097,-33.877132,457.2 18.419701,-33.877029,457.2 18.41526,-33.876995,487.68 18.41432,-33.877075,518.16 18.409498,-33.877487,548.64 18.408451,-33.877647,548.64 18.404062,-33.878723,579.12 18.403072,-33.878998,579.12 18.398399,-33.880554,609.6 18.397179,-33.881046,609.6 18.393019,-33.88298,640.08 18.391972,-33.88356,640.08 18.387966,-33.885933,670.56 18.386936,-33.886585,670.56 18.383154,-33.889206,701.04 18.382145,-33.889893,731.52 18.378782,-33.892273,762 18.377548,-33.893143,762 18.372335,-33.896942,792.48 18.371487,-33.897572,822.96 18.368187,-33.900284,822.96 18.367367,-33.901016,853.44 18.364376,-33.903854,883.92 18.36348,-33.90477,883.92 18.360397,-33.908112,883.92 18.359699,-33.908928,883.92 18.356495,-33.912933,914.4 18.355865,-33.913723,914.4 18.352829,-33.917953,914.4 18.352146,-33.918983,914.4 18.349466,-33.923584,914.4 18.348961,-33.924545,914.4 18.347,-33.928665,914.4 18.346495,-33.929855,914.4 18.344421,-33.934937,914.4 18.343849,-33.936489,914.4 18.340441,-33.945374,914.4 18.339937,-33.946381,914.4 18.337212,-33.951057,914.4 18.336468,-33.953621,883.92 18.337358,-33.958145,883.92 18.338127,-33.95916,883.92 18.349285,-33.958832,853.44 18.350027,-33.958099,853.44 18.352716,-33.9543,822.96 18.353519,-33.952969,822.96 18.355688,-33.94899,792.48 18.356136,-33.948074,792.48 18.357983,-33.943985,762 18.35849,-33.94281,762 18.360386,-33.938583,731.52 18.360733,-33.937683,731.52 18.362471,-33.933151,701.04 18.362789,-33.932159,701.04 18.364506,-33.927738,670.56 18.365105,-33.926514,670.56 18.367739,-33.922165,640.08 18.368397,-33.921265,640.08 18.371544,-33.9174,640.08 18.372223,-33.916672,640.08 18.375811,-33.912735,609.6 18.376465,-33.912094,609.6 18.380013,-33.908371,609.6 18.380743,-33.907516,609.6 18.383961,-33.903809,609.6 18.384933,-33.902691,579.12 18.388538,-33.899059,579.12 18.389454,-33.89827,579.12 18.393692,-33.895386,548.64 18.394869,-33.894791,548.64 18.399525,-33.892822,518.16 18.400475,-33.892456,518.16 18.405361,-33.890682,487.68 18.406448,-33.890354,487.68 18.411348,-33.88884,457.2 18.412743,-33.888401,457.2 18.417234,-33.887192,457.2 18.418293,-33.886955,426.72 18.423042,-33.88612,396.24 18.42396,-33.886002,396.24 18.427963,-33.886166,365.76 18.428936,-33.886353,365.76 18.432032,-33.88765,335.28 18.432537,-33.88797,304.8 18.43461,-33.889664,274.32 18.435059,-33.890121,274.32 18.436089,-33.892078,243.84 18.436203,-33.892498,213.36 18.435459,-33.894497,182.88 18.435001,-33.894962,152.4 18.432484,-33.896267,121.92 18.432026,-33.896454,121.92 18.429394,-33.897896,60.96 18.428221,-33.898956,60.96 18.426764,-33.900558,30.48 18.426975,-33.900795,0 18.429733,-33.901382,60.96 18.43063,-33.901154,91.44 18.433514,-33.899757,121.92 18.434143,-33.899292,121.92 18.436235,-33.89621,152.4 18.436604,-33.895103,152.4 18.436832,-33.891052,182.88 18.436718,-33.889984,213.36 18.43586,-33.886444,243.84 18.435394,-33.885361,243.84 18.432369,-33.881649,274.32 18.431454,-33.880997,274.32 18.424015,-33.879135,365.76 18.4231,-33.879135,365.76 18.41692,-33.879879,396.24 18.415497,-33.880005,426.72 18.411404,-33.880417,457.2 18.410395,-33.880554,457.2 18.405533,-33.881462,487.68 18.404331,-33.881836,487.68 18.400154,-33.883419,518.16 18.398849,-33.883987,548.64 18.395317,-33.885864,579.12 18.394032,-33.886631,579.12 18.390553,-33.888931,609.6 18.38974,-33.889519,609.6 18.386536,-33.891891,640.08 18.385563,-33.892635,640.08 18.382244,-33.895245,670.56 18.381386,-33.895893,701.04 18.375978,-33.900009,731.52 18.373375,-33.901901,762 18.365891,-33.908066,822.96 18.365078,-33.908882,822.96 18.362303,-33.911911,853.44 18.361473,-33.912888,853.44 18.359163,-33.915939,883.92 18.35844,-33.916889,883.92 18.355856,-33.9207,914.4 18.355295,-33.92157,914.4 18.352997,-33.925461,914.4 18.352549,-33.926376,914.4 18.350658,-33.930622,914.4 18.350195,-33.931961,914.4 18.348402,-33.936905,914.4 18.348009,-33.938095,914.4 18.345566,-33.944866,914.4 18.344925,-33.946472,914.4 18.342934,-33.950687,914.4 18.342236,-33.952011,914.4 18.339993,-33.955856,914.4 18.339264,-33.957001,914.4 18.331432,-33.968704,914.4 18.327997,-33.973938,914.4 18.318638,-33.990097,944.88 18.31673,-33.993439,914.4 18.313984,-33.997513,914.4 18.313145,-33.998749,914.4 18.310341,-34.002823,914.4 18.3095,-34.004013,914.4 18.306978,-34.007996,914.4 18.30637,-34.009018,914.4 18.303738,-34.013439,914.4 18.303223,-34.014416,914.4 18.301149,-34.018661,914.4 18.300701,-34.019714,914.4 18.299299,-34.023926,914.4 18.298988,-34.025078,914.4 18.298458,-34.029785,914.4 18.298531,-34.031082,914.4 18.299355,-34.035507,914.4 18.299803,-34.036652,914.4 18.30225,-34.040348,914.4 18.303051,-34.041092,914.4 18.307482,-34.04393,914.4 18.308487,-34.044395,914.4 18.313751,-34.046257,914.4 18.314896,-34.046585,914.4 18.320446,-34.047329,914.4 18.321705,-34.047329,914.4 18.326653,-34.046356,914.4 18.327606,-34.045944,914.4 18.331249,-34.043655,914.4 18.33209,-34.04274,914.4 18.334122,-34.039555,914.4 18.334444,-34.038666,914.4 18.335037,-34.034573,914.4 18.335037,-34.03355,914.4 18.334694,-34.02964,883.92 18.334444,-34.028275,883.92 18.333035,-34.024052,883.92 18.332762,-34.023102,883.92 18.331697,-34.019394,883.92 18.331432,-34.01828,883.92 18.330914,-34.014038,883.92 18.330856,-34.013123,914.4 18.331089,-34.008877,883.92 18.331249,-34.007904,883.92 18.332233,-34.00399,914.4 18.332634,-34.002918,914.4 18.334444,-33.999207,914.4 18.33506,-33.998108,914.4 18.337416,-33.994492,914.4 18.337975,-33.993668,914.4 18.340359,-33.990025,883.92 18.341059,-33.988998,883.92 18.343637,-33.985474,914.4 18.344309,-33.984741,914.4 18.347626,-33.980572,914.4 18.348232,-33.979797,914.4 18.350487,-33.976383,914.4 18.351002,-33.975361,914.4 18.35289,-33.971218,914.4 18.353222,-33.970367,914.4 18.354511,-33.965836,914.4 18.354721,-33.964931,914.4 18.355801,-33.960251,914.4 18.356024,-33.959244,883.92 18.357145,-33.954758,853.44 18.357426,-33.953751,853.44 18.358555,-33.949337,822.96 18.358828,-33.948257,822.96 18.359985,-33.943424,792.48 18.360214,-33.942539,792.48 18.361416,-33.93779,762 18.361702,-33.936722,731.52 18.362864,-33.932098,731.52 18.363199,-33.931,701.04 18.365049,-33.926559,670.56 18.365536,-33.925549,670.56 18.368053,-33.92136,640.08 18.368969,-33.920197,640.08 18.372448,-33.916351,609.6 18.373203,-33.915585,609.6 18.376465,-33.911861,609.6 18.377213,-33.910995,609.6 18.380352,-33.907516,609.6 18.382759,-33.904831,609.6 18.38768,-33.899853,579.12 18.388702,-33.898911,579.12 18.392458,-33.896027,548.64 18.393631,-33.89529,548.64 18.398266,-33.892963,518.16 18.399296,-33.892544,518.16 18.404062,-33.890854,518.16 18.40519,-33.890495,487.68 18.410168,-33.889053,487.68 18.411516,-33.888657,457.2 18.416061,-33.887562,457.2 18.417177,-33.887329,426.72 18.421438,-33.886459,396.24 18.422642,-33.886257,396.24 18.426987,-33.886002,365.76 18.427996,-33.886093,335.28 18.431303,-33.887009,304.8 18.431911,-33.887329,304.8 18.433769,-33.889023,274.32 18.434105,-33.889618,243.84 18.434443,-33.891815,213.36 18.434315,-33.892403,213.36 18.433399,-33.894127,182.88 18.432816,-33.894791,152.4 18.430407,-33.896805,121.92 18.42923,-33.897812,91.44 18.426991,-33.900272,30.48 18.426819,-33.900597,30.48 18.427996,-33.900833,60.96 18.428593,-33.900551,60.96 18.430967,-33.899551,91.44 18.431625,-33.899338,91.44 18.434601,-33.898361,121.92 18.435452,-33.897903,152.4 18.437637,-33.895157,182.88 18.437973,-33.894104,182.88 18.438421,-33.89003,213.36 18.43832,-33.888866,213.36 18.437132,-33.884766,243.84 18.436432,-33.883606,243.84 18.43277,-33.879929,274.32 18.431696,-33.879227,304.8 18.427448,-33.877598,304.8 18.42609,-33.87735,335.28 18.420982,-33.877319,365.76 18.419952,-33.877647,365.76 18.418522,-33.880066,426.72 18.418747,-33.880417,457.2 18.420597,-33.881516,487.68 18.420925,-33.88179,487.68 18.419724,-33.884117,487.68 18.418865,-33.88435,487.68 18.414598,-33.884079,518.16 18.413702,-33.883942,548.64 18.408937,-33.883621,579.12 18.407879,-33.883606,579.12 18.40353,-33.883839,579.12 18.402271,-33.884026,609.6 18.397728,-33.884949,609.6 18.396774,-33.885269,609.6 18.392429,-33.886909,640.08 18.391954,-33.8871,640.08 18.387966,-33.889053,670.56 18.386707,-33.889702,701.04 18.382587,-33.891239,701.04 18.381157,-33.891891,701.04 18.378582,-33.894917,731.52 18.377941,-33.895752,731.52 18.374859,-33.898544,762 18.37413,-33.899094,762 18.370914,-33.901669,762 18.370056,-33.902412,762 18.367067,-33.905319,792.48 18.366222,-33.906136,792.48 18.363592,-33.90921,792.48 18.362864,-33.910172,792.48 18.3605,-33.913586,822.96 18.360004,-33.914383,822.96 18.357925,-33.918053,853.44 18.357481,-33.918915,853.44 18.355856,-33.922714,883.92 18.355522,-33.923824,883.92 18.354286,-33.927887,914.4 18.353838,-33.92926,914.4 18.352716,-33.93306,914.4 18.352432,-33.934162,944.88 18.351059,-33.939003,944.88 18.350773,-33.939888,944.88 18.349131,-33.944962,944.88 18.348738,-33.946289,944.88 18.347168,-33.951828,944.88 18.346775,-33.952789,944.88 18.344479,-33.95739,944.88 18.341282,-33.963089,944.88 18.337269,-33.972847,944.88 18.337191,-33.973709,944.88 18.335846,-33.97879,944.88 18.335266,-33.980247,944.88 18.333607,-33.984436,944.88 18.333155,-33.985657,944.88 18.331547,-33.989975,944.88 18.331203,-33.991001,944.88 18.330185,-33.995865,944.88 18.330015,-33.996872,944.88 18.329945,-34.001846,914.4 18.330002,-34.002872,944.88 18.330631,-34.007572,944.88 18.330856,-34.008636,944.88 18.331697,-34.012894,914.4 18.331978,-34.013855,914.4 18.332977,-34.017582,914.4 18.333321,-34.018745,914.4 18.334499,-34.022415,914.4 18.334837,-34.023514,914.4 18.336124,-34.027172,914.4 18.336468,-34.028194,883.92 18.337864,-34.031982,883.92 18.33807,-34.032806,883.92 18.33876,-34.037018,914.4 18.338814,-34.038017,914.4 18.338593,-34.042236,914.4 18.338367,-34.043518,914.4 18.337326,-34.047981,914.4 18.33691,-34.049286,914.4 18.335323,-34.053379,914.4 18.33498,-34.054264,914.4 18.333263,-34.058361,914.4 18.332706,-34.05954,914.4 18.330631,-34.063995,914.4 18.330128,-34.065033,914.4 18.327101,-34.070847,914.4 18.326653,-34.071854,914.4 18.327213,-34.076019,944.88 18.328114,-34.076378,944.88 18.330408,-34.074738,975.36 18.330631,-34.074238,1005.84 18.33046,-34.071259,1005.84 18.330345,-34.070606,1005.84 18.33292,-34.068977,975.36 18.33366,-34.069336,975.36 18.334444,-34.073181,944.88 18.334276,-34.074097,944.88 18.333893,-34.078426,914.4 18.334007,-34.079914,914.4 18.335173,-34.084213,914.4 18.335566,-34.085129,883.92 18.338242,-34.088993,883.92 18.339157,-34.08997,853.44 18.342304,-34.093044,853.44 18.343391,-34.094021,822.96 18.346775,-34.096664,792.48 18.347561,-34.097214,792.48 18.351877,-34.099319,762 18.353109,-34.099823,762 18.357651,-34.101379,731.52 18.358883,-34.1017,731.52 18.363703,-34.102936,701.04 18.365105,-34.103256,701.04 18.369827,-34.104355,701.04 18.370914,-34.104588,701.04 18.379343,-34.106735,670.56 18.380575,-34.107101,670.56 18.385162,-34.108639,640.08 18.386181,-34.108978,640.08 18.390598,-34.110592,640.08 18.391562,-34.110947,640.08 18.395233,-34.112408,609.6 18.396091,-34.112736,609.6 18.399467,-34.114132,609.6 18.400211,-34.11441,609.6 18.40451,-34.116257,609.6 18.405407,-34.116623,609.6 18.408546,-34.118134,609.6 18.409252,-34.118462,640.08 18.412685,-34.120182,640.08 18.413486,-34.120556,640.08 18.416897,-34.122116,640.08 18.417738,-34.122437,640.08 18.421999,-34.123444,640.08 18.422985,-34.123581,640.08 18.427219,-34.123814,640.08 18.428221,-34.12381,640.08 18.432537,-34.123032,640.08 18.433743,-34.122604,640.08 18.43832,-34.121162,640.08 18.43935,-34.12093,640.08 18.443985,-34.119904,640.08 18.445091,-34.119644,640.08 18.450279,-34.118275,640.08 18.451653,-34.117901,640.08 18.456919,-34.116348,640.08 18.458321,-34.115936,640.08 18.463758,-34.114609,609.6 18.464985,-34.114273,609.6 18.470535,-34.11227,609.6 18.471605,-34.111679,609.6 18.4758,-34.107986,609.6 18.47665,-34.106735,609.6 18.478374,-34.101749,579.12 18.478556,-34.100464,579.12 18.478432,-34.095417,579.12 18.478331,-34.094055,579.12 18.477491,-34.088699,579.12 18.477287,-34.087551,579.12 18.476257,-34.082104,548.64 18.476032,-34.08078,548.64 18.475304,-34.075562,518.16 18.475056,-34.073864,518.16 18.473904,-34.068695,487.68 18.473396,-34.067207,487.68 18.47168,-34.062225,487.68 18.4711,-34.060684,487.68 18.469334,-34.055569,487.68 18.469027,-34.054504,487.68 18.467674,-34.049286,487.68 18.467503,-34.048122,487.68 18.466816,-34.042721,487.68 18.466728,-34.041321,487.68 18.46653,-34.035923,457.2 18.466505,-34.034637,457.2 18.46653,-34.029362,457.2 18.466616,-34.027771,457.2 18.466873,-34.022236,457.2 18.467009,-34.02095,457.2 18.467274,-34.015907,487.68 18.467331,-34.01479,487.68 18.467569,-34.010788,548.64 18.467674,-34.00967,518.16 18.468246,-34.005108,487.68 18.46841,-34.003784,487.68 18.469105,-33.999008,457.2 18.469276,-33.99789,457.2 18.470192,-33.993237,457.2 18.470421,-33.992165,457.2 18.471622,-33.987648,426.72 18.471966,-33.986626,426.72 18.473343,-33.981903,396.24 18.473797,-33.980526,396.24 18.475529,-33.975769,396.24 18.475857,-33.974709,426.72 18.477516,-33.970005,365.76 18.477827,-33.969177,365.76 18.479507,-33.964371,365.76 18.479977,-33.963024,365.76 18.481358,-33.958466,365.76 18.481583,-33.957321,365.76 18.482424,-33.952332,365.76 18.482534,-33.951187,335.28 18.482367,-33.945694,335.28 18.482086,-33.944275,304.8 18.480406,-33.939148,304.8 18.480013,-33.938049,304.8 18.477459,-33.932949,304.8 18.476601,-33.931599,304.8 18.473625,-33.927689,304.8 18.472366,-33.926155,304.8 18.468634,-33.922302,304.8 18.467674,-33.92136,304.8 18.463898,-33.91782,304.8 18.462982,-33.916985,304.8 18.458824,-33.913055,274.32 18.455797,-33.91008,274.32 18.450417,-33.904129,274.32 18.449593,-33.903202,274.32 18.446325,-33.898956,274.32 18.44582,-33.898224,274.32 18.442612,-33.894264,243.84 18.441729,-33.893555,243.84 18.437061,-33.892265,213.36 18.435732,-33.892548,213.36 18.432648,-33.893692,152.4 18.430799,-33.894928,121.92 18.427162,-33.900085,60.96 18.426876,-33.900455,60.96 18.427322,-33.901245,60.96 18.428078,-33.901669,60.96 18.430939,-33.901901,121.92 18.431808,-33.901749,121.92 18.434891,-33.900284,152.4 18.435745,-33.89962,182.88 18.43832,-33.896221,213.36 18.438702,-33.895294,213.36 18.43935,-33.891239,274.32 18.43935,-33.890308,274.32 18.438377,-33.885746,304.8 18.437918,-33.88472,304.8 18.434891,-33.880966,335.28 18.433825,-33.880188,335.28 18.429117,-33.877808,396.24 18.428053,-33.877396,396.24 18.423119,-33.875977,426.72 18.421606,-33.875656,457.2 18.416449,-33.875061,487.68 18.415104,-33.875015,487.68 18.410339,-33.875366,518.16 18.408909,-33.875504,518.16 18.40416,-33.876064,548.64 18.40313,-33.876202,548.64 18.398119,-33.87735,579.12 18.396893,-33.877739,579.12 18.39257,-33.879227,609.6 18.391562,-33.879593,609.6 18.38728,-33.881325,609.6 18.386236,-33.88179,640.08 18.38237,-33.883804,640.08 18.381443,-33.88435,640.08 18.377941,-33.886963,670.56 18.377094,-33.887749,670.56 18.374409,-33.890945,670.56 18.37389,-33.891659,701.04 18.371326,-33.895203,701.04 18.37071,-33.895935,701.04 18.367596,-33.898827,701.04 18.366451,-33.89962,731.52 18.362806,-33.901794,731.52 18.361797,-33.902527,731.52 18.358784,-33.905533,731.52 18.358154,-33.906322,762 18.356081,-33.909897,762 18.355694,-33.910839,762 18.354231,-33.914841,762 18.353977,-33.915771,762 18.352829,-33.91951,762 18.352493,-33.920609,792.48 18.351259,-33.925049,792.48 18.350887,-33.926388,792.48 18.349571,-33.930531,792.48 18.349171,-33.931694,792.48 18.347912,-33.935883,792.48 18.347454,-33.938023,792.48 18.34631,-33.943237,792.48 18.346024,-33.944401,792.48 18.344534,-33.949905,792.48 18.344141,-33.951004,792.48 18.34201,-33.955353,792.48 18.341389,-33.956413,792.48 18.345451,-33.967121,731.52 18.348885,-33.966839,731.52 18.356895,-33.95874,701.04 18.357258,-33.957596,670.56 18.358498,-33.953156,670.56 18.358715,-33.952103,670.56 18.359779,-33.947342,670.56 18.360043,-33.946217,670.56 18.361126,-33.941666,670.56 18.361416,-33.940632,670.56 18.362503,-33.936161,640.08 18.362974,-33.934662,640.08 18.365049,-33.930405,640.08 18.365553,-33.929489,640.08 18.368076,-33.925552,609.6 18.368748,-33.924637,609.6 18.371315,-33.921219,609.6 18.372059,-33.920288,609.6 18.374748,-33.916798,609.6 18.375378,-33.916004,609.6 18.378054,-33.912643,609.6 18.378725,-33.911774,609.6 18.381248,-33.908432,609.6 18.381958,-33.907578,609.6 18.384499,-33.904312,609.6 18.385277,-33.903343,609.6 18.388081,-33.899899,609.6 18.388983,-33.898911,609.6 18.392487,-33.895943,579.12 18.393356,-33.895386,579.12 18.397448,-33.893051,548.64 18.398176,-33.892685,548.64 18.40266,-33.890808,518.16 18.40395,-33.89035,518.16 18.408222,-33.889004,487.68 18.409218,-33.888702,487.68 18.4132,-33.887608,487.68 18.414288,-33.887329,487.68 18.418018,-33.886322,457.2 18.41914,-33.886047,457.2 18.422615,-33.885498,426.72 18.423569,-33.885452,396.24 18.426426,-33.885956,396.24 18.427105,-33.886257,365.76 18.428993,-33.887562,365.76 18.429453,-33.88797,335.28 18.430742,-33.889297,304.8 18.431078,-33.889709,304.8 18.43214,-33.891285,274.32 18.432312,-33.891724,274.32 18.432484,-33.893288,243.84 18.432484,-33.893612,213.36 18.431911,-33.895149,182.88 18.431639,-33.895569,182.88 18.430239,-33.897034,121.92 18.429173,-33.897903,91.44 18.42766,-33.899323,60.96 18.427505,-33.899525,60.96
        </coordinates>
      </LineString>
    </Placemark>
  </Document>
</kml>