<?xml version="1.0" encoding="UTF-8"?>
<kml xmlns="http://www.opengis.net/kml/2.2">
  <Document>
    <name>-/ZTHOT - Optimised</name>
    <description><![CDATA[Optimised flight path with 305 points (decimated from 1521 original points). Source format: Standard KML]]></description>
    
    <Style id="flightPath">
      <LineStyle>
        <color>ff0000ff</color>
        <width>3</width>
      </LineStyle>
    </Style>
    
    <Placemark>
      <name>Flight Path</name>
      <description><![CDATA[<div style="width:220px; text-align:center;">
<div style="width:210px; text-align:center;">
<div style=" background: #000; color: #fff; font-size: 14px; text-align:left; border: 1px solid #000; padding: 2px 6px; text-shadow: 0 1px 0 #000; box-shadow: 0 1px 3px rgba(0,0,0,0.6); background: -webkit-gradient(linear, left top, left bottom, color-stop(0%,#808080), color-stop(2%,#303030), color-stop(100%,#0c0c0c));"><span style="font-size: 14px; font-weight: bold;"><a href="javascript:void(0);" style="color: #fff; cursor: pointer;text-decoration: none;">-</a></span> / ZTHOT<br/>Cape Town Helicopters</div>

<div style="border-top: 1px solid #005c90; color: #fff; padding-bottom: 5px; box-shadow: 0 0 1px #9BE3F6 inset, 0 1px 0 #9BE3F6 inset, 0 -1px 3px rgba(0,0,0,0.4); background:rgba(43,114,173,1); background: -webkit-gradient(linear, left top, left bottom, color-stop(0%,rgba(92,184,229,1)), color-stop(100%,rgba(43,114,173,1)));">
<a style="text-decoration: none; color: rgb(255, 255, 255); font-size: 12px; width:77px; display: inline-block;" title="Cape Town Airport" href="https://www.flightradar24.com/airport/cpt/departures"><h3 style="padding: 0px; margin: 10px 0px 0px; font-size: 16px; ">CPT</h3>Cape Town</a>
<span style="background: url(https://www.flightradar24.com/static/images/userUI_sprite.png?14) no-repeat scroll 0 -464px rgba(0, 0, 0, 0); border: medium none; display: inline-block; height: 16px; width: 45px;"></span>
<a style="text-decoration: none; color: rgb(255, 255, 255); font-size: 12px; width:77px; display: inline-block;" title="Cape Town Airport" href="https://www.flightradar24.com/airport/cpt/arrivals"><h3 style="padding: 0px; margin: 10px 0px 0px; font-size: 16px;">CPT</h3>Cape Town</a>
<div style=" margin-top:10px;">
<div style="display: inline-block; font-size: 12px; padding: 0 5px;">
<div>
<span style="color: #c1eaff;" title="Actual Time of Departure">ATD </span>
<span title="2025-07-31 12:58">12:58</span> <span title="Coordinated Universal Time">UTC</span>
</div>
</div>
<div style="display: inline-block; font-size: 12px; padding: 0 5px;">
<div>
<span style="color: #c1eaff;" title="Estimated Time of Arrival">ETA </span>
<span title="2025-07-31 13:06">13:06</span> <span title="Coordinated Universal Time">UTC</span>
</div>
</div>
</div>
<br style="clear: both;"/>
</div>

<div style="display: block;">
<table style="border-collapse: collapse; width: 100%;">
<tr style="border-right: 1px solid #dadada; ">
<td style="background: none repeat scroll 0 0 #dadada; padding: 0; width: 31px;">
<span style="background: url(https://www.flightradar24.com/static/images/userUI_sprite.png?14) no-repeat scroll -208px -464px rgba(0, 0, 0, 0); height: 26px; margin: 8px 0 0 4px; width: 23px; display: block;"></span>
</td>
<td colspan="2" style="border-bottom: 1px solid #dadada; border-left: 1px solid #dadada; color: #666; line-height: 1.1em; padding: 3px 6px; vertical-align: top; font-size: 14px;">
Aircraft<span style="float: right; font-size: 12px;">(AS50)</span><br>
<span style="color: #333; font-size: 16px; font-weight: bold; line-height: 1.3em;">Airbus Helicopters H125</span>
</td>
</tr>
<tr style="border-right: 1px solid #dadada; ">
<td style="background: none repeat scroll 0 0 #dadada; padding: 0; width: 31px;">
<td colspan="2" style="border-bottom: 1px solid #dadada; border-left: 1px solid #dadada; color: #666; line-height: 1.1em; padding: 3px 6px; vertical-align: top; font-size: 14px;">
Registration<br>
<span style="color: #333; font-size: 16px; font-weight: bold; line-height: 1.3em;"><a href="https://www.flightradar24.com/reg/zt-hot" style="text-decoration: none; color: #333;">ZT-HOT</a></span>
</td>
</tr>
</table>
</div>

</div>
</div>]]></description>
      <styleUrl>#flightPath</styleUrl>
      <LineString>
        <extrude>1</extrude>
        <tessellate>1</tessellate>
        <altitudeMode>absolute</altitudeMode>
        <coordinates>
          18.59593,-33.979385,0 18.592987,-33.982109,91.44 18.587914,-33.980576,121.92 18.584175,-33.977036,152.4 18.57917,-33.97197,152.4 18.571995,-33.965698,152.4 18.566278,-33.962814,182.88 18.559914,-33.960602,182.88 18.553497,-33.958466,152.4 18.534508,-33.952457,182.88 18.5182,-33.947987,182.88 18.512466,-33.94519,182.88 18.507156,-33.942074,182.88 18.501492,-33.938259,182.88 18.496571,-33.934673,182.88 18.491673,-33.930542,213.36 18.486179,-33.925598,213.36 18.474426,-33.91568,213.36 18.468704,-33.912373,182.88 18.463726,-33.909393,152.4 18.449764,-33.900642,152.4 18.443802,-33.897949,121.92 18.438721,-33.897572,91.44 18.434029,-33.898224,30.48 18.428135,-33.900364,0 18.434778,-33.888062,91.44 18.43646,-33.882385,152.4 18.433489,-33.877625,243.84 18.428444,-33.875244,304.8 18.423328,-33.874805,365.76 18.417345,-33.875107,426.72 18.411427,-33.875923,457.2 18.405071,-33.87735,487.68 18.399298,-33.879181,518.16 18.392683,-33.882065,518.16 18.387222,-33.884956,518.16 18.382416,-33.888168,548.64 18.378054,-33.891312,579.12 18.373089,-33.89529,609.6 18.368168,-33.899757,609.6 18.364321,-33.903763,609.6 18.361013,-33.908112,579.12 18.357582,-33.913399,579.12 18.354959,-33.917908,579.12 18.35043,-33.926105,548.64 18.347111,-33.933277,518.16 18.344994,-33.93877,518.16 18.342123,-33.947159,518.16 18.352432,-33.959206,548.64 18.357182,-33.951385,518.16 18.358212,-33.943935,518.16 18.359127,-33.936626,518.16 18.362617,-33.925503,518.16 18.366058,-33.918961,518.16 18.371029,-33.912701,487.68 18.377037,-33.906601,487.68 18.38349,-33.901016,487.68 18.389879,-33.896164,487.68 18.39756,-33.890671,487.68 18.40563,-33.885727,487.68 18.413887,-33.882301,457.2 18.422127,-33.881371,396.24 18.430824,-33.884071,304.8 18.437525,-33.887512,243.84 18.442154,-33.8918,182.88 18.439293,-33.89608,91.44 18.435284,-33.897034,30.48 18.431639,-33.897949,0 18.427044,-33.900284,0 18.434443,-33.888657,91.44 18.436628,-33.882477,152.4 18.434946,-33.877396,213.36 18.432648,-33.872406,304.8 18.436796,-33.869385,426.72 18.436909,-33.87236,487.68 18.433153,-33.874695,487.68 18.425674,-33.875366,457.2 18.418972,-33.875061,487.68 18.409723,-33.875244,518.16 18.403164,-33.876663,518.16 18.397236,-33.878716,548.64 18.391449,-33.881287,518.16 18.386192,-33.88435,548.64 18.381304,-33.887878,548.64 18.375923,-33.89209,548.64 18.366001,-33.900513,640.08 18.362135,-33.904724,640.08 18.359051,-33.908936,640.08 18.355923,-33.913773,640.08 18.353233,-33.918659,640.08 18.350372,-33.924057,640.08 18.347168,-33.932098,701.04 18.347448,-33.936676,762 18.351402,-33.939838,883.92 18.355576,-33.937546,975.36 18.359276,-33.935349,1097.28 18.363018,-33.93742,1097.28 18.362675,-33.943611,1036.32 18.360901,-33.950409,1005.84 18.35844,-33.957764,944.88 18.352268,-33.973114,822.96 18.339321,-33.990875,670.56 18.325027,-34.011703,579.12 18.313122,-34.028847,518.16 18.30986,-34.035599,518.16 18.317986,-34.05706,487.68 18.324186,-34.06105,487.68 18.344307,-34.073074,457.2 18.357296,-34.094719,518.16 18.359871,-34.100258,518.16 18.363419,-34.108593,579.12 18.370514,-34.112316,579.12 18.380182,-34.115204,579.12 18.388592,-34.11731,579.12 18.398323,-34.119392,579.12 18.421268,-34.124142,518.16 18.437462,-34.128517,548.64 18.451195,-34.129585,518.16 18.460732,-34.126144,487.68 18.468819,-34.120464,457.2 18.475285,-34.113758,457.2 18.479004,-34.106636,457.2 18.47637,-34.100555,457.2 18.470036,-34.097305,457.2 18.46998,-34.088425,426.72 18.471828,-34.080872,457.2 18.473225,-34.07214,457.2 18.473566,-34.064438,457.2 18.473791,-34.054321,487.68 18.473959,-34.032028,518.16 18.474745,-34.02095,487.68 18.476425,-34.013809,487.68 18.478443,-34.007401,487.68 18.481293,-33.99617,457.2 18.48147,-33.989319,457.2 18.480629,-33.980209,426.72 18.479229,-33.972519,396.24 18.479462,-33.963024,365.76 18.481636,-33.955296,335.28 18.484268,-33.94305,304.8 18.483238,-33.934395,274.32 18.47934,-33.927933,274.32 18.471773,-33.920746,243.84 18.465046,-33.915161,213.36 18.460451,-33.909622,182.88 18.456022,-33.904083,182.88 18.447222,-33.893646,213.36 18.442497,-33.893475,213.36 18.442268,-33.898594,182.88 18.43689,-33.89864,30.48 18.433266,-33.897903,0 18.430239,-33.898636,0 18.42709,-33.901119,0 18.593687,-33.981949,91.44 18.592987,-33.982109,91.44 18.58926,-33.9814,121.92 18.587914,-33.980576,121.92 18.584944,-33.977875,152.4 18.584175,-33.977036,152.4 18.580341,-33.97308,152.4 18.57917,-33.97197,152.4 18.572948,-33.966431,152.4 18.571995,-33.965698,152.4 18.567295,-33.963211,152.4 18.566278,-33.962814,182.88 18.561058,-33.960976,182.88 18.559914,-33.960602,182.88 18.554564,-33.958832,152.4 18.553497,-33.958466,152.4 18.539261,-33.953842,182.88 18.534508,-33.952457,182.88 18.519402,-33.948452,182.88 18.5182,-33.947987,182.88 18.513622,-33.945797,182.88 18.512466,-33.94519,182.88 18.508488,-33.942856,182.88 18.507156,-33.942074,182.88 18.502602,-33.939056,182.88 18.501492,-33.938259,182.88 18.497429,-33.935326,182.88 18.496571,-33.934673,182.88 18.492508,-33.931274,182.88 18.491673,-33.930542,213.36 18.487076,-33.926331,213.36 18.486179,-33.925598,213.36 18.475809,-33.916672,213.36 18.474426,-33.91568,213.36 18.470371,-33.91333,182.88 18.468704,-33.912373,182.88 18.464598,-33.909943,182.88 18.463726,-33.909393,152.4 18.452511,-33.902367,152.4 18.449764,-33.900642,152.4 18.444786,-33.898224,152.4 18.443802,-33.897949,121.92 18.439711,-33.897491,91.44 18.438721,-33.897572,91.44 18.43523,-33.898037,60.96 18.434029,-33.898224,30.48 18.428724,-33.899963,0 18.428135,-33.900364,0 18.432484,-33.891613,30.48 18.434778,-33.888062,91.44 18.43646,-33.883163,152.4 18.43646,-33.882385,152.4 18.434372,-33.878483,213.36 18.433489,-33.877625,243.84 18.429508,-33.875504,304.8 18.428444,-33.875244,304.8 18.424072,-33.874832,365.76 18.423328,-33.874805,365.76 18.418407,-33.874992,426.72 18.417345,-33.875107,426.72 18.412582,-33.875748,457.2 18.411427,-33.875923,457.2 18.406471,-33.876984,487.68 18.405071,-33.87735,487.68 18.400194,-33.87886,518.16 18.399298,-33.879181,518.16 18.393631,-33.881603,518.16 18.392683,-33.882065,518.16 18.388252,-33.88435,518.16 18.387222,-33.884956,518.16 18.383434,-33.887512,548.64 18.382416,-33.888168,548.64 18.378782,-33.890762,548.64 18.378054,-33.891312,579.12 18.373625,-33.894836,609.6 18.373089,-33.89529,609.6 18.368912,-33.899059,609.6 18.368168,-33.899757,609.6 18.364992,-33.90303,609.6 18.364321,-33.903763,609.6 18.361574,-33.907333,579.12 18.361013,-33.908112,579.12 18.358383,-33.91214,579.12 18.357582,-33.913399,579.12 18.355576,-33.916901,579.12 18.354959,-33.917908,579.12 18.350979,-33.925003,579.12 18.35043,-33.926105,548.64 18.347569,-33.932297,518.16 18.347111,-33.933277,518.16 18.345337,-33.937885,518.16 18.344994,-33.93877,518.16 18.343187,-33.943863,518.16 18.342123,-33.947159,518.16 18.349113,-33.960323,548.64 18.352432,-33.959206,548.64 18.356781,-33.953201,518.16 18.357182,-33.951385,518.16 18.357983,-33.946171,518.16 18.358212,-33.943935,518.16 18.358938,-33.938004,518.16 18.359127,-33.936626,518.16 18.361797,-33.927521,518.16 18.362617,-33.925503,518.16 18.365307,-33.920242,518.16 18.366058,-33.918961,518.16 18.369925,-33.913971,518.16 18.371029,-33.912701,487.68 18.375978,-33.907562,487.68 18.377037,-33.906601,487.68 18.382015,-33.902134,487.68 18.38349,-33.901016,487.68 18.388815,-33.896988,487.68 18.389879,-33.896164,487.68 18.396271,-33.891541,487.68 18.39756,-33.890671,487.68 18.404005,-33.886642,487.68 18.40563,-33.885727,487.68 18.411797,-33.88298,457.2 18.413887,-33.882301,457.2 18.420639,-33.881279,396.24 18.422127,-33.881371,396.24 18.428724,-33.883072,335.28 18.430824,-33.884071,304.8 18.436235,-33.88678,274.32 18.437525,-33.887512,243.84 18.441729,-33.890991,182.88 18.442154,-33.8918,182.88 18.440439,-33.89566,121.92 18.439293,-33.89608,91.44 18.436068,-33.896851,30.48 18.435284,-33.897034,30.48 18.431969,-33.89785,0 18.431639,-33.897949,0 18.42762,-33.899712,0 18.427044,-33.900284,0 18.432426,-33.892311,30.48 18.434443,-33.888657,91.44 18.436628,-33.883392,152.4 18.436628,-33.882477,152.4 18.435394,-33.87822,182.88 18.434946,-33.877396,213.36 18.432648,-33.873322,274.32 18.432648,-33.872406,304.8 18.4359,-33.869339,396.24 18.436796,-33.869385,426.72 18.437189,-33.871994,487.68 18.436909,-33.87236,487.68 18.434029,-33.874435,487.68 18.433153,-33.874695,487.68 18.427322,-33.87529,457.2 18.425674,-33.875366,457.2 18.420485,-33.875198,457.2 18.418972,-33.875061,487.68 18.410912,-33.875134,487.68 18.409723,-33.875244,518.16 18.405014,-33.87616,518.16 18.403164,-33.876663,518.16 18.398438,-33.87825,548.64 18.397236,-33.878716,548.64 18.392429,-33.880814,518.16 18.391449,-33.881287,518.16 18.386936,-33.883884,518.16 18.386192,-33.88435,548.64 18.38209,-33.887329,548.64 18.381304,-33.887878,548.64 18.37698,-33.891239,548.64 18.375923,-33.89209,548.64 18.368805,-33.898041,609.6 18.366001,-33.900513,640.08 18.362904,-33.903763,640.08 18.362135,-33.904724,640.08 18.359642,-33.908047,640.08 18.359051,-33.908936,640.08 18.356585,-33.912689,640.08 18.355923,-33.913773,640.08 18.353838,-33.917542,640.08 18.353233,-33.918659,640.08 18.350868,-33.923172,640.08 18.350372,-33.924057,640.08 18.347797,-33.929737,640.08 18.347168,-33.932098,701.04 18.347168,-33.93576,731.52 18.347448,-33.936676,762 18.350544,-33.939888,853.44 18.351402,-33.939838,883.92 18.354567,-33.938187,944.88 18.355576,-33.937546,975.36 18.358784,-33.93565,1097.28 18.359276,-33.935349,1097.28 18.36256,-33.936302,1127.76 18.363018,-33.93742,1097.28 18.362974,-33.94194,1066.8 18.362675,-33.943611,1036.32 18.361359,-33.948872,1005.84 18.360901,-33.950409,1005.84 18.359051,-33.955994,944.88 18.35844,-33.957764,944.88 18.354959,-33.969223,853.44 18.352268,-33.973114,822.96 18.343077,-33.985519,701.04 18.339321,-33.990875,670.56 18.327717,-34.008224,579.12 18.325027,-34.011703,579.12 18.314896,-34.026009,518.16 18.313122,-34.028847,518.16 18.310204,-34.03434,518.16 18.30986,-34.035599,518.16 18.317011,-34.056335,487.68 18.317986,-34.05706,487.68 18.323626,-34.06073,487.68 18.324186,-34.06105,487.68 18.339489,-34.069794,487.68 18.344307,-34.073074,457.2 18.356495,-34.092857,518.16 18.357296,-34.094719,518.16 18.359444,-34.099136,518.16 18.359871,-34.100258,518.16 18.362503,-34.107521,579.12 18.363419,-34.108593,579.12 18.368692,-34.111633,579.12 18.370514,-34.112316,579.12 18.378067,-34.114643,579.12 18.380182,-34.115204,579.12 18.386797,-34.116898,579.12 18.388592,-34.11731,579.12 18.396149,-34.118927,579.12 18.398323,-34.119392,579.12 18.416348,-34.12307,548.64 18.421268,-34.124142,518.16 18.435688,-34.127956,548.64 18.437462,-34.128517,548.64 18.448906,-34.129868,518.16 18.451195,-34.129585,518.16 18.458576,-34.127258,518.16 18.460732,-34.126144,487.68 18.467731,-34.121346,457.2 18.468819,-34.120464,457.2 18.474632,-34.114655,457.2 18.475285,-34.113758,457.2 18.478661,-34.107895,457.2 18.479004,-34.106636,457.2 18.477802,-34.101841,457.2 18.47637,-34.100555,457.2 18.470819,-34.098038,457.2 18.470036,-34.097305,457.2 18.46953,-34.090347,457.2 18.46998,-34.088425,426.72 18.471605,-34.082016,457.2 18.471828,-34.080872,457.2 18.473118,-34.073273,426.72 18.473225,-34.07214,457.2 18.473511,-34.06636,457.2 18.473566,-34.064438,457.2 18.473623,-34.058899,487.68 18.473791,-34.054321,487.68 18.474072,-34.037247,487.68 18.473959,-34.032028,518.16 18.474464,-34.022369,487.68 18.474745,-34.02095,487.68 18.476086,-34.015255,487.68 18.476425,-34.013809,487.68 18.477995,-34.008591,487.68 18.478443,-34.007401,487.68 18.481236,-33.997566,457.2 18.481293,-33.99617,457.2 18.481464,-33.990814,426.72 18.48147,-33.989319,457.2 18.480854,-33.982224,426.72 18.480629,-33.980209,426.72 18.479633,-33.974289,426.72 18.479229,-33.972519,396.24 18.479176,-33.964325,365.76 18.479462,-33.963024,365.76 18.481302,-33.956543,335.28 18.481636,-33.955296,335.28 18.483152,-33.948898,335.28 18.484268,-33.94305,304.8 18.483656,-33.935623,274.32 18.483238,-33.934395,274.32 18.480181,-33.929123,274.32 18.47934,-33.927933,274.32 18.473398,-33.922073,243.84 18.471773,-33.920746,243.84 18.466702,-33.916611,213.36 18.465046,-33.915161,213.36 18.461235,-33.910629,182.88 18.460451,-33.909622,182.88 18.457375,-33.905716,182.88 18.456022,-33.904083,182.88 18.448343,-33.894836,213.36 18.447222,-33.893646,213.36 18.443298,-33.892868,243.84 18.442497,-33.893475,213.36 18.442457,-33.897903,182.88 18.442268,-33.898594,182.88 18.437693,-33.898956,60.96 18.43689,-33.89864,30.48 18.433857,-33.897896,0 18.433266,-33.897903,0 18.43119,-33.898315,0 18.430239,-33.898636,0 18.427044,-33.900787,0 18.42709,-33.901119,0
        </coordinates>
      </LineString>
    </Placemark>
  </Document>
</kml>