<?xml version="1.0" encoding="UTF-8"?>
<kml xmlns="http://www.opengis.net/kml/2.2">
  <Document>
    <name>-/ZTHOT - Optimised</name>
    <description><![CDATA[Optimised flight path with 153 points (decimated from 761 original points). Source format: Standard KML]]></description>
    
    <Style id="flightPath">
      <LineStyle>
        <color>ff0000ff</color>
        <width>3</width>
      </LineStyle>
    </Style>
    
    <Placemark>
      <name>Flight Path</name>
      <description><![CDATA[<div style="width:220px; text-align:center;">
<div style="width:210px; text-align:center;">
<div style=" background: #000; color: #fff; font-size: 14px; text-align:left; border: 1px solid #000; padding: 2px 6px; text-shadow: 0 1px 0 #000; box-shadow: 0 1px 3px rgba(0,0,0,0.6); background: -webkit-gradient(linear, left top, left bottom, color-stop(0%,#808080), color-stop(2%,#303030), color-stop(100%,#0c0c0c));"><span style="font-size: 14px; font-weight: bold;"><a href="javascript:void(0);" style="color: #fff; cursor: pointer;text-decoration: none;">-</a></span> / ZTHOT<br/>Cape Town Helicopters</div>

<div style="border-top: 1px solid #005c90; color: #fff; padding-bottom: 5px; box-shadow: 0 0 1px #9BE3F6 inset, 0 1px 0 #9BE3F6 inset, 0 -1px 3px rgba(0,0,0,0.4); background:rgba(43,114,173,1); background: -webkit-gradient(linear, left top, left bottom, color-stop(0%,rgba(92,184,229,1)), color-stop(100%,rgba(43,114,173,1)));">
<a style="text-decoration: none; color: rgb(255, 255, 255); font-size: 12px; width:77px; display: inline-block;" title=" Airport" href="javascript:void(0);/departures"><h3 style="padding: 0px; margin: 10px 0px 0px; font-size: 16px; ">?</h3></a>
<span style="background: url(https://www.flightradar24.com/static/images/userUI_sprite.png?14) no-repeat scroll 0 -464px rgba(0, 0, 0, 0); border: medium none; display: inline-block; height: 16px; width: 45px;"></span>
<a style="text-decoration: none; color: rgb(255, 255, 255); font-size: 12px; width:77px; display: inline-block;" title=" Airport" href="javascript:void(0);/arrivals"><h3 style="padding: 0px; margin: 10px 0px 0px; font-size: 16px;">?</h3></a>
<div style=" margin-top:10px;">
<div style="display: inline-block; font-size: 12px; padding: 0 5px;">
<div>
<span style="color: #c1eaff;" title="Scheduled Time of Departure">STD </span>
<span title="2025-10-27 09:16">09:16</span> <span title="Coordinated Universal Time">UTC</span>
</div>
<div>
<span style="color: #c1eaff;" title="Actual Time of Departure">ATD </span>
<span title="2025-10-27 09:16">09:16</span> <span title="Coordinated Universal Time">UTC</span>
</div>
</div>
<div style="display: inline-block; font-size: 12px; padding: 0 5px;">
<div>
<span style="color: #c1eaff;" title="Estimated Time of Arrival">ETA </span>
<span title="2025-10-27 09:32">09:32</span> <span title="Coordinated Universal Time">UTC</span>
</div>
</div>
</div>
<br style="clear: both;"/>
</div>

<div style="display: block;">
<table style="border-collapse: collapse; width: 100%;">
<tr style="border-right: 1px solid #dadada; ">
<td style="background: none repeat scroll 0 0 #dadada; padding: 0; width: 31px;">
<span style="background: url(https://www.flightradar24.com/static/images/userUI_sprite.png?14) no-repeat scroll -208px -464px rgba(0, 0, 0, 0); height: 26px; margin: 8px 0 0 4px; width: 23px; display: block;"></span>
</td>
<td colspan="2" style="border-bottom: 1px solid #dadada; border-left: 1px solid #dadada; color: #666; line-height: 1.1em; padding: 3px 6px; vertical-align: top; font-size: 14px;">
Aircraft<span style="float: right; font-size: 12px;">(AS50)</span><br>
<span style="color: #333; font-size: 16px; font-weight: bold; line-height: 1.3em;">Airbus Helicopters H125</span>
</td>
</tr>
<tr style="border-right: 1px solid #dadada; ">
<td style="background: none repeat scroll 0 0 #dadada; padding: 0; width: 31px;">
<td colspan="2" style="border-bottom: 1px solid #dadada; border-left: 1px solid #dadada; color: #666; line-height: 1.1em; padding: 3px 6px; vertical-align: top; font-size: 14px;">
Registration<br>
<span style="color: #333; font-size: 16px; font-weight: bold; line-height: 1.3em;"><a href="https://www.flightradar24.com/reg/zt-hot" style="text-decoration: none; color: #333;">ZT-HOT</a></span>
</td>
</tr>
</table>
</div>

</div>
</div>]]></description>
      <styleUrl>#flightPath</styleUrl>
      <LineString>
        <extrude>1</extrude>
        <tessellate>1</tessellate>
        <altitudeMode>absolute</altitudeMode>
        <coordinates>
          18.432026,-33.892914,60.96 18.436146,-33.885838,152.4 18.43626,-33.882023,182.88 18.433994,-33.878403,243.84 18.430023,-33.8769,335.28 18.425081,-33.876343,365.76 18.420925,-33.878532,457.2 18.422527,-33.882069,518.16 18.42452,-33.884445,579.12 18.422222,-33.885635,548.64 18.417091,-33.884907,579.12 18.411516,-33.884216,579.12 18.405687,-33.883484,579.12 18.399582,-33.883419,609.6 18.393692,-33.884857,609.6 18.388309,-33.887375,640.08 18.383154,-33.890854,640.08 18.378222,-33.894882,640.08 18.37389,-33.899105,670.56 18.369814,-33.903351,640.08 18.364677,-33.909023,640.08 18.360901,-33.913925,670.56 18.357761,-33.918869,701.04 18.354959,-33.924362,670.56 18.352146,-33.929924,670.56 18.349466,-33.938232,731.52 18.353004,-33.940819,822.96 18.355923,-33.939095,853.44 18.358099,-33.937042,883.92 18.360043,-33.93523,883.92 18.363031,-33.933884,914.4 18.366623,-33.934952,914.4 18.369253,-33.938049,883.92 18.371887,-33.94133,883.92 18.371315,-33.947147,853.44 18.373064,-33.952011,883.92 18.37043,-33.956772,883.92 18.358154,-33.973022,822.96 18.35182,-33.97934,822.96 18.342247,-33.989929,822.96 18.337784,-33.995937,822.96 18.334444,-34.001633,792.48 18.331585,-34.008087,822.96 18.328629,-34.013439,822.96 18.324337,-34.018143,822.96 18.319817,-34.016186,822.96 18.323513,-34.013031,883.92 18.328457,-34.015953,883.92 18.333435,-34.02095,883.92 18.339993,-34.024567,853.44 18.347397,-34.027081,822.96 18.35495,-34.028614,822.96 18.362864,-34.029007,822.96 18.370342,-34.029175,792.48 18.378109,-34.029327,792.48 18.385849,-34.029964,792.48 18.393131,-34.031479,762 18.400669,-34.032246,731.52 18.408937,-34.033081,670.56 18.415947,-34.032944,640.08 18.422783,-34.031525,579.12 18.42905,-34.029686,579.12 18.433113,-34.025822,579.12 18.435226,-34.022095,609.6 18.437805,-34.0242,670.56 18.435802,-34.027962,609.6 18.432648,-34.032715,518.16 18.432425,-34.038849,457.2 18.432928,-34.046173,426.72 18.433285,-34.052914,396.24 18.433113,-34.059013,365.76 18.432083,-34.065483,304.8 18.43111,-34.071537,243.84 18.426819,-34.074142,182.88 18.421774,-34.074738,152.4 18.423792,-34.072128,30.48 18.423801,-34.070942,0 18.435787,-33.886734,121.92 18.436146,-33.885838,152.4 18.436403,-33.882614,182.88 18.43626,-33.882023,182.88 18.434778,-33.879227,243.84 18.433994,-33.878403,243.84 18.431053,-33.877087,304.8 18.430023,-33.8769,335.28 18.426035,-33.876389,365.76 18.425081,-33.876343,365.76 18.421555,-33.877319,426.72 18.420925,-33.878532,457.2 18.42207,-33.881512,518.16 18.422527,-33.882069,518.16 18.42424,-33.884033,579.12 18.42452,-33.884445,579.12 18.423042,-33.885654,579.12 18.422222,-33.885635,548.64 18.418179,-33.885094,579.12 18.417091,-33.884907,579.12 18.412628,-33.88435,579.12 18.411516,-33.884216,579.12 18.407089,-33.883621,579.12 18.405687,-33.883484,579.12 18.400978,-33.883301,579.12 18.399582,-33.883419,609.6 18.394924,-33.884399,609.6 18.393692,-33.884857,609.6 18.389282,-33.886818,640.08 18.388309,-33.887375,640.08 18.384075,-33.890167,640.08 18.383154,-33.890854,640.08 18.37923,-33.893921,640.08 18.378222,-33.894882,640.08 18.374634,-33.898361,670.56 18.37389,-33.899105,670.56 18.370543,-33.902573,640.08 18.369814,-33.903351,640.08 18.366222,-33.907253,640.08 18.364677,-33.909023,640.08 18.361588,-33.912933,670.56 18.360901,-33.913925,670.56 18.358269,-33.917915,701.04 18.357761,-33.918869,701.04 18.355633,-33.92308,670.56 18.354959,-33.924362,670.56 18.352774,-33.928711,670.56 18.352146,-33.929924,670.56 18.349342,-33.936954,701.04 18.349466,-33.938232,731.52 18.352261,-33.940865,792.48 18.353004,-33.940819,822.96 18.355463,-33.939423,822.96 18.355923,-33.939095,853.44 18.357639,-33.937466,853.44 18.358099,-33.937042,883.92 18.359528,-33.935604,883.92 18.360043,-33.93523,883.92 18.362135,-33.934158,914.4 18.363031,-33.933884,914.4 18.365993,-33.934345,914.4 18.366623,-33.934952,914.4 18.36874,-33.937466,914.4 18.369253,-33.938049,883.92 18.371719,-33.94075,883.92 18.371887,-33.94133,883.92 18.371086,-33.946079,853.44 18.371315,-33.947147,853.44 18.373064,-33.95105,883.92 18.373064,-33.952011,883.92 18.370991,-33.956039,883.92 18.37043,-33.956772,883.92 18.36034,-33.970551,822.96 18.358154,-33.973022,822.96 18.352436,-33.978699,822.96 18.35182,-33.97934,822.96 18.346424,-33.984623,822.96 18.342247,-33.989929,822.96 18.338593,-33.994766,822.96 18.337784,-33.995937,822.96 18.334923,-34.000729,792.48 18.334444,-34.001633,792.48 18.332314,-34.006531,822.96 18.331585,-34.008087,822.96 18.329258,-34.012276,822.96 18.328629,-34.013439,822.96 18.325481,-34.017582,822.96 18.324337,-34.018143,822.96 18.32015,-34.017059,822.96 18.319817,-34.016186,822.96 18.322336,-34.013168,853.44 18.323513,-34.013031,883.92 18.327885,-34.015301,883.92 18.328457,-34.015953,883.92 18.332176,-34.019955,883.92 18.333435,-34.02095,883.92 18.338356,-34.023869,853.44 18.339993,-34.024567,853.44 18.346024,-34.026661,822.96 18.347397,-34.027081,822.96 18.353615,-34.028458,822.96 18.35495,-34.028614,822.96 18.361073,-34.028988,822.96 18.362864,-34.029007,822.96 18.368912,-34.029129,792.48 18.370342,-34.029175,792.48 18.376751,-34.029312,792.48 18.378109,-34.029327,792.48 18.384556,-34.029785,792.48 18.385849,-34.029964,792.48 18.391457,-34.031128,762 18.393131,-34.031479,762 18.398905,-34.032074,731.52 18.400669,-34.032246,731.52 18.407312,-34.032944,701.04 18.408937,-34.033081,670.56 18.414288,-34.033085,640.08 18.415947,-34.032944,640.08 18.421438,-34.031845,579.12 18.422783,-34.031525,579.12 18.427963,-34.03001,548.64 18.42905,-34.029686,579.12 18.432648,-34.026901,579.12 18.433113,-34.025822,579.12 18.434486,-34.022423,609.6 18.435226,-34.022095,609.6 18.437805,-34.023468,670.56 18.437805,-34.0242,670.56 18.436293,-34.027267,609.6 18.435802,-34.027962,609.6 18.433113,-34.031502,548.64 18.432648,-34.032715,518.16 18.432312,-34.037842,487.68 18.432425,-34.038849,457.2 18.432873,-34.044983,426.72 18.432928,-34.046173,426.72 18.433228,-34.051334,396.24 18.433285,-34.052914,396.24 18.433153,-34.057892,365.76 18.433113,-34.059013,365.76 18.432312,-34.064365,304.8 18.432083,-34.065483,304.8 18.431396,-34.070465,243.84 18.43111,-34.071537,243.84 18.42802,-34.074005,213.36 18.426819,-34.074142,182.88 18.422615,-34.074509,152.4 18.421774,-34.074738,152.4 18.423729,-34.072372,30.48 18.423792,-34.072128,30.48 18.423843,-34.071163,30.48 18.423801,-34.070942,0
        </coordinates>
      </LineString>
    </Placemark>
  </Document>
</kml>