<?xml version="1.0" encoding="UTF-8"?>
<kml xmlns="http://www.opengis.net/kml/2.2">
  <Document>
    <name>-/ZTRNW - Optimised</name>
    <description><![CDATA[Optimised flight path with 1135 points (decimated from 5675 original points). Source format: Standard KML]]></description>
    
    <Style id="flightPath">
      <LineStyle>
        <color>ff0000ff</color>
        <width>3</width>
      </LineStyle>
    </Style>
    
    <Placemark>
      <name>Flight Path</name>
      <description><![CDATA[<div style="width:220px; text-align:center;">
<div style="width:210px; text-align:center;">
<div style=" background: #000; color: #fff; font-size: 14px; text-align:left; border: 1px solid #000; padding: 2px 6px; text-shadow: 0 1px 0 #000; box-shadow: 0 1px 3px rgba(0,0,0,0.6); background: -webkit-gradient(linear, left top, left bottom, color-stop(0%,#808080), color-stop(2%,#303030), color-stop(100%,#0c0c0c));"><span style="font-size: 14px; font-weight: bold;"><a href="javascript:void(0);" style="color: #fff; cursor: pointer;text-decoration: none;">-</a></span> / ZTRNW<br/>Private owner</div>

<div style="border-top: 1px solid #005c90; color: #fff; padding-bottom: 5px; box-shadow: 0 0 1px #9BE3F6 inset, 0 1px 0 #9BE3F6 inset, 0 -1px 3px rgba(0,0,0,0.4); background:rgba(43,114,173,1); background: -webkit-gradient(linear, left top, left bottom, color-stop(0%,rgba(92,184,229,1)), color-stop(100%,rgba(43,114,173,1)));">
<a style="text-decoration: none; color: rgb(255, 255, 255); font-size: 12px; width:77px; display: inline-block;" title=" Airport" href="javascript:void(0);/departures"><h3 style="padding: 0px; margin: 10px 0px 0px; font-size: 16px; ">?</h3></a>
<span style="background: url(https://www.flightradar24.com/static/images/userUI_sprite.png?14) no-repeat scroll 0 -464px rgba(0, 0, 0, 0); border: medium none; display: inline-block; height: 16px; width: 45px;"></span>
<a style="text-decoration: none; color: rgb(255, 255, 255); font-size: 12px; width:77px; display: inline-block;" title=" Airport" href="javascript:void(0);/arrivals"><h3 style="padding: 0px; margin: 10px 0px 0px; font-size: 16px;">?</h3></a>
<div style=" margin-top:10px;">
<div style="display: inline-block; font-size: 12px; padding: 0 5px;">
<div>
<span style="color: #c1eaff;" title="Actual Time of Departure">ATD </span>
<span title="2025-12-14 07:04">07:04</span> <span title="Coordinated Universal Time">UTC</span>
</div>
</div>
<div style="display: inline-block; font-size: 12px; padding: 0 5px;">
<div>
<span style="color: #c1eaff;" title="Estimated Time of Arrival">ETA </span>
<span title="2025-12-14 08:02">08:02</span> <span title="Coordinated Universal Time">UTC</span>
</div>
</div>
</div>
<br style="clear: both;"/>
</div>

<div style="display: block;">
<table style="border-collapse: collapse; width: 100%;">
<tr style="border-right: 1px solid #dadada; ">
<td style="background: none repeat scroll 0 0 #dadada; padding: 0; width: 31px;">
<span style="background: url(https://www.flightradar24.com/static/images/userUI_sprite.png?14) no-repeat scroll -208px -464px rgba(0, 0, 0, 0); height: 26px; margin: 8px 0 0 4px; width: 23px; display: block;"></span>
</td>
<td colspan="2" style="border-bottom: 1px solid #dadada; border-left: 1px solid #dadada; color: #666; line-height: 1.1em; padding: 3px 6px; vertical-align: top; font-size: 14px;">
Aircraft<span style="float: right; font-size: 12px;">(EC20)</span><br>
<span style="color: #333; font-size: 16px; font-weight: bold; line-height: 1.3em;">Airbus Helicopters H120</span>
</td>
</tr>
<tr style="border-right: 1px solid #dadada; ">
<td style="background: none repeat scroll 0 0 #dadada; padding: 0; width: 31px;">
<td colspan="2" style="border-bottom: 1px solid #dadada; border-left: 1px solid #dadada; color: #666; line-height: 1.1em; padding: 3px 6px; vertical-align: top; font-size: 14px;">
Registration<br>
<span style="color: #333; font-size: 16px; font-weight: bold; line-height: 1.3em;"><a href="https://www.flightradar24.com/reg/zt-rnw" style="text-decoration: none; color: #333;">ZT-RNW</a></span>
</td>
</tr>
</table>
</div>

</div>
</div>]]></description>
      <styleUrl>#flightPath</styleUrl>
      <LineString>
        <extrude>1</extrude>
        <tessellate>1</tessellate>
        <altitudeMode>absolute</altitudeMode>
        <coordinates>
          18.427099,-33.901108,15.24 18.427906,-33.898922,7.62 18.429173,-33.897125,30.48 18.43071,-33.894779,45.72 18.432705,-33.891403,76.2 18.435345,-33.886909,114.3 18.436571,-33.88266,152.4 18.434105,-33.87822,175.26 18.429337,-33.875088,198.12 18.424473,-33.872341,251.46 18.420261,-33.868973,320.04 18.416405,-33.866009,388.62 18.411629,-33.864441,449.58 18.407135,-33.865265,495.3 18.402786,-33.867126,563.88 18.398323,-33.869125,617.22 18.394421,-33.871078,678.18 18.390945,-33.873322,731.52 18.387638,-33.875565,784.86 18.383961,-33.878391,807.72 18.380182,-33.881653,838.2 18.376465,-33.884907,861.06 18.369141,-33.891998,922.02 18.364506,-33.896641,944.88 18.360615,-33.901016,960.12 18.357258,-33.905869,967.74 18.354624,-33.910812,975.36 18.352375,-33.915634,990.6 18.350372,-33.920521,998.22 18.348141,-33.926155,998.22 18.344309,-33.935989,990.6 18.342852,-33.941666,998.22 18.341961,-33.947521,998.22 18.341217,-33.95348,1013.46 18.340988,-33.95916,1021.08 18.340666,-33.965149,1036.32 18.340441,-33.970825,1043.94 18.338413,-33.976757,1036.32 18.334612,-33.982452,1005.84 18.330914,-33.988174,998.22 18.326878,-33.993713,982.98 18.323593,-33.998684,990.6 18.32329,-34.004379,982.98 18.323065,-34.010376,975.36 18.323177,-34.015915,967.74 18.326485,-34.020859,944.88 18.330803,-34.024937,929.64 18.33506,-34.02887,922.02 18.339432,-34.033401,914.4 18.345037,-34.037018,922.02 18.350756,-34.039444,929.64 18.355408,-34.042786,952.5 18.355352,-34.048462,914.4 18.353176,-34.054264,876.3 18.350979,-34.060455,853.44 18.347569,-34.069767,807.72 18.345108,-34.075306,800.1 18.342684,-34.0811,800.1 18.340816,-34.086807,807.72 18.339386,-34.092113,815.34 18.338356,-34.097885,815.34 18.336926,-34.103703,822.96 18.334724,-34.109253,838.2 18.332291,-34.11483,868.68 18.329847,-34.120239,906.78 18.326969,-34.125538,922.02 18.323135,-34.130611,891.54 18.318615,-34.135265,899.16 18.314713,-34.139923,906.78 18.313032,-34.145462,891.54 18.31398,-34.150955,899.16 18.31673,-34.155853,891.54 18.319988,-34.161335,861.06 18.323122,-34.166977,838.2 18.326149,-34.172058,815.34 18.329716,-34.177071,800.1 18.333771,-34.182175,784.86 18.339901,-34.185452,762 18.347055,-34.18689,723.9 18.35339,-34.190781,678.18 18.356585,-34.196228,670.56 18.358267,-34.201996,693.42 18.35947,-34.208027,693.42 18.360565,-34.213806,685.8 18.362904,-34.225483,670.56 18.365135,-34.237774,662.94 18.367964,-34.248505,647.7 18.370262,-34.254547,632.46 18.372631,-34.260399,617.22 18.374298,-34.2659,601.98 18.376146,-34.271347,586.74 18.378582,-34.27697,586.74 18.381136,-34.282013,594.36 18.384762,-34.287308,594.36 18.38887,-34.291946,579.12 18.39229,-34.297531,579.12 18.394981,-34.302841,571.5 18.397808,-34.308578,556.26 18.403389,-34.317764,548.64 18.409163,-34.323624,548.64 18.414207,-34.327744,541.02 18.419924,-34.331818,533.4 18.426476,-34.336044,510.54 18.432999,-34.339725,495.3 18.43935,-34.343029,472.44 18.445652,-34.34642,457.2 18.452911,-34.350758,464.82 18.458519,-34.355133,480.06 18.463028,-34.359512,518.16 18.467009,-34.36377,541.02 18.470936,-34.367702,586.74 18.47508,-34.371506,617.22 18.47962,-34.375351,647.7 18.485126,-34.378178,685.8 18.491783,-34.378418,708.66 18.497669,-34.376587,708.66 18.502293,-34.374172,716.28 18.505726,-34.370773,701.04 18.508095,-34.366837,670.56 18.508543,-34.362671,640.08 18.505669,-34.359833,601.98 18.50172,-34.360672,548.64 18.499889,-34.364304,518.16 18.497614,-34.367981,518.16 18.492456,-34.369629,525.78 18.490448,-34.365326,495.3 18.495428,-34.362991,457.2 18.499743,-34.360199,510.54 18.500135,-34.35553,518.16 18.497221,-34.350494,510.54 18.49369,-34.34523,541.02 18.49128,-34.33992,556.26 18.489597,-34.334381,571.5 18.489246,-34.328365,586.74 18.489037,-34.322342,601.98 18.489037,-34.313599,601.98 18.489475,-34.305042,647.7 18.489876,-34.298573,655.32 18.491077,-34.283676,647.7 18.491392,-34.274826,640.08 18.490906,-34.268593,647.7 18.489819,-34.262306,640.08 18.489094,-34.255875,609.6 18.488674,-34.249088,586.74 18.488331,-34.241962,571.5 18.487692,-34.235092,533.4 18.48674,-34.2285,533.4 18.485842,-34.222321,525.78 18.484552,-34.216278,525.78 18.483238,-34.209888,525.78 18.481865,-34.20351,541.02 18.48032,-34.19746,556.26 18.478388,-34.19046,579.12 18.477827,-34.184097,586.74 18.47777,-34.178421,586.74 18.477434,-34.171875,586.74 18.477173,-34.165573,594.36 18.476425,-34.15416,609.6 18.476032,-34.147934,609.6 18.475809,-34.141754,617.22 18.475399,-34.135311,617.22 18.47508,-34.120697,563.88 18.476658,-34.114552,556.26 18.480293,-34.108978,518.16 18.486385,-34.105614,472.44 18.493073,-34.103714,426.72 18.499464,-34.102112,403.86 18.505461,-34.100281,373.38 18.511066,-34.098404,342.9 18.517288,-34.096619,312.42 18.523062,-34.0952,289.56 18.528843,-34.093929,251.46 18.533936,-34.095837,236.22 18.53898,-34.095337,228.6 18.544754,-34.092865,220.98 18.550644,-34.091366,213.36 18.556824,-34.090019,182.88 18.563364,-34.087967,114.3 18.570314,-34.085678,83.82 18.577488,-34.083664,76.2 18.584118,-34.081963,76.2 18.595047,-34.079498,76.2 18.607407,-34.077354,76.2 18.614763,-34.076706,68.58 18.621426,-34.076191,83.82 18.638306,-34.075073,106.68 18.649464,-34.074421,114.3 18.656673,-34.074284,114.3 18.663866,-34.074234,99.06 18.671432,-34.074463,83.82 18.678888,-34.074921,76.2 18.686232,-34.075333,68.58 18.693966,-34.075333,76.2 18.701084,-34.075104,83.82 18.712635,-34.074795,106.68 18.723793,-34.075027,121.92 18.730736,-34.075882,121.92 18.737984,-34.076286,137.16 18.744335,-34.074097,160.02 18.749681,-34.069656,190.5 18.754349,-34.065624,228.6 18.758482,-34.062012,274.32 18.763103,-34.058037,358.14 18.767624,-34.054359,411.48 18.772272,-34.050842,441.96 18.776869,-34.047272,464.82 18.781986,-34.043278,457.2 18.788246,-34.039764,457.2 18.794357,-34.037155,464.82 18.800747,-34.034409,472.44 18.807049,-34.032013,472.44 18.813114,-34.029873,472.44 18.819748,-34.027176,487.68 18.825577,-34.024475,480.06 18.831711,-34.020981,480.06 18.837433,-34.017025,487.68 18.842697,-34.01265,495.3 18.847607,-34.007767,502.92 18.851585,-34.003098,510.54 18.854837,-33.997559,541.02 18.857752,-33.992157,541.02 18.860611,-33.98616,556.26 18.863581,-33.979614,556.26 18.866386,-33.972939,548.64 18.868275,-33.967213,541.02 18.870163,-33.961254,556.26 18.871937,-33.955482,556.26 18.874512,-33.949493,556.26 18.877602,-33.943985,548.64 18.881264,-33.938583,548.64 18.885666,-33.933563,556.26 18.891621,-33.928947,556.26 18.897774,-33.925735,571.5 18.903809,-33.923126,586.74 18.910273,-33.920792,601.98 18.917027,-33.919403,624.84 18.924006,-33.918732,647.7 18.931103,-33.918797,670.56 18.937397,-33.918148,678.18 18.943577,-33.91568,670.56 18.949173,-33.911224,662.94 18.953882,-33.906235,662.94 18.958199,-33.901566,640.08 18.971371,-33.889206,594.36 18.993511,-33.87735,579.12 19.010439,-33.878448,632.46 19.026146,-33.879879,640.08 19.046257,-33.880646,609.6 19.064026,-33.884308,586.74 19.072939,-33.887421,586.74 19.080225,-33.889618,571.5 19.087429,-33.892311,541.02 19.097614,-33.897476,525.78 19.106712,-33.93523,609.6 19.114529,-33.933838,533.4 19.123421,-33.914608,259.08 19.090931,-33.89003,525.78 19.084148,-33.887741,525.78 19.066944,-33.882721,502.92 19.035439,-33.874603,472.44 19.009823,-33.866089,472.44 18.988037,-33.856094,533.4 18.971203,-33.84819,548.64 18.961729,-33.844437,548.64 18.941271,-33.836334,579.12 18.928356,-33.830906,586.74 18.921429,-33.828323,601.98 18.914394,-33.825882,601.98 18.899059,-33.82048,609.6 18.889332,-33.816429,617.22 18.883255,-33.813354,632.46 18.876686,-33.809772,640.08 18.870924,-33.806625,647.7 18.863581,-33.802734,640.08 18.856716,-33.799763,655.32 18.850128,-33.797882,662.94 18.843098,-33.796181,685.8 18.835831,-33.794643,693.42 18.82939,-33.793121,708.66 18.822495,-33.791336,701.04 18.815937,-33.789505,708.66 18.801956,-33.785194,670.56 18.794525,-33.783096,640.08 18.785948,-33.780853,624.84 18.778782,-33.77919,609.6 18.771973,-33.777512,617.22 18.756073,-33.773575,640.08 18.749458,-33.772293,632.46 18.742283,-33.771378,632.46 18.73518,-33.770901,617.22 18.727598,-33.77092,609.6 18.720474,-33.770855,601.98 18.70854,-33.771194,579.12 18.701363,-33.771694,579.12 18.694639,-33.772156,579.12 18.687351,-33.772522,571.5 18.668346,-33.773647,548.64 18.661062,-33.77417,548.64 18.64436,-33.775497,556.26 18.630009,-33.776955,541.02 18.622835,-33.778061,518.16 18.616165,-33.779297,510.54 18.608093,-33.780399,495.3 18.600655,-33.781143,487.68 18.593016,-33.782272,510.54 18.584805,-33.783379,502.92 18.576927,-33.784378,487.68 18.569527,-33.785427,487.68 18.562466,-33.786758,480.06 18.555737,-33.788078,487.68 18.548342,-33.789276,480.06 18.540916,-33.790501,472.44 18.534889,-33.791519,548.64 18.528442,-33.792549,487.68 18.519459,-33.794365,472.44 18.512804,-33.796097,472.44 18.506069,-33.798275,472.44 18.499126,-33.800446,457.2 18.485584,-33.80479,419.1 18.472939,-33.809914,434.34 18.46796,-33.815079,403.86 18.464207,-33.821777,381 18.460674,-33.827637,381 18.455069,-33.836105,388.62 18.427391,-33.899292,30.48 18.427996,-33.897949,30.48 18.429621,-33.896072,45.72 18.431339,-33.894032,38.1 18.434666,-33.890808,91.44 18.439808,-33.888538,152.4 18.4445,-33.889984,198.12 18.44799,-33.893379,220.98 18.45137,-33.896896,281.94 18.454172,-33.900009,289.56 18.45961,-33.906006,251.46 18.463554,-33.909676,266.7 18.467344,-33.913284,289.56 18.470478,-33.917168,304.8 18.473063,-33.921478,335.28 18.474998,-33.926247,335.28 18.477322,-33.931046,342.9 18.479845,-33.935715,312.42 18.481863,-33.940384,335.28 18.48332,-33.945145,320.04 18.483639,-33.950592,320.04 18.483009,-33.955482,327.66 18.482208,-33.960602,335.28 18.481522,-33.965725,342.9 18.480068,-33.970642,350.52 18.477802,-33.975685,365.76 18.477173,-33.980713,358.14 18.477402,-33.985554,373.38 18.478275,-33.990555,358.14 18.479733,-33.995041,365.76 18.483124,-33.998169,373.38 18.486671,-34.000496,373.38 18.491421,-34.000359,388.62 18.493252,-33.996868,411.48 18.490158,-33.993851,403.86 18.48674,-33.995087,419.1 18.488365,-33.997833,426.72 18.49313,-33.997879,441.96 18.497486,-33.998402,457.2 18.498173,-34.001568,441.96 18.494053,-34.003803,419.1 18.488813,-34.00296,419.1 18.488274,-33.998264,381 18.492682,-33.994675,358.14 18.498974,-33.992489,342.9 18.505348,-33.990921,320.04 18.512192,-33.989326,304.8 18.518887,-33.98793,274.32 18.525696,-33.986252,266.7 18.532047,-33.98439,281.94 18.538252,-33.98291,274.32 18.544521,-33.982204,266.7 18.551273,-33.982388,266.7 18.558207,-33.982773,251.46 18.565044,-33.983047,266.7 18.572107,-33.983231,266.7 18.578739,-33.983551,251.46 18.585491,-33.984016,243.84 18.600637,-33.985428,213.36 18.60714,-33.987259,220.98 18.613644,-33.989277,228.6 18.619753,-33.991379,220.98 18.626232,-33.99398,243.84 18.63224,-33.99654,243.84 18.638138,-33.998932,266.7 18.643799,-34.001057,289.56 18.64974,-34.003143,297.18 18.65593,-34.005573,297.18 18.66663,-34.009529,297.18 18.673227,-34.011337,312.42 18.679785,-34.012756,320.04 18.68651,-34.013992,312.42 18.693573,-34.015366,320.04 18.705425,-34.017536,327.66 18.71212,-34.018887,335.28 18.719246,-34.020447,358.14 18.725796,-34.02177,350.52 18.732719,-34.023029,358.14 18.74033,-34.024284,342.9 18.747328,-34.025803,342.9 18.754278,-34.028412,342.9 18.7605,-34.03125,342.9 18.766422,-34.03392,381 18.772602,-34.036343,403.86 18.778997,-34.037659,426.72 18.785837,-34.039627,419.1 18.791542,-34.041836,419.1 18.797379,-34.044537,441.96 18.802757,-34.04747,441.96 18.808365,-34.051239,457.2 18.813801,-34.055195,464.82 18.819065,-34.059109,457.2 18.8241,-34.062969,472.44 18.829651,-34.066833,480.06 18.834801,-34.069813,495.3 18.840992,-34.073044,533.4 18.847494,-34.076797,525.78 18.853323,-34.08078,525.78 18.858986,-34.085266,541.02 18.864269,-34.089787,548.64 18.869915,-34.094284,533.4 18.875427,-34.098492,518.16 18.881378,-34.102818,495.3 18.887329,-34.106915,495.3 18.896877,-34.113419,502.92 18.901691,-34.117809,548.64 18.904266,-34.122978,556.26 18.907471,-34.128433,579.12 18.912506,-34.132519,617.22 18.917784,-34.136307,647.7 18.922213,-34.140244,693.42 18.925838,-34.144997,708.66 18.929892,-34.149673,739.14 18.933907,-34.15477,739.14 18.938131,-34.158829,739.14 18.944035,-34.161755,739.14 18.950272,-34.164593,769.62 18.956394,-34.167061,784.86 18.962795,-34.169357,784.86 18.969154,-34.171669,777.24 18.983116,-34.177258,746.76 18.989252,-34.180481,746.76 18.995018,-34.184052,739.14 19.001135,-34.18808,716.28 19.006741,-34.192062,701.04 19.013634,-34.176865,586.74 18.993587,-34.166271,640.08 18.98695,-34.164036,670.56 18.979855,-34.162079,693.42 18.973669,-34.160568,723.9 18.967381,-34.159149,723.9 18.960171,-34.157799,708.66 18.952873,-34.156631,693.42 18.946037,-34.15519,701.04 18.9394,-34.153374,693.42 18.933086,-34.150406,693.42 18.928242,-34.146484,662.94 18.925072,-34.141708,601.98 18.921547,-34.136894,548.64 18.917,-34.132095,502.92 18.911955,-34.128067,464.82 18.905754,-34.124374,441.96 18.89986,-34.121532,434.34 18.893738,-34.1185,426.72 18.88847,-34.115204,411.48 18.883593,-34.111633,411.48 18.87838,-34.107605,419.1 18.873671,-34.103577,426.72 18.868851,-34.099182,419.1 18.86459,-34.095154,419.1 18.860331,-34.090897,419.1 18.857059,-34.08662,419.1 18.855286,-34.081421,419.1 18.855173,-34.075836,419.1 18.858089,-34.071957,411.48 18.863182,-34.072189,396.24 18.864956,-34.075958,373.38 18.861065,-34.077866,335.28 18.8554,-34.076286,335.28 18.851223,-34.073444,350.52 18.847549,-34.069473,373.38 18.844187,-34.065903,396.24 18.840937,-34.062149,419.1 18.842869,-34.058407,411.48 18.847326,-34.05954,403.86 18.847942,-34.063431,411.48 18.84573,-34.067162,403.86 18.840992,-34.066681,396.24 18.839664,-34.062737,426.72 18.842001,-34.06398,373.38 18.838634,-34.064365,350.52 18.840408,-34.063065,342.9 18.837797,-34.064941,320.04 18.83292,-34.063431,342.9 18.828213,-34.06105,365.76 18.823223,-34.058762,381 18.820028,-34.055054,411.48 18.817062,-34.051239,419.1 18.811798,-34.0504,403.86 18.807192,-34.052261,396.24 18.801643,-34.054001,411.48 18.796921,-34.051983,411.48 18.79587,-34.047318,411.48 18.793373,-34.044491,426.72 18.788975,-34.045166,403.86 18.783417,-34.046772,365.76 18.777988,-34.048828,335.28 18.772215,-34.050385,320.04 18.765678,-34.04961,304.8 18.759727,-34.047237,312.42 18.753147,-34.044861,312.42 18.746738,-34.042953,312.42 18.739761,-34.041183,312.42 18.732754,-34.039398,312.42 18.723278,-34.036388,312.42 18.716667,-34.033905,297.18 18.710003,-34.031548,312.42 18.703594,-34.029594,327.66 18.697386,-34.027084,335.28 18.691063,-34.024426,342.9 18.684998,-34.022099,350.52 18.678551,-34.019348,342.9 18.672752,-34.016605,335.28 18.666515,-34.013718,335.28 18.660393,-34.01088,327.66 18.654957,-34.00832,297.18 18.648891,-34.005665,281.94 18.643112,-34.003384,274.32 18.637016,-34.001312,259.08 18.630514,-33.999069,243.84 18.623943,-33.996773,228.6 18.61751,-33.994675,236.22 18.611288,-33.992798,228.6 18.60466,-33.990444,236.22 18.59848,-33.987743,228.6 18.59223,-33.984695,259.08 18.586292,-33.981968,259.08 18.580124,-33.978882,251.46 18.573818,-33.975685,251.46 18.567343,-33.972748,251.46 18.561121,-33.970001,251.46 18.554592,-33.967026,259.08 18.548117,-33.96405,251.46 18.541782,-33.961441,266.7 18.536066,-33.959335,274.32 18.527927,-33.956272,274.32 18.52129,-33.953945,266.7 18.514194,-33.951477,281.94 18.507729,-33.949059,289.56 18.500862,-33.946125,289.56 18.493633,-33.942535,281.94 18.487972,-33.938416,289.56 18.482534,-33.933792,281.94 18.477116,-33.928947,281.94 18.470316,-33.922531,266.7 18.465157,-33.917633,259.08 18.460293,-33.912327,251.46 18.455944,-33.907253,228.6 18.451023,-33.902737,160.02 18.444981,-33.900742,129.54 18.439007,-33.89957,99.06 18.433285,-33.899525,68.58 18.429846,-33.900192,38.1 18.428307,-33.900551,15.24 18.427219,-33.90004,0 18.427435,-33.899597,7.62 18.428389,-33.89827,15.24 18.428669,-33.897903,22.86 18.429846,-33.896072,38.1 18.430023,-33.895802,38.1 18.431528,-33.893372,60.96 18.431919,-33.892731,68.58 18.433657,-33.889755,91.44 18.434086,-33.889004,99.06 18.436146,-33.885326,129.54 18.436432,-33.884537,129.54 18.435974,-33.880718,160.02 18.435452,-33.879776,160.02 18.432367,-33.876892,175.26 18.431248,-33.876205,182.88 18.427492,-33.874054,220.98 18.426426,-33.873459,228.6 18.422699,-33.870991,281.94 18.421999,-33.870438,289.56 18.418915,-33.867828,350.52 18.418121,-33.867218,358.14 18.414711,-33.865173,411.48 18.41387,-33.864853,419.1 18.409595,-33.864613,472.44 18.408937,-33.864761,480.06 18.405071,-33.866135,525.78 18.404285,-33.866501,541.02 18.400841,-33.868011,586.74 18.400097,-33.868336,594.36 18.396662,-33.869934,647.7 18.395863,-33.870338,655.32 18.392963,-33.871994,701.04 18.39229,-33.872406,708.66 18.389488,-33.874283,754.38 18.388824,-33.87476,762 18.385963,-33.876808,800.1 18.385448,-33.877182,800.1 18.382473,-33.879601,822.96 18.381752,-33.88028,822.96 18.378782,-33.882889,845.82 18.377941,-33.883621,845.82 18.374466,-33.88678,868.68 18.372917,-33.888214,883.92 18.367596,-33.893475,937.26 18.366114,-33.894974,944.88 18.362961,-33.898315,952.5 18.362217,-33.899155,952.5 18.359219,-33.902893,960.12 18.358612,-33.903763,960.12 18.356209,-33.907764,967.74 18.355633,-33.90889,967.74 18.353634,-33.912888,982.98 18.353233,-33.913773,982.98 18.351597,-33.917496,990.6 18.351059,-33.918751,990.6 18.349457,-33.922894,998.22 18.348961,-33.924088,998.22 18.345451,-33.932766,998.22 18.345051,-33.933743,998.22 18.343693,-33.937958,990.6 18.343357,-33.93924,990.6 18.342516,-33.94368,998.22 18.342348,-33.945007,998.22 18.341562,-33.950134,998.22 18.341446,-33.951107,1005.84 18.341103,-33.955807,1013.46 18.341103,-33.956783,1013.46 18.340816,-33.961441,1028.7 18.340759,-33.96265,1028.7 18.340553,-33.967621,1043.94 18.340498,-33.968811,1043.94 18.340073,-33.973263,1043.94 18.339615,-33.974567,1043.94 18.336855,-33.979065,1021.08 18.336237,-33.980026,1021.08 18.333206,-33.984623,1005.84 18.332426,-33.98584,1005.84 18.329372,-33.990395,990.6 18.328514,-33.991512,990.6 18.325367,-33.995609,975.36 18.32468,-33.99654,982.98 18.323233,-34.000809,990.6 18.32325,-34.001896,990.6 18.32325,-34.007015,975.36 18.323193,-34.007805,975.36 18.322964,-34.012508,967.74 18.322964,-34.013763,967.74 18.324165,-34.018234,960.12 18.32486,-34.019119,952.5 18.328171,-34.022469,937.26 18.329176,-34.023422,937.26 18.332405,-34.026428,929.64 18.333206,-34.027172,929.64 18.336868,-34.030708,922.02 18.337555,-34.031406,922.02 18.341503,-34.035038,922.02 18.342684,-34.035782,922.02 18.347111,-34.037971,922.02 18.348177,-34.038437,922.02 18.352947,-34.040485,937.26 18.353895,-34.041092,944.88 18.356152,-34.044907,952.5 18.356136,-34.045944,944.88 18.354399,-34.050842,899.16 18.353951,-34.052124,891.54 18.352325,-34.05661,868.68 18.351917,-34.057804,868.68 18.350258,-34.062599,845.82 18.349802,-34.063934,845.82 18.346596,-34.072094,800.1 18.346024,-34.073353,792.48 18.344078,-34.077587,800.1 18.34358,-34.07872,800.1 18.3419,-34.083344,800.1 18.341562,-34.084351,800.1 18.340218,-34.088928,807.72 18.339937,-34.089935,807.72 18.338984,-34.094376,807.72 18.338814,-34.095417,815.34 18.337864,-34.100327,815.34 18.337612,-34.10133,822.96 18.336126,-34.106049,822.96 18.335508,-34.107513,830.58 18.33366,-34.111588,845.82 18.333206,-34.112736,853.44 18.33149,-34.116646,883.92 18.330856,-34.117996,891.54 18.328972,-34.122093,914.4 18.328167,-34.123444,914.4 18.325756,-34.12738,899.16 18.324738,-34.128704,899.16 18.321362,-34.132565,899.16 18.320618,-34.133312,899.16 18.316956,-34.13699,876.3 18.316212,-34.137825,876.3 18.313705,-34.142029,906.78 18.313408,-34.142948,906.78 18.313122,-34.147743,891.54 18.313351,-34.148861,899.16 18.314953,-34.152908,891.54 18.315554,-34.154022,891.54 18.317986,-34.157845,883.92 18.318638,-34.15892,876.3 18.321159,-34.163452,838.2 18.321648,-34.16436,845.82 18.32428,-34.169018,830.58 18.32486,-34.169998,822.96 18.327549,-34.174118,807.72 18.328228,-34.175022,807.72 18.331417,-34.179337,792.48 18.332146,-34.180344,784.86 18.335838,-34.183773,777.24 18.337246,-34.184555,769.62 18.342705,-34.185963,754.38 18.344309,-34.186249,739.14 18.350201,-34.188198,701.04 18.351316,-34.188904,693.42 18.354836,-34.192711,670.56 18.355579,-34.19397,662.94 18.35737,-34.198517,685.8 18.357761,-34.199799,693.42 18.358727,-34.204258,693.42 18.358995,-34.205658,693.42 18.359837,-34.210098,685.8 18.36006,-34.211151,685.8 18.361069,-34.216095,685.8 18.361301,-34.217384,678.18 18.36348,-34.229095,670.56 18.364096,-34.23262,662.94 18.366966,-34.245129,655.32 18.36729,-34.246353,655.32 18.368805,-34.250977,640.08 18.369198,-34.251972,640.08 18.371201,-34.256676,624.84 18.371775,-34.258072,624.84 18.373344,-34.262558,609.6 18.373661,-34.263611,601.98 18.374914,-34.268005,594.36 18.375263,-34.269058,594.36 18.377094,-34.273712,586.74 18.377495,-34.274689,594.36 18.379454,-34.278809,586.74 18.380014,-34.279907,586.74 18.382416,-34.284142,594.36 18.383102,-34.28521,594.36 18.386574,-34.289246,594.36 18.38747,-34.290253,586.74 18.39044,-34.294281,571.5 18.390999,-34.295128,571.5 18.393412,-34.299728,579.12 18.393974,-34.300808,579.12 18.396263,-34.305416,563.88 18.396721,-34.306347,563.88 18.400362,-34.313232,548.64 18.400755,-34.313873,548.64 18.406391,-34.321102,548.64 18.407021,-34.321709,548.64 18.411083,-34.32534,541.02 18.412113,-34.326176,541.02 18.416561,-34.329483,541.02 18.417683,-34.330261,533.4 18.423063,-34.333878,525.78 18.424015,-34.334465,525.78 18.428892,-34.337448,502.92 18.430367,-34.33828,502.92 18.435732,-34.34111,487.68 18.437004,-34.34177,480.06 18.442039,-34.344471,472.44 18.442955,-34.344936,464.82 18.448162,-34.34787,457.2 18.449364,-34.348568,464.82 18.455429,-34.352573,464.82 18.456415,-34.353333,464.82 18.460451,-34.356903,495.3 18.461266,-34.357693,502.92 18.46471,-34.361298,525.78 18.465384,-34.36203,533.4 18.468578,-34.365417,563.88 18.469419,-34.366287,571.5 18.472557,-34.369217,601.98 18.473511,-34.370041,609.6 18.477001,-34.37315,632.46 18.477802,-34.373894,640.08 18.48175,-34.376778,662.94 18.482666,-34.377243,670.56 18.487701,-34.378548,693.42 18.488756,-34.378601,701.04 18.494339,-34.37785,708.66 18.495369,-34.377525,708.66 18.499519,-34.375717,716.28 18.500519,-34.375244,716.28 18.503778,-34.373016,708.66 18.504564,-34.372192,708.66 18.50687,-34.36919,685.8 18.507385,-34.368305,678.18 18.508587,-34.365234,662.94 18.508713,-34.364365,655.32 18.507843,-34.361233,624.84 18.507198,-34.360565,617.22 18.504009,-34.359695,579.12 18.503162,-34.359879,571.5 18.50069,-34.362022,525.78 18.50036,-34.362717,518.16 18.499184,-34.366013,518.16 18.498734,-34.366745,518.16 18.495998,-34.369099,518.16 18.495426,-34.369377,518.16 18.490505,-34.368355,518.16 18.490046,-34.367249,510.54 18.491993,-34.364025,480.06 18.493185,-34.363586,464.82 18.497501,-34.362167,480.06 18.49823,-34.361698,487.68 18.500462,-34.358391,518.16 18.500528,-34.357498,518.16 18.49926,-34.353504,510.54 18.49851,-34.35228,510.54 18.495712,-34.348431,525.78 18.495083,-34.347546,525.78 18.492682,-34.343124,548.64 18.492279,-34.342239,548.64 18.490448,-34.337723,563.88 18.490103,-34.33667,571.5 18.489317,-34.331863,579.12 18.489304,-34.330784,586.74 18.489189,-34.326038,594.36 18.489132,-34.32478,601.98 18.488926,-34.319687,609.6 18.488903,-34.318634,609.6 18.489317,-34.308517,632.46 18.489374,-34.307465,640.08 18.489597,-34.302429,655.32 18.48971,-34.301147,655.32 18.490664,-34.289932,647.7 18.490944,-34.286179,647.7 18.491392,-34.278809,647.7 18.491447,-34.277344,647.7 18.491306,-34.272038,640.08 18.491192,-34.270828,640.08 18.490448,-34.266079,647.7 18.490276,-34.264961,647.7 18.489487,-34.25972,624.84 18.489361,-34.258629,624.84 18.488903,-34.253231,594.36 18.488813,-34.251389,594.36 18.48856,-34.246387,586.74 18.488478,-34.244522,579.12 18.48814,-34.239258,541.02 18.487972,-34.237701,541.02 18.487356,-34.232712,548.64 18.487186,-34.231491,541.02 18.486443,-34.226322,533.4 18.486214,-34.224834,525.78 18.485298,-34.219711,525.78 18.485058,-34.218613,525.78 18.483982,-34.21352,525.78 18.483753,-34.212265,525.78 18.482647,-34.207169,525.78 18.482424,-34.20607,533.4 18.48119,-34.20076,548.64 18.480949,-34.199741,556.26 18.479677,-34.195129,563.88 18.479284,-34.193802,563.88 18.477995,-34.187897,579.12 18.477882,-34.186478,579.12 18.47777,-34.181717,586.74 18.477802,-34.180561,586.74 18.477631,-34.175812,586.74 18.477573,-34.174278,586.74 18.477345,-34.169018,586.74 18.477266,-34.167847,586.74 18.47683,-34.16008,609.6 18.47665,-34.156494,609.6 18.476202,-34.151733,609.6 18.476145,-34.15036,609.6 18.475977,-34.145599,609.6 18.475971,-34.144203,609.6 18.475641,-34.139328,617.22 18.475571,-34.137825,617.22 18.474968,-34.126694,594.36 18.474884,-34.123211,579.12 18.475584,-34.118042,556.26 18.475914,-34.116924,548.64 18.477715,-34.11232,541.02 18.478388,-34.111221,541.02 18.482199,-34.107468,502.92 18.483713,-34.106644,487.68 18.488869,-34.104858,457.2 18.490276,-34.10445,441.96 18.495539,-34.103073,419.1 18.496685,-34.102818,411.48 18.501949,-34.101421,388.62 18.503036,-34.101097,388.62 18.507843,-34.099468,358.14 18.508823,-34.099136,358.14 18.513565,-34.097652,327.66 18.514881,-34.097279,327.66 18.519402,-34.096069,304.8 18.520603,-34.095745,297.18 18.525181,-34.094673,274.32 18.526537,-34.094376,266.7 18.531189,-34.094208,243.84 18.532085,-34.09465,243.84 18.535652,-34.09621,236.22 18.536682,-34.096069,236.22 18.541145,-34.094345,228.6 18.542511,-34.093735,220.98 18.546827,-34.092224,213.36 18.548172,-34.091858,213.36 18.552937,-34.090942,213.36 18.554283,-34.090668,205.74 18.559328,-34.089294,160.02 18.560505,-34.088928,144.78 18.565922,-34.087086,99.06 18.567511,-34.086594,91.44 18.573284,-34.084854,76.2 18.574734,-34.084431,76.2 18.580179,-34.082977,76.2 18.581411,-34.082611,76.2 18.587322,-34.081219,83.82 18.588474,-34.080917,83.82 18.603441,-34.077805,76.2 18.604431,-34.077682,76.2 18.610497,-34.077076,76.2 18.611813,-34.076984,68.58 18.617363,-34.076519,76.2 18.618908,-34.076378,76.2 18.624401,-34.076004,83.82 18.628521,-34.075771,91.44 18.645256,-34.0746,114.3 18.646601,-34.074554,121.92 18.652267,-34.074375,114.3 18.653608,-34.074371,114.3 18.659214,-34.074234,106.68 18.660622,-34.074238,106.68 18.666801,-34.074284,91.44 18.668404,-34.074329,91.44 18.674183,-34.074608,76.2 18.675804,-34.074692,76.2 18.68145,-34.075119,68.58 18.683092,-34.075195,68.58 18.689346,-34.075401,76.2 18.690716,-34.075424,76.2 18.696899,-34.07526,83.82 18.698158,-34.075214,83.82 18.704056,-34.074966,91.44 18.705425,-34.074936,91.44 18.719639,-34.074783,114.3 18.721207,-34.074829,121.92 18.726645,-34.075333,121.92 18.728046,-34.075516,121.92 18.733692,-34.076191,121.92 18.734884,-34.07634,129.54 18.740788,-34.075634,144.78 18.741892,-34.075287,144.78 18.746681,-34.072327,167.64 18.747721,-34.071442,175.26 18.751373,-34.068184,190.5 18.75246,-34.067299,205.74 18.756008,-34.064182,243.84 18.756969,-34.063339,259.08 18.760445,-34.060364,304.8 18.761387,-34.059525,320.04 18.764984,-34.056473,381 18.76577,-34.055878,396.24 18.769358,-34.053085,426.72 18.76997,-34.052589,426.72 18.773918,-34.049519,457.2 18.774961,-34.048691,457.2 18.77911,-34.045578,457.2 18.780064,-34.0448,457.2 18.784267,-34.041733,457.2 18.785725,-34.040909,457.2 18.79088,-34.03862,464.82 18.792114,-34.038116,464.82 18.796934,-34.036057,464.82 18.798294,-34.035458,464.82 18.803436,-34.033356,464.82 18.804783,-34.032852,464.82 18.809603,-34.031158,464.82 18.810724,-34.030746,464.82 18.815937,-34.028778,480.06 18.81712,-34.02829,487.68 18.822212,-34.0261,480.06 18.823223,-34.02562,480.06 18.828278,-34.023029,472.44 18.82939,-34.022369,480.06 18.834,-34.019539,487.68 18.835276,-34.018661,487.68 18.83959,-34.01532,495.3 18.840488,-34.014542,495.3 18.844643,-34.010834,502.92 18.845644,-34.009827,510.54 18.849277,-34.005943,510.54 18.84996,-34.005112,510.54 18.852932,-34.001083,525.78 18.853436,-34.000122,525.78 18.85603,-33.995331,541.02 18.856575,-33.994354,548.64 18.858891,-33.989838,548.64 18.859406,-33.988811,548.64 18.861563,-33.9841,556.26 18.86198,-33.983181,556.26 18.864613,-33.977409,548.64 18.865599,-33.975037,548.64 18.867168,-33.970688,548.64 18.867588,-33.969307,548.64 18.869133,-33.964699,541.02 18.869534,-33.963348,541.02 18.87085,-33.958832,556.26 18.871136,-33.957764,548.64 18.872967,-33.952923,556.26 18.873425,-33.951851,556.26 18.875633,-33.947296,556.26 18.876286,-33.946079,556.26 18.878975,-33.941795,548.64 18.879776,-33.940632,548.64 18.882919,-33.936539,556.26 18.883953,-33.935371,556.26 18.888187,-33.93132,556.26 18.889103,-33.930576,548.64 18.894196,-33.927597,563.88 18.895308,-33.926971,563.88 18.900352,-33.924545,579.12 18.901417,-33.924088,579.12 18.906069,-33.922211,594.36 18.9077,-33.921593,594.36 18.912907,-33.920147,609.6 18.914198,-33.919876,609.6 18.919773,-33.919033,632.46 18.921204,-33.918892,640.08 18.92664,-33.918659,647.7 18.92807,-33.918705,655.32 18.933449,-33.918705,678.18 18.934765,-33.918564,678.18 18.940149,-33.917313,670.56 18.941494,-33.916763,670.56 18.946323,-33.913864,655.32 18.947268,-33.913055,662.94 18.951191,-33.909164,662.94 18.952089,-33.908157,662.94 18.955708,-33.904228,647.7 18.956509,-33.903389,647.7 18.960104,-33.899414,640.08 18.960972,-33.898502,640.08 18.982944,-33.880814,571.5 18.986721,-33.879181,579.12 19.000454,-33.877087,601.98 19.003546,-33.877487,617.22 19.017166,-33.879181,640.08 19.021053,-33.879509,647.7 19.034958,-33.880112,640.08 19.03862,-33.880161,624.84 19.053898,-33.881462,586.74 19.057076,-33.882156,579.12 19.069126,-33.886093,586.74 19.070023,-33.886459,586.74 19.075741,-33.88829,579.12 19.077301,-33.888771,571.5 19.083477,-33.890717,556.26 19.084654,-33.891129,548.64 19.090347,-33.893661,533.4 19.091547,-33.894241,541.02 19.112549,-33.928204,541.02 19.108715,-33.931507,571.5 19.109917,-33.937466,594.36 19.112343,-33.936996,571.5 19.115353,-33.930111,502.92 19.115707,-33.929169,495.3 19.095097,-33.891518,518.16 19.093735,-33.891037,525.78 19.088017,-33.889023,525.78 19.086571,-33.888538,525.78 19.080561,-33.886597,510.54 19.079103,-33.886139,518.16 19.055328,-33.879742,480.06 19.048405,-33.87788,487.68 19.02294,-33.870941,480.06 19.015446,-33.868336,487.68 19.002571,-33.862888,487.68 18.996986,-33.860413,510.54 18.980059,-33.852219,548.64 18.976192,-33.850368,556.26 18.968288,-33.847,548.64 18.966887,-33.846451,548.64 18.953547,-33.841187,563.88 18.950729,-33.840126,571.5 18.933424,-33.833084,586.74 18.930901,-33.831985,579.12 18.925743,-33.82988,594.36 18.924294,-33.829327,601.98 18.918344,-33.827271,594.36 18.91737,-33.826904,594.36 18.909245,-33.824158,601.98 18.907415,-33.823517,609.6 18.894579,-33.81871,609.6 18.891964,-33.817642,609.6 18.886814,-33.815174,624.84 18.885778,-33.814636,624.84 18.880678,-33.811981,640.08 18.879108,-33.811111,640.08 18.874741,-33.80875,640.08 18.873138,-33.807865,640.08 18.868515,-33.805298,647.7 18.866272,-33.804108,640.08 18.86055,-33.801346,640.08 18.859177,-33.800743,647.7 18.854109,-33.798935,655.32 18.852539,-33.798508,655.32 18.84676,-33.797066,685.8 18.845476,-33.796738,685.8 18.840179,-33.795574,678.18 18.838577,-33.79525,678.18 18.833485,-33.794132,693.42 18.832136,-33.793808,693.42 18.826675,-33.792408,685.8 18.825359,-33.792084,685.8 18.819973,-33.790649,701.04 18.818836,-33.790314,708.66 18.807735,-33.78701,701.04 18.804932,-33.786125,685.8 18.799038,-33.784355,655.32 18.797552,-33.78392,647.7 18.791553,-33.782272,640.08 18.79034,-33.781937,640.08 18.783091,-33.780212,617.22 18.781757,-33.779888,617.22 18.776207,-33.778538,609.6 18.774681,-33.778152,617.22 18.768965,-33.776733,632.46 18.763079,-33.775177,617.22 18.75355,-33.773071,640.08 18.752289,-33.772812,640.08 18.746624,-33.771832,632.46 18.745308,-33.771694,640.08 18.739471,-33.771133,624.84 18.738155,-33.771042,624.84 18.732193,-33.770874,601.98 18.730545,-33.770901,609.6 18.724852,-33.77092,601.98 18.723282,-33.77092,609.6 18.717901,-33.770874,586.74 18.716354,-33.770901,586.74 18.705849,-33.771332,579.12 18.704279,-33.771469,579.12 18.69873,-33.771881,586.74 18.697329,-33.771973,586.74 18.69206,-33.772293,579.12 18.69021,-33.772385,579.12 18.679001,-33.772842,563.88 18.673038,-33.773277,556.26 18.665714,-33.773834,548.64 18.663979,-33.773987,541.02 18.657307,-33.774399,548.64 18.655682,-33.774536,556.26 18.635784,-33.77623,548.64 18.632925,-33.77655,541.02 18.627094,-33.77742,525.78 18.625717,-33.777607,518.16 18.620256,-33.778519,518.16 18.618744,-33.778793,518.16 18.6129,-33.779793,510.54 18.61112,-33.780029,502.92 18.605347,-33.78067,487.68 18.60363,-33.780865,487.68 18.597443,-33.78154,495.3 18.59593,-33.781769,502.92 18.589897,-33.782726,510.54 18.588306,-33.782959,510.54 18.5816,-33.783798,495.3 18.580284,-33.783981,495.3 18.574104,-33.784729,495.3 18.573017,-33.784866,495.3 18.56723,-33.785843,480.06 18.565605,-33.786118,480.06 18.559719,-33.787308,480.06 18.558487,-33.787537,480.06 18.552937,-33.788544,495.3 18.551388,-33.788776,495.3 18.545666,-33.789707,464.82 18.544025,-33.789963,457.2 18.53857,-33.79092,495.3 18.537426,-33.791107,510.54 18.532505,-33.791851,533.4 18.531357,-33.792023,510.54 18.52536,-33.793167,472.44 18.524294,-33.79335,472.44 18.51684,-33.794998,464.82 18.51511,-33.795437,464.82 18.510189,-33.796925,480.06 18.509102,-33.797298,480.06 18.503323,-33.79916,464.82 18.502121,-33.79953,464.82 18.496284,-33.801346,449.58 18.495371,-33.801636,449.58 18.477001,-33.807911,426.72 18.475342,-33.808701,434.34 18.470364,-33.811821,419.1 18.46953,-33.812759,411.48 18.466587,-33.817547,388.62 18.465775,-33.818985,381 18.462696,-33.82439,381 18.462021,-33.825485,373.38 18.458769,-33.830612,381 18.458096,-33.831619,388.62 18.427603,-33.900742,15.24 18.427563,-33.900505,15.24 18.427492,-33.898773,30.48 18.427603,-33.898544,30.48 18.428535,-33.897293,38.1 18.428764,-33.897011,38.1 18.430481,-33.895058,30.48 18.430742,-33.894699,38.1 18.432537,-33.892685,68.58 18.43317,-33.892078,76.2 18.436571,-33.889481,99.06 18.437748,-33.888958,106.68 18.441925,-33.888725,175.26 18.442726,-33.888958,182.88 18.446213,-33.891541,220.98 18.446617,-33.891983,228.6 18.449295,-33.894699,251.46 18.45005,-33.895523,259.08 18.452715,-33.898361,289.56 18.45322,-33.898956,289.56 18.456287,-33.902317,281.94 18.457661,-33.903854,274.32 18.461552,-33.907906,243.84 18.462296,-33.908558,251.46 18.465042,-33.910976,274.32 18.465775,-33.911682,274.32 18.468746,-33.914841,297.18 18.469219,-33.915447,304.8 18.471493,-33.918686,320.04 18.472054,-33.919693,327.66 18.473904,-33.923355,327.66 18.474295,-33.924408,327.66 18.475809,-33.928116,342.9 18.476425,-33.929352,342.9 18.478432,-33.933044,320.04 18.478775,-33.933697,320.04 18.480797,-33.937729,335.28 18.481121,-33.938396,335.28 18.482479,-33.942169,327.66 18.482815,-33.943268,320.04 18.483601,-33.947433,327.66 18.483639,-33.948406,327.66 18.483524,-33.952457,327.66 18.483376,-33.953613,327.66 18.482609,-33.957718,335.28 18.482494,-33.958553,335.28 18.481863,-33.962814,335.28 18.481806,-33.963547,335.28 18.48119,-33.967621,342.9 18.480854,-33.968719,342.9 18.478949,-33.972794,358.14 18.478556,-33.973663,358.14 18.477402,-33.977688,365.76 18.477266,-33.978516,365.76 18.477154,-33.982681,365.76 18.477173,-33.983414,365.76 18.477659,-33.987534,365.76 18.477859,-33.988579,365.76 18.478718,-33.992397,365.76 18.479004,-33.993393,365.76 18.480892,-33.996494,365.76 18.481579,-33.997051,373.38 18.48461,-33.999161,373.38 18.485298,-33.99966,373.38 18.488533,-34.001038,373.38 18.489655,-34.000992,381 18.492737,-33.999149,396.24 18.49313,-33.998428,403.86 18.492456,-33.99527,411.48 18.491728,-33.994629,411.48 18.488503,-33.993748,411.48 18.487816,-33.99398,419.1 18.486795,-33.99646,419.1 18.487188,-33.997009,419.1 18.490219,-33.998215,434.34 18.49128,-33.998154,441.96 18.49514,-33.997704,449.58 18.495987,-33.997787,449.58 18.498343,-33.999573,449.58 18.498516,-34.000126,449.58 18.496828,-34.002869,426.72 18.495987,-34.003235,426.72 18.491707,-34.00399,419.1 18.490562,-34.003849,419.1 18.487759,-34.001148,403.86 18.487644,-34.000217,396.24 18.48971,-33.996506,373.38 18.49062,-33.995842,365.76 18.495083,-33.993702,350.52 18.496399,-33.993282,350.52 18.501549,-33.99184,327.66 18.502882,-33.991516,327.66 18.508015,-33.990303,312.42 18.509216,-33.989975,312.42 18.514822,-33.98877,289.56 18.516054,-33.988495,289.56 18.521605,-33.987305,274.32 18.523005,-33.986938,274.32 18.528442,-33.985462,266.7 18.529587,-33.985134,274.32 18.534679,-33.983692,274.32 18.535709,-33.983414,274.32 18.540916,-33.982483,274.32 18.541782,-33.982407,274.32 18.547382,-33.982204,266.7 18.548565,-33.982224,266.7 18.553946,-33.982544,259.08 18.555573,-33.982635,251.46 18.561001,-33.982903,259.08 18.561974,-33.982948,259.08 18.567959,-33.983093,266.7 18.56908,-33.983093,266.7 18.574799,-33.983368,259.08 18.576031,-33.983414,259.08 18.5812,-33.983738,243.84 18.582758,-33.983826,243.84 18.591156,-33.98439,243.84 18.595369,-33.984741,228.6 18.603401,-33.986115,213.36 18.604717,-33.98653,213.36 18.609638,-33.988068,220.98 18.610783,-33.988396,220.98 18.61599,-33.990025,228.6 18.61751,-33.990555,228.6 18.622456,-33.992397,228.6 18.623789,-33.992981,236.22 18.628777,-33.995087,243.84 18.629841,-33.995544,243.84 18.634357,-33.997425,251.46 18.635731,-33.997982,259.08 18.640549,-33.999847,274.32 18.641796,-34.000313,281.94 18.646431,-34.001942,297.18 18.647518,-34.002312,304.8 18.652267,-34.004128,304.8 18.653355,-34.004593,297.18 18.658373,-34.006531,297.18 18.663139,-34.00832,312.42 18.66909,-34.010273,312.42 18.670578,-34.010693,312.42 18.675749,-34.011887,312.42 18.677206,-34.012207,320.04 18.682537,-34.013252,312.42 18.683933,-34.013489,312.42 18.689461,-34.014557,320.04 18.690891,-34.014835,327.66 18.696041,-34.015862,327.66 18.6973,-34.016045,327.66 18.708344,-34.018093,335.28 18.709604,-34.018341,335.28 18.714809,-34.019444,342.9 18.71624,-34.019772,342.9 18.721962,-34.020981,358.14 18.723114,-34.021225,350.52 18.728657,-34.022331,365.76 18.730064,-34.022598,358.14 18.73567,-34.023514,350.52 18.737354,-34.023773,350.52 18.742956,-34.02475,350.52 18.744678,-34.025078,342.9 18.750172,-34.026798,342.9 18.751316,-34.027218,342.9 18.756744,-34.029556,335.28 18.757954,-34.030106,335.28 18.762798,-34.032303,350.52 18.764145,-34.032898,365.76 18.768883,-34.034992,388.62 18.770197,-34.035507,396.24 18.775177,-34.036949,419.1 18.776379,-34.037182,426.72 18.781912,-34.038345,426.72 18.783091,-34.038712,426.72 18.787937,-34.040348,419.1 18.789312,-34.040909,419.1 18.793945,-34.042862,426.72 18.795086,-34.043381,426.72 18.799782,-34.045792,441.96 18.800858,-34.046402,441.96 18.805103,-34.048958,449.58 18.806183,-34.049698,449.58 18.810612,-34.052856,457.2 18.811733,-34.053726,464.82 18.81588,-34.056702,464.82 18.817001,-34.057526,464.82 18.820953,-34.060596,464.82 18.821869,-34.061295,464.82 18.826447,-34.064693,472.44 18.827484,-34.065399,480.06 18.8318,-34.0681,487.68 18.832855,-34.068745,487.68 18.837404,-34.071213,518.16 18.838694,-34.071899,525.78 18.843956,-34.074654,525.78 18.845329,-34.075447,525.78 18.849792,-34.078285,525.78 18.850746,-34.078949,525.78 18.855743,-34.082661,533.4 18.85663,-34.083389,533.4 18.861179,-34.087132,548.64 18.862095,-34.087921,548.64 18.866444,-34.091507,548.64 18.867506,-34.092407,541.02 18.872108,-34.095928,525.78 18.873167,-34.096756,525.78 18.877874,-34.100327,510.54 18.878975,-34.101097,510.54 18.883896,-34.104588,495.3 18.884995,-34.105316,487.68 18.889732,-34.108498,502.92 18.892021,-34.109989,502.92 18.899006,-34.115204,518.16 18.899847,-34.115936,518.16 18.903065,-34.119858,556.26 18.903435,-34.120789,556.26 18.905228,-34.12532,563.88 18.905958,-34.126602,571.5 18.909489,-34.130219,594.36 18.910446,-34.130936,601.98 18.914738,-34.134102,632.46 18.915825,-34.134895,640.08 18.919746,-34.137772,670.56 18.9207,-34.138596,678.18 18.923725,-34.142075,701.04 18.924398,-34.14299,685.8 18.92737,-34.147018,731.52 18.928127,-34.147881,739.14 18.931847,-34.151466,739.14 18.932583,-34.15242,739.14 18.935051,-34.156494,739.14 18.936058,-34.157455,739.14 18.94043,-34.16011,746.76 18.941689,-34.160683,739.14 18.946651,-34.162994,754.38 18.947996,-34.163589,762 18.952904,-34.165665,777.24 18.954163,-34.166176,784.86 18.958797,-34.167946,784.86 18.959768,-34.168304,784.86 18.96571,-34.17041,784.86 18.966694,-34.170738,784.86 18.971958,-34.172695,762 18.977394,-34.174789,746.76 18.985348,-34.178326,746.76 18.986778,-34.179073,746.76 18.991831,-34.182037,746.76 18.992895,-34.182678,739.14 18.997547,-34.185699,731.52 18.998669,-34.186432,723.9 19.003376,-34.189636,708.66 19.004631,-34.190525,701.04 19.107635,-34.31543,586.74 19.133532,-34.346375,45.72 19.000181,-34.169128,601.98 18.996105,-34.167294,624.84 18.990955,-34.165291,655.32 18.989353,-34.16478,662.94 18.984146,-34.163197,678.18 18.982862,-34.162857,678.18 18.977257,-34.161484,708.66 18.976135,-34.161209,716.28 18.971258,-34.159973,723.9 18.969633,-34.159607,731.52 18.96442,-34.158508,723.9 18.963261,-34.15831,716.28 18.957077,-34.157318,708.66 18.955708,-34.157146,701.04 18.949959,-34.156082,693.42 18.948782,-34.155807,693.42 18.943348,-34.154537,701.04 18.942204,-34.154213,701.04 18.936367,-34.152119,693.42 18.935272,-34.151596,693.42 18.930901,-34.148987,685.8 18.929947,-34.148254,678.18 18.92709,-34.144821,647.7 18.926582,-34.144016,632.46 18.923836,-34.139874,579.12 18.923035,-34.13876,571.5 18.919773,-34.1348,525.78 18.918625,-34.133652,518.16 18.91531,-34.130657,487.68 18.914085,-34.129669,480.06 18.909359,-34.126328,449.58 18.908087,-34.125595,449.58 18.903694,-34.123302,441.96 18.90237,-34.122665,441.96 18.897285,-34.120323,426.72 18.896036,-34.11969,426.72 18.891945,-34.117447,426.72 18.890543,-34.116577,419.1 18.886356,-34.113621,411.48 18.885498,-34.113007,411.48 18.88135,-34.10994,411.48 18.880405,-34.109245,411.48 18.8764,-34.105892,419.1 18.875713,-34.105331,426.72 18.871765,-34.101887,426.72 18.870811,-34.101059,426.72 18.867188,-34.097607,411.48 18.866385,-34.096802,411.48 18.862782,-34.093323,419.1 18.862095,-34.092625,411.48 18.858816,-34.089157,419.1 18.8582,-34.088379,419.1 18.856127,-34.084671,419.1 18.855734,-34.083481,411.48 18.855,-34.079033,411.48 18.855,-34.077866,419.1 18.855846,-34.074005,419.1 18.85643,-34.073212,411.48 18.860207,-34.071442,403.86 18.861452,-34.071533,396.24 18.864702,-34.073685,396.24 18.865095,-34.074646,388.62 18.863806,-34.077209,358.14 18.862797,-34.077667,342.9 18.858425,-34.077393,327.66 18.85746,-34.077076,327.66 18.853884,-34.075424,335.28 18.852882,-34.074841,335.28 18.849621,-34.07177,358.14 18.849106,-34.071163,365.76 18.846205,-34.067963,381 18.845558,-34.067253,388.62 18.842812,-34.064602,403.86 18.842125,-34.0639,411.48 18.840981,-34.060318,419.1 18.841385,-34.05954,411.48 18.845083,-34.058075,403.86 18.84613,-34.058407,403.86 18.848,-34.061325,411.48 18.848055,-34.062012,411.48 18.847504,-34.065159,411.48 18.847101,-34.065994,411.48 18.843784,-34.067581,403.86 18.842955,-34.067459,403.86 18.839722,-34.065392,396.24 18.83931,-34.064484,396.24 18.841105,-34.062286,434.34 18.841782,-34.062645,419.1 18.840866,-34.065018,350.52 18.83987,-34.065079,350.52 18.838638,-34.063065,350.52 18.839149,-34.062645,350.52 18.840179,-34.064133,327.66 18.839607,-34.064552,320.04 18.835831,-34.064693,327.66 18.834826,-34.064301,335.28 18.831081,-34.062504,350.52 18.830118,-34.062012,358.14 18.826195,-34.060135,365.76 18.825354,-34.059723,373.38 18.82143,-34.057617,396.24 18.820782,-34.056778,403.86 18.819237,-34.053146,419.1 18.81855,-34.052311,419.1 18.815096,-34.050568,411.48 18.81403,-34.0504,411.48 18.80991,-34.050819,403.86 18.808823,-34.051239,403.86 18.805119,-34.053452,396.24 18.804054,-34.053818,403.86 18.799438,-34.053566,411.48 18.798504,-34.053177,403.86 18.795891,-34.050308,411.48 18.795776,-34.049286,411.48 18.79549,-34.0457,426.72 18.794975,-34.045048,426.72 18.791828,-34.044582,419.1 18.790937,-34.044754,411.48 18.786789,-34.045715,388.62 18.785877,-34.045979,388.62 18.781353,-34.047546,350.52 18.780231,-34.047958,342.9 18.775692,-34.04961,327.66 18.774548,-34.049934,327.66 18.769627,-34.050541,312.42 18.768253,-34.0504,304.8 18.763414,-34.048691,304.8 18.76236,-34.04826,312.42 18.757153,-34.046257,312.42 18.75596,-34.045853,312.42 18.750744,-34.044071,304.8 18.749626,-34.043747,304.8 18.744078,-34.042282,312.42 18.74262,-34.041916,312.42 18.736902,-34.040497,304.8 18.735445,-34.040131,304.8 18.72757,-34.037834,320.04 18.726084,-34.037338,320.04 18.72076,-34.035503,304.8 18.719246,-34.034912,304.8 18.714314,-34.032944,297.18 18.712744,-34.03244,304.8 18.707531,-34.030838,320.04 18.706129,-34.030426,320.04 18.700804,-34.028549,327.66 18.69976,-34.028103,335.28 18.69475,-34.025986,335.28 18.69381,-34.025589,335.28 18.68866,-34.023495,342.9 18.687576,-34.023056,342.9 18.682587,-34.021088,350.52 18.681393,-34.020607,350.52 18.6763,-34.01828,342.9 18.674908,-34.017654,342.9 18.670177,-34.015347,342.9 18.668966,-34.014816,342.9 18.66394,-34.012554,335.28 18.6628,-34.012024,327.66 18.658047,-34.009762,312.42 18.657017,-34.009251,304.8 18.652264,-34.007126,289.56 18.651352,-34.006687,289.56 18.646545,-34.0047,281.94 18.645401,-34.004223,274.32 18.640549,-34.002502,274.32 18.63937,-34.00209,266.7 18.634357,-34.000404,251.46 18.633156,-33.999985,251.46 18.627892,-33.998169,236.22 18.626633,-33.997749,236.22 18.621601,-33.996002,228.6 18.620281,-33.995564,228.6 18.615131,-33.993935,236.22 18.613586,-33.993484,228.6 18.608486,-33.991882,236.22 18.607178,-33.991421,236.22 18.602264,-33.98941,228.6 18.600863,-33.98877,228.6 18.596043,-33.986526,228.6 18.594809,-33.985931,236.22 18.589708,-33.983551,266.7 18.588812,-33.983139,266.7 18.583775,-33.980713,251.46 18.58263,-33.980106,251.46 18.5776,-33.9776,251.46 18.576393,-33.97699,251.46 18.571154,-33.974442,251.46 18.569984,-33.973915,251.46 18.56472,-33.971588,251.46 18.563475,-33.971054,251.46 18.558599,-33.968857,251.46 18.557085,-33.96817,259.08 18.551872,-33.96579,251.46 18.550751,-33.96524,251.46 18.54578,-33.96307,251.46 18.544474,-33.962494,251.46 18.539314,-33.96051,274.32 18.538284,-33.960136,274.32 18.532104,-33.957855,274.32 18.530903,-33.95739,274.32 18.525066,-33.95525,274.32 18.523733,-33.954803,259.08 18.51824,-33.952881,274.32 18.516827,-33.952408,274.32 18.511738,-33.950592,281.94 18.510246,-33.950035,281.94 18.50481,-33.947845,297.18 18.503609,-33.947334,297.18 18.498175,-33.94487,281.94 18.496773,-33.944183,289.56 18.491112,-33.940887,289.56 18.490162,-33.940166,289.56 18.485674,-33.936493,274.32 18.484665,-33.935669,274.32 18.480434,-33.931973,281.94 18.479118,-33.930763,281.94 18.474184,-33.926193,281.94 18.473175,-33.925232,281.94 18.468189,-33.920567,266.7 18.467402,-33.91983,266.7 18.46314,-33.915436,259.08 18.462067,-33.91433,266.7 18.458347,-33.910141,175.26 18.45776,-33.909439,182.88 18.454113,-33.905346,205.74 18.453083,-33.904366,190.5 18.448677,-33.901619,144.78 18.44759,-33.901295,144.78 18.442402,-33.900467,114.3 18.441561,-33.90033,114.3 18.435732,-33.899048,76.2 18.434891,-33.899185,76.2 18.431808,-33.899826,60.96 18.431225,-33.899944,53.34 18.429279,-33.900318,30.48 18.429005,-33.900375,22.86
        </coordinates>
      </LineString>
    </Placemark>
  </Document>
</kml>