<?xml version="1.0" encoding="UTF-8"?>
<kml xmlns="http://www.opengis.net/kml/2.2">
  <Document>
    <name>-/ZTHOT - Optimised</name>
    <description><![CDATA[Optimised flight path with 137 points (decimated from 685 original points). Source format: Standard KML]]></description>
    
    <Style id="flightPath">
      <LineStyle>
        <color>ff0000ff</color>
        <width>3</width>
      </LineStyle>
    </Style>
    
    <Placemark>
      <name>Flight Path</name>
      <description><![CDATA[<div style="width:220px; text-align:center;">
<div style="width:210px; text-align:center;">
<div style=" background: #000; color: #fff; font-size: 14px; text-align:left; border: 1px solid #000; padding: 2px 6px; text-shadow: 0 1px 0 #000; box-shadow: 0 1px 3px rgba(0,0,0,0.6); background: -webkit-gradient(linear, left top, left bottom, color-stop(0%,#808080), color-stop(2%,#303030), color-stop(100%,#0c0c0c));"><span style="font-size: 14px; font-weight: bold;"><a href="javascript:void(0);" style="color: #fff; cursor: pointer;text-decoration: none;">-</a></span> / ZTHOT<br/>Cape Town Helicopters</div>

<div style="border-top: 1px solid #005c90; color: #fff; padding-bottom: 5px; box-shadow: 0 0 1px #9BE3F6 inset, 0 1px 0 #9BE3F6 inset, 0 -1px 3px rgba(0,0,0,0.4); background:rgba(43,114,173,1); background: -webkit-gradient(linear, left top, left bottom, color-stop(0%,rgba(92,184,229,1)), color-stop(100%,rgba(43,114,173,1)));">
<a style="text-decoration: none; color: rgb(255, 255, 255); font-size: 12px; width:77px; display: inline-block;" title=" Airport" href="javascript:void(0);/departures"><h3 style="padding: 0px; margin: 10px 0px 0px; font-size: 16px; ">?</h3></a>
<span style="background: url(https://www.flightradar24.com/static/images/userUI_sprite.png?14) no-repeat scroll 0 -464px rgba(0, 0, 0, 0); border: medium none; display: inline-block; height: 16px; width: 45px;"></span>
<a style="text-decoration: none; color: rgb(255, 255, 255); font-size: 12px; width:77px; display: inline-block;" title=" Airport" href="javascript:void(0);/arrivals"><h3 style="padding: 0px; margin: 10px 0px 0px; font-size: 16px;">?</h3></a>
<div style=" margin-top:10px;">
<div style="display: inline-block; font-size: 12px; padding: 0 5px;">
<div>
<span style="color: #c1eaff;" title="Actual Time of Departure">ATD </span>
<span title="2025-03-20 08:42">08:42</span> <span title="Coordinated Universal Time">UTC</span>
</div>
</div>
<div style="display: inline-block; font-size: 12px; padding: 0 5px;">
<div>
<span style="color: #c1eaff;" title="Estimated Time of Arrival">ETA </span>
<span title="2025-03-20 08:57">08:57</span> <span title="Coordinated Universal Time">UTC</span>
</div>
</div>
</div>
<br style="clear: both;"/>
</div>

<div style="display: block;">
<table style="border-collapse: collapse; width: 100%;">
<tr style="border-right: 1px solid #dadada; ">
<td style="background: none repeat scroll 0 0 #dadada; padding: 0; width: 31px;">
<span style="background: url(https://www.flightradar24.com/static/images/userUI_sprite.png?14) no-repeat scroll -208px -464px rgba(0, 0, 0, 0); height: 26px; margin: 8px 0 0 4px; width: 23px; display: block;"></span>
</td>
<td colspan="2" style="border-bottom: 1px solid #dadada; border-left: 1px solid #dadada; color: #666; line-height: 1.1em; padding: 3px 6px; vertical-align: top; font-size: 14px;">
Aircraft<span style="float: right; font-size: 12px;">(AS50)</span><br>
<span style="color: #333; font-size: 16px; font-weight: bold; line-height: 1.3em;">Airbus Helicopters H125</span>
</td>
</tr>
<tr style="border-right: 1px solid #dadada; ">
<td style="background: none repeat scroll 0 0 #dadada; padding: 0; width: 31px;">
<td colspan="2" style="border-bottom: 1px solid #dadada; border-left: 1px solid #dadada; color: #666; line-height: 1.1em; padding: 3px 6px; vertical-align: top; font-size: 14px;">
Registration<br>
<span style="color: #333; font-size: 16px; font-weight: bold; line-height: 1.3em;"><a href="https://www.flightradar24.com/reg/zt-hot" style="text-decoration: none; color: #333;">ZT-HOT</a></span>
</td>
</tr>
</table>
</div>

</div>
</div>]]></description>
      <styleUrl>#flightPath</styleUrl>
      <LineString>
        <extrude>1</extrude>
        <tessellate>1</tessellate>
        <altitudeMode>absolute</altitudeMode>
        <coordinates>
          18.428556,-33.899002,60.96 18.433514,-33.894962,152.4 18.435003,-33.891724,182.88 18.435116,-33.888073,243.84 18.433285,-33.884907,304.8 18.429623,-33.883232,335.28 18.425137,-33.883575,396.24 18.420429,-33.884262,457.2 18.415661,-33.885281,518.16 18.401642,-33.887703,609.6 18.396378,-33.889099,670.56 18.391617,-33.891769,701.04 18.387583,-33.895248,731.52 18.382986,-33.898453,792.48 18.374353,-33.904587,792.48 18.369925,-33.908432,822.96 18.365936,-33.912701,853.44 18.362638,-33.91745,883.92 18.360285,-33.921982,914.4 18.358555,-33.927456,914.4 18.357124,-33.932716,914.4 18.356094,-33.937653,975.36 18.352493,-33.950958,1097.28 18.350363,-33.955536,1097.28 18.347897,-33.960297,1097.28 18.344421,-33.965515,1127.76 18.340244,-33.971077,1158.24 18.337154,-33.974846,1219.2 18.333549,-33.978806,1219.2 18.329176,-33.982864,1188.72 18.324223,-33.987183,1188.72 18.315218,-33.995499,1188.72 18.311798,-33.999802,1219.2 18.311518,-34.005157,1249.68 18.315331,-34.009186,1249.68 18.320992,-34.010742,1249.68 18.327101,-34.009048,1249.68 18.331865,-34.006073,1249.68 18.337269,-34.003941,1249.68 18.344925,-33.999023,1219.2 18.348255,-33.993282,1127.76 18.350487,-33.987743,1066.8 18.352489,-33.981831,1036.32 18.354321,-33.97522,944.88 18.357067,-33.964233,853.44 18.357754,-33.958416,822.96 18.358267,-33.95256,762 18.359556,-33.944687,701.04 18.361574,-33.938782,609.6 18.363592,-33.932877,548.64 18.368244,-33.921707,518.16 18.373318,-33.912605,487.68 18.378054,-33.908615,457.2 18.382874,-33.904816,426.72 18.387583,-33.901199,396.24 18.394533,-33.896576,426.72 18.399982,-33.894077,426.72 18.405462,-33.892044,426.72 18.412077,-33.89003,396.24 18.41835,-33.888447,365.76 18.425617,-33.886864,335.28 18.433743,-33.885372,304.8 18.441238,-33.885605,274.32 18.44739,-33.889847,213.36 18.448118,-33.896439,152.4 18.444557,-33.90097,121.92 18.439262,-33.901428,60.96 18.43317,-33.901016,60.96 18.427792,-33.900688,30.48 18.432367,-33.89653,121.92 18.432816,-33.896027,121.92 18.434086,-33.893707,152.4 18.434372,-33.893147,152.4 18.435287,-33.890354,182.88 18.435339,-33.889572,213.36 18.43461,-33.886734,274.32 18.434275,-33.886185,274.32 18.432144,-33.883987,304.8 18.431511,-33.883652,304.8 18.427563,-33.883327,365.76 18.426819,-33.883392,396.24 18.423214,-33.883793,426.72 18.422222,-33.883942,457.2 18.418694,-33.884628,487.68 18.41757,-33.884857,487.68 18.408714,-33.886139,579.12 18.405819,-33.886723,579.12 18.399525,-33.888214,640.08 18.398569,-33.888474,640.08 18.394318,-33.889984,670.56 18.393288,-33.890541,701.04 18.389936,-33.893234,731.52 18.389263,-33.893829,731.52 18.385733,-33.89653,762 18.384933,-33.897106,762 18.379454,-33.900833,792.48 18.378468,-33.901482,792.48 18.372561,-33.906143,822.96 18.371601,-33.906929,822.96 18.368187,-33.910126,853.44 18.367235,-33.911179,853.44 18.36462,-33.914375,853.44 18.36404,-33.915161,883.92 18.361742,-33.919235,883.92 18.361244,-33.920147,883.92 18.359499,-33.924042,914.4 18.359127,-33.925175,914.4 18.357986,-33.929581,914.4 18.357706,-33.930634,914.4 18.356667,-33.934765,944.88 18.356495,-33.935791,975.36 18.354435,-33.944263,1036.32 18.35367,-33.94693,1066.8 18.351765,-33.952652,1097.28 18.351316,-33.953705,1097.28 18.349411,-33.957321,1097.28 18.34885,-33.95842,1097.28 18.346664,-33.962311,1097.28 18.345909,-33.963444,1097.28 18.343048,-33.9674,1127.76 18.342476,-33.968235,1127.76 18.338985,-33.97266,1188.72 18.338425,-33.973343,1188.72 18.335724,-33.976429,1219.2 18.335005,-33.977188,1219.2 18.332005,-33.980339,1188.72 18.331024,-33.981262,1188.72 18.327198,-33.984623,1188.72 18.326225,-33.985416,1188.72 18.322281,-33.988907,1188.72 18.32144,-33.989639,1188.72 18.313637,-33.997147,1219.2 18.31295,-33.997982,1219.2 18.311127,-34.001953,1219.2 18.311062,-34.003105,1219.2 18.312607,-34.006969,1249.68 18.31348,-34.007812,1249.68 18.317471,-34.010136,1249.68 18.318468,-34.010422,1249.68 18.323593,-34.01046,1249.68 18.32497,-34.010101,1219.2 18.329006,-34.007812,1249.68 18.330015,-34.007126,1249.68 18.333893,-34.005245,1249.68 18.334892,-34.004837,1249.68 18.340359,-34.002594,1249.68 18.343525,-34.000534,1219.2 18.346439,-33.996964,1188.72 18.347111,-33.995655,1188.72 18.349171,-33.991188,1127.76 18.349571,-33.990116,1097.28 18.351372,-33.985336,1066.8 18.351803,-33.984016,1036.32 18.353291,-33.978943,1005.84 18.353558,-33.977783,975.36 18.356152,-33.968842,883.92 18.356361,-33.967804,883.92 18.357353,-33.961952,822.96 18.357481,-33.960709,822.96 18.357986,-33.956177,792.48 18.358099,-33.955078,792.48 18.358379,-33.950272,731.52 18.358841,-33.946964,701.04 18.360386,-33.942352,670.56 18.360786,-33.941143,640.08 18.362303,-33.936584,579.12 18.362751,-33.935028,548.64 18.364431,-33.930725,548.64 18.365593,-33.927971,548.64 18.371086,-33.915352,487.68 18.371887,-33.914284,487.68 18.375082,-33.910904,457.2 18.375978,-33.910217,457.2 18.379784,-33.907253,426.72 18.381023,-33.906326,426.72 18.384499,-33.903534,426.72 18.38562,-33.902618,396.24 18.389339,-33.899944,396.24 18.392487,-33.897758,426.72 18.396664,-33.895523,426.72 18.397783,-33.89502,426.72 18.4021,-33.893196,457.2 18.403358,-33.892731,457.2 18.407936,-33.891239,426.72 18.409309,-33.89082,426.72 18.414598,-33.889343,396.24 18.415775,-33.889053,396.24 18.421268,-33.887794,335.28 18.422585,-33.887516,335.28 18.429222,-33.88612,304.8 18.430595,-33.885838,304.8 18.43689,-33.885139,304.8 18.438421,-33.885178,274.32 18.444557,-33.887005,243.84 18.445652,-33.887787,213.36 18.448399,-33.892639,182.88 18.448505,-33.893986,152.4 18.447075,-33.898968,121.92 18.446445,-33.899757,121.92 18.442514,-33.901428,91.44 18.441467,-33.901482,91.44 18.435452,-33.901199,60.96 18.434723,-33.901154,60.96 18.431053,-33.900921,60.96 18.429565,-33.900833,30.48
        </coordinates>
      </LineString>
    </Placemark>
  </Document>
</kml>