<?xml version="1.0" encoding="UTF-8"?>
<kml xmlns="http://www.opengis.net/kml/2.2">
  <Document>
    <name>-/ZTHOT - Optimised</name>
    <description><![CDATA[Optimised flight path with 210 points (decimated from 1047 original points). Source format: Standard KML]]></description>
    
    <Style id="flightPath">
      <LineStyle>
        <color>ff0000ff</color>
        <width>3</width>
      </LineStyle>
    </Style>
    
    <Placemark>
      <name>Flight Path</name>
      <description><![CDATA[<div style="width:220px; text-align:center;">
<div style="width:210px; text-align:center;">
<div style=" background: #000; color: #fff; font-size: 14px; text-align:left; border: 1px solid #000; padding: 2px 6px; text-shadow: 0 1px 0 #000; box-shadow: 0 1px 3px rgba(0,0,0,0.6); background: -webkit-gradient(linear, left top, left bottom, color-stop(0%,#808080), color-stop(2%,#303030), color-stop(100%,#0c0c0c));"><span style="font-size: 14px; font-weight: bold;"><a href="javascript:void(0);" style="color: #fff; cursor: pointer;text-decoration: none;">-</a></span> / ZTHOT<br/>Cape Town Helicopters</div>

<div style="border-top: 1px solid #005c90; color: #fff; padding-bottom: 5px; box-shadow: 0 0 1px #9BE3F6 inset, 0 1px 0 #9BE3F6 inset, 0 -1px 3px rgba(0,0,0,0.4); background:rgba(43,114,173,1); background: -webkit-gradient(linear, left top, left bottom, color-stop(0%,rgba(92,184,229,1)), color-stop(100%,rgba(43,114,173,1)));">
<a style="text-decoration: none; color: rgb(255, 255, 255); font-size: 12px; width:77px; display: inline-block;" title="Cape Town Airport" href="https://www.flightradar24.com/airport/cpt/departures"><h3 style="padding: 0px; margin: 10px 0px 0px; font-size: 16px; ">CPT</h3>Cape Town</a>
<span style="background: url(https://www.flightradar24.com/static/images/userUI_sprite.png?14) no-repeat scroll 0 -464px rgba(0, 0, 0, 0); border: medium none; display: inline-block; height: 16px; width: 45px;"></span>
<a style="text-decoration: none; color: rgb(255, 255, 255); font-size: 12px; width:77px; display: inline-block;" title="Cape Town Airport" href="https://www.flightradar24.com/airport/cpt/arrivals"><h3 style="padding: 0px; margin: 10px 0px 0px; font-size: 16px;">CPT</h3>Cape Town</a>
<div style=" margin-top:10px;">
<div style="display: inline-block; font-size: 12px; padding: 0 5px;">
<div>
<span style="color: #c1eaff;" title="Actual Time of Departure">ATD </span>
<span title="2025-12-10 10:09">10:09</span> <span title="Coordinated Universal Time">UTC</span>
</div>
</div>
<div style="display: inline-block; font-size: 12px; padding: 0 5px;">
<div>
<span style="color: #c1eaff;" title="Estimated Time of Arrival">ETA </span>
<span title="2025-12-10 10:30">10:30</span> <span title="Coordinated Universal Time">UTC</span>
</div>
</div>
</div>
<br style="clear: both;"/>
</div>

<div style="display: block;">
<table style="border-collapse: collapse; width: 100%;">
<tr style="border-right: 1px solid #dadada; ">
<td style="background: none repeat scroll 0 0 #dadada; padding: 0; width: 31px;">
<span style="background: url(https://www.flightradar24.com/static/images/userUI_sprite.png?14) no-repeat scroll -208px -464px rgba(0, 0, 0, 0); height: 26px; margin: 8px 0 0 4px; width: 23px; display: block;"></span>
</td>
<td colspan="2" style="border-bottom: 1px solid #dadada; border-left: 1px solid #dadada; color: #666; line-height: 1.1em; padding: 3px 6px; vertical-align: top; font-size: 14px;">
Aircraft<span style="float: right; font-size: 12px;">(AS50)</span><br>
<span style="color: #333; font-size: 16px; font-weight: bold; line-height: 1.3em;">Airbus Helicopters H125</span>
</td>
</tr>
<tr style="border-right: 1px solid #dadada; ">
<td style="background: none repeat scroll 0 0 #dadada; padding: 0; width: 31px;">
<td colspan="2" style="border-bottom: 1px solid #dadada; border-left: 1px solid #dadada; color: #666; line-height: 1.1em; padding: 3px 6px; vertical-align: top; font-size: 14px;">
Registration<br>
<span style="color: #333; font-size: 16px; font-weight: bold; line-height: 1.3em;"><a href="https://www.flightradar24.com/reg/zt-hot" style="text-decoration: none; color: #333;">ZT-HOT</a></span>
</td>
</tr>
</table>
</div>

</div>
</div>]]></description>
      <styleUrl>#flightPath</styleUrl>
      <LineString>
        <extrude>1</extrude>
        <tessellate>1</tessellate>
        <altitudeMode>absolute</altitudeMode>
        <coordinates>
          18.595314,-33.977234,60.96 18.594921,-33.981537,152.4 18.593184,-33.984055,213.36 18.590698,-33.986904,243.84 18.587746,-33.99028,274.32 18.585167,-33.994034,304.8 18.58263,-33.998077,304.8 18.579899,-34.002502,304.8 18.57704,-34.00676,304.8 18.574276,-34.011158,335.28 18.571827,-34.015594,335.28 18.569241,-34.020237,335.28 18.566437,-34.025078,335.28 18.563633,-34.029919,335.28 18.561176,-34.034637,335.28 18.55854,-34.039646,335.28 18.555794,-34.044163,365.76 18.55232,-34.049881,365.76 18.547668,-34.056454,365.76 18.543549,-34.061249,365.76 18.539543,-34.065533,396.24 18.535393,-34.069885,365.76 18.53203,-34.074783,365.76 18.52993,-34.079823,365.76 18.526897,-34.084709,365.76 18.522614,-34.089066,365.76 18.517401,-34.093094,365.76 18.511848,-34.096535,365.76 18.506298,-34.099422,365.76 18.500061,-34.102169,396.24 18.494474,-34.103989,426.72 18.488903,-34.105705,457.2 18.483067,-34.10743,487.68 18.475399,-34.109615,518.16 18.468971,-34.110809,548.64 18.462925,-34.110546,670.56 18.459263,-34.109943,731.52 18.455257,-34.109615,762 18.450697,-34.109482,822.96 18.446045,-34.109344,883.92 18.440495,-34.109013,914.4 18.434946,-34.108795,944.88 18.428936,-34.108639,1005.84 18.423231,-34.108521,1036.32 18.409767,-34.10836,1066.8 18.388311,-34.107468,1005.84 18.380756,-34.106403,975.36 18.373344,-34.10495,883.92 18.36533,-34.103577,822.96 18.357819,-34.102524,792.48 18.354063,-34.103714,883.92 18.359184,-34.107147,762 18.365765,-34.109802,701.04 18.372345,-34.112457,670.56 18.385391,-34.118416,640.08 18.392658,-34.121346,640.08 18.398552,-34.123161,640.08 18.404678,-34.124771,609.6 18.410683,-34.126141,609.6 18.417177,-34.127518,609.6 18.423512,-34.12825,609.6 18.429901,-34.128387,609.6 18.436718,-34.128006,609.6 18.443634,-34.126923,609.6 18.450279,-34.125118,609.6 18.456303,-34.122345,579.12 18.462076,-34.118546,579.12 18.467457,-34.114288,609.6 18.472502,-34.109161,609.6 18.475864,-34.103897,609.6 18.477917,-34.098072,609.6 18.478779,-34.092178,609.6 18.47929,-34.085735,579.12 18.479565,-34.079361,548.64 18.480068,-34.072495,548.64 18.481022,-34.066177,518.16 18.481918,-34.060272,518.16 18.48341,-34.050262,457.2 18.485069,-34.032852,457.2 18.485281,-34.026855,457.2 18.485281,-34.019531,457.2 18.48489,-34.00351,457.2 18.486235,-33.998199,457.2 18.490448,-33.995518,426.72 18.495884,-33.993515,396.24 18.50176,-33.992203,457.2 18.507099,-33.990955,487.68 18.512707,-33.989231,487.68 18.518578,-33.987122,487.68 18.524094,-33.983692,487.68 18.529058,-33.979385,487.68 18.533878,-33.975407,457.2 18.539541,-33.971283,457.2 18.545952,-33.967304,426.72 18.552475,-33.964279,396.24 18.559048,-33.962585,365.76 18.565493,-33.962311,365.76 18.571659,-33.963135,335.28 18.576984,-33.964279,335.28 18.582253,-33.965744,274.32 18.586521,-33.967537,243.84 18.589764,-33.969818,213.36 18.591782,-33.972519,152.4 18.593273,-33.974709,121.92 18.594641,-33.976227,91.44 18.595818,-33.978653,91.44 18.595791,-33.980015,121.92 18.594646,-33.981922,182.88 18.594248,-33.98259,182.88 18.592678,-33.984695,243.84 18.592186,-33.985275,243.84 18.590157,-33.987488,274.32 18.589611,-33.988068,274.32 18.587242,-33.990967,274.32 18.586578,-33.99184,304.8 18.584608,-33.994858,304.8 18.584175,-33.995564,304.8 18.582172,-33.998821,304.8 18.581524,-33.999847,304.8 18.579393,-34.003235,304.8 18.578854,-34.004082,304.8 18.576508,-34.007622,304.8 18.575918,-34.008453,335.28 18.573647,-34.01218,335.28 18.573246,-34.012974,335.28 18.571266,-34.016647,335.28 18.570763,-34.017609,335.28 18.568611,-34.0214,335.28 18.568016,-34.022369,335.28 18.565807,-34.026054,335.28 18.565212,-34.02713,335.28 18.563061,-34.030991,335.28 18.562635,-34.031799,335.28 18.560728,-34.035507,335.28 18.560143,-34.036716,335.28 18.558025,-34.040485,365.76 18.55751,-34.041325,365.76 18.555164,-34.045189,365.76 18.554619,-34.046082,365.76 18.550247,-34.052948,365.76 18.549631,-34.053864,365.76 18.54681,-34.057476,365.76 18.545986,-34.058441,365.76 18.54269,-34.06218,365.76 18.54195,-34.062973,365.76 18.538628,-34.066463,396.24 18.537859,-34.06723,396.24 18.534565,-34.070793,365.76 18.533821,-34.071629,365.76 18.531647,-34.075771,365.76 18.531301,-34.076614,365.76 18.529564,-34.080597,365.76 18.529058,-34.081604,365.76 18.526268,-34.085457,365.76 18.525248,-34.086594,365.76 18.521519,-34.090019,335.28 18.520603,-34.090717,335.28 18.516369,-34.093834,365.76 18.515282,-34.094578,365.76 18.510729,-34.097122,365.76 18.509789,-34.097652,365.76 18.504957,-34.100098,365.76 18.503838,-34.100632,365.76 18.499031,-34.102539,396.24 18.497829,-34.102959,396.24 18.493578,-34.104263,426.72 18.492508,-34.104588,457.2 18.487804,-34.106049,457.2 18.48646,-34.106461,487.68 18.480434,-34.108219,487.68 18.479059,-34.108612,487.68 18.474072,-34.110031,518.16 18.472895,-34.11026,518.16 18.467274,-34.11092,548.64 18.466,-34.110901,548.64 18.462238,-34.110455,670.56 18.46146,-34.110306,701.04 18.458601,-34.109894,731.52 18.457775,-34.109802,762 18.454456,-34.10957,792.48 18.453444,-34.109573,792.48 18.4498,-34.109436,853.44 18.448904,-34.109436,853.44 18.444811,-34.109253,883.92 18.443859,-34.109207,883.92 18.439487,-34.108932,914.4 18.438549,-34.108917,914.4 18.433714,-34.108749,944.88 18.432598,-34.10873,944.88 18.427849,-34.108593,1005.84 18.426762,-34.108593,1005.84 18.422184,-34.108547,1036.32 18.42099,-34.108521,1036.32 18.404173,-34.108154,1066.8 18.398609,-34.107895,1066.8 18.387245,-34.10733,1005.84 18.385563,-34.107101,1005.84 18.379623,-34.106186,975.36 18.377895,-34.105846,944.88 18.371439,-34.10463,883.92 18.369999,-34.104355,853.44 18.363476,-34.103333,792.48 18.36219,-34.103119,792.48 18.35552,-34.102249,822.96 18.354664,-34.102306,883.92 18.354624,-34.10463,853.44 18.355465,-34.105331,822.96 18.360558,-34.107708,731.52 18.361855,-34.108246,731.52 18.367123,-34.110352,701.04 18.368357,-34.110809,670.56 18.373512,-34.112961,670.56 18.374521,-34.113373,670.56 18.388081,-34.119625,640.08 18.389208,-34.120056,640.08 18.393579,-34.121658,640.08 18.395004,-34.122139,640.08 18.399746,-34.123489,640.08 18.40081,-34.123764,640.08 18.4058,-34.125046,609.6 18.406963,-34.125351,609.6 18.412077,-34.126465,609.6 18.413366,-34.12674,609.6 18.418293,-34.127724,609.6 18.419756,-34.12793,609.6 18.424759,-34.12833,609.6 18.426146,-34.128387,609.6 18.43111,-34.128376,609.6 18.432484,-34.12833,609.6 18.438206,-34.127819,609.6 18.43943,-34.127655,609.6 18.444901,-34.126701,609.6 18.4461,-34.126419,609.6 18.451481,-34.124653,609.6 18.452682,-34.124142,609.6 18.457489,-34.121674,579.12 18.458824,-34.120834,579.12 18.463085,-34.117767,579.12 18.464069,-34.117065,579.12 18.468691,-34.11319,609.6 18.469643,-34.112274,609.6 18.473167,-34.108311,609.6 18.474026,-34.107056,609.6 18.476425,-34.102661,609.6 18.476761,-34.101837,609.6 18.478163,-34.096802,609.6 18.478317,-34.095745,609.6 18.478891,-34.090988,579.12 18.479061,-34.089504,579.12 18.47934,-34.084213,579.12 18.479397,-34.082932,579.12 18.479633,-34.07782,548.64 18.479691,-34.076656,548.64 18.480238,-34.071304,548.64 18.480461,-34.069885,548.64 18.481247,-34.065079,518.16 18.481407,-34.063854,518.16 18.482151,-34.058968,487.68 18.482311,-34.057709,487.68 18.484097,-34.045002,457.2 18.484612,-34.04002,457.2 18.485069,-34.031643,457.2 18.485113,-34.030701,457.2 18.485298,-34.025681,457.2 18.485281,-34.024567,457.2 18.485241,-34.015579,457.2 18.485113,-34.01088,457.2 18.484945,-34.001495,457.2 18.485113,-34.000626,457.2 18.487019,-33.997467,457.2 18.487747,-33.996918,457.2 18.491364,-33.995098,426.72 18.492344,-33.99472,426.72 18.497334,-33.993164,396.24 18.498343,-33.992935,396.24 18.502602,-33.99202,457.2 18.503723,-33.991745,487.68 18.508129,-33.990677,487.68 18.509272,-33.990326,487.68 18.513794,-33.988861,487.68 18.51499,-33.988449,487.68 18.520088,-33.986439,487.68 18.521212,-33.985748,487.68 18.525248,-33.982727,487.68 18.526144,-33.981949,487.68 18.52993,-33.978664,487.68 18.530846,-33.977921,487.68 18.535023,-33.974567,457.2 18.536234,-33.973618,457.2 18.540886,-33.970367,426.72 18.541946,-33.969681,426.72 18.547211,-33.966606,426.72 18.548355,-33.966049,396.24 18.553722,-33.963867,396.24 18.55505,-33.963444,396.24 18.5606,-33.962372,365.76 18.561682,-33.962311,365.76 18.567066,-33.962418,335.28 18.568016,-33.96254,335.28 18.572617,-33.963348,335.28 18.573818,-33.963581,335.28 18.578281,-33.964607,304.8 18.57914,-33.96479,304.8 18.583149,-33.966019,274.32 18.584118,-33.966373,243.84 18.58741,-33.968033,213.36 18.588009,-33.968472,213.36 18.590355,-33.97047,182.88 18.590755,-33.970982,182.88 18.592062,-33.972977,152.4 18.592358,-33.973404,152.4 18.593616,-33.975128,121.92 18.593845,-33.975361,121.92 18.594921,-33.976547,91.44 18.595089,-33.976776,91.44
        </coordinates>
      </LineString>
    </Placemark>
  </Document>
</kml>