<?xml version="1.0" encoding="UTF-8"?>
<kml xmlns="http://www.opengis.net/kml/2.2">
  <Document>
    <name>-/ZTHOT - Optimised</name>
    <description><![CDATA[Optimised flight path with 320 points (decimated from 1599 original points). Source format: Standard KML]]></description>
    
    <Style id="flightPath">
      <LineStyle>
        <color>ff0000ff</color>
        <width>3</width>
      </LineStyle>
    </Style>
    
    <Placemark>
      <name>Flight Path</name>
      <description><![CDATA[<div style="width:220px; text-align:center;">
<div style="width:210px; text-align:center;">
<div style=" background: #000; color: #fff; font-size: 14px; text-align:left; border: 1px solid #000; padding: 2px 6px; text-shadow: 0 1px 0 #000; box-shadow: 0 1px 3px rgba(0,0,0,0.6); background: -webkit-gradient(linear, left top, left bottom, color-stop(0%,#808080), color-stop(2%,#303030), color-stop(100%,#0c0c0c));"><span style="font-size: 14px; font-weight: bold;"><a href="javascript:void(0);" style="color: #fff; cursor: pointer;text-decoration: none;">-</a></span> / ZTHOT<br/>Cape Town Helicopters</div>

<div style="border-top: 1px solid #005c90; color: #fff; padding-bottom: 5px; box-shadow: 0 0 1px #9BE3F6 inset, 0 1px 0 #9BE3F6 inset, 0 -1px 3px rgba(0,0,0,0.4); background:rgba(43,114,173,1); background: -webkit-gradient(linear, left top, left bottom, color-stop(0%,rgba(92,184,229,1)), color-stop(100%,rgba(43,114,173,1)));">
<a style="text-decoration: none; color: rgb(255, 255, 255); font-size: 12px; width:77px; display: inline-block;" title=" Airport" href="javascript:void(0);/departures"><h3 style="padding: 0px; margin: 10px 0px 0px; font-size: 16px; ">?</h3></a>
<span style="background: url(https://www.flightradar24.com/static/images/userUI_sprite.png?14) no-repeat scroll 0 -464px rgba(0, 0, 0, 0); border: medium none; display: inline-block; height: 16px; width: 45px;"></span>
<a style="text-decoration: none; color: rgb(255, 255, 255); font-size: 12px; width:77px; display: inline-block;" title=" Airport" href="javascript:void(0);/arrivals"><h3 style="padding: 0px; margin: 10px 0px 0px; font-size: 16px;">?</h3></a>
<div style=" margin-top:10px;">
<div style="display: inline-block; font-size: 12px; padding: 0 5px;">
<div>
<span style="color: #c1eaff;" title="Actual Time of Departure">ATD </span>
<span title="2025-08-19 12:16">12:16</span> <span title="Coordinated Universal Time">UTC</span>
</div>
</div>
<div style="display: inline-block; font-size: 12px; padding: 0 5px;">
<div>
<span style="color: #c1eaff;" title="Estimated Time of Arrival">ETA </span>
<span title="2025-08-19 13:00">13:00</span> <span title="Coordinated Universal Time">UTC</span>
</div>
</div>
</div>
<br style="clear: both;"/>
</div>

<div style="display: block;">
<table style="border-collapse: collapse; width: 100%;">
<tr style="border-right: 1px solid #dadada; ">
<td style="background: none repeat scroll 0 0 #dadada; padding: 0; width: 31px;">
<span style="background: url(https://www.flightradar24.com/static/images/userUI_sprite.png?14) no-repeat scroll -208px -464px rgba(0, 0, 0, 0); height: 26px; margin: 8px 0 0 4px; width: 23px; display: block;"></span>
</td>
<td colspan="2" style="border-bottom: 1px solid #dadada; border-left: 1px solid #dadada; color: #666; line-height: 1.1em; padding: 3px 6px; vertical-align: top; font-size: 14px;">
Aircraft<span style="float: right; font-size: 12px;">(AS50)</span><br>
<span style="color: #333; font-size: 16px; font-weight: bold; line-height: 1.3em;">Airbus Helicopters H125</span>
</td>
</tr>
<tr style="border-right: 1px solid #dadada; ">
<td style="background: none repeat scroll 0 0 #dadada; padding: 0; width: 31px;">
<td colspan="2" style="border-bottom: 1px solid #dadada; border-left: 1px solid #dadada; color: #666; line-height: 1.1em; padding: 3px 6px; vertical-align: top; font-size: 14px;">
Registration<br>
<span style="color: #333; font-size: 16px; font-weight: bold; line-height: 1.3em;"><a href="https://www.flightradar24.com/reg/zt-hot" style="text-decoration: none; color: #333;">ZT-HOT</a></span>
</td>
</tr>
</table>
</div>

</div>
</div>]]></description>
      <styleUrl>#flightPath</styleUrl>
      <LineString>
        <extrude>1</extrude>
        <tessellate>1</tessellate>
        <altitudeMode>absolute</altitudeMode>
        <coordinates>
          18.430239,-33.896667,60.96 18.436146,-33.888866,213.36 18.437462,-33.885372,243.84 18.437233,-33.881512,304.8 18.436317,-33.877693,335.28 18.434601,-33.874107,396.24 18.431168,-33.871315,426.72 18.426762,-33.87043,457.2 18.421886,-33.871674,487.68 18.419151,-33.874947,487.68 18.419868,-33.878586,518.16 18.423456,-33.881149,518.16 18.427906,-33.880394,518.16 18.427448,-33.877041,518.16 18.422756,-33.875088,548.64 18.417149,-33.87476,548.64 18.411655,-33.875458,579.12 18.405704,-33.876621,579.12 18.399801,-33.878311,579.12 18.39426,-33.880344,579.12 18.388422,-33.88353,579.12 18.383732,-33.886909,579.12 18.379326,-33.890915,579.12 18.375034,-33.895195,579.12 18.369141,-33.901199,579.12 18.360004,-33.911499,548.64 18.356609,-33.916332,548.64 18.352947,-33.92178,548.64 18.349915,-33.926945,548.64 18.347223,-33.93219,548.64 18.346481,-33.940304,548.64 18.350773,-33.942448,548.64 18.355064,-33.940632,579.12 18.357426,-33.936996,579.12 18.35692,-33.932922,579.12 18.352146,-33.931553,579.12 18.348083,-33.937744,579.12 18.347454,-33.943611,579.12 18.346104,-33.950363,548.64 18.339321,-33.972107,518.16 18.331697,-33.985794,518.16 18.314667,-34.011532,548.64 18.301037,-34.031113,518.16 18.300028,-34.039627,518.16 18.304653,-34.050354,487.68 18.30883,-34.056595,457.2 18.313236,-34.062088,457.2 18.317871,-34.06744,426.72 18.329624,-34.081512,426.72 18.343849,-34.099003,396.24 18.349186,-34.107056,396.24 18.351803,-34.113667,365.76 18.351803,-34.120323,365.76 18.349354,-34.126144,396.24 18.346653,-34.131729,396.24 18.343735,-34.139923,426.72 18.343048,-34.149651,426.72 18.344534,-34.162079,396.24 18.347281,-34.168716,396.24 18.350979,-34.176315,396.24 18.357986,-34.191147,396.24 18.36937,-34.216312,396.24 18.371775,-34.223511,396.24 18.377716,-34.245026,396.24 18.39571,-34.293732,396.24 18.417458,-34.320831,426.72 18.423176,-34.325775,426.72 18.439598,-34.339233,426.72 18.458769,-34.356674,426.72 18.469139,-34.365051,426.72 18.479404,-34.370308,426.72 18.486795,-34.372284,457.2 18.493521,-34.373383,457.2 18.500175,-34.374081,487.68 18.50647,-34.373707,487.68 18.510761,-34.37175,487.68 18.51202,-34.368305,518.16 18.509048,-34.366013,518.16 18.503611,-34.365784,518.16 18.497772,-34.366211,548.64 18.489317,-34.366241,548.64 18.483656,-34.365326,518.16 18.477802,-34.363232,518.16 18.473339,-34.36002,518.16 18.471045,-34.355713,548.64 18.470821,-34.351315,548.64 18.471661,-34.345688,548.64 18.473175,-34.340332,548.64 18.474575,-34.335159,548.64 18.478775,-34.318451,609.6 18.482985,-34.301422,609.6 18.483639,-34.296059,609.6 18.484049,-34.290298,609.6 18.484554,-34.275993,609.6 18.483433,-34.25798,579.12 18.482552,-34.252579,579.12 18.481293,-34.24704,548.64 18.479691,-34.241592,518.16 18.477917,-34.236191,518.16 18.473911,-34.221901,518.16 18.470879,-34.212868,548.64 18.468634,-34.207214,548.64 18.463758,-34.196686,579.12 18.458061,-34.184238,548.64 18.456358,-34.17897,548.64 18.454901,-34.173065,548.64 18.453827,-34.16748,548.64 18.45314,-34.161846,548.64 18.451939,-34.149651,548.64 18.452602,-34.144363,548.64 18.454229,-34.138962,548.64 18.457312,-34.133881,548.64 18.461151,-34.129353,548.64 18.465099,-34.12484,548.64 18.470203,-34.117767,548.64 18.472252,-34.112503,548.64 18.472252,-34.10743,579.12 18.469334,-34.101421,548.64 18.464542,-34.096161,548.64 18.460171,-34.091492,548.64 18.448048,-34.079124,548.64 18.435059,-34.064621,548.64 18.424988,-34.051472,548.64 18.422413,-34.046631,548.64 18.421268,-34.041512,548.64 18.420822,-34.035645,548.64 18.42144,-34.029827,548.64 18.423214,-34.024845,548.64 18.426987,-34.018799,548.64 18.431416,-34.013901,548.64 18.435802,-34.009388,548.64 18.44128,-34.004288,548.64 18.446999,-33.999756,548.64 18.452211,-33.995911,518.16 18.462469,-33.988541,487.68 18.46796,-33.983551,457.2 18.472109,-33.978928,457.2 18.475342,-33.974522,426.72 18.47777,-33.970367,426.72 18.479845,-33.965836,426.72 18.481525,-33.961258,396.24 18.482952,-33.956272,365.76 18.483582,-33.95171,365.76 18.483353,-33.94701,365.76 18.482494,-33.942215,335.28 18.481134,-33.937775,335.28 18.479118,-33.93351,304.8 18.476486,-33.929737,274.32 18.473175,-33.925827,274.32 18.47002,-33.922337,274.32 18.461323,-33.912605,243.84 18.45776,-33.909256,243.84 18.453892,-33.904724,213.36 18.449968,-33.900055,182.88 18.446846,-33.89827,152.4 18.443298,-33.897804,152.4 18.439865,-33.897942,121.92 18.43618,-33.898361,91.44 18.432816,-33.898865,60.96 18.431053,-33.8992,30.48 18.430239,-33.896667,60.96 18.431471,-33.895157,91.44 18.436146,-33.888866,213.36 18.436489,-33.88826,213.36 18.437462,-33.885372,243.84 18.43758,-33.884583,274.32 18.437233,-33.881512,304.8 18.437061,-33.880627,304.8 18.436317,-33.877693,335.28 18.436068,-33.876938,365.76 18.434601,-33.874107,396.24 18.434162,-33.873505,396.24 18.431168,-33.871315,426.72 18.430239,-33.870941,426.72 18.426762,-33.87043,457.2 18.425732,-33.870476,457.2 18.421886,-33.871674,487.68 18.421097,-33.8722,487.68 18.419151,-33.874947,487.68 18.419037,-33.875645,487.68 18.419868,-33.878586,518.16 18.420372,-33.879181,518.16 18.423456,-33.881149,518.16 18.424587,-33.881512,518.16 18.427906,-33.880394,518.16 18.428221,-33.879822,518.16 18.427448,-33.877041,518.16 18.426647,-33.876434,548.64 18.422756,-33.875088,548.64 18.421783,-33.874947,548.64 18.417149,-33.87476,548.64 18.416113,-33.874878,548.64 18.411655,-33.875458,579.12 18.410339,-33.875702,579.12 18.405704,-33.876621,579.12 18.404734,-33.876892,579.12 18.399801,-33.878311,579.12 18.399239,-33.878483,579.12 18.39426,-33.880344,579.12 18.393019,-33.88092,579.12 18.388422,-33.88353,579.12 18.387508,-33.884117,579.12 18.383732,-33.886909,579.12 18.382702,-33.887794,579.12 18.379326,-33.890915,579.12 18.378696,-33.891518,609.6 18.375034,-33.895195,579.12 18.374073,-33.896164,579.12 18.369141,-33.901199,579.12 18.365822,-33.904694,579.12 18.360004,-33.911499,548.64 18.359356,-33.912422,548.64 18.356609,-33.916332,548.64 18.355801,-33.917542,548.64 18.352947,-33.92178,548.64 18.352432,-33.922569,548.64 18.349915,-33.926945,548.64 18.349228,-33.928204,548.64 18.347223,-33.93219,548.64 18.346775,-33.933197,518.16 18.346481,-33.940304,548.64 18.347168,-33.941116,548.64 18.350773,-33.942448,548.64 18.351372,-33.942398,548.64 18.355064,-33.940632,579.12 18.355694,-33.939934,579.12 18.357426,-33.936996,579.12 18.357651,-33.936218,579.12 18.35692,-33.932922,579.12 18.356304,-33.932373,579.12 18.352146,-33.931553,579.12 18.350868,-33.931915,579.12 18.348083,-33.937744,579.12 18.348026,-33.938538,579.12 18.347454,-33.943611,579.12 18.347281,-33.944595,579.12 18.346104,-33.950363,548.64 18.34487,-33.956085,548.64 18.339321,-33.972107,518.16 18.337955,-33.974941,518.16 18.331697,-33.985794,518.16 18.3284,-33.991467,518.16 18.314667,-34.011532,548.64 18.310604,-34.016743,548.64 18.301037,-34.031113,518.16 18.300591,-34.032478,518.16 18.300028,-34.039627,518.16 18.30014,-34.040131,518.16 18.304653,-34.050354,487.68 18.305283,-34.051426,487.68 18.30883,-34.056595,457.2 18.309669,-34.057663,457.2 18.313236,-34.062088,457.2 18.314154,-34.063156,457.2 18.317871,-34.06744,426.72 18.318748,-34.068466,426.72 18.329624,-34.081512,426.72 18.332691,-34.085175,396.24 18.343849,-34.099003,396.24 18.346424,-34.102402,396.24 18.349186,-34.107056,396.24 18.349857,-34.108406,365.76 18.351803,-34.113667,365.76 18.352089,-34.114922,365.76 18.351803,-34.120323,365.76 18.35146,-34.121441,365.76 18.349354,-34.126144,396.24 18.348656,-34.127586,396.24 18.346653,-34.131729,396.24 18.346081,-34.132938,396.24 18.343735,-34.139923,426.72 18.34358,-34.140976,426.72 18.343048,-34.149651,426.72 18.343019,-34.152145,396.24 18.344534,-34.162079,396.24 18.344994,-34.163479,396.24 18.347281,-34.168716,396.24 18.347841,-34.169861,396.24 18.350979,-34.176315,396.24 18.351597,-34.177643,396.24 18.357986,-34.191147,396.24 18.360172,-34.195587,396.24 18.36937,-34.216312,396.24 18.369942,-34.217896,396.24 18.371775,-34.223511,396.24 18.373177,-34.227951,396.24 18.377716,-34.245026,396.24 18.378925,-34.249458,396.24 18.39571,-34.293732,396.24 18.402548,-34.304443,396.24 18.417458,-34.320831,426.72 18.418579,-34.321838,426.72 18.423176,-34.325775,426.72 18.426931,-34.328842,426.72 18.439598,-34.339233,426.72 18.443018,-34.342209,426.72 18.458769,-34.356674,426.72 18.462244,-34.359833,426.72 18.469139,-34.365051,426.72 18.470764,-34.366104,426.72 18.479404,-34.370308,426.72 18.480778,-34.370819,426.72 18.486795,-34.372284,457.2 18.488085,-34.372513,457.2 18.493521,-34.373383,457.2 18.494755,-34.373566,457.2 18.500175,-34.374081,487.68 18.501663,-34.374126,487.68 18.50647,-34.373707,487.68 18.507442,-34.373474,487.68 18.510761,-34.37175,487.68 18.511505,-34.371006,487.68 18.51202,-34.368305,518.16 18.511734,-34.367702,518.16 18.509048,-34.366013,518.16 18.508039,-34.365829,518.16 18.503611,-34.365784,518.16 18.50235,-34.365887,518.16 18.497772,-34.366211,548.64 18.496513,-34.366257,548.64 18.489317,-34.366241,548.64 18.488085,-34.366104,548.64 18.483656,-34.365326,518.16 18.482151,-34.364956,518.16 18.477802,-34.363232,518.16 18.476658,-34.362629,518.16 18.473339,-34.36002,518.16 18.47271,-34.35923,548.64 18.471045,-34.355713,548.64 18.470877,-34.354843,548.64 18.470821,-34.351315,548.64 18.470936,-34.349827,548.64 18.471661,-34.345688,548.64 18.471886,-34.344772,548.64 18.473175,-34.340332,548.64 18.473455,-34.339371,548.64 18.474575,-34.335159,548.64 18.475456,-34.331486,548.64 18.478775,-34.318451,609.6 18.479862,-34.314213,609.6 18.482985,-34.301422,609.6 18.483181,-34.300339,609.6 18.483639,-34.296059,609.6 18.483696,-34.295128,609.6 18.484049,-34.290298,609.6 18.484104,-34.289337,609.6 18.484554,-34.275993,609.6 18.484442,-34.272675,609.6 18.483433,-34.25798,579.12 18.483263,-34.256744,579.12 18.482552,-34.252579,579.12 18.482265,-34.251369,579.12 18.481293,-34.24704,548.64 18.480892,-34.245689,548.64 18.479691,-34.241592,518.16 18.479347,-34.240475,518.16 18.477917,-34.236191,518.16 18.477547,-34.235184,518.16 18.473911,-34.221901,518.16 18.47311,-34.219154,518.16 18.470879,-34.212868,548.64 18.470539,-34.212067,548.64 18.468634,-34.207214,548.64 18.466896,-34.203186,548.64 18.463758,-34.196686,579.12 18.463253,-34.195816,579.12 18.458061,-34.184238,548.64 18.457603,-34.182983,548.64 18.456358,-34.17897,548.64 18.456116,-34.178093,548.64 18.454901,-34.173065,548.64 18.454685,-34.172089,548.64 18.453827,-34.16748,548.64 18.453669,-34.166428,548.64 18.45314,-34.161846,548.64 18.452995,-34.160797,548.64 18.451939,-34.149651,548.64 18.451996,-34.148579,548.64 18.452602,-34.144363,548.64 18.45274,-34.143459,548.64 18.454229,-34.138962,548.64 18.454733,-34.137955,548.64 18.457312,-34.133881,548.64 18.458061,-34.132984,548.64 18.461151,-34.129353,548.64 18.461796,-34.128616,548.64 18.465099,-34.12484,548.64 18.465887,-34.123993,548.64 18.470203,-34.117767,548.64 18.470877,-34.116531,548.64 18.472252,-34.112503,548.64 18.472424,-34.111385,579.12 18.472252,-34.10743,579.12 18.471828,-34.105774,548.64 18.469334,-34.101421,548.64 18.468647,-34.100586,548.64 18.464542,-34.096161,548.64 18.463554,-34.095093,548.64 18.460171,-34.091492,548.64 18.459091,-34.090343,548.64 18.448048,-34.079124,548.64 18.445652,-34.076569,548.64 18.435059,-34.064621,548.64 18.432941,-34.062088,548.64 18.424988,-34.051472,548.64 18.424473,-34.050632,548.64 18.422413,-34.046631,548.64 18.422054,-34.045532,548.64 18.421268,-34.041512,548.64 18.421045,-34.039719,548.64 18.420822,-34.035645,548.64 18.420811,-34.03476,548.64 18.42144,-34.029827,548.64 18.421726,-34.02866,548.64 18.423214,-34.024845,548.64 18.423847,-34.023605,548.64 18.426987,-34.018799,548.64 18.427715,-34.017929,548.64 18.431416,-34.013901,548.64 18.432484,-34.012787,548.64 18.435802,-34.009388,548.64 18.436604,-34.008644,548.64 18.44128,-34.004288,548.64 18.442289,-34.003418,548.64 18.446999,-33.999756,548.64 18.448048,-33.999008,548.64 18.452211,-33.995911,518.16 18.453444,-33.995041,518.16 18.462469,-33.988541,487.68 18.46447,-33.986858,487.68 18.46796,-33.983551,457.2 18.469194,-33.982315,457.2 18.472109,-33.978928,457.2 18.472895,-33.978012,457.2 18.475342,-33.974522,426.72 18.475857,-33.973728,426.72 18.47777,-33.970367,426.72 18.478317,-33.969353,426.72 18.479845,-33.965836,426.72 18.480206,-33.964977,396.24 18.481525,-33.961258,396.24 18.481863,-33.960205,396.24 18.482952,-33.956272,365.76 18.483152,-33.955307,365.76 18.483582,-33.95171,365.76 18.483582,-33.950642,365.76 18.483353,-33.94701,365.76 18.483181,-33.94603,365.76 18.482494,-33.942215,335.28 18.482254,-33.941299,335.28 18.481134,-33.937775,335.28 18.480835,-33.936954,304.8 18.479118,-33.93351,304.8 18.478661,-33.932812,304.8 18.476486,-33.929737,274.32 18.475809,-33.928894,274.32 18.473175,-33.925827,274.32 18.472446,-33.925003,274.32 18.47002,-33.922337,274.32 18.469419,-33.921661,274.32 18.461323,-33.912605,243.84 18.460121,-33.911396,243.84 18.45776,-33.909256,243.84 18.457088,-33.908649,243.84 18.453892,-33.904724,213.36 18.453331,-33.903809,213.36 18.449968,-33.900055,182.88 18.449421,-33.899666,182.88 18.446846,-33.89827,152.4 18.446217,-33.898083,152.4 18.443298,-33.897804,152.4 18.442738,-33.897812,121.92 18.439865,-33.897942,121.92 18.439039,-33.898041,91.44 18.43618,-33.898361,91.44 18.435732,-33.898407,60.96 18.432816,-33.898865,60.96 18.432598,-33.898872,30.48 18.431053,-33.8992,30.48 18.430824,-33.899246,30.48
        </coordinates>
      </LineString>
    </Placemark>
  </Document>
</kml>