<?xml version="1.0" encoding="UTF-8"?>
<kml xmlns="http://www.opengis.net/kml/2.2">
  <Document>
    <name>-/ZTRNW - Optimised</name>
    <description><![CDATA[Optimised flight path with 810 points (decimated from 4049 original points). Source format: Standard KML]]></description>
    
    <Style id="flightPath">
      <LineStyle>
        <color>ff0000ff</color>
        <width>3</width>
      </LineStyle>
    </Style>
    
    <Placemark>
      <name>Flight Path</name>
      <description><![CDATA[<div style="width:220px; text-align:center;">
<div style="width:210px; text-align:center;">
<div style=" background: #000; color: #fff; font-size: 14px; text-align:left; border: 1px solid #000; padding: 2px 6px; text-shadow: 0 1px 0 #000; box-shadow: 0 1px 3px rgba(0,0,0,0.6); background: -webkit-gradient(linear, left top, left bottom, color-stop(0%,#808080), color-stop(2%,#303030), color-stop(100%,#0c0c0c));"><span style="font-size: 14px; font-weight: bold;"><a href="javascript:void(0);" style="color: #fff; cursor: pointer;text-decoration: none;">-</a></span> / ZTRNW<br/>Private owner</div>

<div style="border-top: 1px solid #005c90; color: #fff; padding-bottom: 5px; box-shadow: 0 0 1px #9BE3F6 inset, 0 1px 0 #9BE3F6 inset, 0 -1px 3px rgba(0,0,0,0.4); background:rgba(43,114,173,1); background: -webkit-gradient(linear, left top, left bottom, color-stop(0%,rgba(92,184,229,1)), color-stop(100%,rgba(43,114,173,1)));">
<a style="text-decoration: none; color: rgb(255, 255, 255); font-size: 12px; width:77px; display: inline-block;" title=" Airport" href="javascript:void(0);/departures"><h3 style="padding: 0px; margin: 10px 0px 0px; font-size: 16px; ">?</h3></a>
<span style="background: url(https://www.flightradar24.com/static/images/userUI_sprite.png?14) no-repeat scroll 0 -464px rgba(0, 0, 0, 0); border: medium none; display: inline-block; height: 16px; width: 45px;"></span>
<a style="text-decoration: none; color: rgb(255, 255, 255); font-size: 12px; width:77px; display: inline-block;" title=" Airport" href="javascript:void(0);/arrivals"><h3 style="padding: 0px; margin: 10px 0px 0px; font-size: 16px;">?</h3></a>
<div style=" margin-top:10px;">
<div style="display: inline-block; font-size: 12px; padding: 0 5px;">
<div>
<span style="color: #c1eaff;" title="Actual Time of Departure">ATD </span>
<span title="2025-10-07 07:00">07:00</span> <span title="Coordinated Universal Time">UTC</span>
</div>
</div>
<div style="display: inline-block; font-size: 12px; padding: 0 5px;">
<div>
<span style="color: #c1eaff;" title="Estimated Time of Arrival">ETA </span>
<span title="2025-10-07 07:26">07:26</span> <span title="Coordinated Universal Time">UTC</span>
</div>
</div>
</div>
<br style="clear: both;"/>
</div>

<div style="display: block;">
<table style="border-collapse: collapse; width: 100%;">
<tr style="border-right: 1px solid #dadada; ">
<td style="background: none repeat scroll 0 0 #dadada; padding: 0; width: 31px;">
<span style="background: url(https://www.flightradar24.com/static/images/userUI_sprite.png?14) no-repeat scroll -208px -464px rgba(0, 0, 0, 0); height: 26px; margin: 8px 0 0 4px; width: 23px; display: block;"></span>
</td>
<td colspan="2" style="border-bottom: 1px solid #dadada; border-left: 1px solid #dadada; color: #666; line-height: 1.1em; padding: 3px 6px; vertical-align: top; font-size: 14px;">
Aircraft<span style="float: right; font-size: 12px;">(EC20)</span><br>
<span style="color: #333; font-size: 16px; font-weight: bold; line-height: 1.3em;">Airbus Helicopters H120</span>
</td>
</tr>
<tr style="border-right: 1px solid #dadada; ">
<td style="background: none repeat scroll 0 0 #dadada; padding: 0; width: 31px;">
<td colspan="2" style="border-bottom: 1px solid #dadada; border-left: 1px solid #dadada; color: #666; line-height: 1.1em; padding: 3px 6px; vertical-align: top; font-size: 14px;">
Registration<br>
<span style="color: #333; font-size: 16px; font-weight: bold; line-height: 1.3em;"><a href="https://www.flightradar24.com/reg/zt-rnw" style="text-decoration: none; color: #333;">ZT-RNW</a></span>
</td>
</tr>
</table>
</div>

</div>
</div>]]></description>
      <styleUrl>#flightPath</styleUrl>
      <LineString>
        <extrude>1</extrude>
        <tessellate>1</tessellate>
        <altitudeMode>absolute</altitudeMode>
        <coordinates>
          18.435843,-33.898361,53.34 18.434498,-33.900055,22.86 18.432713,-33.899944,7.62 18.430481,-33.899712,0 18.428707,-33.899899,0 18.42762,-33.900364,0 18.428192,-33.898827,0 18.42905,-33.897339,0 18.430126,-33.895752,7.62 18.431416,-33.893967,38.1 18.433937,-33.890625,91.44 18.436203,-33.887329,129.54 18.436775,-33.883373,175.26 18.434429,-33.879555,228.6 18.430882,-33.876808,274.32 18.426304,-33.874851,312.42 18.421383,-33.874153,350.52 18.415777,-33.87442,396.24 18.410282,-33.875458,434.34 18.404791,-33.877213,487.68 18.399239,-33.879414,533.4 18.394308,-33.881744,563.88 18.389339,-33.884583,601.98 18.384836,-33.887604,640.08 18.380856,-33.890945,662.94 18.376179,-33.89529,685.8 18.371944,-33.899666,701.04 18.368397,-33.904228,701.04 18.364735,-33.909256,708.66 18.361404,-33.914429,716.28 18.358383,-33.919544,716.28 18.355576,-33.92482,708.66 18.352776,-33.930668,716.28 18.350363,-33.935669,731.52 18.34774,-33.941376,746.76 18.343637,-33.950272,739.14 18.334276,-33.971008,731.52 18.324738,-33.995235,739.14 18.320847,-34.006222,716.28 18.318077,-34.012756,701.04 18.314489,-34.020264,670.56 18.311182,-34.025894,662.94 18.307371,-34.031799,655.32 18.306084,-34.037834,655.32 18.308887,-34.044769,662.94 18.313236,-34.051052,655.32 18.317642,-34.056965,647.7 18.322168,-34.062927,640.08 18.327494,-34.071167,632.46 18.330345,-34.077961,632.46 18.33189,-34.085037,617.22 18.332348,-34.092251,609.6 18.332005,-34.099514,601.98 18.330856,-34.106369,601.98 18.328743,-34.112316,594.36 18.325756,-34.117722,594.36 18.319702,-34.119095,579.12 18.314781,-34.123348,541.02 18.312136,-34.12944,525.78 18.310173,-34.135849,525.78 18.309389,-34.14212,533.4 18.309612,-34.148346,548.64 18.312696,-34.154984,563.88 18.316612,-34.160683,563.88 18.321419,-34.166924,556.26 18.326485,-34.173065,563.88 18.343563,-34.193317,556.26 18.352045,-34.204422,563.88 18.355808,-34.211006,563.88 18.358603,-34.217468,563.88 18.361073,-34.223763,563.88 18.363367,-34.230835,563.88 18.364906,-34.237167,563.88 18.366562,-34.244659,548.64 18.368111,-34.251648,541.02 18.372784,-34.269882,556.26 18.375195,-34.276611,556.26 18.378181,-34.283394,556.26 18.383547,-34.292953,563.88 18.387337,-34.299271,571.5 18.391628,-34.305832,571.5 18.396606,-34.312538,563.88 18.4021,-34.318497,579.12 18.408546,-34.324493,571.5 18.414974,-34.329994,556.26 18.421898,-34.3353,548.64 18.429062,-34.340515,541.02 18.445415,-34.352573,548.64 18.451538,-34.357773,571.5 18.457775,-34.362442,594.36 18.464317,-34.366699,617.22 18.471622,-34.369797,594.36 18.478775,-34.371284,586.74 18.485899,-34.372238,586.74 18.49205,-34.37273,579.12 18.499014,-34.372559,594.36 18.505211,-34.37138,594.36 18.509731,-34.36919,594.36 18.513308,-34.366196,609.6 18.515045,-34.362808,640.08 18.514597,-34.358734,647.7 18.512018,-34.354431,624.84 18.508301,-34.350338,609.6 18.504116,-34.345917,594.36 18.500528,-34.341385,594.36 18.497887,-34.336746,594.36 18.495819,-34.33168,586.74 18.494225,-34.326408,594.36 18.493195,-34.321243,594.36 18.492565,-34.315609,594.36 18.492336,-34.310257,586.74 18.492344,-34.304489,571.5 18.492344,-34.298859,586.74 18.492008,-34.293411,586.74 18.491503,-34.288055,563.88 18.490215,-34.278259,548.64 18.489655,-34.270523,563.88 18.489532,-34.265705,541.02 18.489132,-34.260723,525.78 18.48971,-34.255234,502.92 18.490551,-34.249878,533.4 18.492008,-34.245071,518.16 18.492565,-34.240849,457.2 18.490719,-34.23848,388.62 18.487524,-34.238113,312.42 18.483925,-34.238285,228.6 18.480686,-34.238388,137.16 18.478107,-34.237885,53.34 18.476425,-34.236832,0 18.475342,-34.235634,0 18.475529,-34.234589,0 18.476315,-34.232609,0 18.476706,-34.231339,22.86 18.476944,-34.229534,53.34 18.476931,-34.227264,106.68 18.47683,-34.22488,152.4 18.476658,-34.222553,190.5 18.4762,-34.219898,236.22 18.4758,-34.217525,289.56 18.475685,-34.215057,327.66 18.475685,-34.212448,381 18.475641,-34.209778,411.48 18.474855,-34.207169,441.96 18.473846,-34.204147,472.44 18.472481,-34.201046,480.06 18.470879,-34.197834,525.78 18.469139,-34.194534,556.26 18.467289,-34.190826,571.5 18.4659,-34.186054,586.74 18.465328,-34.181122,609.6 18.465729,-34.176373,640.08 18.466673,-34.171188,647.7 18.467731,-34.165432,609.6 18.46859,-34.159985,594.36 18.469963,-34.15398,601.98 18.471565,-34.148674,609.6 18.47323,-34.143539,601.98 18.47477,-34.137779,586.74 18.475977,-34.132645,579.12 18.477459,-34.125816,571.5 18.479176,-34.117901,563.88 18.480349,-34.112366,571.5 18.48119,-34.106689,563.88 18.481407,-34.101376,571.5 18.481407,-34.096115,579.12 18.48147,-34.086365,563.88 18.482086,-34.078949,563.88 18.483263,-34.073502,563.88 18.484783,-34.068279,563.88 18.485954,-34.06279,571.5 18.486614,-34.057709,579.12 18.487301,-34.051891,571.5 18.488102,-34.045792,563.88 18.488756,-34.038208,525.78 18.488789,-34.032108,518.16 18.488588,-34.026581,502.92 18.488308,-34.020996,510.54 18.487644,-34.008457,510.54 18.488102,-34.002686,495.3 18.488813,-33.99678,487.68 18.489374,-33.991058,441.96 18.490105,-33.985043,411.48 18.491192,-33.979736,396.24 18.492456,-33.97403,388.62 18.493252,-33.968655,373.38 18.493073,-33.963089,358.14 18.492008,-33.958145,358.14 18.489878,-33.953156,350.52 18.487415,-33.948498,312.42 18.48461,-33.944092,266.7 18.48175,-33.939888,259.08 18.478718,-33.936024,266.7 18.4758,-33.932346,266.7 18.473063,-33.928116,251.46 18.469734,-33.923779,243.84 18.466473,-33.920147,251.46 18.462982,-33.916191,266.7 18.456402,-33.908417,289.56 18.452797,-33.904415,220.98 18.448679,-33.901566,266.7 18.444214,-33.90004,213.36 18.439487,-33.89946,144.78 18.435619,-33.89946,91.44 18.432592,-33.899597,38.1 18.430967,-33.899643,7.62 18.42794,-33.899872,0 18.426764,-33.900604,0 18.427277,-33.900131,0 18.42802,-33.898689,0 18.429173,-33.896988,0 18.430939,-33.894547,30.48 18.432999,-33.891937,83.82 18.435402,-33.889053,114.3 18.437176,-33.885746,152.4 18.437176,-33.881882,190.5 18.435562,-33.878586,228.6 18.432257,-33.87616,251.46 18.427996,-33.874512,281.94 18.422951,-33.873459,320.04 18.417263,-33.873222,365.76 18.412525,-33.873825,419.1 18.408041,-33.875015,464.82 18.403276,-33.876617,502.92 18.398495,-33.878483,525.78 18.393631,-33.880718,548.64 18.388653,-33.883327,586.74 18.384163,-33.886185,624.84 18.380072,-33.889343,640.08 18.376293,-33.892776,670.56 18.372841,-33.89653,678.18 18.369541,-33.900455,701.04 18.366165,-33.904739,716.28 18.362974,-33.909119,708.66 18.360157,-33.913723,716.28 18.357811,-33.918381,716.28 18.355408,-33.923538,723.9 18.353277,-33.928619,723.9 18.351402,-33.933697,731.52 18.349514,-33.939327,716.28 18.347113,-33.94487,723.9 18.344366,-33.950226,723.9 18.345205,-33.956406,731.52 18.35844,-33.957718,708.66 18.360508,-33.94986,662.94 18.361013,-33.942993,632.46 18.361301,-33.936535,632.46 18.36256,-33.930901,617.22 18.364677,-33.924992,601.98 18.367481,-33.919544,594.36 18.371258,-33.913399,586.74 18.375082,-33.907837,579.12 18.378838,-33.902802,579.12 18.382759,-33.897526,579.12 18.386421,-33.892403,579.12 18.391514,-33.887562,579.12 18.397808,-33.883839,579.12 18.404961,-33.880905,571.5 18.412914,-33.879135,556.26 18.420582,-33.879135,556.26 18.427448,-33.881603,556.26 18.433208,-33.885452,480.06 18.438778,-33.889469,419.1 18.444307,-33.892868,373.38 18.44799,-33.8965,320.04 18.446217,-33.900272,259.08 18.441868,-33.900688,182.88 18.437004,-33.900131,83.82 18.433601,-33.900101,7.62 18.431625,-33.90004,0 18.428837,-33.899963,0 18.427099,-33.900238,0 18.427212,-33.900055,0 18.42802,-33.898594,0 18.429062,-33.896988,0 18.430574,-33.89502,7.62 18.431911,-33.893429,22.86 18.434315,-33.890308,60.96 18.436489,-33.886585,106.68 18.435507,-33.882294,144.78 18.432367,-33.879364,190.5 18.428364,-33.876949,228.6 18.423042,-33.875179,274.32 18.417892,-33.874573,327.66 18.412685,-33.874805,365.76 18.407368,-33.87561,388.62 18.402155,-33.877029,419.1 18.396887,-33.879135,449.58 18.391787,-33.881744,464.82 18.386765,-33.884907,495.3 18.382587,-33.887936,556.26 18.378614,-33.891174,594.36 18.374689,-33.894699,632.46 18.371372,-33.898315,662.94 18.368019,-33.902023,685.8 18.359585,-33.91177,739.14 18.356472,-33.915802,754.38 18.353176,-33.920521,777.24 18.350372,-33.925457,754.38 18.347784,-33.931,731.52 18.345222,-33.936722,708.66 18.342403,-33.942444,701.04 18.3391,-33.950035,701.04 18.339958,-33.955761,701.04 18.350086,-33.960182,701.04 18.357067,-33.954037,716.28 18.359051,-33.948853,716.28 18.3605,-33.942261,693.42 18.361473,-33.936024,670.56 18.362806,-33.929626,617.22 18.365135,-33.923035,579.12 18.367907,-33.917587,563.88 18.371773,-33.911629,541.02 18.375978,-33.906464,541.02 18.38052,-33.901382,541.02 18.390049,-33.891312,563.88 18.395348,-33.887142,571.5 18.401764,-33.88353,579.12 18.408737,-33.880718,579.12 18.416561,-33.879089,571.5 18.424301,-33.879929,556.26 18.43063,-33.882889,510.54 18.436293,-33.886551,457.2 18.441467,-33.890167,381 18.4445,-33.894497,281.94 18.441753,-33.89785,175.26 18.437748,-33.898224,121.92 18.433825,-33.898773,60.96 18.431416,-33.899231,22.86 18.429173,-33.899826,0 18.427334,-33.90004,0 18.426987,-33.90097,0 18.42794,-33.898727,0 18.429279,-33.89706,0 18.430967,-33.895248,15.24 18.432537,-33.8936,38.1 18.436068,-33.889938,83.82 18.438982,-33.885818,114.3 18.438198,-33.881653,152.4 18.433714,-33.879044,198.12 18.428593,-33.877415,243.84 18.423328,-33.876484,289.56 18.418186,-33.87616,335.28 18.412973,-33.876434,365.76 18.407648,-33.877396,388.62 18.4021,-33.87867,419.1 18.397335,-33.881058,441.96 18.393116,-33.884304,480.06 18.38887,-33.887558,510.54 18.384779,-33.890854,541.02 18.380743,-33.894424,579.12 18.377155,-33.897949,609.6 18.37385,-33.901428,632.46 18.37043,-33.905365,655.32 18.366909,-33.909256,670.56 18.363533,-33.913303,678.18 18.360285,-33.917404,693.42 18.357124,-33.92173,685.8 18.353502,-33.926926,670.56 18.345263,-33.939789,685.8 18.340416,-33.948498,701.04 18.330975,-33.964001,716.28 18.316675,-33.987396,754.38 18.3095,-33.998749,746.76 18.30126,-34.012253,723.9 18.298531,-34.018234,723.9 18.296642,-34.024147,716.28 18.2967,-34.030197,701.04 18.300419,-34.035969,701.04 18.304996,-34.041229,693.42 18.3095,-34.046997,685.8 18.311119,-34.052216,693.42 18.306978,-34.050751,708.66 18.305634,-34.04567,731.52 18.305283,-34.040161,746.76 18.30838,-34.03418,731.52 18.311462,-34.028778,723.9 18.314495,-34.023075,708.66 18.31802,-34.016785,670.56 18.321533,-34.010506,647.7 18.325081,-34.00436,632.46 18.328629,-33.997845,624.84 18.346539,-33.968422,556.26 18.35692,-33.947662,533.4 18.358995,-33.942123,586.74 18.362135,-33.933426,594.36 18.366508,-33.924107,601.98 18.370037,-33.918594,609.6 18.37368,-33.913147,609.6 18.377666,-33.907627,609.6 18.382145,-33.902161,586.74 18.387222,-33.896778,571.5 18.393517,-33.891937,556.26 18.400955,-33.888306,541.02 18.408827,-33.885727,487.68 18.41942,-33.884537,358.14 18.429173,-33.885178,320.04 18.43786,-33.886093,289.56 18.445015,-33.889004,274.32 18.449127,-33.893921,205.74 18.447334,-33.899139,129.54 18.441113,-33.901108,68.58 18.436832,-33.900921,30.48 18.433228,-33.900455,0 18.430294,-33.900284,0 18.428249,-33.900272,0 18.435843,-33.898361,53.34 18.435802,-33.8992,15.24 18.434498,-33.900055,22.86 18.434143,-33.900085,15.24 18.432713,-33.899944,7.62 18.432426,-33.899899,7.62 18.430481,-33.899712,0 18.430195,-33.899712,0 18.428707,-33.899899,0 18.428364,-33.900085,0 18.42762,-33.900364,0 18.427715,-33.899918,0 18.428192,-33.898827,0 18.428389,-33.898453,0 18.42905,-33.897339,0 18.42923,-33.897079,0 18.430126,-33.895752,7.62 18.430367,-33.895336,15.24 18.431416,-33.893967,38.1 18.431911,-33.893288,53.34 18.433937,-33.890625,91.44 18.434275,-33.890121,99.06 18.436203,-33.887329,129.54 18.436604,-33.88649,144.78 18.436775,-33.883373,175.26 18.436489,-33.882442,190.5 18.434429,-33.879555,228.6 18.433882,-33.878952,236.22 18.430882,-33.876808,274.32 18.429966,-33.876297,281.94 18.426304,-33.874851,312.42 18.425474,-33.874649,320.04 18.421383,-33.874153,350.52 18.42041,-33.874153,358.14 18.415777,-33.87442,396.24 18.414688,-33.874573,403.86 18.410282,-33.875458,434.34 18.409367,-33.875736,441.96 18.404791,-33.877213,487.68 18.403725,-33.877579,495.3 18.399239,-33.879414,533.4 18.398399,-33.879776,533.4 18.394308,-33.881744,563.88 18.393173,-33.882347,571.5 18.389339,-33.884583,601.98 18.388311,-33.885223,609.6 18.384836,-33.887604,640.08 18.383846,-33.888401,647.7 18.380856,-33.890945,662.94 18.379784,-33.891891,670.56 18.376179,-33.89529,685.8 18.375492,-33.895943,693.42 18.371944,-33.899666,701.04 18.371214,-33.900558,701.04 18.368397,-33.904228,701.04 18.367596,-33.905251,701.04 18.364735,-33.909256,708.66 18.364151,-33.910172,708.66 18.361404,-33.914429,716.28 18.360956,-33.915161,716.28 18.358383,-33.919544,716.28 18.357754,-33.920708,716.28 18.355576,-33.92482,708.66 18.35495,-33.926014,708.66 18.352776,-33.930668,716.28 18.352268,-33.931686,716.28 18.350363,-33.935669,731.52 18.349857,-33.936676,731.52 18.34774,-33.941376,746.76 18.347223,-33.94249,746.76 18.343637,-33.950272,739.14 18.341562,-33.954529,739.14 18.334276,-33.971008,731.52 18.331604,-33.977222,739.14 18.324738,-33.995235,739.14 18.323135,-34.000217,731.52 18.320847,-34.006222,716.28 18.320375,-34.007355,716.28 18.318077,-34.012756,701.04 18.317404,-34.01413,693.42 18.314489,-34.020264,670.56 18.313808,-34.021538,670.56 18.311182,-34.025894,662.94 18.31049,-34.026939,662.94 18.307371,-34.031799,655.32 18.306866,-34.032852,655.32 18.306084,-34.037834,655.32 18.30637,-34.039276,655.32 18.308887,-34.044769,662.94 18.309725,-34.046127,662.94 18.313236,-34.051052,655.32 18.314095,-34.052265,655.32 18.317642,-34.056965,647.7 18.318615,-34.058224,647.7 18.322168,-34.062927,640.08 18.324018,-34.065628,632.46 18.327494,-34.071167,632.46 18.328171,-34.072559,632.46 18.330345,-34.077961,632.46 18.330688,-34.079178,624.84 18.33189,-34.085037,617.22 18.332005,-34.086388,609.6 18.332348,-34.092251,609.6 18.332348,-34.093464,609.6 18.332005,-34.099514,601.98 18.331865,-34.101013,601.98 18.330856,-34.106369,601.98 18.330521,-34.107468,601.98 18.328743,-34.112316,594.36 18.328222,-34.113647,594.36 18.325756,-34.117722,594.36 18.324795,-34.118183,594.36 18.319702,-34.119095,579.12 18.318468,-34.119644,571.5 18.314781,-34.123348,541.02 18.314096,-34.124634,541.02 18.312136,-34.12944,525.78 18.311743,-34.130493,525.78 18.310173,-34.135849,525.78 18.309917,-34.13699,525.78 18.309389,-34.14212,533.4 18.309444,-34.143265,533.4 18.309612,-34.148346,548.64 18.310204,-34.149979,556.26 18.312696,-34.154984,563.88 18.313465,-34.156216,563.88 18.316612,-34.160683,563.88 18.317629,-34.161987,563.88 18.321419,-34.166924,556.26 18.322506,-34.16827,556.26 18.326485,-34.173065,563.88 18.329716,-34.176838,571.5 18.343563,-34.193317,556.26 18.346775,-34.197189,548.64 18.352045,-34.204422,563.88 18.352776,-34.205559,563.88 18.355808,-34.211006,563.88 18.35638,-34.21217,563.88 18.358603,-34.217468,563.88 18.359127,-34.218689,563.88 18.361073,-34.223763,563.88 18.361416,-34.224834,563.88 18.363367,-34.230835,563.88 18.363647,-34.232025,563.88 18.364906,-34.237167,563.88 18.36516,-34.238434,556.26 18.366562,-34.244659,548.64 18.366852,-34.245968,556.26 18.368111,-34.251648,541.02 18.368454,-34.252998,541.02 18.372784,-34.269882,556.26 18.373177,-34.271164,556.26 18.375195,-34.276611,556.26 18.375698,-34.277802,556.26 18.378181,-34.283394,556.26 18.378925,-34.284885,556.26 18.383547,-34.292953,563.88 18.384218,-34.294098,563.88 18.387337,-34.299271,571.5 18.388309,-34.300808,571.5 18.391628,-34.305832,571.5 18.392458,-34.307007,563.88 18.396606,-34.312538,563.88 18.397448,-34.313507,571.5 18.4021,-34.318497,579.12 18.403072,-34.319427,579.12 18.408546,-34.324493,571.5 18.409939,-34.32571,571.5 18.414974,-34.329994,556.26 18.416119,-34.330925,556.26 18.421898,-34.3353,548.64 18.423328,-34.336372,548.64 18.429062,-34.340515,541.02 18.433056,-34.343449,541.02 18.445415,-34.352573,548.64 18.446674,-34.353737,548.64 18.451538,-34.357773,571.5 18.452396,-34.358437,571.5 18.457775,-34.362442,594.36 18.459377,-34.36351,601.98 18.464317,-34.366699,617.22 18.4659,-34.367561,601.98 18.471622,-34.369797,594.36 18.473225,-34.370216,594.36 18.478775,-34.371284,586.74 18.480263,-34.371517,586.74 18.485899,-34.372238,586.74 18.486963,-34.372375,586.74 18.49205,-34.37273,579.12 18.493366,-34.372776,579.12 18.499014,-34.372559,594.36 18.499912,-34.372467,586.74 18.505211,-34.37138,594.36 18.505909,-34.37114,594.36 18.509731,-34.36919,594.36 18.510475,-34.368725,594.36 18.513308,-34.366196,609.6 18.513908,-34.365421,617.22 18.515045,-34.362808,640.08 18.515167,-34.361835,647.7 18.514597,-34.358734,647.7 18.514252,-34.357784,640.08 18.512018,-34.354431,624.84 18.511234,-34.35347,617.22 18.508301,-34.350338,609.6 18.507423,-34.349442,609.6 18.504116,-34.345917,594.36 18.503387,-34.345001,601.98 18.500528,-34.341385,594.36 18.499855,-34.340332,594.36 18.497887,-34.336746,594.36 18.497334,-34.33548,594.36 18.495819,-34.33168,586.74 18.495539,-34.330765,586.74 18.494225,-34.326408,594.36 18.493938,-34.325291,594.36 18.493195,-34.321243,594.36 18.492966,-34.320034,594.36 18.492565,-34.315609,594.36 18.492508,-34.314541,594.36 18.492336,-34.310257,586.74 18.492344,-34.308701,579.12 18.492344,-34.304489,571.5 18.492344,-34.303345,579.12 18.492344,-34.298859,586.74 18.492279,-34.29792,586.74 18.492008,-34.293411,586.74 18.491953,-34.292496,586.74 18.491503,-34.288055,563.88 18.491364,-34.286934,556.26 18.490215,-34.278259,548.64 18.489822,-34.275192,556.26 18.489655,-34.270523,563.88 18.489647,-34.269478,563.88 18.489532,-34.265705,541.02 18.489418,-34.264542,533.4 18.489132,-34.260723,525.78 18.489149,-34.259537,518.16 18.48971,-34.255234,502.92 18.489819,-34.254253,502.92 18.490551,-34.249878,533.4 18.490791,-34.248901,533.4 18.492008,-34.245071,518.16 18.492279,-34.244152,502.92 18.492565,-34.240849,457.2 18.492393,-34.240242,441.96 18.490719,-34.23848,388.62 18.490105,-34.238285,373.38 18.487524,-34.238113,312.42 18.486683,-34.238113,297.18 18.483925,-34.238285,228.6 18.48332,-34.238297,213.36 18.480686,-34.238388,137.16 18.480091,-34.238335,121.92 18.478107,-34.237885,53.34 18.477659,-34.237656,30.48 18.476425,-34.236832,0 18.476145,-34.236603,0 18.475342,-34.235634,0 18.475136,-34.235458,0 18.475529,-34.234589,0 18.475754,-34.234177,0 18.476315,-34.232609,0 18.47637,-34.232391,7.62 18.476706,-34.231339,22.86 18.476706,-34.23111,30.48 18.476944,-34.229534,53.34 18.477001,-34.228928,68.58 18.476931,-34.227264,106.68 18.476931,-34.226807,114.3 18.47683,-34.22488,152.4 18.476818,-34.224472,160.02 18.476658,-34.222553,190.5 18.476593,-34.221954,205.74 18.4762,-34.219898,236.22 18.476089,-34.219437,243.84 18.4758,-34.217525,289.56 18.475754,-34.21701,297.18 18.475685,-34.215057,327.66 18.475697,-34.214493,342.9 18.475685,-34.212448,381 18.475697,-34.211975,381 18.475641,-34.209778,411.48 18.475529,-34.20932,419.1 18.474855,-34.207169,441.96 18.474688,-34.206619,449.58 18.473846,-34.204147,472.44 18.473625,-34.203606,480.06 18.472481,-34.201046,480.06 18.472137,-34.200348,518.16 18.470879,-34.197834,525.78 18.470478,-34.197086,533.4 18.469139,-34.194534,556.26 18.468691,-34.193756,571.5 18.467289,-34.190826,571.5 18.466953,-34.189911,571.5 18.4659,-34.186054,586.74 18.465719,-34.184921,594.36 18.465328,-34.181122,609.6 18.465385,-34.180424,617.22 18.465729,-34.176373,640.08 18.4659,-34.175209,640.08 18.466673,-34.171188,647.7 18.466896,-34.170044,640.08 18.467731,-34.165432,609.6 18.467846,-34.164642,609.6 18.46859,-34.159985,594.36 18.468876,-34.158684,594.36 18.469963,-34.15398,601.98 18.470249,-34.153004,601.98 18.471565,-34.148674,609.6 18.471851,-34.147835,609.6 18.47323,-34.143539,601.98 18.473511,-34.142578,594.36 18.47477,-34.137779,586.74 18.475023,-34.13681,594.36 18.475977,-34.132645,579.12 18.476257,-34.13131,579.12 18.477459,-34.125816,571.5 18.477715,-34.124634,571.5 18.479176,-34.117901,563.88 18.479404,-34.116737,563.88 18.480349,-34.112366,571.5 18.480574,-34.111176,571.5 18.48119,-34.106689,563.88 18.481302,-34.105728,571.5 18.481407,-34.101376,571.5 18.481407,-34.100399,579.12 18.481407,-34.096115,579.12 18.481407,-34.094952,579.12 18.48147,-34.086365,563.88 18.481525,-34.085175,563.88 18.482086,-34.078949,563.88 18.482265,-34.077961,563.88 18.483263,-34.073502,563.88 18.483524,-34.072559,563.88 18.484783,-34.068279,563.88 18.485012,-34.067299,563.88 18.485954,-34.06279,571.5 18.486156,-34.06176,563.88 18.486614,-34.057709,579.12 18.486795,-34.056335,579.12 18.487301,-34.051891,571.5 18.487415,-34.051006,571.5 18.488102,-34.045792,563.88 18.488445,-34.042534,548.64 18.488756,-34.038208,525.78 18.488789,-34.0369,533.4 18.488789,-34.032108,518.16 18.488789,-34.031036,518.16 18.488588,-34.026581,502.92 18.48856,-34.025497,502.92 18.488308,-34.020996,510.54 18.488216,-34.019772,510.54 18.487644,-34.008457,510.54 18.487692,-34.007172,502.92 18.488102,-34.002686,495.3 18.488274,-34.001194,487.68 18.488813,-33.99678,487.68 18.488869,-33.995819,480.06 18.489374,-33.991058,441.96 18.489487,-33.989731,434.34 18.490105,-33.985043,411.48 18.490271,-33.984055,411.48 18.491192,-33.979736,396.24 18.491447,-33.978424,388.62 18.492456,-33.97403,388.62 18.492682,-33.973068,381 18.493252,-33.968655,373.38 18.493309,-33.967632,365.76 18.493073,-33.963089,358.14 18.492962,-33.962173,358.14 18.492008,-33.958145,358.14 18.491535,-33.956879,358.14 18.489878,-33.953156,350.52 18.489532,-33.952362,342.9 18.487415,-33.948498,312.42 18.487076,-33.947891,304.8 18.48461,-33.944092,266.7 18.484049,-33.943314,266.7 18.48175,-33.939888,259.08 18.48119,-33.939148,259.08 18.478718,-33.936024,266.7 18.478088,-33.935371,266.7 18.4758,-33.932346,266.7 18.475416,-33.931778,266.7 18.473063,-33.928116,251.46 18.472389,-33.927109,243.84 18.469734,-33.923779,243.84 18.469105,-33.923035,243.84 18.466473,-33.920147,251.46 18.465607,-33.919189,251.46 18.462982,-33.916191,266.7 18.461609,-33.914562,266.7 18.456402,-33.908417,289.56 18.455715,-33.907578,289.56 18.452797,-33.904415,220.98 18.452154,-33.903854,228.6 18.448679,-33.901566,266.7 18.447895,-33.901199,259.08 18.444214,-33.90004,213.36 18.442963,-33.89978,198.12 18.439487,-33.89946,144.78 18.438759,-33.89946,137.16 18.435619,-33.89946,91.44 18.435059,-33.899479,83.82 18.432592,-33.899597,38.1 18.432087,-33.899597,30.48 18.430967,-33.899643,7.62 18.429737,-33.899712,0 18.42794,-33.899872,0 18.42762,-33.899944,0 18.426764,-33.900604,0 18.426987,-33.900787,0 18.427277,-33.900131,0 18.42738,-33.899872,0 18.42802,-33.898689,0 18.428276,-33.898361,0 18.429173,-33.896988,0 18.42968,-33.896221,0 18.430939,-33.894547,30.48 18.431135,-33.894287,38.1 18.432999,-33.891937,83.82 18.433489,-33.891357,91.44 18.435402,-33.889053,114.3 18.435843,-33.888428,121.92 18.437176,-33.885746,152.4 18.437347,-33.884769,167.64 18.437176,-33.881882,190.5 18.437061,-33.881279,198.12 18.435562,-33.878586,228.6 18.435059,-33.878113,236.22 18.432257,-33.87616,251.46 18.431339,-33.875736,259.08 18.427996,-33.874512,281.94 18.426987,-33.874237,289.56 18.422951,-33.873459,320.04 18.42207,-33.873363,327.66 18.417263,-33.873222,365.76 18.416393,-33.873276,373.38 18.412525,-33.873825,419.1 18.411713,-33.874016,426.72 18.408041,-33.875015,464.82 18.406977,-33.875336,472.44 18.403276,-33.876617,502.92 18.402328,-33.876949,510.54 18.398495,-33.878483,525.78 18.397503,-33.878906,533.4 18.393631,-33.880718,548.64 18.39257,-33.881241,556.26 18.388653,-33.883327,586.74 18.387623,-33.88393,594.36 18.384163,-33.886185,624.84 18.383446,-33.886677,624.84 18.380072,-33.889343,640.08 18.379269,-33.890076,647.7 18.376293,-33.892776,670.56 18.375549,-33.893566,678.18 18.372841,-33.89653,678.18 18.372,-33.897537,685.8 18.369541,-33.900455,701.04 18.368683,-33.901527,708.66 18.366165,-33.904739,716.28 18.365536,-33.905579,716.28 18.362974,-33.909119,708.66 18.362526,-33.909805,708.66 18.360157,-33.913723,716.28 18.359699,-33.914562,716.28 18.357811,-33.918381,716.28 18.357258,-33.919464,716.28 18.355408,-33.923538,723.9 18.355072,-33.924316,723.9 18.353277,-33.928619,723.9 18.352942,-33.929535,731.52 18.351402,-33.933697,731.52 18.351002,-33.934952,723.9 18.349514,-33.939327,716.28 18.349018,-33.940613,716.28 18.347113,-33.94487,723.9 18.346424,-33.946079,723.9 18.344366,-33.950226,723.9 18.344086,-33.951141,731.52 18.345205,-33.956406,731.52 18.345879,-33.95723,731.52 18.35844,-33.957718,708.66 18.359724,-33.954849,701.04 18.360508,-33.94986,662.94 18.36062,-33.948761,655.32 18.361013,-33.942993,632.46 18.361015,-33.941841,632.46 18.361301,-33.936535,632.46 18.361462,-33.93544,632.46 18.36256,-33.930901,617.22 18.362904,-33.929832,617.22 18.364677,-33.924992,601.98 18.365135,-33.923965,601.98 18.367481,-33.919544,594.36 18.368225,-33.91824,594.36 18.371258,-33.913399,586.74 18.371887,-33.912422,579.12 18.375082,-33.907837,579.12 18.375721,-33.906929,579.12 18.378838,-33.902802,579.12 18.379511,-33.90184,579.12 18.382759,-33.897526,579.12 18.383446,-33.8965,579.12 18.386421,-33.892403,579.12 18.38747,-33.891129,579.12 18.391514,-33.887562,579.12 18.392683,-33.886734,579.12 18.397808,-33.883839,579.12 18.399408,-33.883072,579.12 18.404961,-33.880905,571.5 18.406639,-33.880417,571.5 18.412914,-33.879135,556.26 18.41432,-33.878952,563.88 18.420582,-33.879135,556.26 18.422184,-33.879463,556.26 18.427448,-33.881603,556.26 18.428612,-33.882248,556.26 18.433208,-33.885452,480.06 18.4342,-33.886211,464.82 18.438778,-33.889469,419.1 18.439878,-33.890213,411.48 18.444307,-33.892868,373.38 18.445091,-33.893417,373.38 18.44799,-33.8965,320.04 18.448175,-33.897354,312.42 18.446217,-33.900272,259.08 18.445541,-33.900558,220.98 18.441868,-33.900688,182.88 18.440832,-33.900558,152.4 18.437004,-33.900131,83.82 18.436235,-33.900101,76.2 18.433601,-33.900101,7.62 18.433056,-33.900085,0 18.431625,-33.90004,0 18.43119,-33.900055,0 18.428837,-33.899963,0 18.428192,-33.899899,0 18.427099,-33.900238,0 18.426876,-33.900455,0 18.427212,-33.900055,0 18.427322,-33.89978,0 18.42802,-33.898594,0 18.428331,-33.898041,0 18.429062,-33.896988,0 18.429279,-33.896687,0 18.430574,-33.89502,7.62 18.430799,-33.894745,7.62 18.431911,-33.893429,22.86 18.432257,-33.89296,30.48 18.434315,-33.890308,60.96 18.434887,-33.889423,76.2 18.436489,-33.886585,106.68 18.436661,-33.885605,114.3 18.435507,-33.882294,144.78 18.435001,-33.881649,152.4 18.432367,-33.879364,190.5 18.431568,-33.878811,198.12 18.428364,-33.876949,228.6 18.427391,-33.87653,236.22 18.423042,-33.875179,274.32 18.421999,-33.874969,289.56 18.417892,-33.874573,327.66 18.416862,-33.874573,335.28 18.412685,-33.874805,365.76 18.411541,-33.874947,365.76 18.407368,-33.87561,388.62 18.406391,-33.875832,388.62 18.402155,-33.877029,419.1 18.401146,-33.87735,419.1 18.396887,-33.879135,449.58 18.395805,-33.879696,449.58 18.391787,-33.881744,464.82 18.390713,-33.882393,472.44 18.386765,-33.884907,495.3 18.385788,-33.885544,510.54 18.382587,-33.887936,556.26 18.38192,-33.888428,563.88 18.378614,-33.891174,594.36 18.377941,-33.891724,601.98 18.374689,-33.894699,632.46 18.374119,-33.895336,640.08 18.371372,-33.898315,662.94 18.37071,-33.899048,670.56 18.368019,-33.902023,685.8 18.367235,-33.902847,693.42 18.359585,-33.91177,739.14 18.359013,-33.912514,739.14 18.356472,-33.915802,754.38 18.355694,-33.916843,762 18.353176,-33.920521,777.24 18.352549,-33.921524,777.24 18.350372,-33.925457,754.38 18.349747,-33.926651,746.76 18.347784,-33.931,731.52 18.347281,-33.932053,723.9 18.345222,-33.936722,708.66 18.344702,-33.937866,708.66 18.342403,-33.942444,701.04 18.341787,-33.943726,701.04 18.3391,-33.950035,701.04 18.338928,-33.951141,701.04 18.339958,-33.955761,701.04 18.340666,-33.956772,701.04 18.350086,-33.960182,701.04 18.353291,-33.958881,701.04 18.357067,-33.954037,716.28 18.357525,-33.952923,731.52 18.359051,-33.948853,716.28 18.359499,-33.947525,701.04 18.3605,-33.942261,693.42 18.360676,-33.941025,693.42 18.361473,-33.936024,670.56 18.361685,-33.934662,655.32 18.362806,-33.929626,617.22 18.363247,-33.928249,609.6 18.365135,-33.923035,579.12 18.36565,-33.921917,579.12 18.367907,-33.917587,563.88 18.36858,-33.916351,556.26 18.371773,-33.911629,541.02 18.372574,-33.910557,541.02 18.375978,-33.906464,541.02 18.376808,-33.905533,541.02 18.38052,-33.901382,541.02 18.381557,-33.900272,548.64 18.390049,-33.891312,563.88 18.390884,-33.890541,563.88 18.395348,-33.887142,571.5 18.396551,-33.886322,571.5 18.401764,-33.88353,579.12 18.403053,-33.882889,579.12 18.408737,-33.880718,579.12 18.410397,-33.880207,579.12 18.416561,-33.879089,571.5 18.418243,-33.879044,571.5 18.424301,-33.879929,556.26 18.42581,-33.880417,548.64 18.43063,-33.882889,510.54 18.431864,-33.883713,502.92 18.436293,-33.886551,457.2 18.437176,-33.887142,449.58 18.441467,-33.890167,381 18.442345,-33.890854,358.14 18.4445,-33.894497,281.94 18.444363,-33.895386,259.08 18.441753,-33.89785,175.26 18.440945,-33.897995,160.02 18.437748,-33.898224,121.92 18.436741,-33.898361,106.68 18.433825,-33.898773,60.96 18.433056,-33.898922,53.34 18.431416,-33.899231,22.86 18.431053,-33.899338,7.62 18.429173,-33.899826,0 18.428764,-33.899899,0 18.427334,-33.90004,0 18.427099,-33.900192,0 18.426987,-33.90097,0 18.427048,-33.900597,0 18.42794,-33.898727,0 18.428192,-33.898361,0 18.429279,-33.89706,0 18.429623,-33.896687,7.62 18.430967,-33.895248,15.24 18.431248,-33.894974,22.86 18.432537,-33.8936,38.1 18.433266,-33.892868,45.72 18.436068,-33.889938,83.82 18.436775,-33.889145,91.44 18.438982,-33.885818,114.3 18.439178,-33.884956,129.54 18.438198,-33.881653,152.4 18.437634,-33.881138,160.02 18.433714,-33.879044,198.12 18.432713,-33.878716,205.74 18.428593,-33.877415,243.84 18.427547,-33.877213,251.46 18.423328,-33.876484,289.56 18.422642,-33.876389,297.18 18.418186,-33.87616,335.28 18.417177,-33.87616,335.28 18.412973,-33.876434,365.76 18.411999,-33.876575,373.38 18.407648,-33.877396,388.62 18.406448,-33.877647,396.24 18.4021,-33.87867,419.1 18.401127,-33.878902,419.1 18.397335,-33.881058,441.96 18.396549,-33.881649,441.96 18.393116,-33.884304,480.06 18.392143,-33.885002,487.68 18.38887,-33.887558,510.54 18.388252,-33.888027,518.16 18.384779,-33.890854,541.02 18.384108,-33.891403,548.64 18.380743,-33.894424,579.12 18.38007,-33.895058,579.12 18.377155,-33.897949,609.6 18.376539,-33.898544,609.6 18.37385,-33.901428,632.46 18.373064,-33.902298,640.08 18.37043,-33.905365,655.32 18.369869,-33.90596,662.94 18.366909,-33.909256,670.56 18.366114,-33.910126,670.56 18.363533,-33.913303,678.18 18.362806,-33.914246,685.8 18.360285,-33.917404,693.42 18.359667,-33.918182,693.42 18.357124,-33.92173,685.8 18.356249,-33.922943,685.8 18.353502,-33.926926,670.56 18.352947,-33.927738,670.56 18.345263,-33.939789,685.8 18.343412,-33.943085,685.8 18.340416,-33.948498,701.04 18.339096,-33.950775,701.04 18.330975,-33.964001,716.28 18.328558,-33.967621,723.9 18.316675,-33.987396,754.38 18.314825,-33.990417,754.38 18.3095,-33.998749,746.76 18.307314,-34.002136,739.14 18.30126,-34.012253,723.9 18.300705,-34.013393,723.9 18.298531,-34.018234,723.9 18.29813,-34.019257,723.9 18.296642,-34.024147,716.28 18.296471,-34.025215,716.28 18.2967,-34.030197,701.04 18.297113,-34.031387,701.04 18.300419,-34.035969,701.04 18.301485,-34.037109,701.04 18.304996,-34.041229,693.42 18.305969,-34.042419,685.8 18.3095,-34.046997,685.8 18.310146,-34.047935,685.8 18.311119,-34.052216,693.42 18.310204,-34.053055,701.04 18.306978,-34.050751,708.66 18.30677,-34.05003,708.66 18.305634,-34.04567,731.52 18.305225,-34.044582,739.14 18.305283,-34.040161,746.76 18.305798,-34.038902,746.76 18.30838,-34.03418,731.52 18.308828,-34.033401,731.52 18.311462,-34.028778,723.9 18.312136,-34.027588,716.28 18.314495,-34.023075,708.66 18.315125,-34.021957,701.04 18.31802,-34.016785,670.56 18.318729,-34.015488,670.56 18.321533,-34.010506,647.7 18.322113,-34.009506,640.08 18.325081,-34.00436,632.46 18.325768,-34.003105,632.46 18.328629,-33.997845,624.84 18.332874,-33.990555,609.6 18.346539,-33.968422,556.26 18.3494,-33.963303,556.26 18.35692,-33.947662,533.4 18.357353,-33.946545,533.4 18.358995,-33.942123,586.74 18.359356,-33.941143,586.74 18.362135,-33.933426,594.36 18.364048,-33.928806,586.74 18.366508,-33.924107,601.98 18.367123,-33.92308,601.98 18.370037,-33.918594,609.6 18.370686,-33.917633,609.6 18.37368,-33.913147,609.6 18.374521,-33.911819,617.22 18.377666,-33.907627,609.6 18.378525,-33.906509,601.98 18.382145,-33.902161,586.74 18.383154,-33.901016,586.74 18.387222,-33.896778,571.5 18.388081,-33.895943,571.5 18.393517,-33.891937,556.26 18.395262,-33.890991,556.26 18.400955,-33.888306,541.02 18.402557,-33.887703,533.4 18.408827,-33.885727,487.68 18.410568,-33.885326,457.2 18.41942,-33.884537,358.14 18.421661,-33.884583,342.9 18.429173,-33.885178,320.04 18.430939,-33.885326,259.08 18.43786,-33.886093,289.56 18.439236,-33.886353,289.56 18.445015,-33.889004,274.32 18.446213,-33.889755,266.7 18.449127,-33.893921,205.74 18.44924,-33.895065,182.88 18.447334,-33.899139,129.54 18.446217,-33.899944,106.68 18.441113,-33.901108,68.58 18.439407,-33.901108,60.96 18.436832,-33.900921,30.48 18.436432,-33.900875,22.86 18.433228,-33.900455,0 18.432827,-33.900455,0 18.430294,-33.900284,0 18.429565,-33.900192,0 18.428249,-33.900272,0 18.427906,-33.90041,0
        </coordinates>
      </LineString>
    </Placemark>
  </Document>
</kml>