<?xml version="1.0" encoding="UTF-8"?>
<kml xmlns="http://www.opengis.net/kml/2.2">
  <Document>
    <name>-/ZTRNW - Optimised</name>
    <description><![CDATA[Optimised flight path with 466 points (decimated from 2327 original points). Source format: Standard KML]]></description>
    
    <Style id="flightPath">
      <LineStyle>
        <color>ff0000ff</color>
        <width>3</width>
      </LineStyle>
    </Style>
    
    <Placemark>
      <name>Flight Path</name>
      <description><![CDATA[<div style="width:220px; text-align:center;">
<div style="width:210px; text-align:center;">
<div style=" background: #000; color: #fff; font-size: 14px; text-align:left; border: 1px solid #000; padding: 2px 6px; text-shadow: 0 1px 0 #000; box-shadow: 0 1px 3px rgba(0,0,0,0.6); background: -webkit-gradient(linear, left top, left bottom, color-stop(0%,#808080), color-stop(2%,#303030), color-stop(100%,#0c0c0c));"><span style="font-size: 14px; font-weight: bold;"><a href="javascript:void(0);" style="color: #fff; cursor: pointer;text-decoration: none;">-</a></span> / ZTRNW<br/>Private owner</div>

<div style="border-top: 1px solid #005c90; color: #fff; padding-bottom: 5px; box-shadow: 0 0 1px #9BE3F6 inset, 0 1px 0 #9BE3F6 inset, 0 -1px 3px rgba(0,0,0,0.4); background:rgba(43,114,173,1); background: -webkit-gradient(linear, left top, left bottom, color-stop(0%,rgba(92,184,229,1)), color-stop(100%,rgba(43,114,173,1)));">
<a style="text-decoration: none; color: rgb(255, 255, 255); font-size: 12px; width:77px; display: inline-block;" title=" Airport" href="javascript:void(0);/departures"><h3 style="padding: 0px; margin: 10px 0px 0px; font-size: 16px; ">?</h3></a>
<span style="background: url(https://www.flightradar24.com/static/images/userUI_sprite.png?14) no-repeat scroll 0 -464px rgba(0, 0, 0, 0); border: medium none; display: inline-block; height: 16px; width: 45px;"></span>
<a style="text-decoration: none; color: rgb(255, 255, 255); font-size: 12px; width:77px; display: inline-block;" title="Cape Town Airport" href="https://www.flightradar24.com/airport/cpt/arrivals"><h3 style="padding: 0px; margin: 10px 0px 0px; font-size: 16px;">CPT</h3>Cape Town</a>
<div style=" margin-top:10px;">
<div style="display: inline-block; font-size: 12px; padding: 0 5px;">
<div>
<span style="color: #c1eaff;" title="Actual Time of Departure">ATD </span>
<span title="2025-10-13 12:39">12:39</span> <span title="Coordinated Universal Time">UTC</span>
</div>
</div>
<div style="display: inline-block; font-size: 12px; padding: 0 5px;">
<div>
<span style="color: #c1eaff;" title="Estimated Time of Arrival">ETA </span>
<span title="2025-10-13 13:58">13:58</span> <span title="Coordinated Universal Time">UTC</span>
</div>
</div>
</div>
<br style="clear: both;"/>
</div>

<div style="display: block;">
<table style="border-collapse: collapse; width: 100%;">
<tr style="border-right: 1px solid #dadada; ">
<td style="background: none repeat scroll 0 0 #dadada; padding: 0; width: 31px;">
<span style="background: url(https://www.flightradar24.com/static/images/userUI_sprite.png?14) no-repeat scroll -208px -464px rgba(0, 0, 0, 0); height: 26px; margin: 8px 0 0 4px; width: 23px; display: block;"></span>
</td>
<td colspan="2" style="border-bottom: 1px solid #dadada; border-left: 1px solid #dadada; color: #666; line-height: 1.1em; padding: 3px 6px; vertical-align: top; font-size: 14px;">
Aircraft<span style="float: right; font-size: 12px;">(EC20)</span><br>
<span style="color: #333; font-size: 16px; font-weight: bold; line-height: 1.3em;">Airbus Helicopters H120</span>
</td>
</tr>
<tr style="border-right: 1px solid #dadada; ">
<td style="background: none repeat scroll 0 0 #dadada; padding: 0; width: 31px;">
<td colspan="2" style="border-bottom: 1px solid #dadada; border-left: 1px solid #dadada; color: #666; line-height: 1.1em; padding: 3px 6px; vertical-align: top; font-size: 14px;">
Registration<br>
<span style="color: #333; font-size: 16px; font-weight: bold; line-height: 1.3em;"><a href="https://www.flightradar24.com/reg/zt-rnw" style="text-decoration: none; color: #333;">ZT-RNW</a></span>
</td>
</tr>
</table>
</div>

</div>
</div>]]></description>
      <styleUrl>#flightPath</styleUrl>
      <LineString>
        <extrude>1</extrude>
        <tessellate>1</tessellate>
        <altitudeMode>absolute</altitudeMode>
        <coordinates>
          18.427435,-33.900558,38.1 18.430882,-33.898037,76.2 18.435955,-33.897263,121.92 18.442383,-33.897476,160.02 18.448063,-33.901062,144.78 18.453611,-33.904953,220.98 18.459091,-33.909069,259.08 18.464184,-33.913445,304.8 18.46981,-33.91864,342.9 18.474827,-33.923874,358.14 18.479233,-33.929832,358.14 18.482534,-33.936447,335.28 18.484097,-33.943611,320.04 18.484612,-33.950825,327.66 18.484329,-33.957092,335.28 18.483656,-33.963547,342.9 18.483713,-33.970734,358.14 18.485012,-33.977409,381 18.485899,-33.984146,381 18.485184,-33.990582,388.62 18.484161,-33.996872,312.42 18.483467,-34.002827,381 18.482647,-34.009003,396.24 18.481693,-34.015114,411.48 18.480854,-34.020996,441.96 18.479691,-34.027218,480.06 18.478661,-34.033131,518.16 18.478146,-34.039787,533.4 18.478146,-34.046352,533.4 18.477995,-34.05249,548.64 18.478203,-34.058968,556.26 18.478489,-34.065113,548.64 18.478889,-34.071117,548.64 18.479118,-34.07703,556.26 18.479347,-34.082848,548.64 18.479284,-34.088837,548.64 18.479229,-34.094696,556.26 18.479462,-34.101051,472.44 18.47934,-34.107101,525.78 18.478889,-34.112873,525.78 18.477995,-34.118134,533.4 18.475864,-34.122711,563.88 18.475113,-34.128284,594.36 18.473969,-34.133869,609.6 18.472996,-34.140293,548.64 18.472557,-34.14624,541.02 18.472277,-34.15274,541.02 18.472137,-34.158962,571.5 18.472481,-34.165108,579.12 18.473175,-34.171051,594.36 18.473566,-34.177872,586.74 18.473791,-34.184418,533.4 18.473568,-34.191315,487.68 18.474407,-34.198196,441.96 18.475914,-34.206306,403.86 18.477041,-34.213074,381 18.477402,-34.220783,320.04 18.476706,-34.227768,205.74 18.476257,-34.234238,236.22 18.477745,-34.240849,297.18 18.482265,-34.245457,297.18 18.483524,-34.241638,266.7 18.48381,-34.244106,259.08 18.483067,-34.241032,198.12 18.479633,-34.238613,144.78 18.477322,-34.236694,99.06 18.475809,-34.235641,60.96 18.469126,-34.240376,76.2 18.475342,-34.234516,53.34 18.476818,-34.231979,83.82 18.481808,-34.231258,99.06 18.485985,-34.234329,121.92 18.4869,-34.239498,137.16 18.487015,-34.244476,144.78 18.487188,-34.249924,175.26 18.487473,-34.254997,137.16 18.487701,-34.26012,220.98 18.488045,-34.265285,213.36 18.488588,-34.270844,213.36 18.489189,-34.27618,220.98 18.491192,-34.295547,259.08 18.492565,-34.310257,266.7 18.493465,-34.317078,266.7 18.494474,-34.322983,259.08 18.495941,-34.329388,243.84 18.497658,-34.33572,236.22 18.499947,-34.342098,266.7 18.502659,-34.348251,289.56 18.504982,-34.354622,297.18 18.504753,-34.36058,289.56 18.500118,-34.364212,289.56 18.493298,-34.365829,281.94 18.486628,-34.366837,274.32 18.480778,-34.366863,243.84 18.475977,-34.365601,228.6 18.471336,-34.36351,297.18 18.466616,-34.364914,327.66 18.469307,-34.369766,381 18.476143,-34.370216,396.24 18.483467,-34.369518,426.72 18.490606,-34.368484,426.72 18.497543,-34.366726,464.82 18.502178,-34.363697,502.92 18.504004,-34.359421,548.64 18.504467,-34.355038,563.88 18.504564,-34.350449,571.5 18.504238,-34.345867,556.26 18.503668,-34.340561,533.4 18.502995,-34.332779,525.78 18.502041,-34.322891,495.3 18.501593,-34.313965,472.44 18.50165,-34.307373,487.68 18.501949,-34.302063,510.54 18.502378,-34.296661,525.78 18.503151,-34.288982,556.26 18.503666,-34.283581,579.12 18.504181,-34.278229,579.12 18.504295,-34.273106,571.5 18.504066,-34.26738,563.88 18.503498,-34.2621,563.88 18.502546,-34.254456,563.88 18.500862,-34.243221,563.88 18.499947,-34.237637,548.64 18.498917,-34.231815,525.78 18.497669,-34.226395,502.92 18.495987,-34.221359,487.68 18.493521,-34.216461,472.44 18.489876,-34.211983,449.58 18.48601,-34.208038,441.96 18.481863,-34.204193,434.34 18.477516,-34.200161,426.72 18.473682,-34.196671,411.48 18.46129,-34.185928,426.72 18.450737,-34.176605,464.82 18.447109,-34.173431,487.68 18.443579,-34.170547,495.3 18.439522,-34.167248,495.3 18.434544,-34.163197,495.3 18.430182,-34.16011,487.68 18.425755,-34.157455,480.06 18.420765,-34.154526,464.82 18.415833,-34.151608,449.58 18.410675,-34.148621,441.96 18.40559,-34.145649,426.72 18.399067,-34.141739,411.48 18.39323,-34.13792,396.24 18.388702,-34.13475,388.62 18.384331,-34.131638,312.42 18.379555,-34.128189,335.28 18.374577,-34.124977,304.8 18.368467,-34.121429,289.56 18.363144,-34.118729,312.42 18.360615,-34.114319,327.66 18.366562,-34.111633,342.9 18.374634,-34.11232,373.38 18.381786,-34.112968,411.48 18.388086,-34.11351,472.44 18.393345,-34.112827,533.4 18.398552,-34.110641,556.26 18.403587,-34.107613,563.88 18.408546,-34.104309,571.5 18.413372,-34.101238,586.74 18.41757,-34.097397,586.74 18.420696,-34.092533,594.36 18.423512,-34.087601,571.5 18.427603,-34.082382,556.26 18.432083,-34.078098,548.64 18.436832,-34.073677,533.4 18.441336,-34.068832,518.16 18.445358,-34.0639,495.3 18.448904,-34.058945,502.92 18.452154,-34.053955,502.92 18.455372,-34.048725,487.68 18.461851,-34.038483,480.06 18.465607,-34.031891,464.82 18.468533,-34.026752,457.2 18.471661,-34.021362,449.58 18.475136,-34.015915,434.34 18.478432,-34.010551,441.96 18.481077,-34.005341,434.34 18.48341,-33.99966,441.96 18.485001,-33.994125,434.34 18.486179,-33.988174,426.72 18.487131,-33.982452,419.1 18.48793,-33.976894,388.62 18.488617,-33.971355,335.28 18.489189,-33.965538,297.18 18.488981,-33.960251,274.32 18.488102,-33.954597,251.46 18.4869,-33.949009,259.08 18.485451,-33.944183,259.08 18.483582,-33.93956,259.08 18.48147,-33.934845,266.7 18.478775,-33.930389,289.56 18.475361,-33.926239,297.18 18.472221,-33.922714,304.8 18.469755,-33.919373,312.42 18.467445,-33.916191,297.18 18.464699,-33.912792,274.32 18.461723,-33.90921,259.08 18.458544,-33.905777,259.08 18.455462,-33.902481,259.08 18.452797,-33.8992,266.7 18.449821,-33.89566,266.7 18.446548,-33.892456,274.32 18.442841,-33.889984,297.18 18.438206,-33.887238,304.8 18.433857,-33.885326,312.42 18.429005,-33.88353,320.04 18.423443,-33.882534,320.04 18.417377,-33.881603,327.66 18.411123,-33.881287,335.28 18.404734,-33.881882,350.52 18.398838,-33.882999,373.38 18.393002,-33.885002,381 18.387451,-33.887421,381 18.381416,-33.890625,388.62 18.376751,-33.895103,396.24 18.380699,-33.898502,411.48 18.387583,-33.897308,381 18.396034,-33.894592,350.52 18.403669,-33.892502,342.9 18.41114,-33.890167,335.28 18.418243,-33.887787,320.04 18.426371,-33.885818,304.8 18.434772,-33.885654,266.7 18.442097,-33.889191,220.98 18.445877,-33.89502,213.36 18.443859,-33.898682,175.26 18.438778,-33.899105,137.16 18.434715,-33.899433,91.44 18.430799,-33.899734,60.96 18.428331,-33.900238,38.1 18.427715,-33.899963,53.34 18.428612,-33.899002,60.96 18.431683,-33.89785,83.82 18.432827,-33.897617,99.06 18.437244,-33.897079,129.54 18.438492,-33.896919,137.16 18.443354,-33.897858,167.64 18.444923,-33.898773,182.88 18.449072,-33.90184,205.74 18.450108,-33.902599,213.36 18.454733,-33.905731,228.6 18.456001,-33.906647,236.22 18.460007,-33.909813,266.7 18.461037,-33.910698,274.32 18.465328,-33.914471,251.46 18.466335,-33.91539,320.04 18.470821,-33.919636,320.04 18.471773,-33.920517,350.52 18.475641,-33.924866,358.14 18.476486,-33.92606,358.14 18.479958,-33.930954,358.14 18.480629,-33.932053,350.52 18.482985,-33.937912,327.66 18.48341,-33.93956,327.66 18.484268,-33.944962,327.66 18.48444,-33.946823,327.66 18.484612,-33.952175,327.66 18.48461,-33.953568,335.28 18.484154,-33.958553,342.9 18.483982,-33.959812,335.28 18.483601,-33.96524,350.52 18.483639,-33.966747,350.52 18.483881,-33.97197,365.76 18.484097,-33.973495,373.38 18.485355,-33.979084,388.62 18.485561,-33.980347,388.62 18.48587,-33.985649,388.62 18.485813,-33.98658,388.62 18.485012,-33.991608,388.62 18.484783,-33.993004,388.62 18.484039,-33.99789,373.38 18.483881,-33.999207,373.38 18.483263,-34.004288,320.04 18.483152,-34.005341,381 18.482479,-34.010056,403.86 18.482254,-34.011612,396.24 18.481525,-34.016327,419.1 18.481407,-34.017349,426.72 18.480686,-34.022186,449.58 18.480461,-34.023376,457.2 18.479452,-34.028229,487.68 18.479233,-34.029362,495.3 18.4785,-34.034409,525.78 18.478317,-34.035969,533.4 18.478107,-34.041183,533.4 18.478088,-34.042629,533.4 18.478163,-34.047546,480.06 18.478088,-34.048912,541.02 18.477995,-34.053635,548.64 18.478031,-34.055149,548.64 18.47826,-34.060131,556.26 18.478388,-34.061325,556.26 18.478611,-34.066498,548.64 18.478718,-34.067627,548.64 18.478947,-34.071957,548.64 18.479004,-34.073307,525.78 18.479172,-34.078125,556.26 18.479229,-34.079178,548.64 18.479347,-34.084106,480.06 18.479347,-34.08527,556.26 18.479284,-34.089752,548.64 18.479233,-34.091042,548.64 18.479229,-34.095612,548.64 18.47929,-34.09742,548.64 18.479519,-34.102402,533.4 18.479507,-34.103577,533.4 18.47929,-34.108265,525.78 18.479172,-34.109436,518.16 18.478775,-34.114132,525.78 18.478603,-34.115108,525.78 18.477491,-34.119049,480.06 18.476873,-34.119965,548.64 18.4758,-34.123722,563.88 18.475754,-34.124908,525.78 18.474855,-34.12944,601.98 18.474598,-34.130611,601.98 18.473736,-34.135162,609.6 18.473511,-34.136307,609.6 18.472895,-34.141479,556.26 18.472837,-34.142578,571.5 18.472502,-34.147614,533.4 18.472502,-34.148758,533.4 18.472195,-34.153889,541.02 18.472166,-34.154938,548.64 18.472166,-34.160294,571.5 18.472277,-34.161392,563.88 18.472595,-34.166363,586.74 18.472727,-34.167572,624.84 18.473225,-34.172417,586.74 18.473343,-34.173981,594.36 18.473682,-34.178978,579.12 18.473797,-34.180515,571.5 18.473625,-34.185684,464.82 18.473511,-34.187359,457.2 18.473679,-34.192886,480.06 18.473854,-34.194294,472.44 18.4748,-34.200119,426.72 18.475023,-34.201355,365.76 18.4762,-34.207794,396.24 18.476425,-34.209091,320.04 18.477154,-34.214584,373.38 18.47723,-34.216362,358.14 18.477322,-34.222229,304.8 18.47723,-34.223949,228.6 18.476425,-34.229187,281.94 18.476257,-34.230186,281.94 18.476486,-34.235725,304.8 18.476706,-34.236923,304.8 18.47822,-34.242188,289.56 18.478779,-34.243515,289.56 18.483467,-34.244942,289.56 18.484097,-34.244244,281.94 18.482872,-34.241592,266.7 18.481976,-34.242325,281.94 18.484665,-34.243698,251.46 18.484945,-34.243011,236.22 18.482208,-34.240429,182.88 18.481583,-34.240036,182.88 18.479116,-34.238205,129.54 18.478546,-34.237728,114.3 18.476931,-34.236328,83.82 18.476658,-34.236145,76.2 18.475529,-34.235458,60.96 18.475248,-34.235321,53.34 18.474976,-34.234669,68.58 18.475056,-34.234425,60.96 18.475342,-34.234238,60.96 18.475399,-34.233723,60.96 18.477547,-34.231567,83.82 18.478603,-34.231209,83.82 18.482985,-34.231613,106.68 18.483881,-34.232071,114.3 18.486403,-34.235413,129.54 18.486557,-34.236286,137.16 18.486908,-34.240448,144.78 18.486958,-34.241314,144.78 18.487076,-34.245529,152.4 18.487072,-34.24662,152.4 18.487244,-34.250668,175.26 18.487299,-34.252029,182.88 18.487473,-34.255745,137.16 18.487579,-34.257065,205.74 18.487747,-34.261002,213.36 18.487816,-34.261887,205.74 18.488102,-34.266449,213.36 18.488197,-34.267227,213.36 18.488701,-34.271805,213.36 18.488846,-34.273014,220.98 18.489418,-34.279392,228.6 18.489878,-34.283936,205.74 18.491503,-34.299179,274.32 18.491896,-34.30307,274.32 18.492737,-34.31142,266.7 18.492966,-34.31319,266.7 18.493633,-34.318359,266.7 18.493881,-34.31966,259.08 18.494797,-34.324314,251.46 18.495026,-34.325527,251.46 18.496212,-34.330444,243.84 18.496605,-34.331863,236.22 18.49795,-34.336533,198.12 18.498455,-34.338181,243.84 18.50036,-34.343124,274.32 18.500919,-34.344379,281.94 18.50322,-34.349625,289.56 18.503666,-34.350712,289.56 18.505211,-34.35569,297.18 18.505348,-34.357086,297.18 18.503891,-34.361847,297.18 18.502995,-34.362625,297.18 18.498117,-34.364822,289.56 18.496971,-34.365093,220.98 18.491728,-34.36615,274.32 18.490505,-34.366352,274.32 18.485451,-34.366928,220.98 18.484497,-34.366959,274.32 18.479677,-34.366699,281.94 18.478891,-34.366562,281.94 18.474745,-34.365005,289.56 18.474026,-34.364677,289.56 18.470428,-34.363312,297.18 18.469082,-34.363312,304.8 18.466393,-34.365601,335.28 18.466473,-34.366817,350.52 18.47065,-34.370121,381 18.472109,-34.37027,381 18.477745,-34.370075,411.48 18.479172,-34.369995,411.48 18.484726,-34.369377,426.72 18.486347,-34.369171,426.72 18.492008,-34.36821,434.34 18.493465,-34.367889,441.96 18.498402,-34.366352,472.44 18.499743,-34.365692,480.06 18.502827,-34.362808,510.54 18.50322,-34.362076,518.16 18.504181,-34.358486,556.26 18.504295,-34.357693,556.26 18.504467,-34.354015,571.5 18.504524,-34.353226,571.5 18.504507,-34.34935,571.5 18.504467,-34.348289,563.88 18.504116,-34.344589,548.64 18.504009,-34.343819,548.64 18.503551,-34.339493,533.4 18.503437,-34.338375,533.4 18.502659,-34.32962,518.16 18.502489,-34.32843,518.16 18.501949,-34.321896,487.68 18.501892,-34.320499,487.68 18.501537,-34.312729,472.44 18.501549,-34.311794,480.06 18.501705,-34.306366,495.3 18.50176,-34.305359,495.3 18.502064,-34.300991,510.54 18.502121,-34.299969,518.16 18.502489,-34.2957,525.78 18.502827,-34.292221,541.02 18.503208,-34.288189,556.26 18.50338,-34.286793,563.88 18.50378,-34.282417,586.74 18.503836,-34.281693,586.74 18.504227,-34.277252,579.12 18.504238,-34.276272,579.12 18.504238,-34.271851,563.88 18.504227,-34.270477,563.88 18.503948,-34.266266,563.88 18.503838,-34.265148,563.88 18.503387,-34.26091,563.88 18.503265,-34.259933,563.88 18.502098,-34.251068,563.88 18.501263,-34.246387,563.88 18.500641,-34.242004,563.88 18.500462,-34.24094,556.26 18.499718,-34.236378,548.64 18.499489,-34.235214,480.06 18.498745,-34.230839,525.78 18.498566,-34.229965,464.82 18.497372,-34.2253,495.3 18.497053,-34.224426,495.3 18.495539,-34.220215,487.68 18.495197,-34.219341,480.06 18.492851,-34.215523,464.82 18.492107,-34.214497,457.2 18.489262,-34.211288,449.58 18.488388,-34.210403,449.58 18.485012,-34.20705,434.34 18.484154,-34.206257,441.96 18.480967,-34.203323,434.34 18.480034,-34.202442,434.34 18.47683,-34.199509,426.72 18.476032,-34.198837,419.1 18.472939,-34.196018,411.48 18.470135,-34.193504,419.1 18.460464,-34.185265,426.72 18.458061,-34.183075,365.76 18.45005,-34.175999,472.44 18.449352,-34.1754,480.06 18.446438,-34.172836,495.3 18.445765,-34.172287,495.3 18.44257,-34.169724,495.3 18.441925,-34.169205,495.3 18.438606,-34.166504,495.3 18.437805,-34.165806,495.3 18.433743,-34.162594,495.3 18.432816,-34.161896,495.3 18.429337,-34.159565,487.68 18.428535,-34.1591,487.68 18.424856,-34.156906,480.06 18.424017,-34.156403,426.72 18.419813,-34.153931,457.2 18.418865,-34.153374,457.2 18.414974,-34.151093,396.24 18.41383,-34.150444,449.58 18.409836,-34.148117,441.96 18.408714,-34.147476,434.34 18.402884,-34.143997,419.1 18.401985,-34.143505,411.48 18.398094,-34.141132,403.86 18.397223,-34.140564,403.86 18.392403,-34.13736,396.24 18.391562,-34.13681,396.24 18.387794,-34.134102,327.66 18.386965,-34.133514,335.28 18.383434,-34.130951,358.14 18.38237,-34.130173,350.52 18.378502,-34.127426,327.66 18.37738,-34.12674,320.04 18.373232,-34.124176,304.8 18.37228,-34.123627,297.18 18.367481,-34.12093,297.18 18.366394,-34.120377,304.8 18.362078,-34.118042,320.04 18.361416,-34.117485,259.08 18.36113,-34.113434,320.04 18.362103,-34.11264,327.66 18.368412,-34.111679,350.52 18.369757,-34.111816,358.14 18.376204,-34.112457,381 18.377552,-34.112595,388.62 18.383045,-34.113106,411.48 18.384331,-34.113235,426.72 18.389151,-34.113464,495.3 18.390198,-34.113434,510.54 18.394253,-34.112549,541.02 18.395149,-34.112228,541.02 18.399525,-34.110126,563.88 18.400555,-34.109524,563.88 18.404453,-34.10701,563.88 18.405476,-34.106312,563.88 18.409481,-34.103703,571.5 18.410452,-34.103119,571.5 18.414402,-34.100445,586.74 18.41526,-34.099792,586.74 18.418354,-34.096344,586.74 18.418859,-34.095703,586.74 18.421211,-34.091599,586.74 18.421783,-34.090576,594.36 18.424244,-34.086479,571.5 18.424856,-34.085632,563.88 18.428389,-34.081558,556.26 18.429173,-34.080872,556.26 18.432941,-34.077309,548.64 18.433825,-34.076431,541.02 18.437748,-34.072792,533.4 18.438534,-34.071991,525.78 18.442289,-34.067688,510.54 18.443018,-34.066818,510.54 18.446159,-34.062832,502.92 18.446903,-34.06176,502.92 18.449478,-34.058083,502.92 18.450304,-34.056839,502.92 18.452854,-34.052868,495.3 18.453556,-34.051666,495.3 18.45591,-34.047775,487.68 18.456516,-34.046818,480.06 18.463211,-34.03611,472.44 18.463783,-34.035133,472.44 18.466187,-34.030849,457.2 18.466841,-34.029785,457.2 18.469219,-34.025543,457.2 18.469868,-34.024429,457.2 18.472334,-34.020264,441.96 18.472996,-34.019257,441.96 18.475922,-34.014679,426.72 18.476715,-34.013531,426.72 18.479004,-34.009529,441.96 18.47962,-34.008362,434.34 18.48175,-34.003922,441.96 18.482199,-34.002914,441.96 18.483713,-33.998657,434.34 18.484097,-33.997566,434.34 18.485355,-33.992722,426.72 18.485527,-33.991653,426.72 18.486403,-33.986801,426.72 18.48657,-33.985794,419.1 18.487244,-33.981503,411.48 18.487356,-33.980667,411.48 18.488028,-33.975906,381 18.488159,-33.974895,373.38 18.488813,-33.970047,335.28 18.488903,-33.969074,335.28 18.489189,-33.964558,304.8 18.489189,-33.963581,297.18 18.488869,-33.95929,274.32 18.488701,-33.958237,266.7 18.487873,-33.953434,259.08 18.487637,-33.952377,251.46 18.486683,-33.948166,259.08 18.486403,-33.947205,259.08 18.485126,-33.943333,266.7 18.484777,-33.942444,266.7 18.483208,-33.938507,266.7 18.482759,-33.937546,266.7 18.480909,-33.933838,274.32 18.480406,-33.933014,274.32 18.47794,-33.929214,289.56 18.477459,-33.928528,289.56 18.474655,-33.925457,297.18 18.47414,-33.92485,297.18 18.471737,-33.92215,304.8 18.471222,-33.921497,312.42 18.469276,-33.918705,312.42 18.468819,-33.918098,312.42 18.467009,-33.915619,289.56 18.466335,-33.914841,289.56 18.464127,-33.912048,281.94 18.463612,-33.91135,274.32 18.461208,-33.908695,259.08 18.460506,-33.907928,259.08 18.457872,-33.904999,259.08 18.45726,-33.904366,259.08 18.454845,-33.901794,259.08 18.454285,-33.901108,259.08 18.452099,-33.898315,259.08 18.451481,-33.897572,259.08 18.44924,-33.895065,266.7 18.448563,-33.894314,266.7 18.445932,-33.891953,281.94 18.445129,-33.891426,281.94 18.442039,-33.889469,304.8 18.440838,-33.888771,304.8 18.437469,-33.886826,304.8 18.436628,-33.886414,304.8 18.432928,-33.88504,312.42 18.431808,-33.884674,312.42 18.427715,-33.883484,320.04 18.426533,-33.883186,320.04 18.42211,-33.882294,320.04 18.42099,-33.882111,320.04 18.416119,-33.881462,327.66 18.414824,-33.881378,335.28 18.410059,-33.881332,335.28 18.408657,-33.881424,342.9 18.403645,-33.882069,350.52 18.402325,-33.882248,358.14 18.39784,-33.883301,373.38 18.396549,-33.883652,381 18.391897,-33.885498,381 18.390827,-33.885933,335.28 18.386293,-33.887924,381 18.384724,-33.888702,381 18.380575,-33.891174,388.62 18.379211,-33.892124,388.62 18.376637,-33.896358,403.86 18.3771,-33.897354,419.1 18.382301,-33.898407,396.24 18.383827,-33.898178,396.24 18.389544,-33.896713,365.76 18.391171,-33.896175,365.76 18.39735,-33.894218,350.52 18.399017,-33.893738,350.52 18.40519,-33.892033,342.9 18.406506,-33.891659,342.9 18.412638,-33.889664,335.28 18.413927,-33.889206,327.66 18.420296,-33.887142,320.04 18.421783,-33.886772,312.42 18.427906,-33.885654,243.84 18.429453,-33.885544,289.56 18.436546,-33.885979,259.08 18.438263,-33.88649,251.46 18.443018,-33.890213,213.36 18.444099,-33.891613,205.74 18.446045,-33.895943,213.36 18.445988,-33.896873,205.74 18.442726,-33.898827,160.02 18.442097,-33.898872,160.02 18.437918,-33.899185,129.54 18.437189,-33.899277,121.92 18.4342,-33.899479,91.44 18.432425,-33.899551,68.58 18.430252,-33.899807,53.34 18.429453,-33.899918,45.72 18.428053,-33.90033,38.1 18.427849,-33.90041,38.1
        </coordinates>
      </LineString>
    </Placemark>
  </Document>
</kml>