<?xml version="1.0" encoding="UTF-8"?>
<kml xmlns="http://www.opengis.net/kml/2.2">
  <Document>
    <name>Flight Path - Optimised</name>
    <description><![CDATA[Optimised flight path with 273 points (decimated from 1363 original points). Source format: Google Earth Extended (gx:coord)]]></description>
    
    <Style id="flightPath">
      <LineStyle>
        <color>ff0000ff</color>
        <width>3</width>
      </LineStyle>
    </Style>
    
    <Placemark>
      <name>Flight Path</name>
      <description><![CDATA[Optimized flight path]]></description>
      <styleUrl>#flightPath</styleUrl>
      <LineString>
        <extrude>1</extrude>
        <tessellate>1</tessellate>
        <altitudeMode>absolute</altitudeMode>
        <coordinates>
          18.426933,-33.901015,7 18.427391,-33.901109,22 18.428444,-33.901245,30 18.433825,-33.900742,68 18.436489,-33.899526,83 18.437917,-33.897583,99 18.438721,-33.891193,129 18.436011,-33.88179,182 18.431695,-33.877808,220 18.425866,-33.875565,304 18.412245,-33.874008,434 18.400026,-33.875381,495 18.390083,-33.877413,548 18.379498,-33.882022,609 18.36731,-33.88961,769 18.357426,-33.897812,868 18.346439,-33.912964,914 18.335896,-33.92648,922 18.323536,-33.937559,1005 18.310229,-33.950134,1082 18.299389,-33.964327,1120 18.292012,-33.981537,1097 18.286183,-34.001129,1036 18.284557,-34.019806,990 18.286743,-34.030663,952 18.29361,-34.043605,899 18.306026,-34.061109,868 18.315296,-34.069814,868 18.322168,-34.075928,868 18.330002,-34.089412,822 18.336754,-34.095883,784 18.339615,-34.106078,761 18.352318,-34.109802,723 18.371831,-34.114609,662 18.405463,-34.126465,617 18.432426,-34.135173,632 18.44101,-34.13629,594 18.447819,-34.134428,556 18.457816,-34.126831,502 18.461964,-34.125961,480 18.46384,-34.127213,464 18.463365,-34.129807,441 18.459834,-34.131638,426 18.454056,-34.131263,441 18.451653,-34.128656,434 18.453026,-34.125816,388 18.469139,-34.113968,327 18.483152,-34.104767,243 18.499071,-34.100464,106 18.519859,-34.095604,99 18.551388,-34.09025,106 18.568783,-34.087457,99 18.580799,-34.083361,91 18.602096,-34.078857,137 18.633541,-34.075195,121 18.662739,-34.073864,129 18.675581,-34.073547,129 18.683796,-34.067393,205 18.704109,-34.051752,259 18.721161,-34.036622,350 18.735669,-34.025803,434 18.755493,-34.010227,426 18.770926,-34.00058,502 18.786335,-33.992072,586 18.812828,-33.981039,678 18.824959,-33.97657,693 18.846645,-33.964187,701 18.8661,-33.95469,693 18.879433,-33.951245,678 18.892393,-33.951416,647 18.910554,-33.949585,556 18.89413,-33.945374,541 18.87886,-33.945473,525 18.848559,-33.951324,495 18.820896,-33.957111,411 18.80064,-33.963256,419 18.773632,-33.965304,434 18.726645,-33.967026,396 18.676702,-33.965973,403 18.642769,-33.965816,403 18.627656,-33.968903,380 18.619304,-33.971146,327 18.614674,-33.971496,289 18.612297,-33.971649,266 18.6114,-33.972015,259 18.611288,-33.972244,259 18.611927,-33.972194,251 18.612785,-33.971496,228 18.614388,-33.968889,198 18.616734,-33.959252,220 18.614674,-33.951059,259 18.60927,-33.947342,274 18.588181,-33.943378,297 18.567567,-33.942993,327 18.534048,-33.944275,350 18.526593,-33.942856,335 18.503094,-33.929273,320 18.476089,-33.914429,259 18.454789,-33.897354,236 18.437805,-33.885498,228 18.432144,-33.88353,220 18.428421,-33.883791,198 18.426651,-33.885773,175 18.426034,-33.892548,114 18.426876,-33.898362,53 18.427155,-33.900101,22 18.427391,-33.900596,-1 18.427491,-33.90065,15 18.42822,-33.900696,22 18.429909,-33.900783,22 18.434442,-33.900101,53 18.436124,-33.897949,76 18.436146,-33.887888,137 18.435059,-33.882581,167 18.431854,-33.879695,175 18.420373,-33.879272,220 18.405295,-33.879318,373 18.391113,-33.881091,502 18.379398,-33.885132,586 18.369026,-33.893241,678 18.358435,-33.905045,784 18.345852,-33.921592,807 18.33601,-33.93849,716 18.336294,-33.942581,685 18.340073,-33.945706,662 18.34543,-33.946243,632 18.351059,-33.943285,601 18.366852,-33.924385,601 18.386125,-33.901886,601 18.397111,-33.89296,548 18.41114,-33.887515,426 18.427155,-33.884583,312 18.430195,-33.885514,281 18.430309,-33.887329,228 18.425025,-33.889893,152 18.423729,-33.891472,137 18.42453,-33.894405,91 18.42637,-33.898041,53 18.427099,-33.899918,22 18.427379,-33.90065,7 18.432541,-33.900829,60 18.43483,-33.899712,76 18.436628,-33.895386,106 18.436068,-33.883713,190 18.433399,-33.878065,205 18.426189,-33.873503,236 18.416225,-33.871994,236 18.405295,-33.872498,373 18.394146,-33.875039,495 18.382369,-33.880417,586 18.370228,-33.890541,662 18.354287,-33.908157,746 18.34322,-33.926386,838 18.33394,-33.938736,937 18.322505,-33.951599,952 18.313065,-33.962604,914 18.302021,-33.98332,944 18.293806,-34.000305,952 18.288231,-34.016046,952 18.289378,-34.029419,937 18.29298,-34.04165,914 18.297729,-34.047934,982 18.423512,-33.885727,144 18.422615,-33.887329,137 18.424129,-33.892403,106 18.425674,-33.896686,76 18.427043,-33.899551,38 18.427267,-33.900467,15 18.427491,-33.900604,15 18.427963,-33.90069,7 18.43111,-33.901388,53 18.435899,-33.901794,106 18.438814,-33.90065,167 18.441639,-33.897059,220 18.442383,-33.892683,259 18.439293,-33.885188,281 18.433571,-33.879695,312 18.425193,-33.877258,358 18.41303,-33.877167,396 18.397579,-33.880672,472 18.384387,-33.886642,533 18.372448,-33.896439,586 18.356641,-33.913605,662 18.351596,-33.922256,701 18.351402,-33.924105,754 18.352718,-33.92513,784 18.355015,-33.924271,784 18.354791,-33.922485,754 18.352605,-33.921753,723 18.349242,-33.923767,708 18.479919,-34.08378,617 18.485506,-34.057617,624 18.489017,-34.030244,617 18.48971,-34.000168,563 18.492232,-33.969223,457 18.488674,-33.949895,434 18.478051,-33.92894,373 18.458152,-33.907883,304 18.445877,-33.893921,274 18.44244,-33.891658,266 18.438758,-33.890991,228 18.435516,-33.891984,182 18.430462,-33.896255,91 18.428276,-33.898499,45 18.427162,-33.900084,22 18.426991,-33.900969,7 18.426931,-33.901062,7 18.42762,-33.900643,22 18.429165,-33.900783,22 18.433971,-33.900783,106 18.436775,-33.898921,152 18.438606,-33.895755,190 18.438835,-33.889983,220 18.434386,-33.883438,289 18.43111,-33.878624,327 18.425846,-33.876203,342 18.41629,-33.875738,373 18.404789,-33.877413,411 18.38775,-33.88298,495 18.376932,-33.889755,533 18.361854,-33.905777,617 18.349743,-33.923966,670 18.338413,-33.946637,754 18.3382,-33.949585,838 18.341395,-33.950317,815 18.345711,-33.946655,792 18.354287,-33.933563,701 18.37284,-33.90921,601 18.38775,-33.89241,563 18.400474,-33.885406,548 18.414516,-33.882022,495 18.42368,-33.882339,472 18.428364,-33.88556,403 18.431079,-33.890259,312 18.43248,-33.893738,236 18.432598,-33.895569,167 18.430252,-33.897431,76 18.427772,-33.899323,30 18.426763,-33.900604,15 18.426931,-33.901016,7 18.427155,-33.901062,15 18.428822,-33.901481,38 18.431911,-33.901481,53 18.435395,-33.900055,83 18.437119,-33.89771,99 18.437004,-33.8884,152 18.434442,-33.884171,175 18.427906,-33.881277,220 18.412245,-33.877762,304 18.396893,-33.87732,388 18.389168,-33.878624,426 18.382702,-33.881603,495 18.373661,-33.887655,601 18.36376,-33.897171,708 18.357468,-33.905438,769 18.346081,-33.92378,784 18.335341,-33.942078,777 18.333323,-33.949265,792 18.336574,-33.951508,777 18.342628,-33.950638,739 18.352997,-33.939789,647 18.37738,-33.910233,609 18.391972,-33.89515,518 18.404732,-33.888539,457 18.421886,-33.883026,358 18.427211,-33.883804,289 18.427548,-33.886368,236 18.424801,-33.889435,152 18.424988,-33.893474,121 18.426132,-33.896872,91 18.426819,-33.898734,60 18.427155,-33.900238,22 18.426933,-33.900969,15
        </coordinates>
      </LineString>
    </Placemark>
  </Document>
</kml>