<?xml version="1.0" encoding="UTF-8"?>
<kml xmlns="http://www.opengis.net/kml/2.2">
  <Document>
    <name>-/ZTRNW - Optimised</name>
    <description><![CDATA[Optimised flight path with 566 points (decimated from 2829 original points). Source format: Standard KML]]></description>
    
    <Style id="flightPath">
      <LineStyle>
        <color>ff0000ff</color>
        <width>3</width>
      </LineStyle>
    </Style>
    
    <Placemark>
      <name>Flight Path</name>
      <description><![CDATA[<div style="width:220px; text-align:center;">
<div style="width:210px; text-align:center;">
<div style=" background: #000; color: #fff; font-size: 14px; text-align:left; border: 1px solid #000; padding: 2px 6px; text-shadow: 0 1px 0 #000; box-shadow: 0 1px 3px rgba(0,0,0,0.6); background: -webkit-gradient(linear, left top, left bottom, color-stop(0%,#808080), color-stop(2%,#303030), color-stop(100%,#0c0c0c));"><span style="font-size: 14px; font-weight: bold;"><a href="javascript:void(0);" style="color: #fff; cursor: pointer;text-decoration: none;">-</a></span> / ZTRNW<br/>Private owner</div>

<div style="border-top: 1px solid #005c90; color: #fff; padding-bottom: 5px; box-shadow: 0 0 1px #9BE3F6 inset, 0 1px 0 #9BE3F6 inset, 0 -1px 3px rgba(0,0,0,0.4); background:rgba(43,114,173,1); background: -webkit-gradient(linear, left top, left bottom, color-stop(0%,rgba(92,184,229,1)), color-stop(100%,rgba(43,114,173,1)));">
<a style="text-decoration: none; color: rgb(255, 255, 255); font-size: 12px; width:77px; display: inline-block;" title=" Airport" href="javascript:void(0);/departures"><h3 style="padding: 0px; margin: 10px 0px 0px; font-size: 16px; ">?</h3></a>
<span style="background: url(https://www.flightradar24.com/static/images/userUI_sprite.png?14) no-repeat scroll 0 -464px rgba(0, 0, 0, 0); border: medium none; display: inline-block; height: 16px; width: 45px;"></span>
<a style="text-decoration: none; color: rgb(255, 255, 255); font-size: 12px; width:77px; display: inline-block;" title=" Airport" href="javascript:void(0);/arrivals"><h3 style="padding: 0px; margin: 10px 0px 0px; font-size: 16px;">?</h3></a>
<div style=" margin-top:10px;">
<div style="display: inline-block; font-size: 12px; padding: 0 5px;">
<div>
<span style="color: #c1eaff;" title="Actual Time of Departure">ATD </span>
<span title="2025-08-28 11:46">11:46</span> <span title="Coordinated Universal Time">UTC</span>
</div>
</div>
<div style="display: inline-block; font-size: 12px; padding: 0 5px;">
<div>
<span style="color: #c1eaff;" title="Estimated Time of Arrival">ETA </span>
<span title="2025-08-28 12:02">12:02</span> <span title="Coordinated Universal Time">UTC</span>
</div>
</div>
</div>
<br style="clear: both;"/>
</div>

<div style="display: block;">
<table style="border-collapse: collapse; width: 100%;">
<tr style="border-right: 1px solid #dadada; ">
<td style="background: none repeat scroll 0 0 #dadada; padding: 0; width: 31px;">
<span style="background: url(https://www.flightradar24.com/static/images/userUI_sprite.png?14) no-repeat scroll -208px -464px rgba(0, 0, 0, 0); height: 26px; margin: 8px 0 0 4px; width: 23px; display: block;"></span>
</td>
<td colspan="2" style="border-bottom: 1px solid #dadada; border-left: 1px solid #dadada; color: #666; line-height: 1.1em; padding: 3px 6px; vertical-align: top; font-size: 14px;">
Aircraft<span style="float: right; font-size: 12px;">(EC20)</span><br>
<span style="color: #333; font-size: 16px; font-weight: bold; line-height: 1.3em;">Airbus Helicopters H120</span>
</td>
</tr>
<tr style="border-right: 1px solid #dadada; ">
<td style="background: none repeat scroll 0 0 #dadada; padding: 0; width: 31px;">
<td colspan="2" style="border-bottom: 1px solid #dadada; border-left: 1px solid #dadada; color: #666; line-height: 1.1em; padding: 3px 6px; vertical-align: top; font-size: 14px;">
Registration<br>
<span style="color: #333; font-size: 16px; font-weight: bold; line-height: 1.3em;"><a href="https://www.flightradar24.com/reg/zt-rnw" style="text-decoration: none; color: #333;">ZT-RNW</a></span>
</td>
</tr>
</table>
</div>

</div>
</div>]]></description>
      <styleUrl>#flightPath</styleUrl>
      <LineString>
        <extrude>1</extrude>
        <tessellate>1</tessellate>
        <altitudeMode>absolute</altitudeMode>
        <coordinates>
          18.430294,-33.89502,45.72 18.434555,-33.889069,137.16 18.435516,-33.885746,182.88 18.433914,-33.882256,228.6 18.430687,-33.880005,274.32 18.426483,-33.878036,335.28 18.422356,-33.876621,381 18.41795,-33.875877,411.48 18.412582,-33.875702,441.96 18.406864,-33.876343,472.44 18.401814,-33.877552,510.54 18.396832,-33.879456,548.64 18.392029,-33.88179,571.5 18.387526,-33.884308,594.36 18.382988,-33.886955,617.22 18.378639,-33.89003,640.08 18.374519,-33.893288,655.32 18.370571,-33.896778,678.18 18.366787,-33.900696,693.42 18.363247,-33.904694,701.04 18.359947,-33.908936,701.04 18.356585,-33.913788,701.04 18.354006,-33.918182,723.9 18.351988,-33.92276,731.52 18.35014,-33.927612,731.52 18.348598,-33.932716,731.52 18.347225,-33.937557,731.52 18.344534,-33.947571,739.14 18.341675,-33.955856,731.52 18.3391,-33.961346,739.14 18.329454,-33.977097,746.76 18.319702,-33.989822,754.38 18.315666,-33.994217,754.38 18.307285,-34.003059,746.76 18.296871,-34.015114,762 18.297785,-34.020081,723.9 18.303967,-34.022377,678.18 18.310661,-34.020374,655.32 18.316498,-34.016045,632.46 18.320656,-34.010925,624.84 18.323961,-34.005478,609.6 18.328514,-33.998497,609.6 18.341904,-33.983879,579.12 18.349747,-33.97142,586.74 18.354893,-33.958183,579.12 18.356781,-33.95171,571.5 18.360615,-33.937279,563.88 18.363132,-33.930717,563.88 18.36533,-33.925873,571.5 18.368397,-33.920895,571.5 18.372503,-33.915939,563.88 18.376751,-33.91135,548.64 18.382874,-33.904999,541.02 18.393116,-33.89529,464.82 18.398905,-33.891998,434.34 18.404621,-33.889709,419.1 18.410625,-33.887936,411.48 18.416576,-33.886723,396.24 18.422728,-33.886002,373.38 18.428164,-33.885956,342.9 18.433714,-33.887009,304.8 18.43786,-33.889206,266.7 18.440323,-33.892265,220.98 18.440271,-33.895523,175.26 18.438148,-33.897896,114.3 18.434486,-33.898968,68.58 18.432083,-33.899479,38.1 18.430653,-33.899757,15.24 18.427547,-33.900238,0 18.428535,-33.897758,7.62 18.429394,-33.8965,22.86 18.431358,-33.893738,53.34 18.435226,-33.887787,137.16 18.435287,-33.883976,182.88 18.432713,-33.881092,236.22 18.428949,-33.878998,281.94 18.424353,-33.877487,320.04 18.42001,-33.876621,373.38 18.415159,-33.876205,403.86 18.410282,-33.876251,441.96 18.404789,-33.876854,480.06 18.399633,-33.878174,510.54 18.394947,-33.880112,541.02 18.390427,-33.882393,571.5 18.385735,-33.885326,601.98 18.381557,-33.888351,632.46 18.377436,-33.891403,647.7 18.369982,-33.897308,693.42 18.365364,-33.901436,701.04 18.36113,-33.905624,708.66 18.35709,-33.90976,716.28 18.35367,-33.914017,708.66 18.350698,-33.918777,716.28 18.348312,-33.92392,708.66 18.346367,-33.929317,708.66 18.344707,-33.934719,708.66 18.343449,-33.939838,701.04 18.344366,-33.945145,670.56 18.351036,-33.947983,624.84 18.356438,-33.944866,594.36 18.359444,-33.939102,586.74 18.361931,-33.93351,586.74 18.36544,-33.925003,586.74 18.369026,-33.919823,579.12 18.373146,-33.915401,571.5 18.377268,-33.910858,579.12 18.387413,-33.899689,556.26 18.393402,-33.894871,510.54 18.399296,-33.89175,472.44 18.40519,-33.889469,449.58 18.411598,-33.887653,403.86 18.418293,-33.886257,373.38 18.42424,-33.885544,342.9 18.429909,-33.885979,304.8 18.434715,-33.887562,281.94 18.438814,-33.889938,259.08 18.441525,-33.893475,220.98 18.440952,-33.896545,190.5 18.437693,-33.898361,129.54 18.433971,-33.899059,68.58 18.431696,-33.899551,38.1 18.428331,-33.90033,0 18.427677,-33.898968,0 18.428764,-33.897106,15.24 18.430481,-33.894684,45.72 18.432884,-33.891285,83.82 18.435688,-33.886307,137.16 18.435287,-33.882256,167.64 18.43214,-33.879135,198.12 18.427547,-33.877625,228.6 18.423063,-33.879272,274.32 18.424644,-33.881695,312.42 18.42766,-33.879639,335.28 18.425045,-33.876202,358.14 18.419588,-33.875748,403.86 18.41415,-33.876663,449.58 18.408377,-33.87822,495.3 18.402328,-33.880112,533.4 18.396551,-33.882339,548.64 18.390778,-33.884857,556.26 18.385391,-33.887703,579.12 18.380072,-33.890991,617.22 18.374977,-33.894218,647.7 18.368637,-33.899002,678.18 18.364376,-33.903168,678.18 18.36034,-33.907516,678.18 18.356838,-33.912048,693.42 18.353634,-33.91703,701.04 18.350887,-33.922058,708.66 18.348598,-33.927456,693.42 18.346539,-33.933464,693.42 18.343805,-33.941895,693.42 18.338928,-33.954391,678.18 18.335724,-33.960648,632.46 18.322729,-33.982452,502.92 18.307875,-34.006943,480.06 18.298233,-34.02562,388.62 18.298073,-34.033875,388.62 18.300701,-34.04274,403.86 18.306753,-34.052307,419.1 18.311176,-34.058174,441.96 18.317516,-34.065399,441.96 18.321762,-34.069721,426.72 18.331081,-34.077667,381 18.341618,-34.082478,365.76 18.343132,-34.08783,365.76 18.346214,-34.092682,373.38 18.351059,-34.096676,388.62 18.357145,-34.099503,403.86 18.363304,-34.101982,403.86 18.373569,-34.106415,419.1 18.393692,-34.115524,426.72 18.41432,-34.124405,434.34 18.434162,-34.132874,403.86 18.440945,-34.134247,403.86 18.449821,-34.133171,403.86 18.455944,-34.129868,403.86 18.461552,-34.125492,403.86 18.466784,-34.121063,403.86 18.472366,-34.115108,396.24 18.474426,-34.109245,403.86 18.474941,-34.102448,396.24 18.475584,-34.09584,403.86 18.475513,-34.089226,419.1 18.47452,-34.083389,426.72 18.473118,-34.077759,434.34 18.469906,-34.063389,441.96 18.469194,-34.057709,449.58 18.468746,-34.049881,449.58 18.468933,-34.042812,449.58 18.469307,-34.033951,449.58 18.469734,-34.01828,441.96 18.470078,-33.998917,426.72 18.47138,-33.984146,403.86 18.472782,-33.97641,403.86 18.475529,-33.959015,373.38 18.475456,-33.952457,342.9 18.47477,-33.944633,320.04 18.473511,-33.937866,312.42 18.47168,-33.930576,289.56 18.469139,-33.9245,274.32 18.464542,-33.918137,266.7 18.459721,-33.913212,243.84 18.452883,-33.904953,137.16 18.448008,-33.899597,114.3 18.442783,-33.897339,129.54 18.437918,-33.897537,91.44 18.433857,-33.898502,53.34 18.431282,-33.899292,30.48 18.429565,-33.899918,7.62 18.42738,-33.900009,0 18.428421,-33.897896,15.24 18.429737,-33.895893,38.1 18.432312,-33.892456,83.82 18.436089,-33.886539,152.4 18.436432,-33.881882,190.5 18.435114,-33.877441,213.36 18.433321,-33.873184,251.46 18.43119,-33.86879,274.32 18.428669,-33.864166,289.56 18.419924,-33.848694,320.04 18.409653,-33.831932,320.04 18.399124,-33.814194,304.8 18.390385,-33.800537,289.56 18.385845,-33.794724,289.56 18.380407,-33.789413,281.94 18.374298,-33.785934,281.94 18.367939,-33.785007,274.32 18.361416,-33.787334,266.7 18.357258,-33.791336,266.7 18.355064,-33.795807,259.08 18.354721,-33.8013,259.08 18.355688,-33.806534,259.08 18.35709,-33.811935,266.7 18.358727,-33.817455,266.7 18.36113,-33.823925,281.94 18.363533,-33.829094,304.8 18.367138,-33.837612,335.28 18.368626,-33.842873,358.14 18.369814,-33.848007,373.38 18.37071,-33.853729,396.24 18.372561,-33.865585,426.72 18.373512,-33.875748,457.2 18.372688,-33.880718,480.06 18.370878,-33.886322,495.3 18.368912,-33.891098,510.54 18.366222,-33.896408,525.78 18.363476,-33.90134,541.02 18.355465,-33.916378,563.88 18.350887,-33.926804,594.36 18.349056,-33.932205,617.22 18.345966,-33.941563,632.46 18.341339,-33.953339,640.08 18.338528,-33.958553,647.7 18.331081,-33.969635,655.32 18.316339,-33.990692,662.94 18.314781,-33.998917,601.98 18.320206,-34.003006,579.12 18.327084,-34.001057,579.12 18.33847,-33.989559,586.74 18.350307,-33.973343,594.36 18.355293,-33.959347,594.36 18.35821,-33.948441,594.36 18.361349,-33.93718,594.36 18.365105,-33.926422,586.74 18.368525,-33.920334,586.74 18.373064,-33.915161,579.12 18.378164,-33.910126,571.5 18.386742,-33.900787,541.02 18.395004,-33.893845,487.68 18.401258,-33.890991,441.96 18.407312,-33.889252,419.1 18.413479,-33.887741,388.62 18.419701,-33.886322,350.52 18.426483,-33.885498,312.42 18.432655,-33.886723,289.56 18.436775,-33.888866,259.08 18.440104,-33.892136,220.98 18.440437,-33.895756,190.5 18.43758,-33.897766,137.16 18.433825,-33.89859,68.58 18.430996,-33.899338,30.48 18.428556,-33.900146,0 18.430294,-33.89502,45.72 18.431625,-33.893333,68.58 18.434555,-33.889069,137.16 18.434946,-33.888336,152.4 18.435516,-33.885746,182.88 18.435459,-33.884956,198.12 18.433914,-33.882256,228.6 18.433208,-33.881653,236.22 18.430687,-33.880005,274.32 18.429678,-33.879501,281.94 18.426483,-33.878036,335.28 18.425674,-33.877693,342.9 18.422356,-33.876621,381 18.421551,-33.876434,388.62 18.41795,-33.875877,411.48 18.416805,-33.875786,419.1 18.412582,-33.875702,441.96 18.411293,-33.875793,441.96 18.406864,-33.876343,472.44 18.405704,-33.876575,480.06 18.401814,-33.877552,510.54 18.400755,-33.877945,518.16 18.396832,-33.879456,548.64 18.395863,-33.879879,548.64 18.392029,-33.88179,571.5 18.391228,-33.882256,579.12 18.387526,-33.884308,594.36 18.386684,-33.884766,594.36 18.382988,-33.886955,617.22 18.382187,-33.88747,624.84 18.378639,-33.89003,640.08 18.377953,-33.890541,640.08 18.374519,-33.893288,655.32 18.373737,-33.893921,662.94 18.370571,-33.896778,678.18 18.369814,-33.897537,685.8 18.366787,-33.900696,693.42 18.366165,-33.90134,701.04 18.363247,-33.904694,701.04 18.362526,-33.905548,701.04 18.359947,-33.908936,701.04 18.359388,-33.909668,701.04 18.356585,-33.913788,701.04 18.356192,-33.914383,701.04 18.354006,-33.918182,723.9 18.353634,-33.918938,723.9 18.351988,-33.92276,731.52 18.351574,-33.923824,731.52 18.35014,-33.927612,731.52 18.3498,-33.928715,731.52 18.348598,-33.932716,731.52 18.34837,-33.933556,731.52 18.347225,-33.937557,731.52 18.346996,-33.938492,731.52 18.344534,-33.947571,739.14 18.343506,-33.950825,739.14 18.341675,-33.955856,731.52 18.341002,-33.957413,731.52 18.3391,-33.961346,739.14 18.338184,-33.96307,739.14 18.329454,-33.977097,746.76 18.326168,-33.981735,746.76 18.319702,-33.989822,754.38 18.319016,-33.990627,754.38 18.315666,-33.994217,754.38 18.314882,-33.995041,754.38 18.307285,-34.003059,746.76 18.304653,-34.006084,746.76 18.296871,-34.015114,762 18.296553,-34.016144,754.38 18.297785,-34.020081,723.9 18.298794,-34.02095,716.28 18.303967,-34.022377,678.18 18.305569,-34.022236,670.56 18.310661,-34.020374,655.32 18.311855,-34.019669,647.7 18.316498,-34.016045,632.46 18.317299,-34.015255,632.46 18.320656,-34.010925,624.84 18.321362,-34.009762,617.22 18.323961,-34.005478,609.6 18.324451,-34.004593,609.6 18.328514,-33.998497,609.6 18.333321,-33.992863,601.98 18.341904,-33.983879,579.12 18.343748,-33.981491,579.12 18.349747,-33.97142,586.74 18.350924,-33.969086,586.74 18.354893,-33.958183,579.12 18.355465,-33.956318,579.12 18.356781,-33.95171,571.5 18.35741,-33.949291,571.5 18.360615,-33.937279,563.88 18.361416,-33.935093,563.88 18.363132,-33.930717,563.88 18.36348,-33.92981,563.88 18.36533,-33.925873,571.5 18.365891,-33.924866,571.5 18.368397,-33.920895,571.5 18.369141,-33.919868,571.5 18.372503,-33.915939,563.88 18.373432,-33.914936,563.88 18.376751,-33.91135,548.64 18.377941,-33.910126,548.64 18.382874,-33.904999,541.02 18.386421,-33.901295,502.92 18.393116,-33.89529,464.82 18.394196,-33.894516,457.2 18.398905,-33.891998,434.34 18.399982,-33.891518,434.34 18.404621,-33.889709,419.1 18.405762,-33.889332,419.1 18.410625,-33.887936,411.48 18.412077,-33.887604,403.86 18.416576,-33.886723,396.24 18.417835,-33.886539,396.24 18.422728,-33.886002,373.38 18.423569,-33.88591,373.38 18.428164,-33.885956,342.9 18.429398,-33.886047,289.56 18.433714,-33.887009,304.8 18.434498,-33.887329,236.22 18.43786,-33.889206,266.7 18.438421,-33.889618,259.08 18.440323,-33.892265,220.98 18.440552,-33.893005,213.36 18.440271,-33.895523,175.26 18.43998,-33.896126,152.4 18.438148,-33.897896,114.3 18.437405,-33.89827,99.06 18.434486,-33.898968,68.58 18.433825,-33.899094,60.96 18.432083,-33.899479,38.1 18.43174,-33.89957,30.48 18.430653,-33.899757,15.24 18.430367,-33.899853,15.24 18.427547,-33.900238,0 18.427677,-33.899387,0 18.428535,-33.897758,7.62 18.428669,-33.897491,7.62 18.429394,-33.8965,22.86 18.429852,-33.895847,30.48 18.431358,-33.893738,53.34 18.43174,-33.893242,60.96 18.435226,-33.887787,137.16 18.435459,-33.887051,144.78 18.435287,-33.883976,182.88 18.434944,-33.883373,190.5 18.432713,-33.881092,236.22 18.432144,-33.880692,243.84 18.428949,-33.878998,281.94 18.428389,-33.878769,289.56 18.424353,-33.877487,320.04 18.423737,-33.87735,327.66 18.42001,-33.876621,373.38 18.418865,-33.876484,381 18.415159,-33.876205,403.86 18.41404,-33.87616,419.1 18.410282,-33.876251,441.96 18.409023,-33.876343,457.2 18.404789,-33.876854,480.06 18.403669,-33.877075,487.68 18.399633,-33.878174,510.54 18.39896,-33.878403,518.16 18.394947,-33.880112,541.02 18.394089,-33.880486,548.64 18.390427,-33.882393,571.5 18.389431,-33.88298,579.12 18.385735,-33.885326,601.98 18.384991,-33.885838,609.6 18.381557,-33.888351,632.46 18.380968,-33.888794,632.46 18.377436,-33.891403,647.7 18.376764,-33.891953,655.32 18.369982,-33.897308,693.42 18.36834,-33.898735,701.04 18.365364,-33.901436,701.04 18.364449,-33.902317,701.04 18.36113,-33.905624,708.66 18.360228,-33.906509,708.66 18.35709,-33.90976,716.28 18.356304,-33.910675,716.28 18.35367,-33.914017,708.66 18.35289,-33.915169,716.28 18.350698,-33.918777,716.28 18.350195,-33.919601,716.28 18.348312,-33.92392,708.66 18.347897,-33.925003,708.66 18.346367,-33.929317,708.66 18.346024,-33.930252,708.66 18.344707,-33.934719,708.66 18.344477,-33.935532,708.66 18.343449,-33.939838,701.04 18.3433,-33.940933,701.04 18.344366,-33.945145,670.56 18.345543,-33.946426,655.32 18.351036,-33.947983,624.84 18.352146,-33.947754,617.22 18.356438,-33.944866,594.36 18.357067,-33.94389,586.74 18.359444,-33.939102,586.74 18.359892,-33.938141,586.74 18.361931,-33.93351,586.74 18.362358,-33.932373,594.36 18.36544,-33.925003,586.74 18.365993,-33.924011,586.74 18.369026,-33.919823,579.12 18.369701,-33.919052,579.12 18.373146,-33.915401,571.5 18.37396,-33.914474,571.5 18.377268,-33.910858,579.12 18.378164,-33.909897,579.12 18.387413,-33.899689,556.26 18.389111,-33.898083,541.02 18.393402,-33.894871,510.54 18.394432,-33.894264,502.92 18.399296,-33.89175,472.44 18.400326,-33.891285,472.44 18.40519,-33.889469,449.58 18.406696,-33.889023,434.34 18.411598,-33.887653,403.86 18.412973,-33.887283,396.24 18.418293,-33.886257,373.38 18.419323,-33.886074,365.76 18.42424,-33.885544,342.9 18.425306,-33.885498,266.7 18.429909,-33.885979,304.8 18.430855,-33.88623,304.8 18.434715,-33.887562,281.94 18.435574,-33.887936,281.94 18.438814,-33.889938,259.08 18.439598,-33.890625,251.46 18.441525,-33.893475,220.98 18.441673,-33.89415,220.98 18.440952,-33.896545,190.5 18.440384,-33.897125,175.26 18.437693,-33.898361,129.54 18.436947,-33.898548,121.92 18.433971,-33.899059,68.58 18.433342,-33.8992,60.96 18.431696,-33.899551,38.1 18.431396,-33.89962,30.48 18.428331,-33.90033,0 18.427792,-33.900455,0 18.427677,-33.898968,0 18.427883,-33.898453,7.62 18.428764,-33.897106,15.24 18.429005,-33.896713,22.86 18.430481,-33.894684,45.72 18.430939,-33.894032,53.34 18.432884,-33.891285,83.82 18.433342,-33.890633,91.44 18.435688,-33.886307,137.16 18.43586,-33.885513,144.78 18.435287,-33.882256,167.64 18.434946,-33.881653,175.26 18.43214,-33.879135,198.12 18.431511,-33.878811,205.74 18.427547,-33.877625,228.6 18.426018,-33.877552,236.22 18.423063,-33.879272,274.32 18.422928,-33.879929,289.56 18.424644,-33.881695,312.42 18.425388,-33.881744,320.04 18.42766,-33.879639,335.28 18.427547,-33.878723,335.28 18.425045,-33.876202,358.14 18.423786,-33.875832,373.38 18.419588,-33.875748,403.86 18.418524,-33.875885,411.48 18.41415,-33.876663,449.58 18.412914,-33.876949,457.2 18.408377,-33.87822,495.3 18.407425,-33.878494,502.92 18.402328,-33.880112,533.4 18.401539,-33.880417,533.4 18.396551,-33.882339,548.64 18.395576,-33.882721,548.64 18.390778,-33.884857,556.26 18.389797,-33.885326,563.88 18.385391,-33.887703,579.12 18.384163,-33.888474,586.74 18.380072,-33.890991,617.22 18.37923,-33.891495,617.22 18.374977,-33.894218,647.7 18.374062,-33.894825,655.32 18.368637,-33.899002,678.18 18.367571,-33.899918,678.18 18.364376,-33.903168,678.18 18.363703,-33.903854,678.18 18.36034,-33.907516,678.18 18.359528,-33.908463,685.8 18.356838,-33.912048,693.42 18.356094,-33.913071,693.42 18.353634,-33.91703,701.04 18.353004,-33.918148,701.04 18.350887,-33.922058,708.66 18.350531,-33.922897,708.66 18.348598,-33.927456,693.42 18.348122,-33.928665,685.8 18.346539,-33.933464,693.42 18.346104,-33.934845,693.42 18.343805,-33.941895,693.42 18.34259,-33.945381,685.8 18.338928,-33.954391,678.18 18.338425,-33.955444,678.18 18.335724,-33.960648,632.46 18.33252,-33.966469,594.36 18.322729,-33.982452,502.92 18.319927,-33.986938,472.44 18.307875,-34.006943,480.06 18.304939,-34.011532,464.82 18.298233,-34.02562,388.62 18.297897,-34.028687,381 18.298073,-34.033875,388.62 18.298178,-34.035004,388.62 18.300701,-34.04274,403.86 18.301092,-34.04361,403.86 18.306753,-34.052307,419.1 18.307426,-34.053223,419.1 18.311176,-34.058174,441.96 18.312435,-34.059757,441.96 18.317516,-34.065399,441.96 18.318214,-34.066135,441.96 18.321762,-34.069721,426.72 18.324738,-34.072887,403.86 18.331081,-34.077667,381 18.332176,-34.077682,381 18.341618,-34.082478,365.76 18.341787,-34.083481,365.76 18.343132,-34.08783,365.76 18.343637,-34.088882,365.76 18.346214,-34.092682,373.38 18.346996,-34.09351,373.38 18.351059,-34.096676,388.62 18.351933,-34.097168,388.62 18.357145,-34.099503,403.86 18.358269,-34.099934,403.86 18.363304,-34.101982,403.86 18.364449,-34.102448,403.86 18.373569,-34.106415,419.1 18.377266,-34.108078,426.72 18.393692,-34.115524,426.72 18.398344,-34.117538,434.34 18.41432,-34.124405,434.34 18.418915,-34.126328,426.72 18.434162,-34.132874,403.86 18.435173,-34.133171,411.48 18.440945,-34.134247,403.86 18.44285,-34.134338,396.24 18.449821,-34.133171,403.86 18.450851,-34.132751,403.86 18.455944,-34.129868,403.86 18.457317,-34.128841,403.86 18.461552,-34.125492,403.86 18.462692,-34.124542,403.86 18.466784,-34.121063,403.86 18.467962,-34.119919,403.86 18.472366,-34.115108,396.24 18.472996,-34.11404,396.24 18.474426,-34.109245,403.86 18.474632,-34.107559,403.86 18.474941,-34.102448,396.24 18.475056,-34.101143,403.86 18.475584,-34.09584,403.86 18.475685,-34.094532,403.86 18.475513,-34.089226,419.1 18.475285,-34.087688,419.1 18.47452,-34.083389,426.72 18.474239,-34.082062,426.72 18.473118,-34.077759,434.34 18.47267,-34.075974,434.34 18.469906,-34.063389,441.96 18.469734,-34.062366,441.96 18.469194,-34.057709,449.58 18.468971,-34.055283,449.58 18.468746,-34.049881,449.58 18.468801,-34.047958,449.58 18.468933,-34.042812,449.58 18.468933,-34.041649,449.58 18.469307,-34.033951,449.58 18.469563,-34.030151,441.96 18.469734,-34.01828,441.96 18.469734,-34.014835,434.34 18.470078,-33.998917,426.72 18.470371,-33.994904,419.1 18.47138,-33.984146,403.86 18.471737,-33.981922,403.86 18.472782,-33.97641,403.86 18.473455,-33.972885,403.86 18.475529,-33.959015,373.38 18.475571,-33.957577,365.76 18.475456,-33.952457,342.9 18.475361,-33.951004,335.28 18.47477,-33.944633,320.04 18.474575,-33.943542,312.42 18.473511,-33.937866,312.42 18.473175,-33.936172,304.8 18.47168,-33.930576,289.56 18.471279,-33.929459,289.56 18.469139,-33.9245,274.32 18.468246,-33.922894,274.32 18.464542,-33.918137,266.7 18.463783,-33.917309,259.08 18.459721,-33.913212,243.84 18.458748,-33.912235,243.84 18.452883,-33.904953,137.16 18.452225,-33.904133,190.5 18.448008,-33.899597,114.3 18.447075,-33.898968,160.02 18.442783,-33.897339,129.54 18.442097,-33.897293,121.92 18.437918,-33.897537,91.44 18.436832,-33.897758,83.82 18.433857,-33.898502,53.34 18.433096,-33.898682,45.72 18.431282,-33.899292,30.48 18.430939,-33.899433,22.86 18.429565,-33.899918,7.62 18.429165,-33.900085,0 18.42738,-33.900009,0 18.427448,-33.899712,0 18.428421,-33.897896,15.24 18.428724,-33.897446,22.86 18.429737,-33.895893,38.1 18.430252,-33.895149,45.72 18.432312,-33.892456,83.82 18.432941,-33.891659,91.44 18.436089,-33.886539,152.4 18.436293,-33.885727,160.02 18.436432,-33.881882,190.5 18.436293,-33.881241,190.5 18.435114,-33.877441,213.36 18.434778,-33.876617,220.98 18.433321,-33.873184,251.46 18.432827,-33.872246,251.46 18.43119,-33.86879,274.32 18.430687,-33.867874,281.94 18.428669,-33.864166,289.56 18.427044,-33.861145,304.8 18.419924,-33.848694,320.04 18.417906,-33.845169,312.42 18.409653,-33.831932,320.04 18.407307,-33.828114,312.42 18.399124,-33.814194,304.8 18.397448,-33.811249,297.18 18.390385,-33.800537,289.56 18.389797,-33.799671,289.56 18.385845,-33.794724,289.56 18.384611,-33.793396,281.94 18.380407,-33.789413,281.94 18.379612,-33.788826,281.94 18.374298,-33.785934,281.94 18.373089,-33.785564,274.32 18.367939,-33.785007,274.32 18.366058,-33.785294,274.32 18.361416,-33.787334,266.7 18.360228,-33.788223,266.7 18.357258,-33.791336,266.7 18.356585,-33.792389,266.7 18.355064,-33.795807,259.08 18.354792,-33.796921,259.08 18.354721,-33.8013,259.08 18.354778,-33.802185,259.08 18.355688,-33.806534,259.08 18.35598,-33.807632,259.08 18.35709,-33.811935,266.7 18.357353,-33.81303,266.7 18.358727,-33.817455,266.7 18.358995,-33.818253,266.7 18.36113,-33.823925,281.94 18.361416,-33.824577,281.94 18.363533,-33.829094,304.8 18.363876,-33.829838,304.8 18.367138,-33.837612,335.28 18.367571,-33.838943,335.28 18.368626,-33.842873,358.14 18.368855,-33.843758,358.14 18.369814,-33.848007,373.38 18.369982,-33.848877,381 18.37071,-33.853729,396.24 18.370857,-33.854881,396.24 18.372561,-33.865585,426.72 18.373064,-33.868881,434.34 18.373512,-33.875748,457.2 18.373432,-33.876575,457.2 18.372688,-33.880718,480.06 18.372335,-33.881973,480.06 18.370878,-33.886322,495.3 18.370457,-33.88747,495.3 18.368912,-33.891098,510.54 18.368511,-33.891937,510.54 18.366222,-33.896408,525.78 18.36561,-33.897491,525.78 18.363476,-33.90134,541.02 18.362732,-33.902599,541.02 18.355465,-33.916378,563.88 18.353863,-33.919636,571.5 18.350887,-33.926804,594.36 18.350531,-33.927979,601.98 18.349056,-33.932205,617.22 18.348738,-33.933289,617.22 18.345966,-33.941563,632.46 18.344646,-33.945282,632.46 18.341339,-33.953339,640.08 18.340874,-33.954224,647.7 18.338528,-33.958553,647.7 18.337841,-33.959717,647.7 18.331081,-33.969635,655.32 18.329372,-33.972008,655.32 18.316339,-33.990692,662.94 18.314953,-33.993141,647.7 18.314781,-33.998917,601.98 18.315443,-34.000122,594.36 18.320206,-34.003006,579.12 18.321419,-34.003105,579.12 18.327084,-34.001057,579.12 18.328114,-34.000172,579.12 18.33847,-33.989559,586.74 18.342796,-33.985062,579.12 18.350307,-33.973343,594.36 18.35154,-33.970459,594.36 18.355293,-33.959347,594.36 18.356667,-33.955063,594.36 18.35821,-33.948441,594.36 18.35844,-33.947475,594.36 18.361349,-33.93718,594.36 18.361965,-33.935394,594.36 18.365105,-33.926422,586.74 18.365891,-33.924774,586.74 18.368525,-33.920334,586.74 18.36937,-33.919266,586.74 18.373064,-33.915161,579.12 18.374018,-33.9142,579.12 18.378164,-33.910126,571.5 18.379154,-33.909115,571.5 18.386742,-33.900787,541.02 18.389511,-33.897942,518.16 18.395004,-33.893845,487.68 18.396046,-33.893234,480.06 18.401258,-33.890991,441.96 18.40238,-33.890625,441.96 18.407312,-33.889252,419.1 18.408337,-33.888958,411.48 18.413479,-33.887741,388.62 18.414917,-33.887375,381 18.419701,-33.886322,350.52 18.421326,-33.886002,342.9 18.426483,-33.885498,312.42 18.428078,-33.885605,304.8 18.432655,-33.886723,289.56 18.433685,-33.887142,281.94 18.436775,-33.888866,259.08 18.437412,-33.889343,251.46 18.440104,-33.892136,220.98 18.440552,-33.893005,213.36 18.440437,-33.895756,190.5 18.440104,-33.896347,175.26 18.43758,-33.897766,137.16 18.43646,-33.898041,114.3 18.433825,-33.89859,68.58 18.433096,-33.898727,60.96 18.430996,-33.899338,30.48 18.430424,-33.899525,22.86 18.428556,-33.900146,0 18.428276,-33.900284,0
        </coordinates>
      </LineString>
    </Placemark>
  </Document>
</kml>