<?xml version="1.0" encoding="UTF-8"?>
<kml xmlns="http://www.opengis.net/kml/2.2">
  <Document>
    <name>-/ZTHOT - Optimised</name>
    <description><![CDATA[Optimised flight path with 1384 points (decimated from 6919 original points). Source format: Standard KML]]></description>
    
    <Style id="flightPath">
      <LineStyle>
        <color>ff0000ff</color>
        <width>3</width>
      </LineStyle>
    </Style>
    
    <Placemark>
      <name>Flight Path</name>
      <description><![CDATA[<div style="width:220px; text-align:center;">
<div style="width:210px; text-align:center;">
<div style=" background: #000; color: #fff; font-size: 14px; text-align:left; border: 1px solid #000; padding: 2px 6px; text-shadow: 0 1px 0 #000; box-shadow: 0 1px 3px rgba(0,0,0,0.6); background: -webkit-gradient(linear, left top, left bottom, color-stop(0%,#808080), color-stop(2%,#303030), color-stop(100%,#0c0c0c));"><span style="font-size: 14px; font-weight: bold;"><a href="javascript:void(0);" style="color: #fff; cursor: pointer;text-decoration: none;">-</a></span> / ZTHOT<br/>Cape Town Helicopters</div>

<div style="border-top: 1px solid #005c90; color: #fff; padding-bottom: 5px; box-shadow: 0 0 1px #9BE3F6 inset, 0 1px 0 #9BE3F6 inset, 0 -1px 3px rgba(0,0,0,0.4); background:rgba(43,114,173,1); background: -webkit-gradient(linear, left top, left bottom, color-stop(0%,rgba(92,184,229,1)), color-stop(100%,rgba(43,114,173,1)));">
<a style="text-decoration: none; color: rgb(255, 255, 255); font-size: 12px; width:77px; display: inline-block;" title=" Airport" href="javascript:void(0);/departures"><h3 style="padding: 0px; margin: 10px 0px 0px; font-size: 16px; ">?</h3></a>
<span style="background: url(https://www.flightradar24.com/static/images/userUI_sprite.png?14) no-repeat scroll 0 -464px rgba(0, 0, 0, 0); border: medium none; display: inline-block; height: 16px; width: 45px;"></span>
<a style="text-decoration: none; color: rgb(255, 255, 255); font-size: 12px; width:77px; display: inline-block;" title=" Airport" href="javascript:void(0);/arrivals"><h3 style="padding: 0px; margin: 10px 0px 0px; font-size: 16px;">?</h3></a>
<div style=" margin-top:10px;">
<div style="display: inline-block; font-size: 12px; padding: 0 5px;">
<div>
<span style="color: #c1eaff;" title="Actual Time of Departure">ATD </span>
<span title="2025-11-08 07:12">07:12</span> <span title="Coordinated Universal Time">UTC</span>
</div>
</div>
<div style="display: inline-block; font-size: 12px; padding: 0 5px;">
<div>
<span style="color: #c1eaff;" title="Estimated Time of Arrival">ETA </span>
<span title="2025-11-08 07:39">07:39</span> <span title="Coordinated Universal Time">UTC</span>
</div>
</div>
</div>
<br style="clear: both;"/>
</div>

<div style="display: block;">
<table style="border-collapse: collapse; width: 100%;">
<tr style="border-right: 1px solid #dadada; ">
<td style="background: none repeat scroll 0 0 #dadada; padding: 0; width: 31px;">
<span style="background: url(https://www.flightradar24.com/static/images/userUI_sprite.png?14) no-repeat scroll -208px -464px rgba(0, 0, 0, 0); height: 26px; margin: 8px 0 0 4px; width: 23px; display: block;"></span>
</td>
<td colspan="2" style="border-bottom: 1px solid #dadada; border-left: 1px solid #dadada; color: #666; line-height: 1.1em; padding: 3px 6px; vertical-align: top; font-size: 14px;">
Aircraft<span style="float: right; font-size: 12px;">(AS50)</span><br>
<span style="color: #333; font-size: 16px; font-weight: bold; line-height: 1.3em;">Airbus Helicopters H125</span>
</td>
</tr>
<tr style="border-right: 1px solid #dadada; ">
<td style="background: none repeat scroll 0 0 #dadada; padding: 0; width: 31px;">
<td colspan="2" style="border-bottom: 1px solid #dadada; border-left: 1px solid #dadada; color: #666; line-height: 1.1em; padding: 3px 6px; vertical-align: top; font-size: 14px;">
Registration<br>
<span style="color: #333; font-size: 16px; font-weight: bold; line-height: 1.3em;"><a href="https://www.flightradar24.com/reg/zt-hot" style="text-decoration: none; color: #333;">ZT-HOT</a></span>
</td>
</tr>
</table>
</div>

</div>
</div>]]></description>
      <styleUrl>#flightPath</styleUrl>
      <LineString>
        <extrude>1</extrude>
        <tessellate>1</tessellate>
        <altitudeMode>absolute</altitudeMode>
        <coordinates>
          18.427734,-33.900642,60.96 18.431471,-33.901428,91.44 18.435114,-33.90152,152.4 18.439318,-33.900192,182.88 18.442177,-33.897034,213.36 18.442963,-33.892456,213.36 18.441448,-33.88797,243.84 18.438435,-33.884163,274.32 18.435059,-33.880672,304.8 18.430481,-33.877132,335.28 18.425446,-33.875458,365.76 18.421898,-33.873455,426.72 18.423557,-33.870663,457.2 18.427734,-33.870895,487.68 18.43063,-33.873779,518.16 18.427963,-33.876621,518.16 18.422184,-33.877365,518.16 18.415833,-33.877739,518.16 18.410053,-33.877972,518.16 18.402271,-33.878624,518.16 18.39632,-33.879463,548.64 18.390598,-33.880814,548.64 18.385334,-33.883045,579.12 18.38047,-33.886307,579.12 18.375811,-33.89003,579.12 18.371201,-33.893986,609.6 18.363819,-33.900551,670.56 18.359814,-33.904831,701.04 18.356438,-33.908928,731.52 18.353109,-33.913376,731.52 18.35025,-33.917999,731.52 18.347626,-33.923454,731.52 18.345165,-33.929085,731.52 18.343105,-33.934578,762 18.341394,-33.942215,792.48 18.343678,-33.946171,853.44 18.347841,-33.947067,914.4 18.350756,-33.944916,975.36 18.349743,-33.941841,975.36 18.344028,-33.94249,975.36 18.341789,-33.947845,975.36 18.340759,-33.954086,975.36 18.339386,-33.960278,975.36 18.375923,-34.104893,1158.24 18.379765,-34.109886,1127.76 18.384449,-34.114105,1066.8 18.39036,-34.117466,975.36 18.397329,-34.12088,883.92 18.404236,-34.123928,792.48 18.411448,-34.127605,701.04 18.418358,-34.130707,640.08 18.425331,-34.134163,609.6 18.434774,-34.138947,579.12 18.441385,-34.140442,579.12 18.447859,-34.140541,579.12 18.45365,-34.138577,609.6 18.458883,-34.135899,609.6 18.463783,-34.132679,609.6 18.468605,-34.128815,579.12 18.472481,-34.124264,579.12 18.475208,-34.119797,579.12 18.478369,-34.115845,579.12 18.480625,-34.111164,548.64 18.480368,-34.105122,548.64 18.478987,-34.100334,548.64 18.479244,-34.095249,548.64 18.479486,-34.089958,548.64 18.478525,-34.085262,548.64 18.47821,-34.080616,548.64 18.479021,-34.075523,548.64 18.480474,-34.070595,548.64 18.480871,-34.065559,548.64 18.480976,-34.060429,548.64 18.481228,-34.055546,548.64 18.481316,-34.050426,548.64 18.481714,-34.045307,548.64 18.48259,-34.038433,579.12 18.483049,-34.033421,548.64 18.483522,-34.028061,548.64 18.483257,-34.022945,548.64 18.482557,-34.017963,548.64 18.483055,-34.012619,548.64 18.483311,-34.007385,518.16 18.484646,-34.001671,487.68 18.485275,-33.996082,457.2 18.485943,-33.989365,457.2 18.485569,-33.983631,426.72 18.485243,-33.978344,426.72 18.485586,-33.97221,426.72 18.486185,-33.964828,365.76 18.486393,-33.958683,335.28 18.484842,-33.952049,335.28 18.48332,-33.945374,335.28 18.481806,-33.940063,335.28 18.480013,-33.93512,335.28 18.477715,-33.929626,304.8 18.47271,-33.92485,304.8 18.467569,-33.920837,304.8 18.463097,-33.917217,335.28 18.458691,-33.91354,365.76 18.454628,-33.909676,335.28 18.45294,-33.904999,335.28 18.451538,-33.90004,335.28 18.449936,-33.895893,335.28 18.446503,-33.892681,304.8 18.440437,-33.893147,243.84 18.435287,-33.895756,182.88 18.429733,-33.897079,91.44 18.427267,-33.900787,60.96 18.430767,-33.901482,91.44 18.434258,-33.900784,152.4 18.437233,-33.899014,182.88 18.439922,-33.895802,213.36 18.441055,-33.891953,274.32 18.440384,-33.887604,304.8 18.438478,-33.883713,335.28 18.435059,-33.880344,365.76 18.43008,-33.878437,396.24 18.425102,-33.877739,457.2 18.41914,-33.878036,457.2 18.413143,-33.878483,487.68 18.407537,-33.878632,518.16 18.401707,-33.879181,548.64 18.395653,-33.880417,548.64 18.389912,-33.882626,579.12 18.385004,-33.885544,579.12 18.380911,-33.889206,579.12 18.375034,-33.892868,579.12 18.369925,-33.896027,579.12 18.36525,-33.89962,609.6 18.361244,-33.903622,640.08 18.357983,-33.907906,640.08 18.354836,-33.912838,640.08 18.352089,-33.91745,670.56 18.349466,-33.922073,701.04 18.347504,-33.926147,762 18.345991,-33.930176,822.96 18.343918,-33.935898,883.92 18.341675,-33.939838,914.4 18.338425,-33.942169,975.36 18.339825,-33.946152,944.88 18.34543,-33.948807,975.36 18.35025,-33.9478,883.92 18.354206,-33.942402,822.96 18.357986,-33.937363,792.48 18.361797,-33.931778,731.52 18.365217,-33.926193,670.56 18.368912,-33.920521,640.08 18.372917,-33.915352,579.12 18.3771,-33.910629,548.64 18.381584,-33.90596,548.64 18.386404,-33.901428,518.16 18.391281,-33.897583,518.16 18.396893,-33.894264,487.68 18.402786,-33.891659,487.68 18.409386,-33.889618,457.2 18.416233,-33.888119,457.2 18.422985,-33.887005,426.72 18.429901,-33.886505,396.24 18.436796,-33.887833,365.76 18.442177,-33.890488,335.28 18.446157,-33.892548,335.28 18.44244,-33.894684,304.8 18.442268,-33.898594,243.84 18.440208,-33.900829,182.88 18.436852,-33.898865,152.4 18.430195,-33.899853,60.96 18.427162,-33.901062,0 18.431416,-33.901199,91.44 18.434887,-33.899757,152.4 18.43775,-33.897079,182.88 18.439543,-33.893143,243.84 18.439865,-33.888866,274.32 18.438478,-33.884903,304.8 18.435287,-33.881325,335.28 18.430767,-33.879368,396.24 18.425732,-33.878204,426.72 18.420597,-33.877533,457.2 18.415384,-33.877258,487.68 18.409939,-33.87746,518.16 18.404675,-33.878483,548.64 18.399982,-33.879929,579.12 18.394718,-33.882442,579.12 18.390369,-33.885139,609.6 18.386021,-33.888168,640.08 18.381844,-33.89138,640.08 18.377438,-33.894917,670.56 18.373289,-33.898682,670.56 18.369476,-33.902847,701.04 18.366169,-33.906921,701.04 18.363087,-33.911133,731.52 18.360172,-33.915756,731.52 18.357538,-33.920242,731.52 18.355072,-33.925552,731.52 18.353222,-33.931274,731.52 18.351988,-33.937683,731.52 18.351173,-33.94347,731.52 18.349466,-33.95018,762 18.347054,-33.955387,762 18.33704,-33.970657,762 18.327026,-33.9883,792.48 18.321419,-33.997147,792.48 18.316441,-34.003849,792.48 18.312092,-34.008411,792.48 18.306585,-34.013809,762 18.302193,-34.018047,762 18.297672,-34.022888,762 18.293953,-34.027546,762 18.294758,-34.03244,792.48 18.29958,-34.031204,762 18.305569,-34.02866,731.52 18.31135,-34.02594,701.04 18.317181,-34.023148,670.56 18.32172,-34.018845,640.08 18.325024,-34.01395,640.08 18.32811,-34.009003,640.08 18.331697,-34.003922,640.08 18.334837,-33.999298,640.08 18.348122,-33.98465,609.6 18.354567,-33.972656,640.08 18.359299,-33.959904,609.6 18.36034,-33.953613,609.6 18.360565,-33.948029,609.6 18.361294,-33.942535,609.6 18.363031,-33.937454,609.6 18.364849,-33.932346,609.6 18.366507,-33.926788,609.6 18.368805,-33.921844,609.6 18.372231,-33.917168,609.6 18.376146,-33.912735,609.6 18.38007,-33.908512,609.6 18.384075,-33.903717,609.6 18.388367,-33.899155,579.12 18.393131,-33.895752,548.64 18.399181,-33.892776,518.16 18.405462,-33.890488,487.68 18.41177,-33.888634,457.2 18.417738,-33.886917,426.72 18.423904,-33.885635,396.24 18.430519,-33.88623,365.76 18.435287,-33.88868,335.28 18.438663,-33.891983,304.8 18.438589,-33.89566,243.84 18.434715,-33.896778,152.4 18.428078,-33.899292,60.96 18.427219,-33.901028,0 18.431053,-33.901901,91.44 18.434658,-33.900455,152.4 18.437519,-33.89743,182.88 18.438534,-33.893372,213.36 18.437862,-33.889053,243.84 18.435745,-33.884907,274.32 18.431568,-33.881836,304.8 18.426594,-33.880234,335.28 18.421497,-33.879463,396.24 18.416113,-33.878952,426.72 18.411026,-33.878765,487.68 18.405743,-33.879089,518.16 18.400755,-33.880096,548.64 18.396149,-33.881649,579.12 18.391571,-33.88393,609.6 18.386909,-33.886688,640.08 18.382416,-33.889702,640.08 18.378124,-33.892868,670.56 18.373718,-33.896267,701.04 18.369484,-33.89999,731.52 18.365778,-33.90358,731.52 18.362246,-33.907471,731.52 18.358669,-33.912003,762 18.355633,-33.916534,762 18.352718,-33.921497,762 18.35043,-33.926434,762 18.346888,-33.937546,762 18.344879,-33.943005,762 18.342304,-33.948311,762 18.339615,-33.953526,762 18.345711,-33.964325,701.04 18.355743,-33.957779,670.56 18.357353,-33.95171,640.08 18.358658,-33.946518,640.08 18.360788,-33.940704,640.08 18.362919,-33.935486,609.6 18.364321,-33.930267,640.08 18.366339,-33.924866,609.6 18.369255,-33.920101,609.6 18.372841,-33.915619,609.6 18.376596,-33.911453,609.6 18.380575,-33.906738,609.6 18.384418,-33.902271,609.6 18.388939,-33.898174,579.12 18.394032,-33.894871,548.64 18.399801,-33.892044,518.16 18.405933,-33.889889,487.68 18.411909,-33.888153,457.2 18.41795,-33.886772,457.2 18.424297,-33.885956,426.72 18.430195,-33.887238,396.24 18.43483,-33.889519,335.28 18.438435,-33.892544,274.32 18.438421,-33.895569,213.36 18.43523,-33.896778,152.4 18.428707,-33.89864,60.96 18.426874,-33.900375,60.96 18.42802,-33.900875,60.96 18.431248,-33.89978,91.44 18.434887,-33.898502,152.4 18.437525,-33.895386,182.88 18.438206,-33.891006,213.36 18.43689,-33.886864,243.84 18.434143,-33.882999,304.8 18.431023,-33.880234,365.76 18.426203,-33.878586,396.24 18.421154,-33.877647,426.72 18.416393,-33.87735,457.2 18.410788,-33.877304,487.68 18.405575,-33.877625,518.16 18.40004,-33.878811,548.64 18.394308,-33.881104,579.12 18.389454,-33.88393,579.12 18.385059,-33.886963,609.6 18.380688,-33.890121,640.08 18.372671,-33.896393,670.56 18.36886,-33.899963,670.56 18.364849,-33.903996,701.04 18.361013,-33.90802,701.04 18.357353,-33.912235,701.04 18.354206,-33.916611,731.52 18.351765,-33.921661,731.52 18.350195,-33.926605,731.52 18.347626,-33.936581,731.52 18.343412,-33.951141,762 18.341619,-33.962128,731.52 18.35638,-33.962837,670.56 18.359331,-33.956772,670.56 18.360397,-33.950912,640.08 18.361181,-33.945419,640.08 18.362583,-33.939972,609.6 18.363762,-33.934441,609.6 18.364792,-33.929226,609.6 18.367081,-33.924107,609.6 18.37043,-33.919189,609.6 18.374073,-33.914749,609.6 18.377666,-33.910324,609.6 18.383099,-33.903992,609.6 18.38728,-33.899853,579.12 18.391914,-33.895893,579.12 18.397293,-33.892681,548.64 18.403301,-33.890263,518.16 18.409946,-33.888382,487.68 18.415945,-33.886963,457.2 18.422871,-33.885979,426.72 18.428053,-33.886047,365.76 18.432598,-33.887936,335.28 18.435394,-33.890808,274.32 18.436661,-33.893986,213.36 18.434891,-33.896393,152.4 18.430882,-33.897758,121.92 18.427322,-33.899963,60.96 18.427134,-33.901131,0 18.43008,-33.902039,91.44 18.433714,-33.900879,121.92 18.43626,-33.898407,182.88 18.437462,-33.894547,213.36 18.437462,-33.8904,243.84 18.436604,-33.886307,274.32 18.433434,-33.882706,304.8 18.428364,-33.880344,335.28 18.423958,-33.878998,396.24 18.419037,-33.877834,426.72 18.41423,-33.877132,457.2 18.40905,-33.877213,487.68 18.404045,-33.878067,518.16 18.399128,-33.879868,548.64 18.394476,-33.882339,579.12 18.389879,-33.885223,609.6 18.385059,-33.888336,609.6 18.380642,-33.891659,640.08 18.376316,-33.895065,670.56 18.372223,-33.898682,701.04 18.368357,-33.902252,701.04 18.364563,-33.906044,731.52 18.361126,-33.910172,731.52 18.358154,-33.914474,762 18.355408,-33.918961,762 18.352661,-33.92392,762 18.350487,-33.928852,762 18.34672,-33.942352,762 18.343391,-33.953712,762 18.343357,-33.966476,731.52 18.358612,-33.964466,640.08 18.359985,-33.956646,640.08 18.36062,-33.950409,640.08 18.361416,-33.944916,640.08 18.362471,-33.939285,640.08 18.363819,-33.932346,640.08 18.365421,-33.926804,609.6 18.367683,-33.921661,609.6 18.370934,-33.917038,609.6 18.37525,-33.912277,609.6 18.379063,-33.908066,609.6 18.382986,-33.903717,609.6 18.387413,-33.899368,579.12 18.392347,-33.89566,548.64 18.397865,-33.892822,518.16 18.404102,-33.89045,518.16 18.410568,-33.888584,487.68 18.416691,-33.887238,457.2 18.422615,-33.88623,426.72 18.428724,-33.886047,396.24 18.433321,-33.887512,335.28 18.436317,-33.89045,274.32 18.436571,-33.893875,213.36 18.434162,-33.896301,152.4 18.430407,-33.897858,91.44 18.427322,-33.899918,60.96 18.427141,-33.901131,0 18.430653,-33.901482,91.44 18.434258,-33.900455,152.4 18.437176,-33.897526,182.88 18.43803,-33.893784,243.84 18.437519,-33.889332,274.32 18.435732,-33.885635,304.8 18.431919,-33.882706,365.76 18.427734,-33.881416,426.72 18.423344,-33.881149,457.2 18.419838,-33.881462,518.16 18.416058,-33.881973,579.12 18.412806,-33.882339,640.08 18.404118,-33.88353,670.56 18.399467,-33.884628,701.04 18.394947,-33.886024,701.04 18.39016,-33.888016,731.52 18.385277,-33.890495,731.52 18.380985,-33.892963,762 18.376522,-33.896126,762 18.37228,-33.89978,731.52 18.368683,-33.903667,762 18.365479,-33.907578,762 18.362389,-33.911674,762 18.359642,-33.916004,762 18.357296,-33.920475,792.48 18.355183,-33.925232,792.48 18.353233,-33.930019,792.48 18.349113,-33.94091,792.48 18.34568,-33.952549,792.48 18.349915,-33.956413,792.48 18.356438,-33.954643,762 18.358727,-33.949478,731.52 18.36006,-33.943314,701.04 18.361629,-33.937408,670.56 18.363535,-33.931183,640.08 18.366108,-33.925129,640.08 18.369141,-33.919823,640.08 18.372688,-33.914608,609.6 18.376652,-33.909714,609.6 18.381191,-33.90477,609.6 18.385563,-33.900272,609.6 18.390827,-33.895988,609.6 18.39711,-33.892502,579.12 18.40353,-33.889797,548.64 18.410568,-33.887703,518.16 18.417664,-33.885887,518.16 18.424587,-33.88435,487.68 18.431053,-33.884441,457.2 18.436348,-33.885773,426.72 18.440151,-33.888168,396.24 18.440159,-33.891174,335.28 18.436909,-33.892639,274.32 18.432655,-33.893009,213.36 18.428307,-33.896591,121.92 18.42762,-33.899246,91.44 18.427204,-33.901062,0 18.429846,-33.901794,121.92 18.433489,-33.90152,182.88 18.437347,-33.900921,213.36 18.44072,-33.89859,243.84 18.442345,-33.894791,304.8 18.442497,-33.890587,335.28 18.44128,-33.886505,365.76 18.439207,-33.882751,396.24 18.436203,-33.879089,457.2 18.432941,-33.876156,518.16 18.428879,-33.873363,548.64 18.42396,-33.871536,579.12 18.418467,-33.870758,579.12 18.413086,-33.870941,609.6 18.407478,-33.871872,640.08 18.402212,-33.873413,640.08 18.396893,-33.875553,640.08 18.3918,-33.877972,640.08 18.387133,-33.880692,640.08 18.38253,-33.883743,670.56 18.378502,-33.88678,701.04 18.374409,-33.890167,701.04 18.366619,-33.896713,762 18.357538,-33.905045,762 18.354206,-33.909023,792.48 18.350979,-33.91333,792.48 18.348177,-33.917679,792.48 18.345263,-33.922531,792.48 18.342852,-33.927109,792.48 18.34005,-33.934296,792.48 18.341675,-33.937885,822.96 18.345852,-33.93914,853.44 18.350475,-33.937775,883.92 18.353502,-33.934387,914.4 18.352718,-33.930576,944.88 18.348345,-33.929993,944.88 18.345037,-33.934067,944.88 18.339264,-33.952881,914.4 18.33149,-33.976105,914.4 18.325138,-33.992676,914.4 18.324299,-33.997925,914.4 18.324852,-34.003571,914.4 18.326397,-34.008923,883.92 18.329201,-34.013672,914.4 18.33252,-34.018047,914.4 18.336182,-34.022331,914.4 18.339901,-34.02652,914.4 18.34515,-34.032578,883.92 18.348402,-34.037567,883.92 18.350372,-34.042442,883.92 18.35182,-34.047821,853.44 18.351988,-34.053452,822.96 18.350924,-34.059448,792.48 18.349186,-34.065079,762 18.347113,-34.071213,731.52 18.344366,-34.079773,701.04 18.343449,-34.08569,670.56 18.344141,-34.091263,640.08 18.346495,-34.096573,640.08 18.350811,-34.100693,640.08 18.355923,-34.103333,640.08 18.361473,-34.105892,609.6 18.366337,-34.108032,640.08 18.371662,-34.110168,640.08 18.377094,-34.112129,640.08 18.382481,-34.114014,670.56 18.395653,-34.118912,670.56 18.413544,-34.126003,640.08 18.419195,-34.128204,640.08 18.424473,-34.130333,640.08 18.431282,-34.132984,640.08 18.437119,-34.134102,640.08 18.443756,-34.133358,640.08 18.449575,-34.131088,640.08 18.455658,-34.127773,640.08 18.46129,-34.124313,640.08 18.466244,-34.12051,640.08 18.470249,-34.115437,640.08 18.472221,-34.110214,640.08 18.473063,-34.104172,640.08 18.473398,-34.097992,609.6 18.473454,-34.092068,640.08 18.47323,-34.083755,640.08 18.473053,-34.066322,640.08 18.473167,-34.045654,640.08 18.47414,-34.024426,640.08 18.475685,-34.002827,609.6 18.478947,-33.980247,518.16 18.482094,-33.960091,457.2 18.481806,-33.952927,426.72 18.480721,-33.94603,396.24 18.478611,-33.939377,365.76 18.475864,-33.933197,365.76 18.472195,-33.927086,335.28 18.468353,-33.921478,335.28 18.463982,-33.915939,335.28 18.459148,-33.910419,304.8 18.454456,-33.905251,274.32 18.443184,-33.894077,213.36 18.436775,-33.8918,182.88 18.428331,-33.894012,152.4 18.427044,-33.896805,121.92 18.427277,-33.898922,91.44 18.427048,-33.900455,91.44 18.428822,-33.901852,91.44 18.432425,-33.900787,121.92 18.436293,-33.898682,152.4 18.438814,-33.895111,182.88 18.439808,-33.890076,213.36 18.438606,-33.884724,243.84 18.435171,-33.880371,304.8 18.431078,-33.880783,365.76 18.431339,-33.883652,396.24 18.434666,-33.884445,457.2 18.437805,-33.88147,457.2 18.436546,-33.877041,487.68 18.431919,-33.87442,518.16 18.426189,-33.87355,518.16 18.420525,-33.87392,548.64 18.415318,-33.874947,579.12 18.40971,-33.876434,609.6 18.404398,-33.878265,640.08 18.399239,-33.88044,640.08 18.394661,-33.882812,670.56 18.389992,-33.885681,670.56 18.385508,-33.888657,670.56 18.381248,-33.891815,701.04 18.37682,-33.89502,670.56 18.372459,-33.898502,701.04 18.368225,-33.902271,670.56 18.364431,-33.906052,670.56 18.361294,-33.910309,670.56 18.358658,-33.91507,670.56 18.356472,-33.919739,670.56 18.355007,-33.924011,701.04 18.353615,-33.930084,701.04 18.352661,-33.93512,701.04 18.350887,-33.942402,701.04 18.348827,-33.949848,731.52 18.346252,-33.954971,731.52 18.33663,-33.967758,731.52 18.328671,-33.980942,731.52 18.325596,-33.990582,762 18.325024,-33.996262,762 18.325138,-34.001289,762 18.325644,-34.006348,762 18.326855,-34.011066,762 18.328972,-34.016094,762 18.33181,-34.020355,762 18.334465,-34.024845,762 18.336868,-34.029453,762 18.339214,-34.034016,762 18.340778,-34.038803,731.52 18.341789,-34.043839,731.52 18.342361,-34.048634,731.52 18.342533,-34.053848,731.52 18.342018,-34.058735,731.52 18.340187,-34.064041,670.56 18.337383,-34.069069,670.56 18.336237,-34.074188,701.04 18.339844,-34.075306,762 18.342516,-34.072311,822.96 18.339882,-34.069336,792.48 18.335228,-34.071167,731.52 18.334108,-34.075836,731.52 18.334808,-34.080799,731.52 18.337555,-34.085922,701.04 18.342075,-34.089691,670.56 18.347616,-34.092682,640.08 18.352718,-34.095325,640.08 18.361237,-34.099594,640.08 18.366108,-34.101421,640.08 18.371439,-34.103531,670.56 18.376427,-34.105637,670.56 18.381584,-34.107742,670.56 18.387165,-34.110081,670.56 18.392515,-34.112366,670.56 18.39838,-34.114876,640.08 18.408937,-34.119598,640.08 18.42099,-34.125824,640.08 18.425617,-34.128471,640.08 18.430742,-34.131134,640.08 18.436375,-34.13308,640.08 18.442682,-34.133606,640.08 18.448847,-34.13205,609.6 18.454004,-34.128983,640.08 18.458937,-34.125641,640.08 18.463898,-34.122044,640.08 18.468647,-34.117622,609.6 18.471909,-34.112225,640.08 18.473455,-34.106598,609.6 18.47452,-34.10051,579.12 18.475193,-34.094788,548.64 18.475914,-34.088203,518.16 18.476429,-34.082245,518.16 18.476482,-34.075607,518.16 18.477116,-34.055893,487.68 18.477402,-34.049934,487.68 18.477827,-34.034409,487.68 18.477859,-34.0261,487.68 18.478088,-34.020096,487.68 18.47826,-34.011669,518.16 18.478949,-33.989868,487.68 18.480034,-33.97303,457.2 18.480909,-33.958786,396.24 18.480663,-33.947662,365.76 18.479118,-33.94133,365.76 18.476086,-33.934765,335.28 18.472767,-33.928993,335.28 18.468876,-33.923546,335.28 18.464413,-33.918705,335.28 18.459833,-33.9142,335.28 18.455238,-33.90921,335.28 18.451426,-33.904312,335.28 18.447933,-33.899525,304.8 18.444588,-33.895386,304.8 18.439318,-33.893784,243.84 18.433714,-33.89502,182.88 18.429451,-33.897243,121.92 18.426991,-33.900223,60.96 18.427734,-33.900642,60.96 18.428724,-33.900879,60.96 18.431471,-33.901428,91.44 18.43214,-33.901527,121.92 18.435114,-33.90152,152.4 18.436068,-33.901428,152.4 18.439318,-33.900192,182.88 18.439878,-33.89978,182.88 18.442177,-33.897034,213.36 18.442457,-33.896347,213.36 18.442963,-33.892456,213.36 18.442795,-33.891632,243.84 18.441448,-33.88797,243.84 18.441067,-33.887329,243.84 18.438435,-33.884163,274.32 18.437805,-33.883511,274.32 18.435059,-33.880672,304.8 18.434217,-33.879868,304.8 18.430481,-33.877132,335.28 18.429453,-33.876663,335.28 18.425446,-33.875458,365.76 18.424408,-33.875198,396.24 18.421898,-33.873455,426.72 18.421774,-33.872681,426.72 18.423557,-33.870663,457.2 18.424353,-33.870438,457.2 18.427734,-33.870895,487.68 18.428556,-33.871399,487.68 18.43063,-33.873779,518.16 18.430653,-33.874386,518.16 18.427963,-33.876621,518.16 18.426819,-33.876892,518.16 18.422184,-33.877365,518.16 18.421097,-33.87746,518.16 18.415833,-33.877739,518.16 18.414745,-33.877785,518.16 18.410053,-33.877972,518.16 18.408909,-33.878067,518.16 18.402271,-33.878624,518.16 18.401299,-33.878765,518.16 18.39632,-33.879463,548.64 18.394947,-33.879742,548.64 18.390598,-33.880814,548.64 18.389397,-33.881184,548.64 18.385334,-33.883045,579.12 18.384247,-33.883698,579.12 18.38047,-33.886307,579.12 18.379612,-33.886955,579.12 18.375811,-33.89003,579.12 18.374977,-33.890774,579.12 18.371201,-33.893986,609.6 18.370205,-33.894836,609.6 18.363819,-33.900551,670.56 18.362961,-33.901436,670.56 18.359814,-33.904831,701.04 18.359331,-33.905457,701.04 18.356438,-33.908928,731.52 18.355688,-33.90976,731.52 18.353109,-33.913376,731.52 18.352547,-33.914143,731.52 18.35025,-33.917999,731.52 18.349747,-33.919052,731.52 18.347626,-33.923454,731.52 18.347111,-33.924664,731.52 18.345165,-33.929085,731.52 18.344757,-33.93013,731.52 18.343105,-33.934578,762 18.342419,-33.936302,762 18.341394,-33.942215,792.48 18.341675,-33.943565,822.96 18.343678,-33.946171,853.44 18.344536,-33.946682,883.92 18.347841,-33.947067,914.4 18.34877,-33.946777,914.4 18.350756,-33.944916,975.36 18.350945,-33.944355,975.36 18.349743,-33.941841,975.36 18.349171,-33.941517,975.36 18.344028,-33.94249,975.36 18.343277,-33.943378,975.36 18.341789,-33.947845,975.36 18.34156,-33.94915,975.36 18.340759,-33.954086,975.36 18.340498,-33.955353,975.36 18.339386,-33.960278,975.36 18.338816,-33.962265,975.36 18.375923,-34.104893,1158.24 18.376686,-34.105827,1158.24 18.379765,-34.109886,1127.76 18.38068,-34.110916,1127.76 18.384449,-34.114105,1066.8 18.385502,-34.11483,1066.8 18.39036,-34.117466,975.36 18.392067,-34.118366,975.36 18.397329,-34.12088,883.92 18.398733,-34.121487,853.44 18.404236,-34.123928,792.48 18.405544,-34.124538,762 18.411448,-34.127605,701.04 18.412865,-34.128338,670.56 18.418358,-34.130707,640.08 18.419636,-34.131355,609.6 18.425331,-34.134163,609.6 18.426647,-34.134872,609.6 18.434774,-34.138947,579.12 18.43614,-34.139339,579.12 18.441385,-34.140442,579.12 18.442617,-34.140549,579.12 18.447859,-34.140541,579.12 18.449106,-34.14024,579.12 18.45365,-34.138577,609.6 18.454777,-34.137997,609.6 18.458883,-34.135899,609.6 18.4599,-34.135258,609.6 18.463783,-34.132679,609.6 18.464842,-34.131939,609.6 18.468605,-34.128815,579.12 18.469463,-34.12793,579.12 18.472481,-34.124264,579.12 18.473076,-34.123459,579.12 18.475208,-34.119797,579.12 18.47574,-34.11879,609.6 18.478369,-34.115845,579.12 18.479191,-34.114883,579.12 18.480625,-34.111164,548.64 18.480764,-34.109924,548.64 18.480368,-34.105122,548.64 18.480042,-34.10405,548.64 18.478987,-34.100334,548.64 18.479004,-34.09914,548.64 18.479244,-34.095249,548.64 18.479202,-34.094135,548.64 18.479486,-34.089958,548.64 18.479504,-34.088959,548.64 18.478525,-34.085262,548.64 18.478165,-34.084255,548.64 18.47821,-34.080616,548.64 18.47823,-34.079666,548.64 18.479021,-34.075523,548.64 18.479406,-34.074738,548.64 18.480474,-34.070595,548.64 18.480629,-34.069443,548.64 18.480871,-34.065559,548.64 18.48089,-34.064571,548.64 18.480976,-34.060429,548.64 18.481134,-34.059437,548.64 18.481228,-34.055546,548.64 18.481195,-34.054501,548.64 18.481316,-34.050426,548.64 18.481379,-34.049313,548.64 18.481714,-34.045307,548.64 18.48196,-34.044189,548.64 18.48259,-34.038433,579.12 18.48266,-34.03751,579.12 18.483049,-34.033421,548.64 18.483171,-34.032337,548.64 18.483522,-34.028061,548.64 18.483601,-34.02702,548.64 18.483257,-34.022945,548.64 18.483213,-34.021843,548.64 18.482557,-34.017963,548.64 18.482531,-34.017044,548.64 18.483055,-34.012619,548.64 18.483124,-34.011562,548.64 18.483311,-34.007385,518.16 18.483429,-34.006279,487.68 18.484646,-34.001671,487.68 18.484915,-34.000362,487.68 18.485275,-33.996082,457.2 18.485178,-33.995144,457.2 18.485943,-33.989365,457.2 18.486448,-33.987381,457.2 18.485569,-33.983631,426.72 18.485548,-33.982616,426.72 18.485243,-33.978344,426.72 18.485125,-33.977188,426.72 18.485586,-33.97221,426.72 18.485807,-33.971199,396.24 18.486185,-33.964828,365.76 18.485823,-33.963955,365.76 18.486393,-33.958683,335.28 18.486336,-33.957394,335.28 18.484842,-33.952049,335.28 18.4846,-33.950829,335.28 18.48332,-33.945374,335.28 18.48304,-33.944366,335.28 18.481806,-33.940063,335.28 18.481525,-33.939285,335.28 18.480013,-33.93512,335.28 18.479576,-33.93388,335.28 18.477715,-33.929626,304.8 18.476706,-33.928299,304.8 18.47271,-33.92485,304.8 18.471508,-33.92392,304.8 18.467569,-33.920837,304.8 18.466673,-33.920105,304.8 18.463097,-33.917217,335.28 18.462238,-33.916519,335.28 18.458691,-33.91354,365.76 18.457872,-33.912872,365.76 18.454628,-33.909676,335.28 18.45417,-33.908791,335.28 18.45294,-33.904999,335.28 18.452625,-33.903854,335.28 18.451538,-33.90004,335.28 18.451202,-33.899002,335.28 18.449936,-33.895893,335.28 18.449364,-33.895058,335.28 18.446503,-33.892681,304.8 18.44553,-33.892357,304.8 18.440437,-33.893147,243.84 18.439598,-33.893509,243.84 18.435287,-33.895756,182.88 18.434544,-33.89608,152.4 18.429733,-33.897079,91.44 18.428949,-33.898315,91.44 18.427267,-33.900787,60.96 18.427155,-33.901016,60.96 18.430767,-33.901482,91.44 18.431416,-33.901474,91.44 18.434258,-33.900784,152.4 18.434715,-33.900551,152.4 18.437233,-33.899014,182.88 18.43775,-33.898544,182.88 18.439922,-33.895802,213.36 18.440216,-33.895157,213.36 18.441055,-33.891953,274.32 18.44101,-33.890915,274.32 18.440384,-33.887604,304.8 18.440048,-33.886734,304.8 18.438478,-33.883713,335.28 18.437977,-33.882999,335.28 18.435059,-33.880344,365.76 18.43405,-33.87973,365.76 18.43008,-33.878437,396.24 18.429165,-33.87825,426.72 18.425102,-33.877739,457.2 18.423786,-33.877693,457.2 18.41914,-33.878036,457.2 18.417963,-33.878128,487.68 18.413143,-33.878483,487.68 18.412022,-33.878494,487.68 18.407537,-33.878632,518.16 18.406471,-33.878677,518.16 18.401707,-33.879181,548.64 18.400269,-33.879414,548.64 18.395653,-33.880417,548.64 18.394604,-33.880764,548.64 18.389912,-33.882626,579.12 18.38876,-33.883209,579.12 18.385004,-33.885544,579.12 18.384331,-33.88623,579.12 18.380911,-33.889206,579.12 18.379612,-33.890076,579.12 18.375034,-33.892868,579.12 18.374241,-33.893326,579.12 18.369925,-33.896027,579.12 18.36886,-33.896805,609.6 18.36525,-33.89962,609.6 18.364376,-33.900421,609.6 18.361244,-33.903622,640.08 18.36062,-33.904358,640.08 18.357983,-33.907906,640.08 18.357258,-33.908981,640.08 18.354836,-33.912838,640.08 18.354206,-33.913864,640.08 18.352089,-33.91745,670.56 18.351597,-33.918274,670.56 18.349466,-33.922073,701.04 18.349056,-33.922848,731.52 18.347504,-33.926147,762 18.347225,-33.926853,792.48 18.345991,-33.930176,822.96 18.345737,-33.930901,822.96 18.343918,-33.935898,883.92 18.34322,-33.936722,914.4 18.341675,-33.939838,914.4 18.341339,-33.940292,944.88 18.338425,-33.942169,975.36 18.337416,-33.943222,1005.84 18.339825,-33.946152,944.88 18.341045,-33.946777,944.88 18.34543,-33.948807,975.36 18.346252,-33.949337,975.36 18.35025,-33.9478,883.92 18.351091,-33.946747,853.44 18.354206,-33.942402,822.96 18.354836,-33.941471,822.96 18.357986,-33.937363,792.48 18.358669,-33.936443,762 18.361797,-33.931778,731.52 18.362413,-33.930725,701.04 18.365217,-33.926193,670.56 18.366001,-33.924866,670.56 18.368912,-33.920521,640.08 18.369713,-33.919498,609.6 18.372917,-33.915352,579.12 18.37368,-33.914474,579.12 18.3771,-33.910629,548.64 18.378054,-33.909531,548.64 18.381584,-33.90596,548.64 18.38253,-33.904972,548.64 18.386404,-33.901428,518.16 18.387165,-33.900784,518.16 18.391281,-33.897583,518.16 18.392544,-33.896732,487.68 18.396893,-33.894264,487.68 18.398008,-33.893738,487.68 18.402786,-33.891659,487.68 18.404005,-33.89122,487.68 18.409386,-33.889618,457.2 18.410788,-33.889252,457.2 18.416233,-33.888119,457.2 18.417721,-33.88784,457.2 18.422985,-33.887005,426.72 18.424408,-33.886826,426.72 18.429901,-33.886505,396.24 18.431339,-33.886585,396.24 18.436796,-33.887833,365.76 18.437805,-33.88826,365.76 18.442177,-33.890488,335.28 18.443411,-33.890625,335.28 18.446157,-33.892548,335.28 18.44553,-33.893288,335.28 18.44244,-33.894684,304.8 18.442289,-33.895065,274.32 18.442268,-33.898594,243.84 18.442289,-33.899323,213.36 18.440208,-33.900829,182.88 18.439865,-33.900738,182.88 18.436852,-33.898865,152.4 18.435974,-33.89864,121.92 18.430195,-33.899853,60.96 18.429108,-33.89999,60.96 18.427162,-33.901062,0 18.427435,-33.901337,60.96 18.431416,-33.901199,91.44 18.432083,-33.90097,91.44 18.434887,-33.899757,152.4 18.435516,-33.899387,152.4 18.43775,-33.897079,182.88 18.438148,-33.896454,213.36 18.439543,-33.893143,243.84 18.439751,-33.892311,243.84 18.439865,-33.888866,274.32 18.439751,-33.888214,274.32 18.438478,-33.884903,304.8 18.437973,-33.884079,304.8 18.435287,-33.881325,335.28 18.434385,-33.880783,365.76 18.430767,-33.879368,396.24 18.429678,-33.879089,396.24 18.425732,-33.878204,426.72 18.424801,-33.878036,426.72 18.420597,-33.877533,457.2 18.419666,-33.87746,457.2 18.415384,-33.877258,487.68 18.41423,-33.877228,487.68 18.409939,-33.87746,518.16 18.408909,-33.877598,518.16 18.404675,-33.878483,548.64 18.403669,-33.878723,548.64 18.399982,-33.879929,579.12 18.39868,-33.880463,579.12 18.394718,-33.882442,579.12 18.39386,-33.88298,579.12 18.390369,-33.885139,609.6 18.389488,-33.885773,609.6 18.386021,-33.888168,640.08 18.385059,-33.888885,640.08 18.381844,-33.89138,640.08 18.380985,-33.892033,670.56 18.377438,-33.894917,670.56 18.376522,-33.89571,670.56 18.373289,-33.898682,670.56 18.372345,-33.899666,670.56 18.369476,-33.902847,701.04 18.368855,-33.903576,701.04 18.366169,-33.906921,701.04 18.365536,-33.907764,701.04 18.363087,-33.911133,731.52 18.362526,-33.912003,731.52 18.360172,-33.915756,731.52 18.359612,-33.91658,731.52 18.357538,-33.920242,731.52 18.356895,-33.921452,731.52 18.355072,-33.925552,731.52 18.354734,-33.926422,731.52 18.353222,-33.931274,731.52 18.352774,-33.933243,731.52 18.351988,-33.937683,731.52 18.351803,-33.938908,731.52 18.351173,-33.94347,731.52 18.351002,-33.944401,731.52 18.349466,-33.95018,762 18.349018,-33.951324,762 18.347054,-33.955387,762 18.344814,-33.959106,762 18.33704,-33.970657,762 18.33534,-33.973343,762 18.327026,-33.9883,792.48 18.324692,-33.992249,792.48 18.321419,-33.997147,792.48 18.320936,-33.997879,792.48 18.316441,-34.003849,792.48 18.315666,-34.004745,792.48 18.312092,-34.008411,792.48 18.311176,-34.009296,762 18.306585,-34.013809,762 18.305634,-34.014725,762 18.302193,-34.018047,762 18.30122,-34.019073,762 18.297672,-34.022888,762 18.296833,-34.02388,762 18.293953,-34.027546,762 18.293301,-34.028412,731.52 18.294758,-34.03244,792.48 18.295824,-34.032257,792.48 18.29958,-34.031204,762 18.300644,-34.030884,762 18.305569,-34.02866,731.52 18.306473,-34.028137,731.52 18.31135,-34.02594,701.04 18.312492,-34.025497,701.04 18.317181,-34.023148,670.56 18.318386,-34.022285,670.56 18.32172,-34.018845,640.08 18.322392,-34.017956,640.08 18.325024,-34.01395,640.08 18.325768,-34.012787,640.08 18.32811,-34.009003,640.08 18.328857,-34.007854,640.08 18.331697,-34.003922,640.08 18.332314,-34.003052,609.6 18.334837,-33.999298,640.08 18.338013,-33.99519,640.08 18.348122,-33.98465,609.6 18.349747,-33.982544,609.6 18.354567,-33.972656,640.08 18.355637,-33.970284,640.08 18.359299,-33.959904,609.6 18.359356,-33.959579,609.6 18.36034,-33.953613,609.6 18.360386,-33.95269,609.6 18.360565,-33.948029,609.6 18.360672,-33.946732,609.6 18.361294,-33.942535,609.6 18.36153,-33.941563,609.6 18.363031,-33.937454,609.6 18.363422,-33.936447,609.6 18.364849,-33.932346,609.6 18.365105,-33.93132,609.6 18.366507,-33.926788,609.6 18.366842,-33.925827,609.6 18.368805,-33.921844,609.6 18.369541,-33.920753,609.6 18.372231,-33.917168,609.6 18.372974,-33.916237,609.6 18.376146,-33.912735,609.6 18.377045,-33.911774,609.6 18.38007,-33.908512,609.6 18.380911,-33.907562,609.6 18.384075,-33.903717,609.6 18.384819,-33.902832,609.6 18.388367,-33.899155,579.12 18.389095,-33.898499,579.12 18.393131,-33.895752,548.64 18.394547,-33.894962,548.64 18.399181,-33.892776,518.16 18.400612,-33.89217,487.68 18.405462,-33.890488,487.68 18.406677,-33.890121,457.2 18.41177,-33.888634,457.2 18.412861,-33.88829,457.2 18.417738,-33.886917,426.72 18.419151,-33.886539,426.72 18.423904,-33.885635,396.24 18.425306,-33.885544,396.24 18.430519,-33.88623,365.76 18.431625,-33.886631,365.76 18.435287,-33.88868,335.28 18.436068,-33.889297,335.28 18.438663,-33.891983,304.8 18.439178,-33.892914,274.32 18.438589,-33.89566,243.84 18.437918,-33.896072,213.36 18.434715,-33.896778,152.4 18.433825,-33.896988,152.4 18.428078,-33.899292,60.96 18.427391,-33.899944,60.96 18.427219,-33.901028,0 18.427849,-33.901619,60.96 18.431053,-33.901901,91.44 18.431683,-33.901714,121.92 18.434658,-33.900455,152.4 18.435287,-33.90004,152.4 18.437519,-33.89743,182.88 18.437805,-33.896873,182.88 18.438534,-33.893372,213.36 18.438492,-33.892357,213.36 18.437862,-33.889053,243.84 18.437525,-33.888107,243.84 18.435745,-33.884907,274.32 18.435173,-33.884209,274.32 18.431568,-33.881836,304.8 18.430742,-33.88147,304.8 18.426594,-33.880234,335.28 18.425503,-33.880066,365.76 18.421497,-33.879463,396.24 18.42041,-33.879368,396.24 18.416113,-33.878952,426.72 18.414974,-33.878857,457.2 18.411026,-33.878765,487.68 18.409836,-33.878769,487.68 18.405743,-33.879089,518.16 18.404846,-33.87923,518.16 18.400755,-33.880096,548.64 18.400082,-33.88028,548.64 18.396149,-33.881649,579.12 18.395004,-33.88216,579.12 18.391571,-33.88393,609.6 18.39077,-33.884396,609.6 18.386909,-33.886688,640.08 18.385906,-33.887329,640.08 18.382416,-33.889702,640.08 18.381672,-33.890263,640.08 18.378124,-33.892868,670.56 18.377323,-33.893429,670.56 18.373718,-33.896267,701.04 18.37286,-33.897011,701.04 18.369484,-33.89999,731.52 18.368748,-33.900696,731.52 18.365778,-33.90358,731.52 18.365135,-33.904228,731.52 18.362246,-33.907471,731.52 18.361462,-33.908478,762 18.358669,-33.912003,762 18.358097,-33.912746,762 18.355633,-33.916534,762 18.355072,-33.917404,762 18.352718,-33.921497,762 18.352268,-33.922394,762 18.35043,-33.926434,762 18.350086,-33.927364,762 18.346888,-33.937546,762 18.346552,-33.938644,762 18.344879,-33.943005,762 18.344364,-33.944122,762 18.342304,-33.948311,762 18.341675,-33.949711,762 18.339615,-33.953526,762 18.338873,-33.954849,762 18.345711,-33.964325,701.04 18.349457,-33.964001,701.04 18.355743,-33.957779,670.56 18.356136,-33.956451,670.56 18.357353,-33.95171,640.08 18.357594,-33.950638,640.08 18.358658,-33.946518,640.08 18.359051,-33.945328,640.08 18.360788,-33.940704,640.08 18.361181,-33.939743,640.08 18.362919,-33.935486,609.6 18.363247,-33.934486,609.6 18.364321,-33.930267,640.08 18.36462,-33.929272,640.08 18.366339,-33.924866,609.6 18.366795,-33.924011,609.6 18.369255,-33.920101,609.6 18.369884,-33.919216,609.6 18.372841,-33.915619,609.6 18.373604,-33.914795,609.6 18.376596,-33.911453,609.6 18.377493,-33.9104,609.6 18.380575,-33.906738,609.6 18.381157,-33.905949,609.6 18.384418,-33.902271,609.6 18.385172,-33.90152,609.6 18.388939,-33.898174,579.12 18.389969,-33.89743,579.12 18.394032,-33.894871,548.64 18.395262,-33.89415,548.64 18.399801,-33.892044,518.16 18.401091,-33.891541,518.16 18.405933,-33.889889,487.68 18.406919,-33.889572,487.68 18.411909,-33.888153,457.2 18.412918,-33.887924,457.2 18.41795,-33.886772,457.2 18.419037,-33.886539,457.2 18.424297,-33.885956,426.72 18.425417,-33.886047,426.72 18.430195,-33.887238,396.24 18.430939,-33.887562,396.24 18.43483,-33.889519,335.28 18.435802,-33.890076,335.28 18.438435,-33.892544,274.32 18.438814,-33.89328,274.32 18.438421,-33.895569,213.36 18.437862,-33.896034,182.88 18.43523,-33.896778,152.4 18.434258,-33.896965,152.4 18.428707,-33.89864,60.96 18.428221,-33.898956,60.96 18.426874,-33.900375,60.96 18.426903,-33.900696,0 18.42802,-33.900875,60.96 18.428593,-33.900688,60.96 18.431248,-33.89978,91.44 18.432026,-33.89957,121.92 18.434887,-33.898502,152.4 18.435562,-33.898041,152.4 18.437525,-33.895386,182.88 18.437748,-33.89473,182.88 18.438206,-33.891006,213.36 18.438086,-33.890076,213.36 18.43689,-33.886864,243.84 18.436403,-33.886047,274.32 18.434143,-33.882999,304.8 18.433657,-33.882385,304.8 18.431023,-33.880234,365.76 18.430023,-33.879742,365.76 18.426203,-33.878586,396.24 18.425274,-33.878391,396.24 18.421154,-33.877647,426.72 18.420429,-33.877579,426.72 18.416393,-33.87735,457.2 18.415104,-33.877304,457.2 18.410788,-33.877304,487.68 18.409779,-33.877304,487.68 18.405575,-33.877625,518.16 18.404453,-33.877762,518.16 18.40004,-33.878811,548.64 18.398569,-33.879318,548.64 18.394308,-33.881104,579.12 18.393173,-33.881695,579.12 18.389454,-33.88393,579.12 18.388422,-33.884583,579.12 18.385059,-33.886963,609.6 18.383995,-33.887741,609.6 18.380688,-33.890121,640.08 18.379726,-33.890865,640.08 18.372671,-33.896393,670.56 18.372059,-33.896919,670.56 18.36886,-33.899963,670.56 18.368053,-33.900784,670.56 18.364849,-33.903996,701.04 18.364151,-33.904678,701.04 18.361013,-33.90802,701.04 18.360443,-33.908649,701.04 18.357353,-33.912235,701.04 18.356724,-33.913025,701.04 18.354206,-33.916611,731.52 18.353634,-33.917633,731.52 18.351765,-33.921661,731.52 18.351345,-33.922802,731.52 18.350195,-33.926605,731.52 18.350027,-33.927246,731.52 18.347626,-33.936581,731.52 18.34631,-33.941936,762 18.343412,-33.951141,762 18.342934,-33.952408,762 18.341619,-33.962128,731.52 18.343792,-33.964325,731.52 18.35638,-33.962837,670.56 18.35737,-33.961578,670.56 18.359331,-33.956772,670.56 18.359642,-33.955437,640.08 18.360397,-33.950912,640.08 18.360565,-33.949677,640.08 18.361181,-33.945419,640.08 18.361416,-33.944355,640.08 18.362583,-33.939972,609.6 18.362864,-33.939011,609.6 18.363762,-33.934441,609.6 18.363928,-33.933472,609.6 18.364792,-33.929226,609.6 18.365135,-33.928204,609.6 18.367081,-33.924107,609.6 18.367596,-33.923222,609.6 18.37043,-33.919189,609.6 18.371086,-33.918381,609.6 18.374073,-33.914749,609.6 18.374746,-33.913971,609.6 18.377666,-33.910324,609.6 18.378525,-33.909302,609.6 18.383099,-33.903992,609.6 18.383715,-33.903351,609.6 18.38728,-33.899853,579.12 18.388086,-33.899094,579.12 18.391914,-33.895893,579.12 18.392796,-33.895248,579.12 18.397293,-33.892681,548.64 18.398438,-33.892124,548.64 18.403301,-33.890263,518.16 18.404675,-33.889797,518.16 18.409946,-33.888382,487.68 18.411198,-33.888073,487.68 18.415945,-33.886963,457.2 18.41732,-33.886677,457.2 18.422871,-33.885979,426.72 18.423958,-33.885887,396.24 18.428053,-33.886047,365.76 18.429337,-33.886353,365.76 18.432598,-33.887936,335.28 18.433208,-33.888428,304.8 18.435394,-33.890808,274.32 18.4359,-33.891541,274.32 18.436661,-33.893986,213.36 18.436546,-33.894592,213.36 18.434891,-33.896393,152.4 18.434275,-33.896622,152.4 18.430882,-33.897758,121.92 18.430252,-33.897991,91.44 18.427322,-33.899963,60.96 18.427099,-33.900192,60.96 18.427134,-33.901131,0 18.427435,-33.901382,60.96 18.43008,-33.902039,91.44 18.430653,-33.901947,91.44 18.433714,-33.900879,121.92 18.434143,-33.900642,152.4 18.43626,-33.898407,182.88 18.436661,-33.897709,182.88 18.437462,-33.894547,213.36 18.437525,-33.893784,213.36 18.437462,-33.8904,243.84 18.437412,-33.889618,243.84 18.436604,-33.886307,274.32 18.436123,-33.885452,274.32 18.433434,-33.882706,304.8 18.432541,-33.882114,304.8 18.428364,-33.880344,335.28 18.427677,-33.880161,335.28 18.423958,-33.878998,396.24 18.422783,-33.878677,396.24 18.419037,-33.877834,426.72 18.417963,-33.877625,426.72 18.41423,-33.877132,457.2 18.413086,-33.877075,457.2 18.40905,-33.877213,487.68 18.408165,-33.877274,487.68 18.404045,-33.878067,518.16 18.402786,-33.878437,518.16 18.399128,-33.879868,548.64 18.398151,-33.880344,548.64 18.394476,-33.882339,579.12 18.393467,-33.88298,579.12 18.389879,-33.885223,609.6 18.389053,-33.885746,609.6 18.385059,-33.888336,609.6 18.384247,-33.888912,640.08 18.380642,-33.891659,640.08 18.379898,-33.89217,640.08 18.376316,-33.895065,670.56 18.375549,-33.89571,670.56 18.372223,-33.898682,701.04 18.371372,-33.899433,701.04 18.368357,-33.902252,701.04 18.367628,-33.902985,701.04 18.364563,-33.906044,731.52 18.36376,-33.906921,731.52 18.361126,-33.910172,731.52 18.360672,-33.910793,762 18.358154,-33.914474,762 18.357651,-33.915253,762 18.355408,-33.918961,762 18.354778,-33.92001,762 18.352661,-33.92392,762 18.352158,-33.925003,762 18.350487,-33.928852,762 18.350027,-33.93013,762 18.34672,-33.942352,762 18.346046,-33.945236,762 18.343391,-33.953712,762 18.343019,-33.954483,762 18.343357,-33.966476,731.52 18.346272,-33.968262,701.04 18.358612,-33.964466,640.08 18.359585,-33.961487,640.08 18.359985,-33.956646,640.08 18.3601,-33.954739,640.08 18.36062,-33.950409,640.08 18.360729,-33.949337,640.08 18.361416,-33.944916,640.08 18.361645,-33.943657,640.08 18.362471,-33.939285,640.08 18.362694,-33.938004,640.08 18.363819,-33.932346,640.08 18.364048,-33.93132,640.08 18.365421,-33.926804,609.6 18.365822,-33.92564,609.6 18.367683,-33.921661,609.6 18.368132,-33.920883,609.6 18.370934,-33.917038,609.6 18.371773,-33.916004,609.6 18.37525,-33.912277,609.6 18.376007,-33.911491,609.6 18.379063,-33.908066,609.6 18.379734,-33.907288,609.6 18.382986,-33.903717,609.6 18.383846,-33.902786,609.6 18.387413,-33.899368,579.12 18.388142,-33.898727,579.12 18.392347,-33.89566,548.64 18.393288,-33.895103,548.64 18.397865,-33.892822,518.16 18.399067,-33.892311,518.16 18.404102,-33.89045,518.16 18.405247,-33.890076,487.68 18.410568,-33.888584,487.68 18.411741,-33.88829,487.68 18.416691,-33.887238,457.2 18.417963,-33.887009,457.2 18.422615,-33.88623,426.72 18.424128,-33.886047,426.72 18.428724,-33.886047,396.24 18.429846,-33.886185,365.76 18.433321,-33.887512,335.28 18.434029,-33.887981,335.28 18.436317,-33.89045,274.32 18.436604,-33.891006,274.32 18.436571,-33.893875,213.36 18.436432,-33.894173,213.36 18.434162,-33.896301,152.4 18.433434,-33.896622,152.4 18.430407,-33.897858,91.44 18.430014,-33.898041,91.44 18.427322,-33.899918,60.96 18.427044,-33.900238,60.96 18.427141,-33.901131,0 18.427505,-33.901386,60.96 18.430653,-33.901482,91.44 18.431339,-33.901386,121.92 18.434258,-33.900455,152.4 18.434891,-33.900101,152.4 18.437176,-33.897526,182.88 18.437405,-33.896965,182.88 18.43803,-33.893784,243.84 18.438034,-33.892731,243.84 18.437519,-33.889332,274.32 18.43729,-33.888584,274.32 18.435732,-33.885635,304.8 18.435003,-33.884857,335.28 18.431919,-33.882706,365.76 18.43119,-33.882385,365.76 18.427734,-33.881416,426.72 18.42659,-33.881279,426.72 18.423344,-33.881149,457.2 18.422728,-33.881195,487.68 18.419838,-33.881462,518.16 18.419094,-33.881557,548.64 18.416058,-33.881973,579.12 18.415489,-33.882023,609.6 18.412806,-33.882339,640.08 18.411884,-33.882442,640.08 18.404118,-33.88353,670.56 18.403334,-33.883667,670.56 18.399467,-33.884628,701.04 18.398781,-33.884815,701.04 18.394947,-33.886024,701.04 18.39386,-33.886414,701.04 18.39016,-33.888016,731.52 18.388927,-33.888565,731.52 18.385277,-33.890495,731.52 18.384361,-33.890961,731.52 18.380985,-33.892963,762 18.380239,-33.893463,762 18.376522,-33.896126,762 18.375778,-33.896732,762 18.37228,-33.89978,731.52 18.371658,-33.90041,731.52 18.368683,-33.903667,762 18.367964,-33.904495,762 18.365479,-33.907578,762 18.364882,-33.90834,762 18.362389,-33.911674,762 18.361702,-33.912605,762 18.359642,-33.916004,762 18.359108,-33.917038,762 18.357296,-33.920475,792.48 18.356781,-33.921593,792.48 18.355183,-33.925232,792.48 18.354792,-33.926102,792.48 18.353233,-33.930019,792.48 18.352718,-33.93132,792.48 18.349113,-33.94091,792.48 18.348122,-33.943726,792.48 18.34568,-33.952549,792.48 18.345991,-33.953522,792.48 18.349915,-33.956413,792.48 18.351345,-33.9566,762 18.356438,-33.954643,762 18.357124,-33.953854,762 18.358727,-33.949478,731.52 18.358995,-33.948212,731.52 18.36006,-33.943314,701.04 18.360443,-33.941936,701.04 18.361629,-33.937408,670.56 18.361931,-33.936302,670.56 18.363535,-33.931183,640.08 18.363983,-33.929901,640.08 18.366108,-33.925129,640.08 18.36673,-33.92395,640.08 18.369141,-33.919823,640.08 18.369827,-33.918751,640.08 18.372688,-33.914608,609.6 18.3734,-33.913696,609.6 18.376652,-33.909714,609.6 18.377661,-33.908569,640.08 18.381191,-33.90477,609.6 18.381958,-33.90395,609.6 18.385563,-33.900272,609.6 18.386593,-33.899292,609.6 18.390827,-33.895988,609.6 18.391972,-33.895245,609.6 18.39711,-33.892502,579.12 18.398266,-33.891937,579.12 18.40353,-33.889797,548.64 18.405075,-33.889286,548.64 18.410568,-33.887703,518.16 18.412113,-33.887283,518.16 18.417664,-33.885887,518.16 18.41914,-33.885544,518.16 18.424587,-33.88435,487.68 18.425865,-33.884216,487.68 18.431053,-33.884441,457.2 18.432026,-33.884628,457.2 18.436348,-33.885773,426.72 18.437233,-33.88612,426.72 18.440151,-33.888168,396.24 18.440439,-33.888702,365.76 18.440159,-33.891174,335.28 18.439751,-33.891659,335.28 18.436909,-33.892639,274.32 18.436068,-33.892731,274.32 18.432655,-33.893009,213.36 18.431023,-33.893417,213.36 18.428307,-33.896591,121.92 18.428164,-33.897079,121.92 18.42762,-33.899246,91.44 18.427448,-33.899666,60.96 18.427204,-33.901062,0 18.427435,-33.901337,91.44 18.429846,-33.901794,121.92 18.43063,-33.901749,121.92 18.433489,-33.90152,182.88 18.434105,-33.901474,182.88 18.437347,-33.900921,213.36 18.438141,-33.900604,213.36 18.44072,-33.89859,243.84 18.441225,-33.897812,274.32 18.442345,-33.894791,304.8 18.442514,-33.894012,304.8 18.442497,-33.890587,335.28 18.442326,-33.889843,335.28 18.44128,-33.886505,365.76 18.440952,-33.885746,396.24 18.439207,-33.882751,396.24 18.438549,-33.881836,426.72 18.436203,-33.879089,457.2 18.435507,-33.878403,457.2 18.432941,-33.876156,518.16 18.432032,-33.875427,518.16 18.428879,-33.873363,548.64 18.42802,-33.872944,548.64 18.42396,-33.871536,579.12 18.422838,-33.871307,579.12 18.418467,-33.870758,579.12 18.417515,-33.870712,579.12 18.413086,-33.870941,609.6 18.411741,-33.871078,609.6 18.407478,-33.871872,640.08 18.406506,-33.872105,640.08 18.402212,-33.873413,640.08 18.401012,-33.873875,640.08 18.396893,-33.875553,640.08 18.395977,-33.875923,640.08 18.3918,-33.877972,640.08 18.390945,-33.878403,640.08 18.387133,-33.880692,640.08 18.386021,-33.881416,640.08 18.38253,-33.883743,670.56 18.381557,-33.884441,670.56 18.378502,-33.88678,701.04 18.377781,-33.887421,701.04 18.374409,-33.890167,701.04 18.373512,-33.890854,701.04 18.366619,-33.896713,762 18.364321,-33.898682,762 18.357538,-33.905045,762 18.356838,-33.905766,792.48 18.354206,-33.909023,792.48 18.353405,-33.910091,792.48 18.350979,-33.91333,792.48 18.350363,-33.914291,792.48 18.348177,-33.917679,792.48 18.347504,-33.918732,792.48 18.345263,-33.922531,792.48 18.344822,-33.923409,792.48 18.342852,-33.927109,792.48 18.342291,-33.928253,792.48 18.34005,-33.934296,792.48 18.34005,-33.935165,792.48 18.341675,-33.937885,822.96 18.342304,-33.938305,822.96 18.345852,-33.93914,853.44 18.346882,-33.939049,853.44 18.350475,-33.937775,883.92 18.351149,-33.937317,883.92 18.353502,-33.934387,914.4 18.353748,-33.933556,914.4 18.352718,-33.930576,944.88 18.351917,-33.930019,944.88 18.348345,-33.929993,944.88 18.347168,-33.930634,944.88 18.345037,-33.934067,944.88 18.344702,-33.935028,944.88 18.339264,-33.952881,914.4 18.338242,-33.956135,914.4 18.33149,-33.976105,914.4 18.329792,-33.980896,914.4 18.325138,-33.992676,914.4 18.324747,-33.993896,914.4 18.324299,-33.997925,914.4 18.324337,-33.999241,914.4 18.324852,-34.003571,914.4 18.325027,-34.004654,883.92 18.326397,-34.008923,883.92 18.32682,-34.009781,883.92 18.329201,-34.013672,914.4 18.329735,-34.01445,914.4 18.33252,-34.018047,914.4 18.333155,-34.018799,914.4 18.336182,-34.022331,914.4 18.336855,-34.023148,914.4 18.339901,-34.02652,914.4 18.340588,-34.027313,914.4 18.34515,-34.032578,883.92 18.345991,-34.03363,883.92 18.348402,-34.037567,883.92 18.34877,-34.038437,883.92 18.350372,-34.042442,883.92 18.350658,-34.043327,883.92 18.35182,-34.047821,853.44 18.351988,-34.049194,822.96 18.351988,-34.053452,822.96 18.35182,-34.054916,792.48 18.350924,-34.059448,792.48 18.350588,-34.060684,762 18.349186,-34.065079,762 18.348656,-34.066742,762 18.347113,-34.071213,731.52 18.346653,-34.072559,701.04 18.344366,-34.079773,701.04 18.344078,-34.080894,670.56 18.343449,-34.08569,670.56 18.343412,-34.086548,640.08 18.344141,-34.091263,640.08 18.344477,-34.092499,640.08 18.346495,-34.096573,640.08 18.347168,-34.097561,640.08 18.350811,-34.100693,640.08 18.351988,-34.101379,640.08 18.355923,-34.103333,640.08 18.357067,-34.103844,640.08 18.361473,-34.105892,609.6 18.362471,-34.106323,640.08 18.366337,-34.108032,640.08 18.367348,-34.108429,640.08 18.371662,-34.110168,640.08 18.372917,-34.110641,640.08 18.377094,-34.112129,640.08 18.378353,-34.112595,640.08 18.382481,-34.114014,670.56 18.383657,-34.114426,670.56 18.395653,-34.118912,670.56 18.400307,-34.120789,670.56 18.413544,-34.126003,640.08 18.414631,-34.126423,640.08 18.419195,-34.128204,640.08 18.420181,-34.128609,640.08 18.424473,-34.130333,640.08 18.425674,-34.130798,640.08 18.431282,-34.132984,640.08 18.432369,-34.133312,640.08 18.437119,-34.134102,640.08 18.438086,-34.134109,640.08 18.443756,-34.133358,640.08 18.445072,-34.132984,640.08 18.449575,-34.131088,640.08 18.450851,-34.130424,640.08 18.455658,-34.127773,640.08 18.456751,-34.127151,640.08 18.46129,-34.124313,640.08 18.462357,-34.123627,640.08 18.466244,-34.12051,640.08 18.467402,-34.119324,640.08 18.470249,-34.115437,640.08 18.470764,-34.114517,640.08 18.472221,-34.110214,640.08 18.472502,-34.108841,640.08 18.473063,-34.104172,640.08 18.473118,-34.103119,609.6 18.473398,-34.097992,609.6 18.473396,-34.096909,609.6 18.473454,-34.092068,640.08 18.473455,-34.09108,640.08 18.47323,-34.083755,640.08 18.473225,-34.082943,640.08 18.473053,-34.066322,640.08 18.473053,-34.06176,640.08 18.473167,-34.045654,640.08 18.47323,-34.041138,640.08 18.47414,-34.024426,640.08 18.474464,-34.01976,670.56 18.475685,-34.002827,609.6 18.476257,-33.99765,609.6 18.478947,-33.980247,518.16 18.479977,-33.974709,487.68 18.482094,-33.960091,457.2 18.482151,-33.958416,457.2 18.481806,-33.952927,426.72 18.481636,-33.951431,426.72 18.480721,-33.94603,396.24 18.480406,-33.94487,396.24 18.478611,-33.939377,365.76 18.478163,-33.938187,365.76 18.475864,-33.933197,365.76 18.475113,-33.931831,365.76 18.472195,-33.927086,335.28 18.471268,-33.92569,335.28 18.468353,-33.921478,335.28 18.467344,-33.920197,335.28 18.463982,-33.915939,335.28 18.462925,-33.914749,304.8 18.459148,-33.910419,304.8 18.458233,-33.909348,304.8 18.454456,-33.905251,274.32 18.451996,-33.902645,274.32 18.443184,-33.894077,213.36 18.442039,-33.893288,213.36 18.436775,-33.8918,182.88 18.435675,-33.891861,182.88 18.428331,-33.894012,152.4 18.427715,-33.89447,152.4 18.427044,-33.896805,121.92 18.427105,-33.897293,121.92 18.427277,-33.898922,91.44 18.427277,-33.899387,91.44 18.427048,-33.900455,91.44 18.427162,-33.900829,60.96 18.428822,-33.901852,91.44 18.429394,-33.901852,91.44 18.432425,-33.900787,121.92 18.433153,-33.900513,121.92 18.436293,-33.898682,152.4 18.437021,-33.898041,182.88 18.438814,-33.895111,182.88 18.439262,-33.893967,213.36 18.439808,-33.890076,213.36 18.439751,-33.888912,243.84 18.438606,-33.884724,243.84 18.438206,-33.883839,243.84 18.435171,-33.880371,304.8 18.434601,-33.880112,304.8 18.431078,-33.880783,365.76 18.430687,-33.881516,365.76 18.431339,-33.883652,396.24 18.431919,-33.884125,426.72 18.434666,-33.884445,457.2 18.435631,-33.884117,457.2 18.437805,-33.88147,457.2 18.43792,-33.88044,457.2 18.436546,-33.877041,487.68 18.43586,-33.876389,487.68 18.431919,-33.87442,518.16 18.43091,-33.874191,518.16 18.426189,-33.87355,518.16 18.425045,-33.87355,548.64 18.420525,-33.87392,548.64 18.419588,-33.8741,548.64 18.415318,-33.874947,579.12 18.414207,-33.875198,579.12 18.40971,-33.876434,609.6 18.408602,-33.876801,609.6 18.404398,-33.878265,640.08 18.403187,-33.878716,640.08 18.399239,-33.88044,640.08 18.398457,-33.880829,640.08 18.394661,-33.882812,670.56 18.393805,-33.883301,670.56 18.389992,-33.885681,670.56 18.389168,-33.886211,670.56 18.385508,-33.888657,670.56 18.384762,-33.889191,670.56 18.381248,-33.891815,701.04 18.38047,-33.892357,701.04 18.37682,-33.89502,670.56 18.375978,-33.89566,701.04 18.372459,-33.898502,701.04 18.371601,-33.8992,701.04 18.368225,-33.902271,670.56 18.36731,-33.903156,701.04 18.364431,-33.906052,670.56 18.36376,-33.906876,670.56 18.361294,-33.910309,670.56 18.360788,-33.911179,670.56 18.358658,-33.91507,670.56 18.35821,-33.915894,670.56 18.356472,-33.919739,670.56 18.356136,-33.920563,701.04 18.355007,-33.924011,701.04 18.354664,-33.925362,701.04 18.353615,-33.930084,701.04 18.353334,-33.931274,701.04 18.352661,-33.93512,701.04 18.35186,-33.938351,701.04 18.350887,-33.942402,701.04 18.350716,-33.943283,701.04 18.348827,-33.949848,731.52 18.348345,-33.951096,731.52 18.346252,-33.954971,731.52 18.342796,-33.959793,731.52 18.33663,-33.967758,731.52 18.334465,-33.970982,731.52 18.328671,-33.980942,731.52 18.327549,-33.983276,731.52 18.325596,-33.990582,762 18.325363,-33.992386,762 18.325024,-33.996262,762 18.325024,-33.997379,762 18.325138,-34.001289,762 18.32514,-34.002274,762 18.325644,-34.006348,762 18.325825,-34.007339,762 18.326855,-34.011066,762 18.327255,-34.012321,762 18.328972,-34.016094,762 18.329454,-34.016876,762 18.33181,-34.020355,762 18.33252,-34.021355,762 18.334465,-34.024845,762 18.334837,-34.025665,762 18.336868,-34.029453,762 18.337471,-34.030472,762 18.339214,-34.034016,762 18.339602,-34.035049,762 18.340778,-34.038803,731.52 18.341059,-34.039948,731.52 18.341789,-34.043839,731.52 18.34201,-34.045029,731.52 18.342361,-34.048634,731.52 18.342419,-34.049797,731.52 18.342533,-34.053848,731.52 18.342459,-34.054916,731.52 18.342018,-34.058735,731.52 18.341789,-34.059898,731.52 18.340187,-34.064041,670.56 18.339729,-34.064926,670.56 18.337383,-34.069069,670.56 18.336754,-34.070232,670.56 18.336237,-34.074188,701.04 18.336697,-34.074749,731.52 18.339844,-34.075306,762 18.340702,-34.074982,792.48 18.342516,-34.072311,822.96 18.342419,-34.071442,822.96 18.339882,-34.069336,792.48 18.338816,-34.069244,792.48 18.335228,-34.071167,731.52 18.33478,-34.071991,731.52 18.334108,-34.075836,731.52 18.334164,-34.076706,731.52 18.334808,-34.080799,731.52 18.335209,-34.081963,701.04 18.337555,-34.085922,701.04 18.338413,-34.086899,701.04 18.342075,-34.089691,670.56 18.343449,-34.090485,670.56 18.347616,-34.092682,640.08 18.34868,-34.093231,640.08 18.352718,-34.095325,640.08 18.353577,-34.095745,640.08 18.361237,-34.099594,640.08 18.362303,-34.100006,640.08 18.366108,-34.101421,640.08 18.367081,-34.101795,640.08 18.371439,-34.103531,670.56 18.372335,-34.103897,670.56 18.376427,-34.105637,670.56 18.377493,-34.106094,670.56 18.381584,-34.107742,670.56 18.382818,-34.108246,670.56 18.387165,-34.110081,670.56 18.388086,-34.110489,670.56 18.392515,-34.112366,670.56 18.393579,-34.112823,670.56 18.39838,-34.114876,640.08 18.399746,-34.115433,640.08 18.408937,-34.119598,640.08 18.412022,-34.121109,640.08 18.42099,-34.125824,640.08 18.421999,-34.126419,640.08 18.425617,-34.128471,640.08 18.426476,-34.128983,640.08 18.430742,-34.131134,640.08 18.431969,-34.131683,640.08 18.436375,-34.13308,640.08 18.437576,-34.133312,640.08 18.442682,-34.133606,640.08 18.443802,-34.133469,609.6 18.448847,-34.13205,609.6 18.449936,-34.131542,609.6 18.454004,-34.128983,640.08 18.454971,-34.12833,640.08 18.458937,-34.125641,640.08 18.459892,-34.125027,640.08 18.463898,-34.122044,640.08 18.464756,-34.1213,640.08 18.468647,-34.117622,609.6 18.469307,-34.116714,609.6 18.471909,-34.112225,640.08 18.472309,-34.111107,609.6 18.473455,-34.106598,609.6 18.473736,-34.105225,579.12 18.47452,-34.10051,579.12 18.474632,-34.099411,579.12 18.475193,-34.094788,548.64 18.475304,-34.093414,548.64 18.475914,-34.088203,518.16 18.475971,-34.087273,518.16 18.476429,-34.082245,518.16 18.476486,-34.081032,518.16 18.476482,-34.075607,518.16 18.476543,-34.070652,518.16 18.477116,-34.055893,487.68 18.477154,-34.054916,487.68 18.477402,-34.049934,487.68 18.477459,-34.048771,487.68 18.477827,-34.034409,487.68 18.477802,-34.030849,487.68 18.477859,-34.0261,487.68 18.47794,-34.024887,518.16 18.478088,-34.020096,487.68 18.478146,-34.018887,487.68 18.47826,-34.011669,518.16 18.478374,-34.007339,518.16 18.478949,-33.989868,487.68 18.479004,-33.986298,487.68 18.480034,-33.97303,457.2 18.480091,-33.972054,457.2 18.480909,-33.958786,396.24 18.481064,-33.954552,396.24 18.480663,-33.947662,365.76 18.480492,-33.946449,365.76 18.479118,-33.94133,365.76 18.478661,-33.93998,365.76 18.476086,-33.934765,335.28 18.475628,-33.93388,365.76 18.472767,-33.928993,335.28 18.472109,-33.928024,335.28 18.468876,-33.923546,335.28 18.468075,-33.922615,335.28 18.464413,-33.918705,335.28 18.463421,-33.917679,335.28 18.459833,-33.9142,335.28 18.458977,-33.913353,335.28 18.455238,-33.90921,335.28 18.45451,-33.908386,335.28 18.451426,-33.904312,335.28 18.450697,-33.903351,335.28 18.447933,-33.899525,304.8 18.447279,-33.898636,304.8 18.444588,-33.895386,304.8 18.443584,-33.894684,304.8 18.439318,-33.893784,243.84 18.437233,-33.894127,243.84 18.433714,-33.89502,182.88 18.432884,-33.895245,182.88 18.429451,-33.897243,121.92 18.428593,-33.898315,91.44 18.426991,-33.900223,60.96 18.426819,-33.900467,60.96
        </coordinates>
      </LineString>
    </Placemark>
  </Document>
</kml>