<?xml version="1.0" encoding="UTF-8"?>
<kml xmlns="http://www.opengis.net/kml/2.2">
  <Document>
    <name>-/ZTHOT - Optimised</name>
    <description><![CDATA[Optimised flight path with 1004 points (decimated from 5019 original points). Source format: Standard KML]]></description>
    
    <Style id="flightPath">
      <LineStyle>
        <color>ff0000ff</color>
        <width>3</width>
      </LineStyle>
    </Style>
    
    <Placemark>
      <name>Flight Path</name>
      <description><![CDATA[<div style="width:220px; text-align:center;">
<div style="width:210px; text-align:center;">
<div style=" background: #000; color: #fff; font-size: 14px; text-align:left; border: 1px solid #000; padding: 2px 6px; text-shadow: 0 1px 0 #000; box-shadow: 0 1px 3px rgba(0,0,0,0.6); background: -webkit-gradient(linear, left top, left bottom, color-stop(0%,#808080), color-stop(2%,#303030), color-stop(100%,#0c0c0c));"><span style="font-size: 14px; font-weight: bold;"><a href="javascript:void(0);" style="color: #fff; cursor: pointer;text-decoration: none;">-</a></span> / ZTHOT<br/>Cape Town Helicopters</div>

<div style="border-top: 1px solid #005c90; color: #fff; padding-bottom: 5px; box-shadow: 0 0 1px #9BE3F6 inset, 0 1px 0 #9BE3F6 inset, 0 -1px 3px rgba(0,0,0,0.4); background:rgba(43,114,173,1); background: -webkit-gradient(linear, left top, left bottom, color-stop(0%,rgba(92,184,229,1)), color-stop(100%,rgba(43,114,173,1)));">
<a style="text-decoration: none; color: rgb(255, 255, 255); font-size: 12px; width:77px; display: inline-block;" title=" Airport" href="javascript:void(0);/departures"><h3 style="padding: 0px; margin: 10px 0px 0px; font-size: 16px; ">?</h3></a>
<span style="background: url(https://www.flightradar24.com/static/images/userUI_sprite.png?14) no-repeat scroll 0 -464px rgba(0, 0, 0, 0); border: medium none; display: inline-block; height: 16px; width: 45px;"></span>
<a style="text-decoration: none; color: rgb(255, 255, 255); font-size: 12px; width:77px; display: inline-block;" title=" Airport" href="javascript:void(0);/arrivals"><h3 style="padding: 0px; margin: 10px 0px 0px; font-size: 16px;">?</h3></a>
<div style=" margin-top:10px;">
<div style="display: inline-block; font-size: 12px; padding: 0 5px;">
<div>
<span style="color: #c1eaff;" title="Actual Time of Departure">ATD </span>
<span title="2025-08-02 07:11">07:11</span> <span title="Coordinated Universal Time">UTC</span>
</div>
</div>
<div style="display: inline-block; font-size: 12px; padding: 0 5px;">
<div>
<span style="color: #c1eaff;" title="Estimated Time of Arrival">ETA </span>
<span title="2025-08-02 07:30">07:30</span> <span title="Coordinated Universal Time">UTC</span>
</div>
</div>
</div>
<br style="clear: both;"/>
</div>

<div style="display: block;">
<table style="border-collapse: collapse; width: 100%;">
<tr style="border-right: 1px solid #dadada; ">
<td style="background: none repeat scroll 0 0 #dadada; padding: 0; width: 31px;">
<span style="background: url(https://www.flightradar24.com/static/images/userUI_sprite.png?14) no-repeat scroll -208px -464px rgba(0, 0, 0, 0); height: 26px; margin: 8px 0 0 4px; width: 23px; display: block;"></span>
</td>
<td colspan="2" style="border-bottom: 1px solid #dadada; border-left: 1px solid #dadada; color: #666; line-height: 1.1em; padding: 3px 6px; vertical-align: top; font-size: 14px;">
Aircraft<span style="float: right; font-size: 12px;">(AS50)</span><br>
<span style="color: #333; font-size: 16px; font-weight: bold; line-height: 1.3em;">Airbus Helicopters H125</span>
</td>
</tr>
<tr style="border-right: 1px solid #dadada; ">
<td style="background: none repeat scroll 0 0 #dadada; padding: 0; width: 31px;">
<td colspan="2" style="border-bottom: 1px solid #dadada; border-left: 1px solid #dadada; color: #666; line-height: 1.1em; padding: 3px 6px; vertical-align: top; font-size: 14px;">
Registration<br>
<span style="color: #333; font-size: 16px; font-weight: bold; line-height: 1.3em;"><a href="https://www.flightradar24.com/reg/zt-hot" style="text-decoration: none; color: #333;">ZT-HOT</a></span>
</td>
</tr>
</table>
</div>

</div>
</div>]]></description>
      <styleUrl>#flightPath</styleUrl>
      <LineString>
        <extrude>1</extrude>
        <tessellate>1</tessellate>
        <altitudeMode>absolute</altitudeMode>
        <coordinates>
          18.43091,-33.901749,60.96 18.43618,-33.901199,152.4 18.438589,-33.898224,182.88 18.438421,-33.894196,213.36 18.436604,-33.889751,274.32 18.433914,-33.885792,274.32 18.430069,-33.88147,304.8 18.425617,-33.877647,335.28 18.420124,-33.874901,365.76 18.413254,-33.87323,365.76 18.406136,-33.873276,426.72 18.399639,-33.874573,487.68 18.394089,-33.877041,518.16 18.388538,-33.880672,518.16 18.383322,-33.88472,548.64 18.378557,-33.888748,579.12 18.371775,-33.894699,609.6 18.367348,-33.899231,609.6 18.363304,-33.903996,640.08 18.359528,-33.90921,670.56 18.35598,-33.914608,670.56 18.353054,-33.919876,701.04 18.350307,-33.925278,701.04 18.346552,-33.932968,731.52 18.335846,-33.95256,701.04 18.322561,-33.978882,670.56 18.312378,-33.999382,670.56 18.306137,-34.015091,670.56 18.304195,-34.024426,670.56 18.303726,-34.033493,640.08 18.305185,-34.040268,609.6 18.30978,-34.046402,609.6 18.314209,-34.05175,579.12 18.318918,-34.057114,579.12 18.32325,-34.061481,579.12 18.327827,-34.065624,609.6 18.332651,-34.067551,670.56 18.333607,-34.064972,731.52 18.328838,-34.062836,701.04 18.322952,-34.060501,670.56 18.317299,-34.05743,640.08 18.311687,-34.053268,609.6 18.306978,-34.048645,579.12 18.303108,-34.036949,579.12 18.304825,-34.031548,579.12 18.307343,-34.026798,579.12 18.31049,-34.021492,579.12 18.313255,-34.017151,579.12 18.326054,-33.995377,548.64 18.337498,-33.972752,518.16 18.348312,-33.950592,487.68 18.357538,-33.934525,487.68 18.36729,-33.918228,487.68 18.376932,-33.903625,457.2 18.381023,-33.898911,426.72 18.385048,-33.894962,426.72 18.390104,-33.891541,426.72 18.395372,-33.888931,426.72 18.40107,-33.886772,426.72 18.407364,-33.884769,396.24 18.413422,-33.883347,396.24 18.419756,-33.882523,396.24 18.425732,-33.882442,365.76 18.430799,-33.882706,396.24 18.431911,-33.8857,396.24 18.431625,-33.888821,335.28 18.430855,-33.891907,243.84 18.429678,-33.89534,152.4 18.428501,-33.898087,91.44 18.427334,-33.899944,0 18.427162,-33.901016,0 18.438778,-33.899899,152.4 18.440664,-33.895569,182.88 18.439207,-33.890488,213.36 18.436628,-33.886047,243.84 18.433342,-33.881229,243.84 18.425903,-33.873177,304.8 18.413198,-33.868927,335.28 18.395094,-33.874695,457.2 18.388592,-33.879044,457.2 18.383715,-33.883209,487.68 18.379097,-33.88747,487.68 18.374691,-33.891937,518.16 18.369366,-33.897858,518.16 18.365421,-33.902599,548.64 18.361742,-33.9077,548.64 18.35844,-33.91256,548.64 18.355183,-33.91777,548.64 18.351316,-33.924591,548.64 18.349354,-33.931,579.12 18.353109,-33.934158,640.08 18.35737,-33.932693,640.08 18.358154,-33.928619,670.56 18.355293,-33.925175,670.56 18.348312,-33.926201,670.56 18.342684,-33.93251,640.08 18.339376,-33.938416,640.08 18.336468,-33.944168,640.08 18.333607,-33.950409,640.08 18.323479,-33.973682,640.08 18.311806,-34.000126,609.6 18.302942,-34.033356,579.12 18.305914,-34.046494,579.12 18.311182,-34.053268,579.12 18.316002,-34.058212,548.64 18.320789,-34.062645,548.64 18.326933,-34.067505,548.64 18.332863,-34.07093,548.64 18.340015,-34.071537,548.64 18.332874,-34.070984,670.56 18.334557,-34.076523,640.08 18.337841,-34.082523,640.08 18.342236,-34.088196,609.6 18.348083,-34.09267,579.12 18.354959,-34.09584,579.12 18.36216,-34.098907,548.64 18.373146,-34.103611,518.16 18.396664,-34.11441,518.16 18.420036,-34.125,457.2 18.436661,-34.132053,518.16 18.443186,-34.133102,548.64 18.449421,-34.131077,518.16 18.454514,-34.127773,518.16 18.459721,-34.123535,487.68 18.464298,-34.119205,487.68 18.468298,-34.114517,457.2 18.471279,-34.109615,457.2 18.473175,-34.104263,457.2 18.474541,-34.099049,457.2 18.475584,-34.093689,457.2 18.476601,-34.088387,457.2 18.478556,-34.074417,457.2 18.480492,-34.057991,487.68 18.480406,-34.05336,518.16 18.480238,-34.048553,548.64 18.479576,-34.036716,548.64 18.478779,-34.01825,548.64 18.479233,-34.010414,487.68 18.479845,-34.004791,487.68 18.481121,-33.994305,457.2 18.482838,-33.975964,426.72 18.483868,-33.961765,365.76 18.483768,-33.955856,365.76 18.483582,-33.950455,335.28 18.482494,-33.941051,335.28 18.481007,-33.935276,304.8 18.4785,-33.929672,304.8 18.474598,-33.924339,304.8 18.46953,-33.91951,274.32 18.464127,-33.914982,274.32 18.457031,-33.90889,243.84 18.440495,-33.894779,213.36 18.434778,-33.894608,213.36 18.43091,-33.896851,121.92 18.427563,-33.899525,30.48 18.427048,-33.901016,0 18.431396,-33.902225,60.96 18.43523,-33.902412,121.92 18.439207,-33.900925,152.4 18.441296,-33.897152,182.88 18.440664,-33.892731,213.36 18.438198,-33.887924,213.36 18.435287,-33.88356,243.84 18.431358,-33.879089,243.84 18.426476,-33.875645,274.32 18.420765,-33.873184,304.8 18.414059,-33.871735,304.8 18.406919,-33.872086,335.28 18.400097,-33.874153,396.24 18.394604,-33.876949,396.24 18.389111,-33.880627,426.72 18.383789,-33.884724,457.2 18.378582,-33.889191,487.68 18.374004,-33.893566,518.16 18.369541,-33.89827,548.64 18.365385,-33.903305,579.12 18.361416,-33.908695,579.12 18.355923,-33.914143,609.6 18.35025,-33.91777,640.08 18.346996,-33.924339,640.08 18.344765,-33.930344,670.56 18.347168,-33.934021,762 18.350258,-33.933044,822.96 18.351427,-33.92981,853.44 18.351091,-33.925827,883.92 18.347223,-33.923859,944.88 18.342876,-33.927319,944.88 18.339729,-33.932716,944.88 18.336575,-33.938599,914.4 18.333883,-33.944687,883.92 18.327255,-33.959949,822.96 18.314495,-33.987415,701.04 18.30496,-34.010651,609.6 18.29986,-34.036285,579.12 18.302021,-34.048355,579.12 18.305111,-34.054314,548.64 18.309109,-34.059311,548.64 18.314154,-34.063889,548.64 18.319931,-34.068092,548.64 18.32542,-34.071671,548.64 18.331192,-34.075012,548.64 18.337246,-34.077164,579.12 18.342068,-34.075745,640.08 18.342178,-34.07135,670.56 18.337919,-34.068787,701.04 18.332594,-34.068558,762 18.328514,-34.071861,792.48 18.328896,-34.077072,792.48 18.331923,-34.08252,792.48 18.335508,-34.087921,762 18.34013,-34.093277,701.04 18.345451,-34.097466,701.04 18.35186,-34.101654,670.56 18.358326,-34.10524,640.08 18.36462,-34.108219,609.6 18.371494,-34.11113,579.12 18.378067,-34.113621,579.12 18.392963,-34.119186,548.64 18.41404,-34.126968,518.16 18.427391,-34.131401,518.16 18.4338,-34.13303,548.64 18.440216,-34.134064,548.64 18.446325,-34.133698,518.16 18.451538,-34.131317,518.16 18.456022,-34.127792,518.16 18.459946,-34.124222,487.68 18.464069,-34.120277,487.68 18.467625,-34.116257,457.2 18.470764,-34.111759,457.2 18.47311,-34.10701,487.68 18.47452,-34.102524,487.68 18.475571,-34.097607,487.68 18.476482,-34.092957,487.68 18.477211,-34.087875,487.68 18.478718,-34.074421,487.68 18.479805,-34.056686,518.16 18.481064,-34.039555,487.68 18.482534,-34.02095,487.68 18.483295,-34.003384,457.2 18.483925,-33.984764,457.2 18.483936,-33.96611,426.72 18.483753,-33.947197,396.24 18.482723,-33.940723,396.24 18.481134,-33.934891,365.76 18.479004,-33.929398,365.76 18.475113,-33.923546,335.28 18.470596,-33.918869,335.28 18.465496,-33.914291,304.8 18.460394,-33.909851,304.8 18.450809,-33.900558,274.32 18.445429,-33.895432,243.84 18.440838,-33.894032,213.36 18.436604,-33.895058,152.4 18.432367,-33.896805,91.44 18.428707,-33.898922,30.48 18.426987,-33.90065,0 18.43277,-33.89962,60.96 18.437302,-33.897034,121.92 18.438549,-33.893333,152.4 18.437634,-33.888958,182.88 18.435843,-33.884583,213.36 18.432426,-33.880344,213.36 18.427828,-33.876801,243.84 18.422167,-33.874512,243.84 18.415329,-33.873413,274.32 18.409481,-33.87392,304.8 18.402325,-33.875931,365.76 18.396326,-33.878494,365.76 18.39077,-33.881557,396.24 18.385677,-33.884907,426.72 18.380642,-33.888821,426.72 18.376007,-33.892963,457.2 18.371372,-33.897758,457.2 18.36731,-33.902458,487.68 18.363647,-33.907516,518.16 18.360397,-33.912552,548.64 18.35737,-33.917496,548.64 18.348083,-33.933788,579.12 18.33848,-33.953339,609.6 18.336462,-33.966156,640.08 18.344135,-33.957344,548.64 18.349298,-33.950638,518.16 18.352604,-33.945705,487.68 18.355694,-33.940491,487.68 18.364489,-33.924911,487.68 18.374073,-33.909668,487.68 18.378782,-33.903442,487.68 18.381958,-33.899899,487.68 18.385448,-33.896545,487.68 18.389824,-33.89328,487.68 18.394432,-33.890774,487.68 18.400417,-33.88829,457.2 18.406334,-33.886444,457.2 18.412693,-33.884995,426.72 18.418808,-33.884071,426.72 18.425217,-33.883606,426.72 18.431511,-33.883976,396.24 18.437805,-33.885933,365.76 18.441896,-33.889435,335.28 18.443298,-33.893612,304.8 18.43943,-33.89534,243.84 18.430855,-33.898041,91.44 18.427334,-33.901016,60.96 18.435287,-33.901947,121.92 18.43935,-33.900551,152.4 18.44257,-33.897217,213.36 18.44257,-33.892593,213.36 18.439936,-33.888199,243.84 18.436546,-33.884026,274.32 18.433096,-33.879959,274.32 18.429108,-33.875923,274.32 18.424128,-33.872452,274.32 18.418634,-33.870117,304.8 18.412056,-33.868942,335.28 18.404961,-33.870804,365.76 18.398781,-33.873318,396.24 18.393244,-33.876068,426.72 18.387737,-33.879601,426.72 18.382416,-33.883793,457.2 18.377552,-33.888306,457.2 18.373009,-33.89296,487.68 18.368511,-33.898083,518.16 18.364601,-33.902893,518.16 18.360788,-33.907974,548.64 18.357145,-33.91333,579.12 18.353502,-33.919189,579.12 18.35025,-33.924728,609.6 18.343525,-33.937546,609.6 18.340498,-33.944687,579.12 18.333435,-33.959995,609.6 18.339209,-33.962036,640.08 18.343849,-33.956551,609.6 18.348177,-33.95105,579.12 18.358603,-33.936951,518.16 18.36153,-33.932205,487.68 18.364544,-33.926743,487.68 18.36886,-33.918457,457.2 18.372728,-33.912323,457.2 18.375587,-33.908295,457.2 18.379326,-33.903809,426.72 18.382931,-33.90004,457.2 18.386765,-33.8965,457.2 18.391171,-33.893333,457.2 18.396158,-33.890762,457.2 18.401596,-33.888702,457.2 18.407307,-33.887283,457.2 18.413887,-33.886257,426.72 18.420372,-33.885452,426.72 18.426764,-33.885132,396.24 18.433376,-33.88591,365.76 18.438492,-33.88868,365.76 18.440777,-33.892776,365.76 18.438492,-33.895245,304.8 18.433657,-33.895523,213.36 18.429337,-33.896965,152.4 18.427563,-33.899014,91.44 18.426991,-33.900688,30.48 18.429737,-33.900829,30.48 18.435345,-33.90041,121.92 18.439375,-33.897537,152.4 18.440216,-33.893555,182.88 18.438702,-33.889343,213.36 18.435843,-33.884399,243.84 18.432425,-33.879959,274.32 18.427563,-33.876156,304.8 18.422054,-33.874054,304.8 18.414516,-33.873409,335.28 18.408546,-33.874237,396.24 18.402435,-33.876572,426.72 18.396721,-33.879696,457.2 18.390827,-33.883465,487.68 18.384933,-33.887703,487.68 18.37895,-33.892548,518.16 18.374073,-33.896896,548.64 18.369427,-33.901482,579.12 18.364882,-33.906555,579.12 18.360157,-33.912373,609.6 18.356209,-33.91824,609.6 18.352604,-33.924198,609.6 18.348961,-33.930588,609.6 18.339321,-33.948441,609.6 18.326653,-33.972198,609.6 18.315868,-33.991375,640.08 18.310453,-34.003784,640.08 18.309332,-34.015778,701.04 18.309219,-34.021957,731.52 18.30978,-34.029419,762 18.314209,-34.032944,792.48 18.318386,-34.030617,792.48 18.321047,-34.025436,762 18.323458,-34.019989,701.04 18.327717,-34.009735,640.08 18.336926,-33.986626,579.12 18.346825,-33.962929,548.64 18.352718,-33.948498,548.64 18.356953,-33.939606,518.16 18.363762,-33.924992,518.16 18.367939,-33.917915,518.16 18.371086,-33.913303,487.68 18.374863,-33.908512,487.68 18.378639,-33.904552,457.2 18.382702,-33.900597,457.2 18.387852,-33.896313,426.72 18.393747,-33.892639,426.72 18.399801,-33.889801,426.72 18.406416,-33.887558,396.24 18.412457,-33.88612,396.24 18.418579,-33.884995,365.76 18.424416,-33.884441,365.76 18.429733,-33.885544,335.28 18.433937,-33.889252,304.8 18.4342,-33.892963,243.84 18.431696,-33.896439,152.4 18.428669,-33.898727,91.44 18.426987,-33.900833,30.48 18.429737,-33.900784,60.96 18.434143,-33.900875,121.92 18.440094,-33.8992,152.4 18.442554,-33.895195,213.36 18.442289,-33.890121,213.36 18.439922,-33.884815,243.84 18.434601,-33.880394,274.32 18.427715,-33.87767,304.8 18.421158,-33.877075,335.28 18.413887,-33.877834,396.24 18.407986,-33.879135,426.72 18.401585,-33.881138,457.2 18.394981,-33.883804,487.68 18.388824,-33.887051,518.16 18.383434,-33.890808,548.64 18.378222,-33.895111,548.64 18.372503,-33.900604,579.12 18.367538,-33.906231,609.6 18.362638,-33.912735,640.08 18.358784,-33.918472,640.08 18.355007,-33.924618,640.08 18.351036,-33.931824,670.56 18.344135,-33.946171,640.08 18.340891,-33.968491,670.56 18.349628,-33.964092,670.56 18.352032,-33.956924,670.56 18.353462,-33.952271,670.56 18.359127,-33.936115,579.12 18.365273,-33.921982,548.64 18.368132,-33.916626,518.16 18.371607,-33.911316,487.68 18.375664,-33.906414,457.2 18.380127,-33.901947,457.2 18.385284,-33.897446,426.72 18.391281,-33.893738,396.24 18.397865,-33.890495,396.24 18.404217,-33.888027,365.76 18.411461,-33.885956,365.76 18.418007,-33.884674,335.28 18.424873,-33.883839,304.8 18.430309,-33.885048,274.32 18.431911,-33.889797,213.36 18.431282,-33.894173,152.4 18.429173,-33.898041,91.44 18.427048,-33.900505,30.48 18.433266,-33.901886,121.92 18.437357,-33.90065,182.88 18.439522,-33.896641,213.36 18.439655,-33.892365,243.84 18.437918,-33.887604,243.84 18.435116,-33.882858,274.32 18.431864,-33.878265,304.8 18.427334,-33.873642,304.8 18.421999,-33.869888,335.28 18.415329,-33.866547,396.24 18.4072,-33.866867,426.72 18.400475,-33.86998,487.68 18.394375,-33.87392,518.16 18.38932,-33.877808,548.64 18.383846,-33.882675,579.12 18.378868,-33.887749,609.6 18.373432,-33.89394,609.6 18.368797,-33.899853,640.08 18.363367,-33.907745,640.08 18.359163,-33.914703,640.08 18.355352,-33.92157,670.56 18.35014,-33.932053,670.56 18.340273,-33.954163,670.56 18.3382,-33.97229,731.52 18.346195,-33.961861,640.08 18.353109,-33.948807,609.6 18.361349,-33.933609,579.12 18.366787,-33.922623,579.12 18.371716,-33.914795,579.12 18.375643,-33.909668,548.64 18.38007,-33.904648,548.64 18.38405,-33.900513,518.16 18.389225,-33.896126,518.16 18.394308,-33.892914,518.16 18.401527,-33.889286,487.68 18.408451,-33.886353,457.2 18.416,-33.883942,426.72 18.423063,-33.882477,365.76 18.429852,-33.883511,365.76 18.432312,-33.888016,335.28 18.431751,-33.89328,213.36 18.42738,-33.89978,60.96 18.43091,-33.901749,60.96 18.433376,-33.901886,121.92 18.43618,-33.901199,152.4 18.436775,-33.900829,152.4 18.438589,-33.898224,182.88 18.438721,-33.897526,213.36 18.438421,-33.894196,213.36 18.438198,-33.893372,243.84 18.436604,-33.889751,274.32 18.436203,-33.889004,274.32 18.433914,-33.885792,274.32 18.433113,-33.884815,274.32 18.430069,-33.88147,304.8 18.429165,-33.880581,304.8 18.425617,-33.877647,335.28 18.424759,-33.877087,335.28 18.420124,-33.874901,365.76 18.418804,-33.87442,365.76 18.413254,-33.87323,365.76 18.411741,-33.873093,365.76 18.406136,-33.873276,426.72 18.40519,-33.873409,426.72 18.399639,-33.874573,487.68 18.398624,-33.874924,487.68 18.394089,-33.877041,518.16 18.393059,-33.877647,518.16 18.388538,-33.880672,518.16 18.387451,-33.881462,548.64 18.383322,-33.88472,548.64 18.382473,-33.885468,548.64 18.378557,-33.888748,579.12 18.377495,-33.889656,579.12 18.371775,-33.894699,609.6 18.370878,-33.895569,609.6 18.367348,-33.899231,609.6 18.366562,-33.900101,640.08 18.363304,-33.903996,640.08 18.362413,-33.905136,640.08 18.359528,-33.90921,670.56 18.358883,-33.910172,670.56 18.35598,-33.914608,670.56 18.355408,-33.915619,670.56 18.353054,-33.919876,701.04 18.352547,-33.920845,701.04 18.350307,-33.925278,701.04 18.349686,-33.926525,701.04 18.346552,-33.932968,731.52 18.344936,-33.936394,731.52 18.335846,-33.95256,701.04 18.333771,-33.956543,701.04 18.322561,-33.978882,670.56 18.318844,-33.985882,670.56 18.312378,-33.999382,670.56 18.312023,-34.000214,670.56 18.306137,-34.015091,670.56 18.305521,-34.017151,670.56 18.304195,-34.024426,670.56 18.303909,-34.026333,670.56 18.303726,-34.033493,640.08 18.303839,-34.034958,640.08 18.305185,-34.040268,609.6 18.305914,-34.041321,609.6 18.30978,-34.046402,609.6 18.310678,-34.047592,579.12 18.314209,-34.05175,579.12 18.314993,-34.052628,579.12 18.318918,-34.057114,579.12 18.319757,-34.057983,579.12 18.32325,-34.061481,579.12 18.324131,-34.062286,579.12 18.327827,-34.065624,609.6 18.328743,-34.066322,609.6 18.332651,-34.067551,670.56 18.333321,-34.067348,701.04 18.333607,-34.064972,731.52 18.333099,-34.064529,731.52 18.328838,-34.062836,701.04 18.327827,-34.062458,701.04 18.322952,-34.060501,670.56 18.321552,-34.05986,670.56 18.317299,-34.05743,640.08 18.316002,-34.05661,640.08 18.311687,-34.053268,609.6 18.310341,-34.052124,579.12 18.306978,-34.048645,579.12 18.306194,-34.047592,579.12 18.303108,-34.036949,579.12 18.303335,-34.035507,579.12 18.304825,-34.031548,579.12 18.305296,-34.030609,579.12 18.307343,-34.026798,579.12 18.307987,-34.025665,579.12 18.31049,-34.021492,579.12 18.311005,-34.020657,579.12 18.313255,-34.017151,579.12 18.316282,-34.012527,579.12 18.326054,-33.995377,548.64 18.32777,-33.991886,548.64 18.337498,-33.972752,518.16 18.340359,-33.967121,518.16 18.348312,-33.950592,487.68 18.350487,-33.946499,487.68 18.357538,-33.934525,487.68 18.359331,-33.931503,487.68 18.36729,-33.918228,487.68 18.369085,-33.915344,487.68 18.376932,-33.903625,457.2 18.377829,-33.902481,457.2 18.381023,-33.898911,426.72 18.381844,-33.898083,426.72 18.385048,-33.894962,426.72 18.3859,-33.894333,426.72 18.390104,-33.891541,426.72 18.391001,-33.890991,426.72 18.395372,-33.888931,426.72 18.396435,-33.888493,426.72 18.40107,-33.886772,426.72 18.402271,-33.886353,426.72 18.407364,-33.884769,396.24 18.408209,-33.884537,396.24 18.413422,-33.883347,396.24 18.414598,-33.883163,396.24 18.419756,-33.882523,396.24 18.421154,-33.882488,396.24 18.425732,-33.882442,365.76 18.427044,-33.882385,365.76 18.430799,-33.882706,396.24 18.431416,-33.883301,396.24 18.431911,-33.8857,396.24 18.431864,-33.886276,396.24 18.431625,-33.888821,335.28 18.431471,-33.889572,304.8 18.430855,-33.891907,243.84 18.430687,-33.892593,213.36 18.429678,-33.89534,152.4 18.429453,-33.895981,121.92 18.428501,-33.898087,91.44 18.428331,-33.898499,60.96 18.427334,-33.899944,0 18.427105,-33.900272,0 18.427162,-33.901016,0 18.428764,-33.90134,30.48 18.438778,-33.899899,152.4 18.439407,-33.899059,152.4 18.440664,-33.895569,182.88 18.440666,-33.894497,182.88 18.439207,-33.890488,213.36 18.438778,-33.889702,213.36 18.436628,-33.886047,243.84 18.435802,-33.884724,243.84 18.433342,-33.881229,243.84 18.432598,-33.880299,274.32 18.425903,-33.873177,304.8 18.423271,-33.871548,304.8 18.413198,-33.868927,335.28 18.406677,-33.869827,396.24 18.395094,-33.874695,457.2 18.393116,-33.875923,457.2 18.388592,-33.879044,457.2 18.387693,-33.87973,487.68 18.383715,-33.883209,487.68 18.383041,-33.88385,487.68 18.379097,-33.88747,487.68 18.378296,-33.888214,487.68 18.374691,-33.891937,518.16 18.372974,-33.893753,518.16 18.369366,-33.897858,518.16 18.368637,-33.898727,518.16 18.365421,-33.902599,548.64 18.364712,-33.90358,548.64 18.361742,-33.9077,548.64 18.361126,-33.908569,548.64 18.35844,-33.91256,548.64 18.357868,-33.91349,548.64 18.355183,-33.91777,548.64 18.353838,-33.920059,548.64 18.351316,-33.924591,548.64 18.350887,-33.925407,548.64 18.349354,-33.931,579.12 18.349689,-33.932007,579.12 18.353109,-33.934158,640.08 18.354206,-33.934254,640.08 18.35737,-33.932693,640.08 18.357754,-33.932018,640.08 18.358154,-33.928619,670.56 18.357986,-33.927887,670.56 18.355293,-33.925175,670.56 18.353977,-33.924805,670.56 18.348312,-33.926201,670.56 18.345795,-33.928249,640.08 18.342684,-33.93251,640.08 18.34201,-33.933655,640.08 18.339376,-33.938416,640.08 18.338814,-33.939514,640.08 18.336468,-33.944168,640.08 18.335953,-33.94524,640.08 18.333607,-33.950409,640.08 18.333042,-33.951691,640.08 18.323479,-33.973682,640.08 18.320847,-33.979408,640.08 18.311806,-34.000126,609.6 18.310005,-34.005066,609.6 18.302942,-34.033356,579.12 18.302942,-34.034775,579.12 18.305914,-34.046494,579.12 18.307571,-34.049236,579.12 18.311182,-34.053268,579.12 18.312304,-34.054367,548.64 18.316002,-34.058212,548.64 18.317123,-34.059265,548.64 18.320789,-34.062645,548.64 18.321833,-34.063568,548.64 18.326933,-34.067505,548.64 18.328222,-34.068375,548.64 18.332863,-34.07093,548.64 18.334007,-34.071396,548.64 18.340015,-34.071537,548.64 18.341843,-34.069794,579.12 18.332874,-34.070984,670.56 18.332932,-34.072083,670.56 18.334557,-34.076523,640.08 18.33506,-34.077576,640.08 18.337841,-34.082523,640.08 18.338593,-34.083618,640.08 18.342236,-34.088196,609.6 18.343245,-34.089157,609.6 18.348083,-34.09267,579.12 18.349634,-34.09346,579.12 18.354959,-34.09584,579.12 18.356667,-34.096581,548.64 18.36216,-34.098907,548.64 18.363419,-34.099422,548.64 18.373146,-34.103611,518.16 18.378222,-34.106003,518.16 18.396664,-34.11441,518.16 18.401642,-34.116787,487.68 18.420036,-34.125,457.2 18.424128,-34.126831,487.68 18.436661,-34.132053,518.16 18.438141,-34.132507,518.16 18.443186,-34.133102,548.64 18.444307,-34.132965,548.64 18.449421,-34.131077,518.16 18.450474,-34.130539,518.16 18.454514,-34.127773,518.16 18.455742,-34.126877,518.16 18.459721,-34.123535,487.68 18.460619,-34.122757,487.68 18.464298,-34.119205,487.68 18.465103,-34.118362,457.2 18.468298,-34.114517,457.2 18.468859,-34.113739,457.2 18.471279,-34.109615,457.2 18.471794,-34.108452,457.2 18.473175,-34.104263,457.2 18.473568,-34.102959,457.2 18.474541,-34.099049,457.2 18.4748,-34.097809,457.2 18.475584,-34.093689,457.2 18.475864,-34.092407,457.2 18.476601,-34.088387,457.2 18.476772,-34.087177,457.2 18.478556,-34.074417,457.2 18.479116,-34.070251,487.68 18.480492,-34.057991,487.68 18.480461,-34.057251,487.68 18.480406,-34.05336,518.16 18.480377,-34.052448,518.16 18.480238,-34.048553,548.64 18.480181,-34.047455,548.64 18.479576,-34.036716,548.64 18.479452,-34.033539,548.64 18.478779,-34.01825,548.64 18.478836,-34.014725,518.16 18.479233,-34.010414,487.68 18.47934,-34.009369,487.68 18.479845,-34.004791,487.68 18.479958,-34.003784,487.68 18.481121,-33.994305,457.2 18.481464,-33.990627,457.2 18.482838,-33.975964,426.72 18.48332,-33.971558,426.72 18.483868,-33.961765,365.76 18.483824,-33.960434,365.76 18.483768,-33.955856,365.76 18.483753,-33.954922,365.76 18.483582,-33.950455,335.28 18.483488,-33.949127,335.28 18.482494,-33.941051,335.28 18.482311,-33.940109,335.28 18.481007,-33.935276,304.8 18.480686,-33.934341,304.8 18.4785,-33.929672,304.8 18.477715,-33.928391,304.8 18.474598,-33.924339,304.8 18.473623,-33.923355,304.8 18.46953,-33.91951,274.32 18.468578,-33.918686,274.32 18.464127,-33.914982,274.32 18.463028,-33.914017,274.32 18.457031,-33.90889,243.84 18.452827,-33.905365,243.84 18.440495,-33.894779,213.36 18.439262,-33.894287,213.36 18.434778,-33.894608,213.36 18.43405,-33.894974,182.88 18.43091,-33.896851,121.92 18.429108,-33.898083,60.96 18.427563,-33.899525,30.48 18.427322,-33.899872,0 18.427048,-33.901016,0 18.427277,-33.901237,0 18.431396,-33.902225,60.96 18.432199,-33.902298,60.96 18.43523,-33.902412,121.92 18.435974,-33.902317,121.92 18.439207,-33.900925,152.4 18.439808,-33.90041,152.4 18.441296,-33.897152,182.88 18.441353,-33.896313,182.88 18.440664,-33.892731,213.36 18.440208,-33.891613,213.36 18.438198,-33.887924,213.36 18.43758,-33.886917,213.36 18.435287,-33.88356,243.84 18.434555,-33.882568,243.84 18.431358,-33.879089,243.84 18.430595,-33.878483,243.84 18.426476,-33.875645,274.32 18.425446,-33.875134,274.32 18.420765,-33.873184,304.8 18.419609,-33.872807,304.8 18.414059,-33.871735,304.8 18.412571,-33.871639,335.28 18.406919,-33.872086,335.28 18.405533,-33.872387,365.76 18.400097,-33.874153,396.24 18.399017,-33.874649,396.24 18.394604,-33.876949,396.24 18.393356,-33.877716,426.72 18.389111,-33.880627,426.72 18.387852,-33.881557,426.72 18.383789,-33.884724,457.2 18.382761,-33.88559,457.2 18.378582,-33.889191,487.68 18.37801,-33.889702,487.68 18.374004,-33.893566,518.16 18.373032,-33.894547,518.16 18.369541,-33.89827,548.64 18.368692,-33.899231,548.64 18.365385,-33.903305,579.12 18.364489,-33.904449,579.12 18.361416,-33.908695,579.12 18.360729,-33.909676,579.12 18.355923,-33.914143,609.6 18.354893,-33.914608,609.6 18.35025,-33.91777,640.08 18.348906,-33.919785,640.08 18.346996,-33.924339,640.08 18.346367,-33.925503,640.08 18.344765,-33.930344,670.56 18.344879,-33.931461,701.04 18.347168,-33.934021,762 18.347912,-33.934113,792.48 18.350258,-33.933044,822.96 18.350531,-33.932556,822.96 18.351427,-33.92981,853.44 18.351574,-33.928993,853.44 18.351091,-33.925827,883.92 18.350698,-33.92514,883.92 18.347223,-33.923859,944.88 18.346252,-33.924057,944.88 18.342876,-33.927319,944.88 18.342419,-33.928062,944.88 18.339729,-33.932716,944.88 18.339214,-33.933647,944.88 18.336575,-33.938599,914.4 18.336067,-33.939655,914.4 18.333883,-33.944687,883.92 18.333323,-33.945923,883.92 18.327255,-33.959949,822.96 18.323961,-33.965927,822.96 18.314495,-33.987415,701.04 18.312893,-33.991001,701.04 18.30496,-34.010651,609.6 18.302937,-34.016697,609.6 18.29986,-34.036285,579.12 18.30014,-34.040588,579.12 18.302021,-34.048355,579.12 18.302479,-34.049469,548.64 18.305111,-34.054314,548.64 18.305857,-34.05542,548.64 18.309109,-34.059311,548.64 18.310228,-34.060455,548.64 18.314154,-34.063889,548.64 18.315125,-34.064648,548.64 18.319931,-34.068092,548.64 18.321075,-34.068882,548.64 18.32542,-34.071671,548.64 18.32654,-34.072357,548.64 18.331192,-34.075012,548.64 18.332371,-34.075562,548.64 18.337246,-34.077164,579.12 18.33848,-34.077209,579.12 18.342068,-34.075745,640.08 18.342476,-34.075119,640.08 18.342178,-34.07135,670.56 18.341389,-34.070511,701.04 18.337919,-34.068787,701.04 18.336966,-34.068558,731.52 18.332594,-34.068558,762 18.331432,-34.068928,762 18.328514,-34.071861,792.48 18.328278,-34.072815,792.48 18.328896,-34.077072,792.48 18.329258,-34.077961,792.48 18.331923,-34.08252,792.48 18.332594,-34.083618,762 18.335508,-34.087921,762 18.336462,-34.089203,731.52 18.34013,-34.093277,701.04 18.341103,-34.094112,701.04 18.345451,-34.097466,701.04 18.346775,-34.098404,701.04 18.35186,-34.101654,670.56 18.352947,-34.102261,670.56 18.358326,-34.10524,640.08 18.359444,-34.105774,640.08 18.36462,-34.108219,609.6 18.365765,-34.10873,609.6 18.371494,-34.11113,579.12 18.372616,-34.111542,579.12 18.378067,-34.113621,579.12 18.379383,-34.114132,548.64 18.392963,-34.119186,548.64 18.397808,-34.120975,518.16 18.41404,-34.126968,518.16 18.417906,-34.128387,518.16 18.427391,-34.131401,518.16 18.428593,-34.131729,548.64 18.4338,-34.13303,548.64 18.435003,-34.133286,548.64 18.440216,-34.134064,548.64 18.441296,-34.134148,548.64 18.446325,-34.133698,518.16 18.447334,-34.133423,518.16 18.451538,-34.131317,518.16 18.452339,-34.130753,518.16 18.456022,-34.127792,518.16 18.456806,-34.127106,518.16 18.459946,-34.124222,487.68 18.460808,-34.123444,487.68 18.464069,-34.120277,487.68 18.464991,-34.119324,487.68 18.467625,-34.116257,457.2 18.468298,-34.115387,457.2 18.470764,-34.111759,457.2 18.471222,-34.110966,457.2 18.47311,-34.10701,487.68 18.473339,-34.106358,487.68 18.47452,-34.102524,487.68 18.47477,-34.101376,487.68 18.475571,-34.097607,487.68 18.475754,-34.096619,487.68 18.476482,-34.092957,487.68 18.47665,-34.091812,487.68 18.477211,-34.087875,487.68 18.477322,-34.08696,487.68 18.478718,-34.074421,487.68 18.479061,-34.071259,487.68 18.479805,-34.056686,518.16 18.479977,-34.053661,518.16 18.481064,-34.039555,487.68 18.481247,-34.036285,487.68 18.482534,-34.02095,487.68 18.482759,-34.017517,457.2 18.483295,-34.003384,457.2 18.483433,-33.999069,457.2 18.483925,-33.984764,457.2 18.484104,-33.980621,426.72 18.483936,-33.96611,426.72 18.483925,-33.96172,396.24 18.483753,-33.947197,396.24 18.483524,-33.944916,396.24 18.482723,-33.940723,396.24 18.482424,-33.939423,396.24 18.481134,-33.934891,365.76 18.480854,-33.933838,365.76 18.479004,-33.929398,365.76 18.478317,-33.928062,365.76 18.475113,-33.923546,335.28 18.474369,-33.922661,335.28 18.470596,-33.918869,335.28 18.469505,-33.917866,335.28 18.465496,-33.914291,304.8 18.464584,-33.91349,304.8 18.460394,-33.909851,304.8 18.457592,-33.907333,274.32 18.450809,-33.900558,274.32 18.450165,-33.899899,274.32 18.445429,-33.895432,243.84 18.44442,-33.894836,213.36 18.440838,-33.894032,213.36 18.439936,-33.894104,213.36 18.436604,-33.895058,152.4 18.435843,-33.89534,152.4 18.432367,-33.896805,91.44 18.431854,-33.897011,91.44 18.428707,-33.898922,30.48 18.428135,-33.899338,30.48 18.426987,-33.90065,0 18.426958,-33.900902,0 18.43277,-33.89962,60.96 18.434601,-33.898968,91.44 18.437302,-33.897034,121.92 18.437748,-33.896454,121.92 18.438549,-33.893333,152.4 18.438435,-33.892357,152.4 18.437634,-33.888958,182.88 18.437405,-33.888119,182.88 18.435843,-33.884583,213.36 18.435173,-33.88356,213.36 18.432426,-33.880344,213.36 18.431528,-33.879501,213.36 18.427828,-33.876801,243.84 18.426876,-33.876297,243.84 18.422167,-33.874512,243.84 18.421045,-33.874191,243.84 18.415329,-33.873413,274.32 18.41404,-33.873413,304.8 18.409481,-33.87392,304.8 18.407537,-33.874329,335.28 18.402325,-33.875931,365.76 18.400923,-33.87648,365.76 18.396326,-33.878494,365.76 18.395405,-33.878948,365.76 18.39077,-33.881557,396.24 18.389879,-33.882111,396.24 18.385677,-33.884907,426.72 18.384762,-33.885605,426.72 18.380642,-33.888821,426.72 18.380127,-33.889206,426.72 18.376007,-33.892963,457.2 18.375082,-33.893829,457.2 18.371372,-33.897758,457.2 18.370375,-33.898819,487.68 18.36731,-33.902458,487.68 18.366449,-33.90358,487.68 18.363647,-33.907516,518.16 18.363018,-33.908417,518.16 18.360397,-33.912552,548.64 18.359642,-33.913723,548.64 18.35737,-33.917496,548.64 18.356417,-33.919098,548.64 18.348083,-33.933788,579.12 18.345823,-33.938141,579.12 18.33848,-33.953339,609.6 18.335438,-33.959763,609.6 18.336462,-33.966156,640.08 18.338184,-33.964375,609.6 18.344135,-33.957344,548.64 18.344765,-33.956505,548.64 18.349298,-33.950638,518.16 18.350082,-33.949493,518.16 18.352604,-33.945705,487.68 18.353062,-33.945007,487.68 18.355694,-33.940491,487.68 18.357874,-33.936905,487.68 18.364489,-33.924911,487.68 18.366562,-33.921524,487.68 18.374073,-33.909668,487.68 18.376316,-33.906509,487.68 18.378782,-33.903442,487.68 18.37923,-33.902939,487.68 18.381958,-33.899899,487.68 18.382587,-33.899246,487.68 18.385448,-33.896545,487.68 18.386364,-33.895756,487.68 18.389824,-33.89328,487.68 18.39061,-33.892776,487.68 18.394432,-33.890774,487.68 18.395691,-33.890167,487.68 18.400417,-33.88829,457.2 18.401699,-33.887886,457.2 18.406334,-33.886444,457.2 18.407761,-33.886047,426.72 18.412693,-33.884995,426.72 18.41404,-33.884766,426.72 18.418808,-33.884071,426.72 18.419981,-33.883942,426.72 18.425217,-33.883606,426.72 18.426304,-33.883606,396.24 18.431511,-33.883976,396.24 18.432705,-33.884171,396.24 18.437805,-33.885933,365.76 18.438892,-33.886677,365.76 18.441896,-33.889435,335.28 18.442457,-33.890213,335.28 18.443298,-33.893612,304.8 18.44285,-33.894196,304.8 18.43943,-33.89534,243.84 18.438589,-33.895523,213.36 18.430855,-33.898041,91.44 18.428249,-33.8992,60.96 18.427334,-33.901016,60.96 18.42934,-33.901382,30.48 18.435287,-33.901947,121.92 18.43586,-33.901852,121.92 18.43935,-33.900551,152.4 18.440271,-33.899918,182.88 18.44257,-33.897217,213.36 18.44285,-33.89653,213.36 18.44257,-33.892593,213.36 18.442268,-33.891846,213.36 18.439936,-33.888199,243.84 18.439407,-33.88747,243.84 18.436546,-33.884026,274.32 18.435955,-33.883347,274.32 18.433096,-33.879959,274.32 18.432312,-33.879135,274.32 18.429108,-33.875923,274.32 18.428221,-33.875198,274.32 18.424128,-33.872452,274.32 18.4231,-33.871872,304.8 18.418634,-33.870117,304.8 18.417234,-33.869705,304.8 18.412056,-33.868942,335.28 18.410854,-33.86908,335.28 18.404961,-33.870804,365.76 18.403873,-33.871223,365.76 18.398781,-33.873318,396.24 18.397783,-33.873779,396.24 18.393244,-33.876068,426.72 18.392067,-33.876755,426.72 18.387737,-33.879601,426.72 18.386629,-33.880417,426.72 18.382416,-33.883793,457.2 18.381529,-33.884583,457.2 18.377552,-33.888306,457.2 18.376694,-33.889145,457.2 18.373009,-33.89296,487.68 18.37228,-33.893784,487.68 18.368511,-33.898083,518.16 18.367596,-33.899155,518.16 18.364601,-33.902893,518.16 18.363934,-33.903809,548.64 18.360788,-33.907974,548.64 18.36034,-33.908615,548.64 18.357145,-33.91333,579.12 18.356495,-33.91433,579.12 18.353502,-33.919189,579.12 18.35289,-33.920197,579.12 18.35025,-33.924728,609.6 18.348232,-33.928345,609.6 18.343525,-33.937546,609.6 18.34259,-33.939701,609.6 18.340498,-33.944687,579.12 18.339937,-33.94606,579.12 18.333435,-33.959995,609.6 18.331318,-33.964886,762 18.339209,-33.962036,640.08 18.341227,-33.960022,640.08 18.343849,-33.956551,609.6 18.344765,-33.955387,609.6 18.348177,-33.95105,579.12 18.350363,-33.948303,548.64 18.358603,-33.936951,518.16 18.359241,-33.935928,518.16 18.36153,-33.932205,487.68 18.361931,-33.931553,487.68 18.364544,-33.926743,487.68 18.365105,-33.925735,487.68 18.36886,-33.918457,457.2 18.370375,-33.915802,457.2 18.372728,-33.912323,457.2 18.37326,-33.911491,457.2 18.375587,-33.908295,457.2 18.376316,-33.907333,457.2 18.379326,-33.903809,426.72 18.380013,-33.903111,457.2 18.382931,-33.90004,457.2 18.383503,-33.899433,457.2 18.386765,-33.8965,457.2 18.387623,-33.895756,457.2 18.391171,-33.893333,457.2 18.39229,-33.892639,457.2 18.396158,-33.890762,457.2 18.39735,-33.890263,457.2 18.401596,-33.888702,457.2 18.402901,-33.88826,457.2 18.407307,-33.887283,457.2 18.408602,-33.887054,457.2 18.413887,-33.886257,426.72 18.415329,-33.886093,426.72 18.420372,-33.885452,426.72 18.421829,-33.885361,396.24 18.426764,-33.885132,396.24 18.428078,-33.885139,396.24 18.433376,-33.88591,365.76 18.434443,-33.88623,365.76 18.438492,-33.88868,365.76 18.439039,-33.889435,365.76 18.440777,-33.892776,365.76 18.441,-33.893555,365.76 18.438492,-33.895245,304.8 18.437519,-33.895336,274.32 18.433657,-33.895523,213.36 18.432827,-33.895615,213.36 18.429337,-33.896965,152.4 18.428936,-33.897293,152.4 18.427563,-33.899014,91.44 18.427448,-33.899338,60.96 18.426991,-33.900688,30.48 18.426987,-33.900925,30.48 18.429737,-33.900829,30.48 18.430519,-33.900833,60.96 18.435345,-33.90041,121.92 18.436146,-33.900131,121.92 18.439375,-33.897537,152.4 18.439823,-33.896805,152.4 18.440216,-33.893555,182.88 18.440048,-33.892593,213.36 18.438702,-33.889343,213.36 18.438148,-33.888306,213.36 18.435843,-33.884399,243.84 18.435284,-33.883575,243.84 18.432425,-33.879959,274.32 18.431639,-33.879135,274.32 18.427563,-33.876156,304.8 18.42659,-33.875645,304.8 18.422054,-33.874054,304.8 18.420582,-33.873737,335.28 18.414516,-33.873409,335.28 18.413422,-33.873459,365.76 18.408546,-33.874237,396.24 18.407478,-33.874527,426.72 18.402435,-33.876572,426.72 18.401091,-33.877213,457.2 18.396721,-33.879696,457.2 18.39543,-33.880508,457.2 18.390827,-33.883465,487.68 18.389488,-33.884354,487.68 18.384933,-33.887703,487.68 18.383938,-33.888519,487.68 18.37895,-33.892548,518.16 18.378109,-33.893234,518.16 18.374073,-33.896896,548.64 18.373177,-33.89772,548.64 18.369427,-33.901482,579.12 18.368454,-33.902554,579.12 18.364882,-33.906555,579.12 18.363991,-33.907532,579.12 18.360157,-33.912373,609.6 18.359276,-33.913605,609.6 18.356209,-33.91824,609.6 18.355522,-33.919357,609.6 18.352604,-33.924198,609.6 18.351974,-33.92527,609.6 18.348961,-33.930588,609.6 18.34837,-33.93174,609.6 18.339321,-33.948441,609.6 18.337383,-33.951992,609.6 18.326653,-33.972198,609.6 18.323822,-33.978386,609.6 18.315868,-33.991375,640.08 18.31192,-33.998497,640.08 18.310453,-34.003784,640.08 18.310318,-34.004967,640.08 18.309332,-34.015778,701.04 18.309219,-34.017014,701.04 18.309219,-34.021957,731.52 18.309277,-34.023285,731.52 18.30978,-34.029419,762 18.310375,-34.030617,762 18.314209,-34.032944,792.48 18.315125,-34.032852,792.48 18.318386,-34.030617,792.48 18.318974,-34.029694,762 18.321047,-34.025436,762 18.321476,-34.024517,731.52 18.323458,-34.019989,701.04 18.323906,-34.018845,701.04 18.327717,-34.009735,640.08 18.328951,-34.006622,640.08 18.336926,-33.986626,579.12 18.338871,-33.981785,548.64 18.346825,-33.962929,548.64 18.348402,-33.958511,548.64 18.352718,-33.948498,548.64 18.353233,-33.947521,548.64 18.356953,-33.939606,518.16 18.358269,-33.936535,518.16 18.363762,-33.924992,518.16 18.365593,-33.921825,518.16 18.367939,-33.917915,518.16 18.368626,-33.916935,487.68 18.371086,-33.913303,487.68 18.371775,-33.912369,487.68 18.374863,-33.908512,487.68 18.375549,-33.907719,487.68 18.378639,-33.904552,457.2 18.379498,-33.903667,457.2 18.382702,-33.900597,457.2 18.383883,-33.899551,457.2 18.387852,-33.896313,426.72 18.389111,-33.895428,426.72 18.393747,-33.892639,426.72 18.394775,-33.892078,426.72 18.399801,-33.889801,426.72 18.400841,-33.889423,396.24 18.406416,-33.887558,396.24 18.407536,-33.887238,396.24 18.412457,-33.88612,396.24 18.413815,-33.885818,396.24 18.418579,-33.884995,365.76 18.419813,-33.884766,365.76 18.424416,-33.884441,365.76 18.425697,-33.884537,365.76 18.429733,-33.885544,335.28 18.430595,-33.885979,335.28 18.433937,-33.889252,304.8 18.4342,-33.889935,304.8 18.4342,-33.892963,243.84 18.4338,-33.893894,213.36 18.431696,-33.896439,152.4 18.431023,-33.896988,152.4 18.428669,-33.898727,91.44 18.428164,-33.899048,60.96 18.426987,-33.900833,30.48 18.426876,-33.901062,30.48 18.429737,-33.900784,60.96 18.43063,-33.900833,60.96 18.434143,-33.900875,121.92 18.435116,-33.900829,121.92 18.440094,-33.8992,152.4 18.440952,-33.898502,182.88 18.442554,-33.895195,213.36 18.442783,-33.894032,213.36 18.442289,-33.890121,213.36 18.442009,-33.888931,243.84 18.439922,-33.884815,243.84 18.43935,-33.884071,243.84 18.434601,-33.880394,274.32 18.433657,-33.879868,274.32 18.427715,-33.87767,304.8 18.426647,-33.87746,304.8 18.421158,-33.877075,335.28 18.419308,-33.877121,335.28 18.413887,-33.877834,396.24 18.412743,-33.878017,396.24 18.407986,-33.879135,426.72 18.406849,-33.879463,426.72 18.401585,-33.881138,457.2 18.400269,-33.881649,487.68 18.394981,-33.883804,487.68 18.393412,-33.884537,518.16 18.388824,-33.887051,518.16 18.387852,-33.887703,518.16 18.383434,-33.890808,548.64 18.382473,-33.891567,548.64 18.378222,-33.895111,548.64 18.376652,-33.89653,548.64 18.372503,-33.900604,579.12 18.371775,-33.901428,579.12 18.367538,-33.906231,609.6 18.366394,-33.907654,609.6 18.362638,-33.912735,640.08 18.362022,-33.913605,640.08 18.358784,-33.918472,640.08 18.357819,-33.919968,640.08 18.355007,-33.924618,640.08 18.353895,-33.926605,640.08 18.351036,-33.931824,670.56 18.350307,-33.933243,670.56 18.344135,-33.946171,640.08 18.342291,-33.950089,640.08 18.340891,-33.968491,670.56 18.343792,-33.968704,670.56 18.349628,-33.964092,670.56 18.350716,-33.960976,670.56 18.352032,-33.956924,670.56 18.352318,-33.955994,670.56 18.353462,-33.952271,670.56 18.354378,-33.949337,640.08 18.359127,-33.936115,579.12 18.360615,-33.932392,579.12 18.365273,-33.921982,548.64 18.365833,-33.920883,548.64 18.368132,-33.916626,518.16 18.368912,-33.915352,518.16 18.371607,-33.911316,487.68 18.372288,-33.910419,487.68 18.375664,-33.906414,457.2 18.376427,-33.90564,457.2 18.380127,-33.901947,457.2 18.381472,-33.900696,457.2 18.385284,-33.897446,426.72 18.386364,-33.896591,426.72 18.391281,-33.893738,396.24 18.392601,-33.893055,396.24 18.397865,-33.890495,396.24 18.399239,-33.889935,396.24 18.404217,-33.888027,365.76 18.405304,-33.887653,365.76 18.411461,-33.885956,365.76 18.412685,-33.8857,335.28 18.418007,-33.884674,335.28 18.41938,-33.884491,335.28 18.424873,-33.883839,304.8 18.425961,-33.883793,304.8 18.430309,-33.885048,274.32 18.430996,-33.885838,274.32 18.431911,-33.889797,213.36 18.431854,-33.890728,213.36 18.431282,-33.894173,152.4 18.430967,-33.894974,152.4 18.429173,-33.898041,91.44 18.428707,-33.898594,60.96 18.427048,-33.900505,30.48 18.426987,-33.900879,30.48 18.433266,-33.901886,121.92 18.433857,-33.901947,121.92 18.437357,-33.90065,182.88 18.438091,-33.899853,182.88 18.439522,-33.896641,213.36 18.439636,-33.895943,213.36 18.439655,-33.892365,243.84 18.439407,-33.891239,243.84 18.437918,-33.887604,243.84 18.437357,-33.886597,274.32 18.435116,-33.882858,274.32 18.434372,-33.881695,274.32 18.431864,-33.878265,304.8 18.43111,-33.877319,304.8 18.427334,-33.873642,304.8 18.426418,-33.872852,304.8 18.421999,-33.869888,335.28 18.420296,-33.868942,335.28 18.415329,-33.866547,396.24 18.414116,-33.866146,396.24 18.4072,-33.866867,426.72 18.405476,-33.867546,457.2 18.400475,-33.86998,487.68 18.399521,-33.870529,487.68 18.394375,-33.87392,518.16 18.393345,-33.874668,518.16 18.38932,-33.877808,548.64 18.388081,-33.878811,548.64 18.383846,-33.882675,579.12 18.383041,-33.883484,579.12 18.378868,-33.887749,609.6 18.377895,-33.888821,609.6 18.373432,-33.89394,609.6 18.372503,-33.895111,609.6 18.368797,-33.899853,640.08 18.367825,-33.901154,640.08 18.363367,-33.907745,640.08 18.362675,-33.908836,640.08 18.359163,-33.914703,640.08 18.357986,-33.916672,640.08 18.355352,-33.92157,670.56 18.354607,-33.922943,670.56 18.35014,-33.932053,670.56 18.348083,-33.936443,670.56 18.340273,-33.954163,670.56 18.337154,-33.961067,701.04 18.3382,-33.97229,731.52 18.340416,-33.971264,701.04 18.346195,-33.961861,640.08 18.346327,-33.961624,640.08 18.353109,-33.948807,609.6 18.354549,-33.945938,609.6 18.361349,-33.933609,579.12 18.362961,-33.930435,579.12 18.366787,-33.922623,579.12 18.368692,-33.919235,579.12 18.371716,-33.914795,579.12 18.372517,-33.913677,548.64 18.375643,-33.909668,548.64 18.376427,-33.908752,548.64 18.38007,-33.904648,548.64 18.380743,-33.903946,548.64 18.38405,-33.900513,518.16 18.384933,-33.899666,518.16 18.389225,-33.896126,518.16 18.390104,-33.895432,518.16 18.394308,-33.892914,518.16 18.39571,-33.892181,487.68 18.401527,-33.889286,487.68 18.402615,-33.888771,487.68 18.408451,-33.886353,457.2 18.410059,-33.885773,457.2 18.416,-33.883942,426.72 18.417345,-33.883575,426.72 18.423063,-33.882477,365.76 18.424465,-33.882339,365.76 18.429852,-33.883511,365.76 18.430595,-33.884117,365.76 18.432312,-33.888016,335.28 18.432312,-33.889206,304.8 18.431751,-33.89328,213.36 18.431396,-33.894314,213.36 18.42738,-33.89978,60.96 18.426991,-33.900272,30.48
        </coordinates>
      </LineString>
    </Placemark>
  </Document>
</kml>