<?xml version="1.0" encoding="UTF-8"?>
<kml xmlns="http://www.opengis.net/kml/2.2">
  <Document>
    <name>-/ZTRNW - Optimised</name>
    <description><![CDATA[Optimised flight path with 1098 points (decimated from 5489 original points). Source format: Standard KML]]></description>
    
    <Style id="flightPath">
      <LineStyle>
        <color>ff0000ff</color>
        <width>3</width>
      </LineStyle>
    </Style>
    
    <Placemark>
      <name>Flight Path</name>
      <description><![CDATA[<div style="width:220px; text-align:center;">
<div style="width:210px; text-align:center;">
<div style=" background: #000; color: #fff; font-size: 14px; text-align:left; border: 1px solid #000; padding: 2px 6px; text-shadow: 0 1px 0 #000; box-shadow: 0 1px 3px rgba(0,0,0,0.6); background: -webkit-gradient(linear, left top, left bottom, color-stop(0%,#808080), color-stop(2%,#303030), color-stop(100%,#0c0c0c));"><span style="font-size: 14px; font-weight: bold;"><a href="javascript:void(0);" style="color: #fff; cursor: pointer;text-decoration: none;">-</a></span> / ZTRNW<br/>Private owner</div>

<div style="border-top: 1px solid #005c90; color: #fff; padding-bottom: 5px; box-shadow: 0 0 1px #9BE3F6 inset, 0 1px 0 #9BE3F6 inset, 0 -1px 3px rgba(0,0,0,0.4); background:rgba(43,114,173,1); background: -webkit-gradient(linear, left top, left bottom, color-stop(0%,rgba(92,184,229,1)), color-stop(100%,rgba(43,114,173,1)));">
<a style="text-decoration: none; color: rgb(255, 255, 255); font-size: 12px; width:77px; display: inline-block;" title=" Airport" href="javascript:void(0);/departures"><h3 style="padding: 0px; margin: 10px 0px 0px; font-size: 16px; ">?</h3></a>
<span style="background: url(https://www.flightradar24.com/static/images/userUI_sprite.png?14) no-repeat scroll 0 -464px rgba(0, 0, 0, 0); border: medium none; display: inline-block; height: 16px; width: 45px;"></span>
<a style="text-decoration: none; color: rgb(255, 255, 255); font-size: 12px; width:77px; display: inline-block;" title=" Airport" href="javascript:void(0);/arrivals"><h3 style="padding: 0px; margin: 10px 0px 0px; font-size: 16px;">?</h3></a>
<div style=" margin-top:10px;">
<div style="display: inline-block; font-size: 12px; padding: 0 5px;">
<div>
<span style="color: #c1eaff;" title="Actual Time of Departure">ATD </span>
<span title="2025-09-20 06:48">06:48</span> <span title="Coordinated Universal Time">UTC</span>
</div>
</div>
<div style="display: inline-block; font-size: 12px; padding: 0 5px;">
<div>
<span style="color: #c1eaff;" title="Estimated Time of Arrival">ETA </span>
<span title="2025-09-20 07:32">07:32</span> <span title="Coordinated Universal Time">UTC</span>
</div>
</div>
</div>
<br style="clear: both;"/>
</div>

<div style="display: block;">
<table style="border-collapse: collapse; width: 100%;">
<tr style="border-right: 1px solid #dadada; ">
<td style="background: none repeat scroll 0 0 #dadada; padding: 0; width: 31px;">
<span style="background: url(https://www.flightradar24.com/static/images/userUI_sprite.png?14) no-repeat scroll -208px -464px rgba(0, 0, 0, 0); height: 26px; margin: 8px 0 0 4px; width: 23px; display: block;"></span>
</td>
<td colspan="2" style="border-bottom: 1px solid #dadada; border-left: 1px solid #dadada; color: #666; line-height: 1.1em; padding: 3px 6px; vertical-align: top; font-size: 14px;">
Aircraft<span style="float: right; font-size: 12px;">(EC20)</span><br>
<span style="color: #333; font-size: 16px; font-weight: bold; line-height: 1.3em;">Airbus Helicopters H120</span>
</td>
</tr>
<tr style="border-right: 1px solid #dadada; ">
<td style="background: none repeat scroll 0 0 #dadada; padding: 0; width: 31px;">
<td colspan="2" style="border-bottom: 1px solid #dadada; border-left: 1px solid #dadada; color: #666; line-height: 1.1em; padding: 3px 6px; vertical-align: top; font-size: 14px;">
Registration<br>
<span style="color: #333; font-size: 16px; font-weight: bold; line-height: 1.3em;"><a href="https://www.flightradar24.com/reg/zt-rnw" style="text-decoration: none; color: #333;">ZT-RNW</a></span>
</td>
</tr>
</table>
</div>

</div>
</div>]]></description>
      <styleUrl>#flightPath</styleUrl>
      <LineString>
        <extrude>1</extrude>
        <tessellate>1</tessellate>
        <altitudeMode>absolute</altitudeMode>
        <coordinates>
          18.429451,-33.896454,45.72 18.433825,-33.887787,144.78 18.433628,-33.884441,167.64 18.430014,-33.881607,175.26 18.425102,-33.880486,190.5 18.420296,-33.880581,198.12 18.414745,-33.881416,198.12 18.40933,-33.882797,198.12 18.403276,-33.884811,175.26 18.397671,-33.887054,182.88 18.392796,-33.889435,182.88 18.38747,-33.892868,175.26 18.382761,-33.896255,198.12 18.378782,-33.899826,213.36 18.375362,-33.903442,220.98 18.372002,-33.907394,220.98 18.368692,-33.911728,228.6 18.365665,-33.916306,220.98 18.357538,-33.932327,205.74 18.360329,-33.939281,213.36 18.362617,-33.92918,251.46 18.357929,-33.929214,243.84 18.351002,-33.943565,236.22 18.339041,-33.967484,228.6 18.337727,-33.981644,228.6 18.331776,-33.997936,243.84 18.323793,-34.010376,259.08 18.306473,-34.031982,228.6 18.322113,-34.065125,251.46 18.334332,-34.072632,266.7 18.35367,-34.09552,289.56 18.355856,-34.103714,281.94 18.355127,-34.110443,289.56 18.353838,-34.11644,281.94 18.350945,-34.121861,259.08 18.332033,-34.135849,243.84 18.318787,-34.145786,259.08 18.368637,-34.204514,289.56 18.374969,-34.216827,259.08 18.377548,-34.235458,251.46 18.400755,-34.299133,365.76 18.411026,-34.314121,373.38 18.416119,-34.319008,373.38 18.421726,-34.323757,373.38 18.428078,-34.328831,373.38 18.444042,-34.340607,365.76 18.461094,-34.353737,365.76 18.46628,-34.359009,381 18.475685,-34.364395,381 18.484442,-34.366013,358.14 18.492512,-34.366745,358.14 18.500809,-34.367203,358.14 18.508152,-34.366287,373.38 18.512592,-34.363373,388.62 18.512306,-34.360348,403.86 18.507479,-34.361343,350.52 18.501986,-34.363083,327.66 18.495369,-34.364349,297.18 18.489487,-34.364731,297.18 18.484039,-34.364491,281.94 18.478163,-34.363632,274.32 18.472824,-34.362396,266.7 18.467962,-34.360291,281.94 18.464094,-34.362122,350.52 18.469252,-34.365372,335.28 18.47683,-34.365234,312.42 18.484783,-34.364395,312.42 18.492792,-34.363358,320.04 18.500023,-34.360565,327.66 18.502769,-34.355667,350.52 18.502882,-34.350586,358.14 18.502041,-34.345505,365.76 18.501778,-34.340004,373.38 18.500862,-34.326874,373.38 18.49966,-34.309559,365.76 18.499407,-34.297302,365.76 18.498903,-34.284622,365.76 18.497772,-34.274876,358.14 18.495541,-34.258675,350.52 18.493137,-34.246479,335.28 18.491821,-34.24136,350.52 18.48842,-34.231339,342.9 18.486122,-34.226257,335.28 18.483868,-34.221573,342.9 18.476873,-34.207169,327.66 18.474575,-34.200211,312.42 18.474575,-34.195221,320.04 18.474632,-34.189728,312.42 18.474575,-34.179657,304.8 18.475513,-34.162312,274.32 18.477827,-34.144089,312.42 18.480125,-34.127106,365.76 18.480967,-34.117355,365.76 18.480909,-34.111267,388.62 18.480629,-34.10614,403.86 18.479845,-34.094696,411.48 18.479677,-34.078949,396.24 18.480349,-34.073181,381 18.481464,-34.067814,381 18.482759,-34.062515,381 18.484385,-34.051712,381 18.484783,-34.046539,373.38 18.485584,-34.034992,388.62 18.486067,-34.016098,373.38 18.486328,-34.002731,373.38 18.486214,-33.994213,381 18.487129,-33.986347,365.76 18.488102,-33.974056,342.9 18.48786,-33.966476,327.66 18.487186,-33.96172,304.8 18.486067,-33.957047,281.94 18.484722,-33.952057,259.08 18.481638,-33.940201,220.98 18.480492,-33.933136,220.98 18.47777,-33.927429,205.74 18.47374,-33.923313,190.5 18.469419,-33.919922,198.12 18.465496,-33.916901,198.12 18.452715,-33.906372,175.26 18.4461,-33.90033,182.88 18.440552,-33.897663,160.02 18.436123,-33.898315,114.3 18.432367,-33.899139,53.34 18.42979,-33.89978,15.24 18.428078,-33.900318,0 18.426991,-33.901016,0 18.427547,-33.899506,0 18.428764,-33.897339,15.24 18.430309,-33.893986,53.34 18.431396,-33.890495,91.44 18.432705,-33.885864,144.78 18.430595,-33.881927,198.12 18.426764,-33.879135,220.98 18.421612,-33.87746,251.46 18.416061,-33.877415,259.08 18.409723,-33.878082,266.7 18.403587,-33.879414,281.94 18.398064,-33.881516,289.56 18.392626,-33.884262,297.18 18.38728,-33.887703,297.18 18.38213,-33.891613,304.8 18.377661,-33.895569,320.04 18.37326,-33.89962,327.66 18.366909,-33.905857,342.9 18.362471,-33.91127,335.28 18.35947,-33.916656,335.28 18.357426,-33.921982,320.04 18.355127,-33.928162,312.42 18.348457,-33.945557,274.32 18.335552,-33.974197,213.36 18.321419,-34.002918,220.98 18.30986,-34.025078,228.6 18.321133,-34.06218,251.46 18.349857,-34.075119,601.98 18.346653,-34.073444,617.22 18.339901,-34.071117,548.64 18.333321,-34.066975,388.62 18.318729,-34.017258,243.84 18.332371,-33.998337,236.22 18.347282,-33.973682,236.22 18.356438,-33.955902,228.6 18.36525,-33.931599,243.84 18.371887,-33.91832,274.32 18.37492,-33.913166,289.56 18.378389,-33.907974,297.18 18.38253,-33.902969,297.18 18.387165,-33.898224,304.8 18.392403,-33.893921,312.42 18.398457,-33.89035,312.42 18.404789,-33.887608,251.46 18.41177,-33.885326,312.42 18.419037,-33.88356,304.8 18.426651,-33.882935,312.42 18.433994,-33.883987,304.8 18.440496,-33.886871,266.7 18.444923,-33.891312,236.22 18.443756,-33.895245,205.74 18.439751,-33.896919,167.64 18.435574,-33.898174,114.3 18.432026,-33.899155,60.96 18.427715,-33.900421,0 18.428078,-33.899105,0 18.428949,-33.897583,7.62 18.429733,-33.896255,30.48 18.432199,-33.891312,83.82 18.433096,-33.887878,121.92 18.431808,-33.883804,144.78 18.428593,-33.880486,167.64 18.425026,-33.877899,190.5 18.42041,-33.876019,213.36 18.414688,-33.875923,236.22 18.409275,-33.876984,274.32 18.404846,-33.878403,320.04 18.398512,-33.880325,388.62 18.391685,-33.882999,434.34 18.387358,-33.885361,480.06 18.383961,-33.887703,548.64 18.380756,-33.890495,571.5 18.377436,-33.893509,571.5 18.372503,-33.898178,556.26 18.366058,-33.904953,518.16 18.363018,-33.909302,472.44 18.360453,-33.914246,411.48 18.358042,-33.919739,350.52 18.356209,-33.924664,297.18 18.352489,-33.936256,220.98 18.342739,-33.964508,167.64 18.35146,-33.965443,190.5 18.357124,-33.950127,205.74 18.366339,-33.926102,312.42 18.372503,-33.913101,464.82 18.376707,-33.906418,518.16 18.379791,-33.902527,548.64 18.383274,-33.898548,556.26 18.387583,-33.894699,594.36 18.392429,-33.89175,624.84 18.398119,-33.89035,655.32 18.403669,-33.886826,624.84 18.40519,-33.882256,563.88 18.407593,-33.87822,502.92 18.411516,-33.874832,426.72 18.417683,-33.873322,350.52 18.425474,-33.876205,274.32 18.430182,-33.880646,228.6 18.434658,-33.885559,190.5 18.438892,-33.890308,160.02 18.441639,-33.895245,144.78 18.439487,-33.89827,114.3 18.435402,-33.898872,68.58 18.432144,-33.899368,7.62 18.429909,-33.899807,7.62 18.428389,-33.900238,0 18.42766,-33.899734,0 18.428593,-33.898224,15.24 18.430069,-33.896393,30.48 18.432713,-33.893333,68.58 18.437805,-33.88612,144.78 18.436628,-33.882568,190.5 18.433113,-33.880253,228.6 18.428949,-33.878815,274.32 18.424587,-33.878113,320.04 18.419924,-33.878174,358.14 18.415159,-33.878815,396.24 18.410675,-33.879776,434.34 18.406248,-33.881012,480.06 18.401756,-33.882767,510.54 18.397007,-33.884769,525.78 18.392738,-33.88678,533.4 18.387852,-33.889565,548.64 18.383322,-33.892502,563.88 18.379005,-33.895798,579.12 18.375195,-33.899323,632.46 18.371944,-33.902969,662.94 18.36874,-33.907162,693.42 18.365833,-33.91127,708.66 18.35849,-33.922211,693.42 18.355923,-33.927036,685.8 18.353502,-33.932465,678.18 18.351149,-33.938049,670.56 18.344936,-33.953201,640.08 18.333996,-33.973434,632.46 18.318386,-33.998821,556.26 18.302494,-34.028091,480.06 18.300196,-34.035873,434.34 18.304939,-34.048306,396.24 18.313032,-34.057068,388.62 18.32172,-34.064392,381 18.330072,-34.068878,388.62 18.349411,-34.091537,350.52 18.348513,-34.09877,358.14 18.348083,-34.105331,358.14 18.345486,-34.115891,342.9 18.341339,-34.12175,320.04 18.324394,-34.13303,289.56 18.315525,-34.141319,289.56 18.413601,-34.32613,220.98 18.424015,-34.333252,236.22 18.430538,-34.336884,236.22 18.441225,-34.342667,251.46 18.448563,-34.348148,259.08 18.453884,-34.353363,266.7 18.458994,-34.358459,281.94 18.467064,-34.36528,320.04 18.473396,-34.368259,342.9 18.479633,-34.370029,358.14 18.485756,-34.37096,350.52 18.491879,-34.371658,335.28 18.498343,-34.371323,327.66 18.504004,-34.369034,335.28 18.508207,-34.366058,358.14 18.510933,-34.362209,388.62 18.510841,-34.358688,419.1 18.508039,-34.356125,419.1 18.504004,-34.356216,419.1 18.499687,-34.358139,419.1 18.49509,-34.360703,388.62 18.493017,-34.365005,381 18.496996,-34.368988,381 18.503094,-34.367794,373.38 18.505325,-34.363419,358.14 18.504396,-34.358826,365.76 18.502121,-34.354156,373.38 18.49926,-34.349777,373.38 18.495764,-34.345779,381 18.491615,-34.341751,381 18.486683,-34.336258,388.62 18.484161,-34.332092,403.86 18.483639,-34.326923,411.48 18.485184,-34.321613,411.48 18.487186,-34.316353,411.48 18.489475,-34.311001,403.86 18.493073,-34.300415,388.62 18.495197,-34.291355,381 18.498566,-34.277573,381 18.499603,-34.270222,381 18.499687,-34.26416,381 18.499519,-34.258942,388.62 18.498974,-34.253834,365.76 18.498005,-34.248505,365.76 18.496971,-34.243221,365.76 18.49453,-34.232391,342.9 18.492737,-34.227348,335.28 18.490677,-34.222599,320.04 18.488085,-34.217834,312.42 18.485126,-34.213333,297.18 18.481922,-34.209377,297.18 18.477882,-34.205475,259.08 18.473623,-34.20195,274.32 18.467216,-34.196621,251.46 18.462132,-34.193344,236.22 18.456001,-34.191502,236.22 18.450081,-34.193161,236.22 18.449821,-34.197971,289.56 18.455854,-34.197693,304.8 18.455519,-34.192932,281.94 18.451881,-34.189034,274.32 18.448048,-34.185032,266.7 18.443691,-34.181488,259.08 18.439064,-34.175533,236.22 18.440094,-34.169716,213.36 18.442612,-34.16441,220.98 18.445702,-34.159286,220.98 18.450417,-34.15123,243.84 18.45377,-34.144203,236.22 18.455944,-34.13871,228.6 18.461323,-34.128983,220.98 18.464813,-34.123955,205.74 18.468578,-34.11882,182.88 18.473904,-34.114563,167.64 18.479004,-34.107708,198.12 18.479233,-34.102493,213.36 18.479805,-34.097607,220.98 18.480181,-34.08847,228.6 18.480068,-34.08165,236.22 18.479958,-34.066086,236.22 18.47929,-34.059944,243.84 18.478779,-34.050156,259.08 18.47934,-34.044479,259.08 18.480406,-34.039078,259.08 18.48147,-34.031891,266.7 18.481865,-34.026382,289.56 18.482592,-34.016647,297.18 18.485058,-33.996277,304.8 18.48657,-33.987808,320.04 18.490215,-33.986664,304.8 18.493633,-33.989594,266.7 18.495539,-33.993759,236.22 18.500004,-33.99477,213.36 18.505516,-33.993805,228.6 18.51162,-33.992771,220.98 18.521633,-33.991421,213.36 18.54184,-33.98909,220.98 18.565941,-33.98616,228.6 18.577377,-33.985565,220.98 18.584776,-33.98703,213.36 18.59223,-33.989182,205.74 18.602655,-33.991791,190.5 18.610615,-33.991608,190.5 18.61751,-33.990463,198.12 18.624741,-33.989044,198.12 18.634987,-33.986858,205.74 18.645229,-33.984112,213.36 18.670578,-33.977592,213.36 18.684998,-33.974754,251.46 18.708858,-33.969681,320.04 18.733978,-33.963348,350.52 18.758583,-33.957111,312.42 18.784378,-33.950272,312.42 18.808481,-33.943634,350.52 18.825302,-33.939838,365.76 18.832455,-33.939423,373.38 18.839951,-33.939281,403.86 18.850307,-33.938583,419.1 18.857304,-33.937683,426.72 18.864498,-33.936302,419.1 18.871307,-33.934345,426.72 18.877888,-33.932297,441.96 18.897942,-33.926147,495.3 18.90876,-33.923721,541.02 18.918737,-33.92038,579.12 18.926977,-33.917725,571.5 18.941832,-33.91301,533.4 18.947493,-33.909943,518.16 18.951988,-33.905903,518.16 18.956068,-33.900604,495.3 18.966293,-33.901108,579.12 18.961,-33.903397,525.78 18.956125,-33.907654,510.54 18.951588,-33.911491,533.4 18.948895,-33.915894,571.5 18.950787,-33.916378,594.36 18.945082,-33.915207,510.54 18.939457,-33.91703,510.54 18.933334,-33.918007,502.92 18.924809,-33.919403,510.54 18.915262,-33.921478,487.68 18.909245,-33.923359,487.68 18.903522,-33.925316,502.92 18.885723,-33.930771,472.44 18.869019,-33.935371,464.82 18.859602,-33.937363,472.44 18.843727,-33.941376,510.54 18.838022,-33.943314,502.92 18.826332,-33.946262,495.3 18.813229,-33.94915,403.86 18.799667,-33.951618,388.62 18.793888,-33.952271,388.62 18.774261,-33.954922,381 18.766779,-33.954849,373.38 18.765377,-33.950867,396.24 18.770983,-33.952286,350.52 18.768883,-33.957157,304.8 18.763584,-33.959015,320.04 18.758427,-33.960571,327.66 18.750019,-33.963409,335.28 18.745079,-33.962837,350.52 18.740433,-33.960388,327.66 18.736382,-33.956505,289.56 18.732979,-33.952698,274.32 18.729973,-33.948406,266.7 18.727037,-33.944229,266.7 18.722328,-33.939606,274.32 18.717003,-33.938736,274.32 18.711399,-33.939514,266.7 18.705368,-33.940212,266.7 18.689034,-33.941528,266.7 18.672924,-33.943283,289.56 18.652431,-33.946289,281.94 18.63905,-33.948963,259.08 18.633148,-33.950546,259.08 18.627834,-33.952175,251.46 18.623676,-33.955856,259.08 18.624685,-33.961304,281.94 18.625189,-33.966522,289.56 18.624966,-33.97229,281.94 18.623486,-33.978107,266.7 18.620592,-33.982956,259.08 18.61599,-33.986763,236.22 18.610325,-33.989044,220.98 18.604506,-33.989685,213.36 18.599224,-33.987881,205.74 18.593967,-33.985748,213.36 18.589153,-33.983459,220.98 18.582001,-33.979969,228.6 18.563862,-33.971729,220.98 18.547052,-33.964188,220.98 18.529701,-33.956413,205.74 18.514261,-33.949356,213.36 18.509665,-33.946838,213.36 18.505236,-33.944,198.12 18.500862,-33.940865,198.12 18.496571,-33.937607,182.88 18.488731,-33.931461,190.5 18.474464,-33.920151,167.64 18.461067,-33.910675,160.02 18.45462,-33.906876,106.68 18.449993,-33.904552,152.4 18.444811,-33.90303,137.16 18.439178,-33.902084,99.06 18.435059,-33.901611,68.58 18.428331,-33.900513,0 18.42762,-33.899479,0 18.428501,-33.897858,15.24 18.430367,-33.895569,68.58 18.432873,-33.892685,106.68 18.436068,-33.88829,182.88 18.437176,-33.884537,220.98 18.435732,-33.881195,251.46 18.432941,-33.878113,289.56 18.428936,-33.875412,327.66 18.424688,-33.873825,365.76 18.419701,-33.872818,411.48 18.415031,-33.87262,449.58 18.410172,-33.872818,480.06 18.405533,-33.873409,518.16 18.400612,-33.874481,556.26 18.396034,-33.876156,571.5 18.391001,-33.878723,586.74 18.386684,-33.881287,632.46 18.382706,-33.884079,655.32 18.378754,-33.887238,685.8 18.37492,-33.890682,708.66 18.371103,-33.894562,716.28 18.36729,-33.898773,723.9 18.363815,-33.903122,731.52 18.360453,-33.907608,746.76 18.357706,-33.911636,807.72 18.355295,-33.915573,861.06 18.352942,-33.919876,906.78 18.351231,-33.923965,982.98 18.349743,-33.927876,1005.84 18.347282,-33.934441,1013.46 18.339993,-33.95224,1013.46 18.332481,-33.967987,982.98 18.328503,-33.974258,944.88 18.322964,-33.983135,906.78 18.310661,-34.002872,838.2 18.302422,-34.014462,807.72 18.297617,-34.022415,815.34 18.297157,-34.028244,807.72 18.30283,-34.032074,792.48 18.309689,-34.029964,762 18.313873,-34.024704,746.76 18.317127,-34.018887,731.52 18.320486,-34.01207,708.66 18.324451,-34.003616,678.18 18.337416,-33.976547,601.98 18.350773,-33.951057,579.12 18.3605,-33.932999,579.12 18.371601,-33.912979,556.26 18.376751,-33.905113,548.64 18.383045,-33.896267,541.02 18.38932,-33.889114,541.02 18.395805,-33.884674,472.44 18.402267,-33.881607,548.64 18.409538,-33.879322,548.64 18.417122,-33.878174,480.06 18.424702,-33.878716,480.06 18.431023,-33.882019,556.26 18.436947,-33.885654,556.26 18.446102,-33.889702,548.64 18.453083,-33.893147,525.78 18.452995,-33.898132,449.58 18.448847,-33.899826,411.48 18.443584,-33.899757,365.76 18.440781,-33.89962,320.04 18.433456,-33.899338,137.16 18.430407,-33.899368,22.86 18.428078,-33.899712,0 18.429451,-33.896454,45.72 18.430538,-33.894451,60.96 18.433825,-33.887787,144.78 18.433994,-33.887192,152.4 18.433628,-33.884441,167.64 18.433041,-33.883759,167.64 18.430014,-33.881607,175.26 18.42905,-33.881229,182.88 18.425102,-33.880486,190.5 18.424185,-33.880463,190.5 18.420296,-33.880581,198.12 18.41914,-33.880692,198.12 18.414745,-33.881416,198.12 18.413589,-33.881653,198.12 18.40933,-33.882797,198.12 18.408051,-33.883232,198.12 18.403276,-33.884811,175.26 18.402155,-33.885269,175.26 18.397671,-33.887054,182.88 18.396721,-33.88747,175.26 18.392796,-33.889435,182.88 18.3918,-33.889984,182.88 18.38747,-33.892868,175.26 18.386421,-33.893612,182.88 18.382761,-33.896255,198.12 18.3822,-33.896713,198.12 18.378782,-33.899826,213.36 18.378296,-33.900318,213.36 18.375362,-33.903442,220.98 18.374578,-33.904358,220.98 18.372002,-33.907394,220.98 18.371201,-33.908371,220.98 18.368692,-33.911728,228.6 18.368019,-33.912689,228.6 18.365665,-33.916306,220.98 18.363476,-33.920288,213.36 18.357538,-33.932327,205.74 18.355352,-33.937134,198.12 18.360329,-33.939281,213.36 18.361187,-33.937187,220.98 18.362617,-33.92918,251.46 18.362078,-33.928528,251.46 18.357929,-33.929214,243.84 18.35598,-33.933044,236.22 18.351002,-33.943565,236.22 18.34774,-33.950176,236.22 18.339041,-33.967484,228.6 18.33848,-33.97023,228.6 18.337727,-33.981644,228.6 18.336411,-33.987137,236.22 18.331776,-33.997936,243.84 18.330402,-34.000313,243.84 18.323793,-34.010376,259.08 18.322056,-34.012665,259.08 18.306473,-34.031982,228.6 18.312136,-34.054962,243.84 18.322113,-34.065125,251.46 18.322334,-34.0653,259.08 18.334332,-34.072632,266.7 18.335381,-34.073257,266.7 18.35367,-34.09552,289.56 18.355072,-34.099045,289.56 18.355856,-34.103714,281.94 18.355801,-34.105042,289.56 18.355127,-34.110443,289.56 18.35495,-34.111664,297.18 18.353838,-34.11644,281.94 18.353558,-34.117264,274.32 18.350945,-34.121861,259.08 18.350029,-34.122978,259.08 18.332033,-34.135849,243.84 18.322561,-34.140884,259.08 18.318787,-34.145786,259.08 18.35692,-34.189041,297.18 18.368637,-34.204514,289.56 18.369598,-34.206024,281.94 18.374969,-34.216827,259.08 18.375418,-34.218246,259.08 18.377548,-34.235458,251.46 18.377323,-34.237122,251.46 18.400755,-34.299133,365.76 18.403669,-34.30394,365.76 18.411026,-34.314121,373.38 18.411964,-34.315063,373.38 18.416119,-34.319008,373.38 18.417345,-34.320053,365.76 18.421726,-34.323757,373.38 18.423042,-34.324825,373.38 18.428078,-34.328831,373.38 18.429337,-34.329807,373.38 18.444042,-34.340607,365.76 18.447933,-34.343353,365.76 18.461094,-34.353737,365.76 18.462009,-34.354668,373.38 18.46628,-34.359009,381 18.469849,-34.361881,388.62 18.475685,-34.364395,381 18.477266,-34.364868,373.38 18.484442,-34.366013,358.14 18.486042,-34.366165,358.14 18.492512,-34.366745,358.14 18.494249,-34.366882,358.14 18.500809,-34.367203,358.14 18.502714,-34.367157,358.14 18.508152,-34.366287,373.38 18.509609,-34.365692,373.38 18.512592,-34.363373,388.62 18.512936,-34.362862,396.24 18.512306,-34.360348,403.86 18.511347,-34.360199,396.24 18.507479,-34.361343,350.52 18.506355,-34.361744,350.52 18.501986,-34.363083,327.66 18.500862,-34.363327,312.42 18.495369,-34.364349,297.18 18.49411,-34.364491,297.18 18.489487,-34.364731,297.18 18.48842,-34.364731,297.18 18.484039,-34.364491,281.94 18.482494,-34.364349,281.94 18.478163,-34.363632,274.32 18.477154,-34.363449,274.32 18.472824,-34.362396,266.7 18.471941,-34.362122,266.7 18.467962,-34.360291,281.94 18.466988,-34.359882,289.56 18.464094,-34.362122,350.52 18.464598,-34.36322,350.52 18.469252,-34.365372,335.28 18.470596,-34.365463,335.28 18.47683,-34.365234,312.42 18.478443,-34.365097,312.42 18.484783,-34.364395,312.42 18.486235,-34.364182,312.42 18.492792,-34.363358,320.04 18.494419,-34.363037,320.04 18.500023,-34.360565,327.66 18.500696,-34.359879,335.28 18.502769,-34.355667,350.52 18.502922,-34.354668,350.52 18.502882,-34.350586,358.14 18.502693,-34.349453,358.14 18.502041,-34.345505,365.76 18.501949,-34.344379,365.76 18.501778,-34.340004,373.38 18.501606,-34.33572,373.38 18.500862,-34.326874,373.38 18.500519,-34.322918,373.38 18.49966,-34.309559,365.76 18.499489,-34.30616,365.76 18.499407,-34.297302,365.76 18.499464,-34.293915,373.38 18.498903,-34.284622,365.76 18.498802,-34.283581,365.76 18.497772,-34.274876,358.14 18.497276,-34.271484,350.52 18.495541,-34.258675,350.52 18.49514,-34.255558,358.14 18.493137,-34.246479,335.28 18.492905,-34.245392,342.9 18.491821,-34.24136,350.52 18.491478,-34.240196,350.52 18.48842,-34.231339,342.9 18.487988,-34.230278,342.9 18.486122,-34.226257,335.28 18.485674,-34.225204,335.28 18.483868,-34.221573,342.9 18.483376,-34.220535,342.9 18.476873,-34.207169,327.66 18.475697,-34.20433,320.04 18.474575,-34.200211,312.42 18.474483,-34.199184,312.42 18.474575,-34.195221,320.04 18.474632,-34.194031,320.04 18.474632,-34.189728,312.42 18.474632,-34.188583,312.42 18.474575,-34.179657,304.8 18.474598,-34.176605,297.18 18.475513,-34.162312,274.32 18.475971,-34.158031,281.94 18.477827,-34.144089,312.42 18.47822,-34.141205,327.66 18.480125,-34.127106,365.76 18.480549,-34.123302,365.76 18.480967,-34.117355,365.76 18.480967,-34.11644,365.76 18.480909,-34.111267,388.62 18.480909,-34.110168,396.24 18.480629,-34.10614,403.86 18.480549,-34.105053,411.48 18.479845,-34.094696,411.48 18.479733,-34.090668,411.48 18.479677,-34.078949,396.24 18.479748,-34.077682,396.24 18.480349,-34.073181,381 18.480516,-34.072128,373.38 18.481464,-34.067814,381 18.48175,-34.066635,388.62 18.482759,-34.062515,381 18.48341,-34.059109,373.38 18.484385,-34.051712,381 18.48444,-34.050682,381 18.484783,-34.046539,373.38 18.48489,-34.045395,381 18.485584,-34.034992,388.62 18.485899,-34.030472,381 18.486067,-34.016098,373.38 18.486385,-34.012367,373.38 18.486328,-34.002731,373.38 18.486235,-34.001678,365.76 18.486214,-33.994213,381 18.48657,-33.990921,373.38 18.487129,-33.986347,365.76 18.487244,-33.985382,365.76 18.488102,-33.974056,342.9 18.488085,-33.972839,335.28 18.48786,-33.966476,327.66 18.487747,-33.965607,320.04 18.487186,-33.96172,304.8 18.486958,-33.960602,297.18 18.486067,-33.957047,281.94 18.485756,-33.955948,274.32 18.484722,-33.952057,259.08 18.484442,-33.951004,251.46 18.481638,-33.940201,220.98 18.481464,-33.939281,220.98 18.480492,-33.933136,220.98 18.479805,-33.930996,220.98 18.47777,-33.927429,205.74 18.477058,-33.926525,198.12 18.47374,-33.923313,190.5 18.472939,-33.922661,190.5 18.469419,-33.919922,198.12 18.46859,-33.919312,198.12 18.465496,-33.916901,198.12 18.464413,-33.9161,198.12 18.452715,-33.906372,175.26 18.451824,-33.905579,182.88 18.4461,-33.90033,182.88 18.4445,-33.899155,175.26 18.440552,-33.897663,160.02 18.439693,-33.897709,152.4 18.436123,-33.898315,114.3 18.435114,-33.898499,99.06 18.432367,-33.899139,53.34 18.431696,-33.899277,45.72 18.42979,-33.89978,15.24 18.429117,-33.899963,7.62 18.428078,-33.900318,0 18.427828,-33.900375,0 18.426991,-33.901016,0 18.427044,-33.900787,0 18.427547,-33.899506,0 18.427715,-33.899185,0 18.428764,-33.897339,15.24 18.42923,-33.896439,22.86 18.430309,-33.893986,53.34 18.430519,-33.893417,60.96 18.431396,-33.890495,91.44 18.431696,-33.889618,99.06 18.432705,-33.885864,144.78 18.432541,-33.885002,160.02 18.430595,-33.881927,198.12 18.429846,-33.881241,205.74 18.426764,-33.879135,220.98 18.425846,-33.878716,228.6 18.421612,-33.87746,251.46 18.420485,-33.877304,251.46 18.416061,-33.877415,259.08 18.414936,-33.877487,259.08 18.409723,-33.878082,266.7 18.408623,-33.87825,274.32 18.403587,-33.879414,281.94 18.402615,-33.879742,281.94 18.398064,-33.881516,289.56 18.397335,-33.881836,289.56 18.392626,-33.884262,297.18 18.391226,-33.885132,297.18 18.38728,-33.887703,297.18 18.386124,-33.888519,297.18 18.38213,-33.891613,304.8 18.381214,-33.892448,312.42 18.377661,-33.895569,320.04 18.376751,-33.896454,320.04 18.37326,-33.89962,327.66 18.372448,-33.900375,335.28 18.366909,-33.905857,342.9 18.36544,-33.907425,342.9 18.362471,-33.91127,335.28 18.361685,-33.912415,335.28 18.35947,-33.916656,335.28 18.35907,-33.917633,335.28 18.357426,-33.921982,320.04 18.35692,-33.923355,312.42 18.355127,-33.928162,312.42 18.354778,-33.929085,312.42 18.348457,-33.945557,274.32 18.345737,-33.951897,259.08 18.335552,-33.974197,213.36 18.332874,-33.979935,205.74 18.321419,-34.002918,220.98 18.318787,-34.008553,228.6 18.30986,-34.025078,228.6 18.308155,-34.027771,220.98 18.321133,-34.06218,251.46 18.322336,-34.062973,259.08 18.349857,-34.075119,601.98 18.349686,-34.074703,609.6 18.346653,-34.073444,617.22 18.343468,-34.072632,601.98 18.339901,-34.071117,548.64 18.338814,-34.070511,525.78 18.333321,-34.066975,388.62 18.304119,-34.034546,198.12 18.318729,-34.017258,243.84 18.322561,-34.012711,243.84 18.332371,-33.998337,236.22 18.335508,-33.993393,236.22 18.347282,-33.973682,236.22 18.350531,-33.968811,236.22 18.356438,-33.955902,228.6 18.357538,-33.953156,228.6 18.36525,-33.931599,243.84 18.367596,-33.926479,251.46 18.371887,-33.91832,274.32 18.372503,-33.917221,274.32 18.37492,-33.913166,289.56 18.375643,-33.912048,289.56 18.378389,-33.907974,297.18 18.379005,-33.907196,297.18 18.38253,-33.902969,297.18 18.383377,-33.902069,304.8 18.387165,-33.898224,304.8 18.388138,-33.897339,312.42 18.392403,-33.893921,312.42 18.393635,-33.893097,312.42 18.398457,-33.89035,312.42 18.399296,-33.889935,312.42 18.404789,-33.887608,251.46 18.406048,-33.887188,251.46 18.41177,-33.885326,312.42 18.412918,-33.88504,251.46 18.419037,-33.88356,304.8 18.420485,-33.883301,304.8 18.426651,-33.882935,312.42 18.427996,-33.88298,312.42 18.433994,-33.883987,304.8 18.435339,-33.884399,297.18 18.440496,-33.886871,266.7 18.441582,-33.887516,259.08 18.444923,-33.891312,236.22 18.445148,-33.89209,228.6 18.443756,-33.895245,205.74 18.442963,-33.895706,198.12 18.439751,-33.896919,167.64 18.439007,-33.897152,160.02 18.435574,-33.898174,114.3 18.435059,-33.898315,106.68 18.432026,-33.899155,60.96 18.429909,-33.899853,22.86 18.427715,-33.900421,0 18.427505,-33.900505,0 18.428078,-33.899105,0 18.428249,-33.898827,0 18.428949,-33.897583,7.62 18.429117,-33.897354,15.24 18.429733,-33.896255,30.48 18.430309,-33.895103,38.1 18.432199,-33.891312,83.82 18.432425,-33.890808,91.44 18.433096,-33.887878,121.92 18.433056,-33.886677,129.54 18.431808,-33.883804,144.78 18.431225,-33.883141,152.4 18.428593,-33.880486,167.64 18.428108,-33.880096,167.64 18.425026,-33.877899,190.5 18.424185,-33.877441,198.12 18.42041,-33.876019,213.36 18.419209,-33.875786,220.98 18.414688,-33.875923,236.22 18.413702,-33.876068,236.22 18.409275,-33.876984,274.32 18.408602,-33.877167,281.94 18.404846,-33.878403,320.04 18.40416,-33.87867,327.66 18.398512,-33.880325,388.62 18.397615,-33.8806,388.62 18.391685,-33.882999,434.34 18.390713,-33.883465,449.58 18.387358,-33.885361,480.06 18.386629,-33.885818,502.92 18.383961,-33.887703,548.64 18.383266,-33.88829,556.26 18.380756,-33.890495,571.5 18.380127,-33.891052,579.12 18.377436,-33.893509,571.5 18.376637,-33.894218,571.5 18.372503,-33.898178,556.26 18.370285,-33.90041,556.26 18.366058,-33.904953,518.16 18.36544,-33.905731,510.54 18.363018,-33.909302,472.44 18.362471,-33.910263,457.2 18.360453,-33.914246,411.48 18.359985,-33.915215,403.86 18.358042,-33.919739,350.52 18.357639,-33.920708,342.9 18.356209,-33.924664,297.18 18.355808,-33.925827,281.94 18.352489,-33.936256,220.98 18.350588,-33.942032,190.5 18.342739,-33.964508,167.64 18.343105,-33.967304,175.26 18.35146,-33.965443,190.5 18.352381,-33.962952,190.5 18.357124,-33.950127,205.74 18.359051,-33.945099,205.74 18.366339,-33.926102,312.42 18.367123,-33.924408,335.28 18.372503,-33.913101,464.82 18.374405,-33.909721,495.3 18.376707,-33.906418,518.16 18.377266,-33.905624,525.78 18.379791,-33.902527,548.64 18.380407,-33.901749,548.64 18.383274,-33.898548,556.26 18.38419,-33.897617,563.88 18.387583,-33.894699,594.36 18.388422,-33.894104,594.36 18.392429,-33.89175,624.84 18.393402,-33.891518,640.08 18.398119,-33.89035,655.32 18.399181,-33.890076,655.32 18.403669,-33.886826,624.84 18.404102,-33.885838,609.6 18.40519,-33.882256,563.88 18.405575,-33.881332,548.64 18.407593,-33.87822,502.92 18.408222,-33.877506,487.68 18.411516,-33.874832,426.72 18.412302,-33.87442,411.48 18.417683,-33.873322,350.52 18.419533,-33.873505,327.66 18.425474,-33.876205,274.32 18.426418,-33.876995,259.08 18.430182,-33.880646,228.6 18.431225,-33.881744,220.98 18.434658,-33.885559,190.5 18.43523,-33.886166,190.5 18.438892,-33.890308,160.02 18.439655,-33.89122,160.02 18.441639,-33.895245,144.78 18.441639,-33.896126,137.16 18.439487,-33.89827,114.3 18.438814,-33.898407,106.68 18.435402,-33.898872,68.58 18.434715,-33.899014,60.96 18.432144,-33.899368,7.62 18.431358,-33.899506,30.48 18.429909,-33.899807,7.62 18.429565,-33.899918,0 18.428389,-33.900238,0 18.42794,-33.90033,0 18.42766,-33.899734,0 18.427773,-33.899506,0 18.428593,-33.898224,15.24 18.428892,-33.897858,15.24 18.430069,-33.896393,30.48 18.430424,-33.895988,30.48 18.432713,-33.893333,68.58 18.434498,-33.891083,91.44 18.437805,-33.88612,144.78 18.43792,-33.885559,152.4 18.436628,-33.882568,190.5 18.436031,-33.881977,198.12 18.433113,-33.880253,228.6 18.432312,-33.879879,236.22 18.428949,-33.878815,274.32 18.428331,-33.878677,281.94 18.424587,-33.878113,320.04 18.423786,-33.878067,327.66 18.419924,-33.878174,358.14 18.418859,-33.878265,365.76 18.415159,-33.878815,396.24 18.414288,-33.878948,403.86 18.410675,-33.879776,434.34 18.409666,-33.880051,441.96 18.406248,-33.881012,480.06 18.405476,-33.881325,487.68 18.401756,-33.882767,510.54 18.40081,-33.883163,510.54 18.397007,-33.884769,525.78 18.396149,-33.885139,525.78 18.392738,-33.88678,533.4 18.391729,-33.887329,541.02 18.387852,-33.889565,548.64 18.387077,-33.890076,548.64 18.383322,-33.892502,563.88 18.382481,-33.893097,563.88 18.379005,-33.895798,579.12 18.378067,-33.896545,586.74 18.375195,-33.899323,632.46 18.374577,-33.89999,632.46 18.371944,-33.902969,662.94 18.371201,-33.903854,670.56 18.36874,-33.907162,693.42 18.368282,-33.907764,693.42 18.365833,-33.91127,708.66 18.365273,-33.912048,708.66 18.35849,-33.922211,693.42 18.357925,-33.923126,685.8 18.355923,-33.927036,685.8 18.355352,-33.928299,678.18 18.353502,-33.932465,678.18 18.353004,-33.933647,678.18 18.351149,-33.938049,670.56 18.350716,-33.93914,670.56 18.344936,-33.953201,640.08 18.343357,-33.956635,640.08 18.333996,-33.973434,632.46 18.330688,-33.978432,632.46 18.318386,-33.998821,556.26 18.316395,-34.002548,541.02 18.302494,-34.028091,480.06 18.301563,-34.030197,464.82 18.300196,-34.035873,434.34 18.30019,-34.037136,426.72 18.304939,-34.048306,396.24 18.30653,-34.050247,388.62 18.313032,-34.057068,388.62 18.31604,-34.059853,388.62 18.32172,-34.064392,381 18.324108,-34.065857,388.62 18.330072,-34.068878,388.62 18.333664,-34.070328,396.24 18.349411,-34.091537,350.52 18.349073,-34.093369,350.52 18.348513,-34.09877,358.14 18.348427,-34.100258,358.14 18.348083,-34.105331,358.14 18.347281,-34.109619,350.52 18.345486,-34.115891,342.9 18.344822,-34.117298,342.9 18.341339,-34.12175,320.04 18.34053,-34.122513,320.04 18.324394,-34.13303,289.56 18.322952,-34.133926,289.56 18.315525,-34.141319,289.56 18.314657,-34.143494,289.56 18.413601,-34.32613,220.98 18.418236,-34.32962,228.6 18.424015,-34.333252,236.22 18.425217,-34.33395,236.22 18.430538,-34.336884,236.22 18.432198,-34.337723,236.22 18.441225,-34.342667,251.46 18.444214,-34.344658,259.08 18.448563,-34.348148,259.08 18.449688,-34.349213,266.7 18.453884,-34.353363,266.7 18.454857,-34.354389,274.32 18.458994,-34.358459,281.94 18.46035,-34.359787,289.56 18.467064,-34.36528,320.04 18.468533,-34.366119,327.66 18.473396,-34.368259,342.9 18.474632,-34.368668,350.52 18.479633,-34.370029,358.14 18.480909,-34.37027,358.14 18.485756,-34.37096,350.52 18.486851,-34.371048,350.52 18.491879,-34.371658,335.28 18.492962,-34.371735,327.66 18.498343,-34.371323,327.66 18.499464,-34.371002,327.66 18.504004,-34.369034,335.28 18.504868,-34.368538,335.28 18.508207,-34.366058,358.14 18.50893,-34.365326,365.76 18.510933,-34.362209,388.62 18.511122,-34.361389,396.24 18.510841,-34.358688,419.1 18.51059,-34.358067,411.48 18.508039,-34.356125,419.1 18.507385,-34.355972,419.1 18.504004,-34.356216,419.1 18.503094,-34.356529,419.1 18.499687,-34.358139,419.1 18.498917,-34.358486,411.48 18.49509,-34.360703,388.62 18.494396,-34.36137,388.62 18.493017,-34.365005,381 18.493366,-34.366211,381 18.496996,-34.368988,381 18.498459,-34.369236,381 18.503094,-34.367794,373.38 18.503895,-34.367004,365.76 18.505325,-34.363419,358.14 18.505293,-34.362579,358.14 18.504396,-34.358826,365.76 18.503952,-34.357834,365.76 18.502121,-34.354156,373.38 18.501606,-34.353226,373.38 18.49926,-34.349777,373.38 18.498745,-34.349079,373.38 18.495764,-34.345779,381 18.49498,-34.345001,381 18.491615,-34.341751,381 18.490906,-34.341026,381 18.486683,-34.336258,388.62 18.486235,-34.335663,388.62 18.484161,-34.332092,403.86 18.48381,-34.330971,403.86 18.483639,-34.326923,411.48 18.483824,-34.325867,411.48 18.485184,-34.321613,411.48 18.485506,-34.320648,411.48 18.487186,-34.316353,411.48 18.487701,-34.315239,411.48 18.489475,-34.311001,403.86 18.490551,-34.307968,396.24 18.493073,-34.300415,388.62 18.493366,-34.299225,388.62 18.495197,-34.291355,381 18.495426,-34.290424,381 18.498566,-34.277573,381 18.499071,-34.274368,381 18.499603,-34.270222,381 18.499743,-34.2686,381 18.499687,-34.26416,381 18.499687,-34.263199,381 18.499519,-34.258942,388.62 18.499464,-34.257843,388.62 18.498974,-34.253834,365.76 18.498791,-34.252945,365.76 18.498005,-34.248505,365.76 18.497829,-34.247505,365.76 18.496971,-34.243221,365.76 18.496742,-34.242058,358.14 18.49453,-34.232391,342.9 18.494225,-34.231396,342.9 18.492737,-34.227348,335.28 18.492393,-34.226463,335.28 18.490677,-34.222599,320.04 18.490105,-34.221527,312.42 18.488085,-34.217834,312.42 18.487644,-34.21706,304.8 18.485126,-34.213333,297.18 18.484669,-34.21273,297.18 18.481922,-34.209377,297.18 18.481178,-34.208588,297.18 18.477882,-34.205475,259.08 18.476887,-34.204678,259.08 18.473623,-34.20195,274.32 18.47271,-34.201183,274.32 18.467216,-34.196621,251.46 18.466187,-34.195877,243.84 18.462132,-34.193344,236.22 18.460751,-34.192665,236.22 18.456001,-34.191502,236.22 18.454958,-34.191513,236.22 18.450081,-34.193161,236.22 18.449352,-34.193893,243.84 18.449821,-34.197971,289.56 18.451035,-34.198746,297.18 18.455854,-34.197693,304.8 18.456358,-34.196732,297.18 18.455519,-34.192932,281.94 18.454958,-34.1922,281.94 18.451881,-34.189034,274.32 18.451195,-34.188335,266.7 18.448048,-34.185032,266.7 18.447222,-34.18428,266.7 18.443691,-34.181488,259.08 18.442898,-34.180889,259.08 18.439064,-34.175533,236.22 18.439007,-34.174046,228.6 18.440094,-34.169716,213.36 18.440552,-34.168552,220.98 18.442612,-34.16441,220.98 18.443241,-34.163292,220.98 18.445702,-34.159286,220.98 18.446445,-34.158123,228.6 18.450417,-34.15123,243.84 18.451931,-34.148117,243.84 18.45377,-34.144203,236.22 18.454229,-34.143082,236.22 18.455944,-34.13871,228.6 18.458061,-34.134148,220.98 18.461323,-34.128983,220.98 18.462067,-34.128006,213.36 18.464813,-34.123955,205.74 18.465443,-34.122978,198.12 18.468578,-34.11882,182.88 18.469587,-34.117859,182.88 18.473904,-34.114563,167.64 18.47477,-34.113853,160.02 18.479004,-34.107708,198.12 18.479172,-34.106827,198.12 18.479233,-34.102493,213.36 18.479284,-34.101562,213.36 18.479805,-34.097607,220.98 18.479919,-34.096443,220.98 18.480181,-34.08847,228.6 18.480148,-34.086292,228.6 18.480068,-34.08165,236.22 18.480091,-34.080612,236.22 18.479958,-34.066086,236.22 18.479805,-34.06395,236.22 18.47929,-34.059944,243.84 18.479172,-34.05899,243.84 18.478779,-34.050156,259.08 18.478775,-34.049145,259.08 18.47934,-34.044479,259.08 18.479519,-34.04351,259.08 18.480406,-34.039078,259.08 18.480606,-34.037971,259.08 18.48147,-34.031891,266.7 18.481583,-34.030563,274.32 18.481865,-34.026382,289.56 18.481976,-34.025162,297.18 18.482592,-34.016647,297.18 18.48304,-34.012344,312.42 18.485058,-33.996277,304.8 18.485413,-33.99305,312.42 18.48657,-33.987808,320.04 18.487188,-33.987213,320.04 18.490215,-33.986664,304.8 18.49102,-33.98695,297.18 18.493633,-33.989594,266.7 18.493996,-33.990395,259.08 18.495539,-33.993759,236.22 18.495998,-33.994167,236.22 18.500004,-33.99477,213.36 18.501089,-33.994583,213.36 18.505516,-33.993805,228.6 18.506918,-33.993576,228.6 18.51162,-33.992771,220.98 18.512936,-33.992584,220.98 18.521633,-33.991421,213.36 18.522724,-33.991287,220.98 18.54184,-33.98909,220.98 18.547108,-33.988495,228.6 18.565941,-33.98616,228.6 18.571815,-33.985462,220.98 18.577377,-33.985565,220.98 18.578796,-33.985741,220.98 18.584776,-33.98703,213.36 18.586401,-33.987488,205.74 18.59223,-33.989182,205.74 18.593788,-33.989651,198.12 18.602655,-33.991791,190.5 18.604338,-33.991928,190.5 18.610615,-33.991608,190.5 18.611849,-33.99147,190.5 18.61751,-33.990463,198.12 18.619137,-33.990116,198.12 18.624741,-33.989044,198.12 18.62603,-33.98877,198.12 18.634987,-33.986858,205.74 18.637465,-33.986252,198.12 18.645229,-33.984112,213.36 18.65078,-33.982716,220.98 18.670578,-33.977592,213.36 18.676414,-33.976429,228.6 18.684998,-33.974754,251.46 18.690434,-33.973728,266.7 18.708858,-33.969681,320.04 18.71315,-33.968655,327.66 18.733978,-33.963348,350.52 18.738585,-33.962173,342.9 18.758583,-33.957111,312.42 18.763079,-33.955902,304.8 18.784378,-33.950272,312.42 18.789825,-33.948826,335.28 18.808481,-33.943634,350.52 18.813862,-33.942307,358.14 18.825302,-33.939838,365.76 18.826586,-33.939651,365.76 18.832455,-33.939423,373.38 18.834,-33.939468,381 18.839951,-33.939281,403.86 18.841324,-33.939236,403.86 18.850307,-33.938583,419.1 18.851866,-33.93837,419.1 18.857304,-33.937683,426.72 18.858662,-33.937511,426.72 18.864498,-33.936302,419.1 18.865488,-33.936035,419.1 18.871307,-33.934345,426.72 18.872213,-33.934021,426.72 18.877888,-33.932297,441.96 18.881855,-33.931229,441.96 18.897942,-33.926147,495.3 18.901577,-33.925175,495.3 18.90876,-33.923721,541.02 18.912163,-33.922661,563.88 18.918737,-33.92038,579.12 18.919659,-33.920055,579.12 18.926977,-33.917725,571.5 18.93062,-33.916672,563.88 18.941832,-33.91301,533.4 18.943119,-33.912422,525.78 18.947493,-33.909943,518.16 18.948166,-33.909439,518.16 18.951988,-33.905903,518.16 18.952847,-33.904972,510.54 18.956068,-33.900604,495.3 18.964701,-33.89946,533.4 18.966293,-33.901108,579.12 18.965204,-33.901154,548.64 18.961,-33.903397,525.78 18.959885,-33.90432,518.16 18.956125,-33.907654,510.54 18.955452,-33.908249,510.54 18.951588,-33.911491,533.4 18.950687,-33.912323,541.02 18.948895,-33.915894,571.5 18.949062,-33.916855,601.98 18.950787,-33.916378,594.36 18.950157,-33.915539,541.02 18.945082,-33.915207,510.54 18.944073,-33.915527,510.54 18.939457,-33.91703,510.54 18.938467,-33.917267,510.54 18.933334,-33.918007,502.92 18.929844,-33.918613,510.54 18.924809,-33.919403,510.54 18.921032,-33.920101,502.92 18.915262,-33.921478,487.68 18.91386,-33.92189,480.06 18.909245,-33.923359,487.68 18.907871,-33.923779,487.68 18.903522,-33.925316,502.92 18.902321,-33.925735,502.92 18.885723,-33.930771,472.44 18.882023,-33.931915,464.82 18.869019,-33.935371,464.82 18.867897,-33.935623,464.82 18.859602,-33.937363,472.44 18.855,-33.938396,502.92 18.843727,-33.941376,510.54 18.84273,-33.941711,502.92 18.838022,-33.943314,502.92 18.834267,-33.944366,502.92 18.826332,-33.946262,495.3 18.824905,-33.946564,495.3 18.813229,-33.94915,403.86 18.808136,-33.950268,396.24 18.799667,-33.951618,388.62 18.798561,-33.951782,388.62 18.793888,-33.952271,388.62 18.790226,-33.952782,388.62 18.774261,-33.954922,381 18.770943,-33.955528,381 18.766779,-33.954849,373.38 18.765938,-33.954163,373.38 18.765377,-33.950867,396.24 18.766136,-33.950409,396.24 18.770983,-33.952286,350.52 18.771318,-33.953384,342.9 18.768883,-33.957157,304.8 18.767738,-33.957623,312.42 18.763584,-33.959015,320.04 18.76235,-33.959381,320.04 18.758427,-33.960571,327.66 18.757305,-33.960983,327.66 18.750019,-33.963409,335.28 18.749065,-33.963547,335.28 18.745079,-33.962837,350.52 18.744078,-33.962402,350.52 18.740433,-33.960388,327.66 18.739481,-33.959564,320.04 18.736382,-33.956505,289.56 18.735781,-33.955856,281.94 18.732979,-33.952698,274.32 18.732433,-33.952038,274.32 18.729973,-33.948406,266.7 18.729446,-33.947571,266.7 18.727037,-33.944229,266.7 18.726364,-33.943359,266.7 18.722328,-33.939606,274.32 18.721657,-33.93924,274.32 18.717003,-33.938736,274.32 18.715603,-33.938965,266.7 18.711399,-33.939514,266.7 18.71006,-33.939655,266.7 18.705368,-33.940212,266.7 18.704449,-33.940338,266.7 18.689034,-33.941528,266.7 18.685684,-33.941841,266.7 18.672924,-33.943283,289.56 18.669376,-33.943798,289.56 18.652431,-33.946289,281.94 18.647976,-33.947102,266.7 18.63905,-33.948963,259.08 18.637913,-33.949265,259.08 18.633148,-33.950546,259.08 18.632029,-33.950867,259.08 18.627834,-33.952175,251.46 18.626703,-33.952698,251.46 18.623676,-33.955856,259.08 18.623619,-33.957092,266.7 18.624685,-33.961304,281.94 18.624908,-33.962494,281.94 18.625189,-33.966522,289.56 18.625189,-33.96785,289.56 18.624966,-33.97229,281.94 18.624802,-33.973637,274.32 18.623486,-33.978107,266.7 18.622971,-33.979221,266.7 18.620592,-33.982956,259.08 18.619766,-33.983833,251.46 18.61599,-33.986763,236.22 18.614931,-33.98735,236.22 18.610325,-33.989044,220.98 18.609238,-33.989326,213.36 18.604506,-33.989685,213.36 18.603216,-33.989319,205.74 18.599224,-33.987881,205.74 18.598061,-33.987442,205.74 18.593967,-33.985748,213.36 18.593296,-33.985428,220.98 18.589153,-33.983459,220.98 18.588306,-33.983002,228.6 18.582001,-33.979969,228.6 18.578161,-33.978241,228.6 18.563862,-33.971729,220.98 18.561008,-33.970413,220.98 18.547052,-33.964188,220.98 18.544235,-33.962837,220.98 18.529701,-33.956413,205.74 18.526669,-33.955109,205.74 18.514261,-33.949356,213.36 18.513336,-33.948917,213.36 18.509665,-33.946838,213.36 18.508713,-33.946243,213.36 18.505236,-33.944,198.12 18.504396,-33.943497,198.12 18.500862,-33.940865,198.12 18.500061,-33.940258,198.12 18.496571,-33.937607,182.88 18.495998,-33.937187,182.88 18.488731,-33.931461,190.5 18.485561,-33.928802,182.88 18.474464,-33.920151,167.64 18.471718,-33.918045,160.02 18.461067,-33.910675,160.02 18.45829,-33.908978,99.06 18.45462,-33.906876,106.68 18.453999,-33.906509,160.02 18.449993,-33.904552,152.4 18.449249,-33.904274,152.4 18.444811,-33.90303,137.16 18.443411,-33.902756,129.54 18.439178,-33.902084,99.06 18.438309,-33.901978,91.44 18.435059,-33.901611,68.58 18.434105,-33.90152,60.96 18.428331,-33.900513,0 18.427677,-33.900505,0 18.42762,-33.899479,0 18.427849,-33.898968,0 18.428501,-33.897858,15.24 18.428764,-33.897476,22.86 18.430367,-33.895569,68.58 18.430799,-33.895111,68.58 18.432873,-33.892685,106.68 18.433285,-33.89217,121.92 18.436068,-33.88829,182.88 18.43646,-33.887558,190.5 18.437176,-33.884537,220.98 18.437077,-33.883896,228.6 18.435732,-33.881195,251.46 18.435173,-33.880394,259.08 18.432941,-33.878113,289.56 18.432144,-33.877441,297.18 18.428936,-33.875412,327.66 18.428331,-33.875153,335.28 18.424688,-33.873825,365.76 18.423843,-33.873596,373.38 18.419701,-33.872818,411.48 18.418751,-33.872757,419.1 18.415031,-33.87262,449.58 18.414173,-33.87262,457.2 18.410172,-33.872818,480.06 18.409252,-33.872898,487.68 18.405533,-33.873409,518.16 18.40456,-33.87355,525.78 18.400612,-33.874481,556.26 18.399868,-33.874714,556.26 18.396034,-33.876156,571.5 18.394947,-33.876667,571.5 18.391001,-33.878723,586.74 18.39016,-33.879181,594.36 18.386684,-33.881287,632.46 18.386068,-33.881653,632.46 18.382706,-33.884079,655.32 18.381977,-33.884628,662.94 18.378754,-33.887238,685.8 18.378067,-33.88784,685.8 18.37492,-33.890682,708.66 18.374298,-33.891312,708.66 18.371103,-33.894562,716.28 18.37043,-33.895294,716.28 18.36729,-33.898773,723.9 18.366787,-33.899368,723.9 18.363815,-33.903122,731.52 18.363018,-33.904133,731.52 18.360453,-33.907608,746.76 18.359814,-33.908463,762 18.357706,-33.911636,807.72 18.35709,-33.912552,822.96 18.355295,-33.915573,861.06 18.354679,-33.91658,868.68 18.352942,-33.919876,906.78 18.352489,-33.920753,922.02 18.351231,-33.923965,982.98 18.350924,-33.924728,990.6 18.349743,-33.927876,1005.84 18.349411,-33.928757,1005.84 18.347282,-33.934441,1013.46 18.346214,-33.937225,1021.08 18.339993,-33.95224,1013.46 18.338367,-33.955902,1013.46 18.332481,-33.967987,982.98 18.331718,-33.969215,975.36 18.328503,-33.974258,944.88 18.327656,-33.975544,937.26 18.322964,-33.983135,906.78 18.320766,-33.98671,891.54 18.310661,-34.002872,838.2 18.308828,-34.005341,822.96 18.302422,-34.014462,807.72 18.300419,-34.017673,807.72 18.297617,-34.022415,815.34 18.2971,-34.023403,815.34 18.297157,-34.028244,807.72 18.297897,-34.029419,800.1 18.30283,-34.032074,792.48 18.304539,-34.032154,784.86 18.309689,-34.029964,762 18.310776,-34.028896,762 18.313873,-34.024704,746.76 18.314713,-34.023376,739.14 18.317127,-34.018887,731.52 18.317928,-34.017258,723.9 18.320486,-34.01207,708.66 18.321075,-34.010925,701.04 18.324451,-34.003616,678.18 18.326168,-33.999847,670.56 18.337416,-33.976547,601.98 18.340385,-33.971008,594.36 18.350773,-33.951057,579.12 18.352606,-33.947479,579.12 18.3605,-33.932999,579.12 18.362617,-33.929272,579.12 18.371601,-33.912979,556.26 18.373625,-33.909714,556.26 18.376751,-33.905113,548.64 18.377495,-33.904087,548.64 18.383045,-33.896267,541.02 18.385452,-33.893188,541.02 18.38932,-33.889114,541.02 18.390385,-33.888245,541.02 18.395805,-33.884674,472.44 18.397179,-33.88393,541.02 18.402267,-33.881607,548.64 18.403816,-33.881046,487.68 18.409538,-33.879322,548.64 18.411068,-33.878998,487.68 18.417122,-33.878174,480.06 18.418634,-33.878082,487.68 18.424702,-33.878716,480.06 18.425674,-33.879089,556.26 18.431023,-33.882019,556.26 18.432369,-33.882858,556.26 18.436947,-33.885654,556.26 18.438034,-33.886257,556.26 18.446102,-33.889702,548.64 18.44767,-33.890213,548.64 18.453083,-33.893147,525.78 18.453892,-33.894516,502.92 18.452995,-33.898132,449.58 18.452322,-33.898682,441.96 18.448847,-33.899826,411.48 18.448105,-33.899899,403.86 18.443584,-33.899757,365.76 18.443073,-33.899734,358.14 18.440781,-33.89962,320.04 18.439064,-33.89962,289.56 18.433456,-33.899338,137.16 18.43174,-33.899292,76.2 18.430407,-33.899368,22.86 18.429901,-33.899414,0 18.428078,-33.899712,0 18.427734,-33.899853,0
        </coordinates>
      </LineString>
    </Placemark>
  </Document>
</kml>