<?xml version="1.0" encoding="UTF-8"?>
<kml xmlns="http://www.opengis.net/kml/2.2">
  <Document>
    <name>-/ZTRNW - Optimised</name>
    <description><![CDATA[Optimised flight path with 176 points (decimated from 877 original points). Source format: Standard KML]]></description>
    
    <Style id="flightPath">
      <LineStyle>
        <color>ff0000ff</color>
        <width>3</width>
      </LineStyle>
    </Style>
    
    <Placemark>
      <name>Flight Path</name>
      <description><![CDATA[<div style="width:220px; text-align:center;">
<div style="width:210px; text-align:center;">
<div style=" background: #000; color: #fff; font-size: 14px; text-align:left; border: 1px solid #000; padding: 2px 6px; text-shadow: 0 1px 0 #000; box-shadow: 0 1px 3px rgba(0,0,0,0.6); background: -webkit-gradient(linear, left top, left bottom, color-stop(0%,#808080), color-stop(2%,#303030), color-stop(100%,#0c0c0c));"><span style="font-size: 14px; font-weight: bold;"><a href="javascript:void(0);" style="color: #fff; cursor: pointer;text-decoration: none;">-</a></span> / ZTRNW<br/>Private owner</div>

<div style="border-top: 1px solid #005c90; color: #fff; padding-bottom: 5px; box-shadow: 0 0 1px #9BE3F6 inset, 0 1px 0 #9BE3F6 inset, 0 -1px 3px rgba(0,0,0,0.4); background:rgba(43,114,173,1); background: -webkit-gradient(linear, left top, left bottom, color-stop(0%,rgba(92,184,229,1)), color-stop(100%,rgba(43,114,173,1)));">
<a style="text-decoration: none; color: rgb(255, 255, 255); font-size: 12px; width:77px; display: inline-block;" title=" Airport" href="javascript:void(0);/departures"><h3 style="padding: 0px; margin: 10px 0px 0px; font-size: 16px; ">?</h3></a>
<span style="background: url(https://www.flightradar24.com/static/images/userUI_sprite.png?14) no-repeat scroll 0 -464px rgba(0, 0, 0, 0); border: medium none; display: inline-block; height: 16px; width: 45px;"></span>
<a style="text-decoration: none; color: rgb(255, 255, 255); font-size: 12px; width:77px; display: inline-block;" title=" Airport" href="javascript:void(0);/arrivals"><h3 style="padding: 0px; margin: 10px 0px 0px; font-size: 16px;">?</h3></a>
<div style=" margin-top:10px;">
<div style="display: inline-block; font-size: 12px; padding: 0 5px;">
<div>
<span style="color: #c1eaff;" title="Actual Time of Departure">ATD </span>
<span title="2025-09-16 11:40">11:40</span> <span title="Coordinated Universal Time">UTC</span>
</div>
</div>
<div style="display: inline-block; font-size: 12px; padding: 0 5px;">
<div>
<span style="color: #c1eaff;" title="Estimated Time of Arrival">ETA </span>
<span title="2025-09-16 12:03">12:03</span> <span title="Coordinated Universal Time">UTC</span>
</div>
</div>
</div>
<br style="clear: both;"/>
</div>

<div style="display: block;">
<table style="border-collapse: collapse; width: 100%;">
<tr style="border-right: 1px solid #dadada; ">
<td style="background: none repeat scroll 0 0 #dadada; padding: 0; width: 31px;">
<span style="background: url(https://www.flightradar24.com/static/images/userUI_sprite.png?14) no-repeat scroll -208px -464px rgba(0, 0, 0, 0); height: 26px; margin: 8px 0 0 4px; width: 23px; display: block;"></span>
</td>
<td colspan="2" style="border-bottom: 1px solid #dadada; border-left: 1px solid #dadada; color: #666; line-height: 1.1em; padding: 3px 6px; vertical-align: top; font-size: 14px;">
Aircraft<span style="float: right; font-size: 12px;">(EC20)</span><br>
<span style="color: #333; font-size: 16px; font-weight: bold; line-height: 1.3em;">Airbus Helicopters H120</span>
</td>
</tr>
<tr style="border-right: 1px solid #dadada; ">
<td style="background: none repeat scroll 0 0 #dadada; padding: 0; width: 31px;">
<td colspan="2" style="border-bottom: 1px solid #dadada; border-left: 1px solid #dadada; color: #666; line-height: 1.1em; padding: 3px 6px; vertical-align: top; font-size: 14px;">
Registration<br>
<span style="color: #333; font-size: 16px; font-weight: bold; line-height: 1.3em;"><a href="https://www.flightradar24.com/reg/zt-rnw" style="text-decoration: none; color: #333;">ZT-RNW</a></span>
</td>
</tr>
</table>
</div>

</div>
</div>]]></description>
      <styleUrl>#flightPath</styleUrl>
      <LineString>
        <extrude>1</extrude>
        <tessellate>1</tessellate>
        <altitudeMode>absolute</altitudeMode>
        <coordinates>
          18.42951,-33.894928,45.72 18.436628,-33.886734,137.16 18.436775,-33.882442,198.12 18.433857,-33.879181,243.84 18.429737,-33.877365,274.32 18.425274,-33.876575,320.04 18.420811,-33.87653,358.14 18.416176,-33.876808,403.86 18.411884,-33.877228,449.58 18.407928,-33.877899,518.16 18.404343,-33.878906,556.26 18.400642,-33.880188,586.74 18.396774,-33.882019,617.22 18.392906,-33.884171,640.08 18.389225,-33.886631,655.32 18.385677,-33.889469,685.8 18.382244,-33.892448,716.28 18.377155,-33.896942,731.52 18.37183,-33.902832,731.52 18.369085,-33.906784,739.14 18.366449,-33.910812,739.14 18.361588,-33.918797,769.62 18.353691,-33.932949,777.24 18.345509,-33.94873,701.04 18.335901,-33.967209,723.9 18.325027,-33.986526,762 18.321018,-33.995655,762 18.31802,-34.001862,762 18.314152,-34.006363,762 18.310959,-34.010788,754.38 18.307987,-34.01564,746.76 18.305408,-34.020767,739.14 18.303566,-34.026054,739.14 18.303223,-34.031269,731.52 18.30574,-34.036484,716.28 18.309893,-34.041412,693.42 18.313032,-34.046356,693.42 18.319534,-34.05574,678.18 18.33181,-34.072723,655.32 18.334007,-34.079681,632.46 18.335228,-34.08522,617.22 18.338242,-34.092113,601.98 18.342909,-34.097076,609.6 18.349571,-34.099792,609.6 18.356323,-34.102772,594.36 18.358955,-34.107895,586.74 18.359127,-34.113014,601.98 18.366226,-34.114792,548.64 18.374062,-34.116646,518.16 18.383217,-34.119205,518.16 18.390369,-34.121532,525.78 18.399689,-34.124771,548.64 18.422335,-34.132141,571.5 18.440048,-34.137268,586.74 18.447783,-34.13562,601.98 18.454733,-34.131866,609.6 18.460808,-34.127773,632.46 18.465887,-34.123444,647.7 18.470707,-34.118366,640.08 18.474369,-34.111942,601.98 18.475914,-34.105473,579.12 18.477154,-34.098679,548.64 18.478031,-34.091831,533.4 18.478603,-34.084942,518.16 18.478947,-34.076004,510.54 18.479691,-34.059013,487.68 18.480949,-34.048912,457.2 18.482437,-34.030243,434.34 18.482151,-34.008366,411.48 18.482666,-33.996635,373.38 18.483488,-33.989639,350.52 18.485012,-33.97657,327.66 18.485928,-33.962326,274.32 18.485641,-33.955669,259.08 18.484612,-33.94873,259.08 18.483009,-33.942028,259.08 18.480892,-33.936161,251.46 18.477516,-33.930435,259.08 18.473511,-33.924942,259.08 18.469362,-33.919922,243.84 18.464823,-33.914703,259.08 18.455742,-33.905136,236.22 18.450697,-33.901657,190.5 18.444614,-33.900085,137.16 18.43832,-33.899433,99.06 18.433456,-33.899387,53.34 18.43091,-33.899597,30.48 18.428501,-33.900192,0 18.431339,-33.892914,68.58 18.433489,-33.890671,91.44 18.437176,-33.885792,160.02 18.437462,-33.885002,167.64 18.43626,-33.88179,205.74 18.435675,-33.881058,213.36 18.433208,-33.878723,251.46 18.432367,-33.878265,259.08 18.428669,-33.877121,281.94 18.427792,-33.876949,289.56 18.42453,-33.87653,327.66 18.423557,-33.876484,335.28 18.419838,-33.876575,365.76 18.418972,-33.876617,373.38 18.415203,-33.876854,411.48 18.414288,-33.876949,426.72 18.4109,-33.87735,457.2 18.410059,-33.877441,472.44 18.4072,-33.878082,525.78 18.406506,-33.87825,533.4 18.403612,-33.879135,563.88 18.402884,-33.879364,571.5 18.399746,-33.880554,579.12 18.399073,-33.880875,586.74 18.396103,-33.882385,624.84 18.395205,-33.882843,624.84 18.392372,-33.884537,640.08 18.391674,-33.884995,640.08 18.388479,-33.887192,655.32 18.387751,-33.887787,662.94 18.384947,-33.890076,693.42 18.384361,-33.890587,701.04 18.381416,-33.893188,723.9 18.380699,-33.893799,723.9 18.374353,-33.899734,731.52 18.373718,-33.900455,723.9 18.371214,-33.903625,731.52 18.370686,-33.904415,731.52 18.368511,-33.907673,731.52 18.367939,-33.908558,739.14 18.365879,-33.911724,739.14 18.365307,-33.912605,739.14 18.36006,-33.921387,777.24 18.358212,-33.924709,784.86 18.351933,-33.93631,762 18.349972,-33.940166,739.14 18.343748,-33.95224,685.8 18.342247,-33.955296,693.42 18.334444,-33.969498,731.52 18.332201,-33.973206,739.14 18.323536,-33.989651,762 18.32222,-33.99263,754.38 18.320656,-33.996552,762 18.320274,-33.997517,762 18.317242,-34.002777,762 18.316452,-34.003601,762 18.313536,-34.007172,762 18.312975,-34.00795,754.38 18.310398,-34.011566,754.38 18.309631,-34.012833,754.38 18.307343,-34.016792,746.76 18.306923,-34.0177,746.76 18.305016,-34.021729,739.14 18.304653,-34.022469,739.14 18.303391,-34.026947,739.14 18.303278,-34.028183,739.14 18.303394,-34.032478,731.52 18.303726,-34.033539,723.9 18.306713,-34.037601,708.66 18.307482,-34.038483,708.66 18.310432,-34.042301,693.42 18.311119,-34.043373,701.04 18.315331,-34.049652,693.42 18.315926,-34.050541,693.42 18.321762,-34.058922,678.18 18.324623,-34.062969,662.94 18.33292,-34.074654,640.08 18.333321,-34.075912,640.08 18.334236,-34.080894,624.84 18.334408,-34.081779,624.84 18.335667,-34.086575,609.6 18.336126,-34.087784,609.6 18.338757,-34.09309,594.36 18.339558,-34.094299,594.36 18.34425,-34.097652,609.6 18.345737,-34.098259,609.6 18.351091,-34.100372,601.98 18.352261,-34.100864,601.98 18.357481,-34.103668,594.36 18.358269,-34.104588,594.36 18.358669,-34.108826,579.12 18.358269,-34.109943,579.12 18.360329,-34.113525,594.36 18.361797,-34.113876,571.5 18.367571,-34.115112,541.02 18.369198,-34.115482,533.4 18.375755,-34.117081,510.54 18.3771,-34.117401,518.16 18.384533,-34.119625,525.78 18.385906,-34.12009,525.78 18.391628,-34.121952,533.4 18.393059,-34.122463,533.4 18.404062,-34.12619,571.5 18.408279,-34.127537,563.88 18.426361,-34.133499,579.12 18.431751,-34.135437,579.12 18.441841,-34.137177,586.74 18.442963,-34.137039,586.74 18.44902,-34.135078,601.98 18.450529,-34.134338,601.98 18.456135,-34.130997,624.84 18.457203,-34.130333,624.84 18.461683,-34.12706,624.84 18.462925,-34.126095,624.84 18.467064,-34.122299,655.32 18.467846,-34.121487,655.32 18.471565,-34.117252,647.7 18.472502,-34.115936,632.46 18.474655,-34.110966,601.98 18.475023,-34.109711,601.98 18.4762,-34.103889,571.5 18.476425,-34.102707,571.5 18.477345,-34.09742,548.64 18.477516,-34.096256,548.64 18.478203,-34.090389,525.78 18.478317,-34.08918,518.16 18.478611,-34.083847,518.16 18.478668,-34.082336,518.16 18.479004,-34.071854,510.54 18.479059,-34.066864,510.54 18.479845,-34.057755,480.06 18.480013,-34.056793,480.06 18.481121,-34.047375,457.2 18.481525,-34.043289,441.96 18.482592,-34.026215,426.72 18.482666,-34.022518,419.1 18.481979,-34.004688,441.96 18.482199,-34.00058,396.24 18.482815,-33.995453,358.14 18.482985,-33.99408,350.52 18.483582,-33.988346,342.9 18.483768,-33.986984,335.28 18.485506,-33.972519,297.18 18.48587,-33.9674,281.94 18.48587,-33.961254,266.7 18.485813,-33.959625,266.7 18.485527,-33.954502,251.46 18.485355,-33.953014,266.7 18.484272,-33.947296,251.46 18.483994,-33.946198,259.08 18.482704,-33.940842,259.08 18.482367,-33.939743,259.08 18.480206,-33.93486,251.46 18.479633,-33.933834,259.08 18.476772,-33.929317,251.46 18.476028,-33.928295,259.08 18.47267,-33.923904,243.84 18.471828,-33.922897,236.22 18.468418,-33.918797,236.22 18.467737,-33.917953,228.6 18.462021,-33.911591,259.08 18.458576,-33.907951,251.46 18.454914,-33.904415,228.6 18.454004,-33.903671,220.98 18.449593,-33.901203,182.88 18.448118,-33.900742,167.64 18.443466,-33.899918,129.54 18.442154,-33.899807,121.92 18.437405,-33.899387,91.44 18.436293,-33.899368,68.58 18.432827,-33.899433,53.34 18.432144,-33.89946,45.72 18.43063,-33.899643,22.86 18.430014,-33.899734,22.86 18.428192,-33.900272,0 18.427883,-33.900421,0
        </coordinates>
      </LineString>
    </Placemark>
  </Document>
</kml>