<?xml version="1.0" encoding="UTF-8"?>
<kml xmlns="http://www.opengis.net/kml/2.2">
  <Document>
    <name>-/ZTHOT - Optimised</name>
    <description><![CDATA[Optimised flight path with 134 points (decimated from 667 original points). Source format: Standard KML]]></description>
    
    <Style id="flightPath">
      <LineStyle>
        <color>ff0000ff</color>
        <width>3</width>
      </LineStyle>
    </Style>
    
    <Placemark>
      <name>Flight Path</name>
      <description><![CDATA[<div style="width:220px; text-align:center;">
<div style="width:210px; text-align:center;">
<div style=" background: #000; color: #fff; font-size: 14px; text-align:left; border: 1px solid #000; padding: 2px 6px; text-shadow: 0 1px 0 #000; box-shadow: 0 1px 3px rgba(0,0,0,0.6); background: -webkit-gradient(linear, left top, left bottom, color-stop(0%,#808080), color-stop(2%,#303030), color-stop(100%,#0c0c0c));"><span style="font-size: 14px; font-weight: bold;"><a href="javascript:void(0);" style="color: #fff; cursor: pointer;text-decoration: none;">-</a></span> / ZTHOT<br/>Cape Town Helicopters</div>

<div style="border-top: 1px solid #005c90; color: #fff; padding-bottom: 5px; box-shadow: 0 0 1px #9BE3F6 inset, 0 1px 0 #9BE3F6 inset, 0 -1px 3px rgba(0,0,0,0.4); background:rgba(43,114,173,1); background: -webkit-gradient(linear, left top, left bottom, color-stop(0%,rgba(92,184,229,1)), color-stop(100%,rgba(43,114,173,1)));">
<a style="text-decoration: none; color: rgb(255, 255, 255); font-size: 12px; width:77px; display: inline-block;" title=" Airport" href="javascript:void(0);/departures"><h3 style="padding: 0px; margin: 10px 0px 0px; font-size: 16px; ">?</h3></a>
<span style="background: url(https://www.flightradar24.com/static/images/userUI_sprite.png?14) no-repeat scroll 0 -464px rgba(0, 0, 0, 0); border: medium none; display: inline-block; height: 16px; width: 45px;"></span>
<a style="text-decoration: none; color: rgb(255, 255, 255); font-size: 12px; width:77px; display: inline-block;" title=" Airport" href="javascript:void(0);/arrivals"><h3 style="padding: 0px; margin: 10px 0px 0px; font-size: 16px;">?</h3></a>
<div style=" margin-top:10px;">
<div style="display: inline-block; font-size: 12px; padding: 0 5px;">
<div>
<span style="color: #c1eaff;" title="Actual Time of Departure">ATD </span>
<span title="2025-07-22 06:32">06:32</span> <span title="Coordinated Universal Time">UTC</span>
</div>
</div>
<div style="display: inline-block; font-size: 12px; padding: 0 5px;">
<div>
<span style="color: #c1eaff;" title="Estimated Time of Arrival">ETA </span>
<span title="2025-07-22 06:50">06:50</span> <span title="Coordinated Universal Time">UTC</span>
</div>
</div>
</div>
<br style="clear: both;"/>
</div>

<div style="display: block;">
<table style="border-collapse: collapse; width: 100%;">
<tr style="border-right: 1px solid #dadada; ">
<td style="background: none repeat scroll 0 0 #dadada; padding: 0; width: 31px;">
<span style="background: url(https://www.flightradar24.com/static/images/userUI_sprite.png?14) no-repeat scroll -208px -464px rgba(0, 0, 0, 0); height: 26px; margin: 8px 0 0 4px; width: 23px; display: block;"></span>
</td>
<td colspan="2" style="border-bottom: 1px solid #dadada; border-left: 1px solid #dadada; color: #666; line-height: 1.1em; padding: 3px 6px; vertical-align: top; font-size: 14px;">
Aircraft<span style="float: right; font-size: 12px;">(AS50)</span><br>
<span style="color: #333; font-size: 16px; font-weight: bold; line-height: 1.3em;">Airbus Helicopters H125</span>
</td>
</tr>
<tr style="border-right: 1px solid #dadada; ">
<td style="background: none repeat scroll 0 0 #dadada; padding: 0; width: 31px;">
<td colspan="2" style="border-bottom: 1px solid #dadada; border-left: 1px solid #dadada; color: #666; line-height: 1.1em; padding: 3px 6px; vertical-align: top; font-size: 14px;">
Registration<br>
<span style="color: #333; font-size: 16px; font-weight: bold; line-height: 1.3em;"><a href="https://www.flightradar24.com/reg/zt-hot" style="text-decoration: none; color: #333;">ZT-HOT</a></span>
</td>
</tr>
</table>
</div>

</div>
</div>]]></description>
      <styleUrl>#flightPath</styleUrl>
      <LineString>
        <extrude>1</extrude>
        <tessellate>1</tessellate>
        <altitudeMode>absolute</altitudeMode>
        <coordinates>
          18.43729,-33.900505,60.96 18.441067,-33.896873,91.44 18.442625,-33.892181,152.4 18.441896,-33.887146,182.88 18.438892,-33.881229,213.36 18.434778,-33.876572,243.84 18.428669,-33.873001,274.32 18.422167,-33.871628,304.8 18.416281,-33.871628,335.28 18.409163,-33.873459,365.76 18.403702,-33.876251,396.24 18.398792,-33.879318,426.72 18.39426,-33.882534,457.2 18.389656,-33.886322,518.16 18.385956,-33.889664,548.64 18.382145,-33.893509,609.6 18.378445,-33.897354,640.08 18.370375,-33.906372,731.52 18.361069,-33.917542,822.96 18.357925,-33.922058,853.44 18.355007,-33.926804,883.92 18.352213,-33.931961,883.92 18.349579,-33.937271,914.4 18.346552,-33.944412,944.88 18.343277,-33.953434,944.88 18.335733,-33.974075,975.36 18.330975,-33.984901,944.88 18.327997,-33.99028,944.88 18.323961,-33.996918,914.4 18.315891,-34.00946,944.88 18.304567,-34.026672,975.36 18.297504,-34.039536,975.36 18.296272,-34.045624,975.36 18.298759,-34.050217,975.36 18.304253,-34.050961,944.88 18.308086,-34.047142,944.88 18.309803,-34.041977,914.4 18.311575,-34.036835,914.4 18.314209,-34.028,883.92 18.31959,-34.013123,914.4 18.32222,-34.0079,914.4 18.327255,-33.997612,914.4 18.333263,-33.986298,853.44 18.337612,-33.979038,822.96 18.343964,-33.967445,731.52 18.349522,-33.955719,701.04 18.358995,-33.937271,640.08 18.363132,-33.92783,640.08 18.364277,-33.922756,640.08 18.364824,-33.917358,670.56 18.364601,-33.911865,670.56 18.364656,-33.905319,670.56 18.368637,-33.901245,670.56 18.374748,-33.899014,609.6 18.381023,-33.897263,579.12 18.387222,-33.895802,518.16 18.39868,-33.892136,426.72 18.409443,-33.888977,274.32 18.414631,-33.887886,243.84 18.421158,-33.886642,182.88 18.426203,-33.886047,152.4 18.430538,-33.887794,152.4 18.431919,-33.890854,121.92 18.430653,-33.893661,91.44 18.429285,-33.895889,30.48 18.428164,-33.897995,0 18.426933,-33.900318,0 18.438721,-33.89957,60.96 18.439522,-33.898922,91.44 18.441561,-33.895935,91.44 18.441868,-33.895103,121.92 18.442669,-33.891285,152.4 18.442625,-33.890259,182.88 18.441448,-33.885956,182.88 18.440664,-33.884354,182.88 18.43832,-33.880344,213.36 18.437469,-33.879272,213.36 18.433657,-33.875702,243.84 18.432484,-33.874901,243.84 18.42738,-33.872635,274.32 18.426304,-33.872341,274.32 18.421097,-33.871502,304.8 18.419643,-33.87149,304.8 18.414688,-33.871872,335.28 18.412525,-33.872314,335.28 18.408041,-33.873962,365.76 18.406849,-33.874527,365.76 18.402773,-33.876801,396.24 18.401932,-33.877304,426.72 18.39798,-33.879833,457.2 18.397064,-33.880486,457.2 18.393299,-33.883301,487.68 18.392372,-33.884026,487.68 18.388927,-33.886963,518.16 18.388195,-33.887608,518.16 18.385048,-33.890541,579.12 18.384331,-33.891312,579.12 18.381304,-33.894333,609.6 18.380743,-33.894928,609.6 18.377781,-33.898083,640.08 18.376987,-33.898956,670.56 18.367653,-33.909393,762 18.365217,-33.912231,762 18.36062,-33.918182,822.96 18.359871,-33.919266,822.96 18.35737,-33.922943,853.44 18.356781,-33.923824,853.44 18.354435,-33.927876,883.92 18.353725,-33.929077,883.92 18.351652,-33.93306,883.92 18.351173,-33.933975,914.4 18.348427,-33.939793,914.4 18.348083,-33.940632,914.4 18.345879,-33.946198,944.88 18.345486,-33.947296,944.88 18.340834,-33.960114,944.88 18.339489,-33.963959,975.36 18.334236,-33.978058,944.88 18.332706,-33.981491,944.88 18.330345,-33.986115,944.88 18.329773,-33.987091,944.88 18.32737,-33.99128,944.88 18.326765,-33.992294,944.88 18.323233,-33.998062,914.4 18.322449,-33.999298,914.4 18.313179,-34.013393,975.36 18.311407,-34.016052,975.36 18.302662,-34.029831,975.36 18.300251,-34.034042,975.36 18.297169,-34.040588,975.36 18.2967,-34.041927,975.36 18.29644,-34.046631,975.36 18.296721,-34.047592,975.36 18.299635,-34.050751,975.36 18.300869,-34.051163,944.88 18.305225,-34.050541,944.88 18.30637,-34.049751,944.88 18.308435,-34.046082,944.88 18.308716,-34.045212,944.88 18.310204,-34.040905,914.4 18.310566,-34.03981,914.4 18.311911,-34.035645,914.4 18.312246,-34.034546,914.4 18.315218,-34.024841,883.92 18.31662,-34.020676,883.92 18.319988,-34.01218,914.4 18.320675,-34.01088,914.4 18.322842,-34.006714,914.4 18.323421,-34.005665,914.4 18.329372,-33.993237,883.92 18.330969,-33.990326,883.92 18.33395,-33.985088,853.44 18.334408,-33.98439,853.44 18.339882,-33.97522,792.48 18.341675,-33.971962,762 18.344536,-33.966236,731.52 18.345318,-33.9646,731.52 18.351149,-33.95224,670.56 18.353176,-33.948311,670.56 18.360729,-33.93388,640.08 18.36219,-33.930771,640.08 18.363422,-33.926651,640.08 18.363703,-33.92569,640.08 18.364449,-33.921497,640.08 18.364601,-33.920563,640.08 18.364824,-33.916351,670.56 18.364824,-33.915207,670.56 18.364506,-33.910885,670.56 18.364334,-33.909626,670.56 18.365078,-33.904415,670.56 18.365765,-33.903484,670.56 18.370056,-33.900597,640.08 18.371046,-33.900192,640.08 18.376064,-33.89864,609.6 18.377323,-33.89827,609.6 18.382425,-33.896942,548.64 18.383547,-33.896713,548.64 18.392178,-33.894333,487.68 18.395576,-33.893196,457.2 18.399696,-33.8918,396.24 18.400784,-33.891426,396.24 18.410339,-33.888771,274.32 18.411541,-33.888493,274.32 18.415833,-33.887653,243.84 18.416954,-33.887466,213.36 18.421898,-33.88649,182.88 18.423328,-33.886307,182.88 18.427435,-33.886185,152.4 18.428276,-33.886414,152.4 18.43111,-33.888447,152.4 18.431568,-33.889004,152.4 18.431751,-33.891449,121.92 18.431583,-33.891998,121.92 18.430294,-33.894241,60.96 18.430014,-33.894699,60.96 18.429173,-33.896118,30.48 18.428892,-33.896576,30.48 18.42802,-33.898361,0 18.427849,-33.898689,0 18.426874,-33.900558,0 18.426987,-33.900833,0
        </coordinates>
      </LineString>
    </Placemark>
  </Document>
</kml>