<?xml version="1.0" encoding="UTF-8"?>
<kml xmlns="http://www.opengis.net/kml/2.2">
  <Document>
    <name>-/ZTHOT - Optimised</name>
    <description><![CDATA[Optimised flight path with 579 points (decimated from 2891 original points). Source format: Standard KML]]></description>
    
    <Style id="flightPath">
      <LineStyle>
        <color>ff0000ff</color>
        <width>3</width>
      </LineStyle>
    </Style>
    
    <Placemark>
      <name>Flight Path</name>
      <description><![CDATA[<div style="width:220px; text-align:center;">
<div style="width:210px; text-align:center;">
<div style=" background: #000; color: #fff; font-size: 14px; text-align:left; border: 1px solid #000; padding: 2px 6px; text-shadow: 0 1px 0 #000; box-shadow: 0 1px 3px rgba(0,0,0,0.6); background: -webkit-gradient(linear, left top, left bottom, color-stop(0%,#808080), color-stop(2%,#303030), color-stop(100%,#0c0c0c));"><span style="font-size: 14px; font-weight: bold;"><a href="javascript:void(0);" style="color: #fff; cursor: pointer;text-decoration: none;">-</a></span> / ZTHOT<br/>Cape Town Helicopters</div>

<div style="border-top: 1px solid #005c90; color: #fff; padding-bottom: 5px; box-shadow: 0 0 1px #9BE3F6 inset, 0 1px 0 #9BE3F6 inset, 0 -1px 3px rgba(0,0,0,0.4); background:rgba(43,114,173,1); background: -webkit-gradient(linear, left top, left bottom, color-stop(0%,rgba(92,184,229,1)), color-stop(100%,rgba(43,114,173,1)));">
<a style="text-decoration: none; color: rgb(255, 255, 255); font-size: 12px; width:77px; display: inline-block;" title=" Airport" href="javascript:void(0);/departures"><h3 style="padding: 0px; margin: 10px 0px 0px; font-size: 16px; ">?</h3></a>
<span style="background: url(https://www.flightradar24.com/static/images/userUI_sprite.png?14) no-repeat scroll 0 -464px rgba(0, 0, 0, 0); border: medium none; display: inline-block; height: 16px; width: 45px;"></span>
<a style="text-decoration: none; color: rgb(255, 255, 255); font-size: 12px; width:77px; display: inline-block;" title=" Airport" href="javascript:void(0);/arrivals"><h3 style="padding: 0px; margin: 10px 0px 0px; font-size: 16px;">?</h3></a>
<div style=" margin-top:10px;">
<div style="display: inline-block; font-size: 12px; padding: 0 5px;">
<div>
<span style="color: #c1eaff;" title="Actual Time of Departure">ATD </span>
<span title="2025-07-12 09:32">09:32</span> <span title="Coordinated Universal Time">UTC</span>
</div>
</div>
<div style="display: inline-block; font-size: 12px; padding: 0 5px;">
<div>
<span style="color: #c1eaff;" title="Estimated Time of Arrival">ETA </span>
<span title="2025-07-12 11:01">11:01</span> <span title="Coordinated Universal Time">UTC</span>
</div>
</div>
</div>
<br style="clear: both;"/>
</div>

<div style="display: block;">
<table style="border-collapse: collapse; width: 100%;">
<tr style="border-right: 1px solid #dadada; ">
<td style="background: none repeat scroll 0 0 #dadada; padding: 0; width: 31px;">
<span style="background: url(https://www.flightradar24.com/static/images/userUI_sprite.png?14) no-repeat scroll -208px -464px rgba(0, 0, 0, 0); height: 26px; margin: 8px 0 0 4px; width: 23px; display: block;"></span>
</td>
<td colspan="2" style="border-bottom: 1px solid #dadada; border-left: 1px solid #dadada; color: #666; line-height: 1.1em; padding: 3px 6px; vertical-align: top; font-size: 14px;">
Aircraft<span style="float: right; font-size: 12px;">(AS50)</span><br>
<span style="color: #333; font-size: 16px; font-weight: bold; line-height: 1.3em;">Airbus Helicopters H125</span>
</td>
</tr>
<tr style="border-right: 1px solid #dadada; ">
<td style="background: none repeat scroll 0 0 #dadada; padding: 0; width: 31px;">
<td colspan="2" style="border-bottom: 1px solid #dadada; border-left: 1px solid #dadada; color: #666; line-height: 1.1em; padding: 3px 6px; vertical-align: top; font-size: 14px;">
Registration<br>
<span style="color: #333; font-size: 16px; font-weight: bold; line-height: 1.3em;"><a href="https://www.flightradar24.com/reg/zt-hot" style="text-decoration: none; color: #333;">ZT-HOT</a></span>
</td>
</tr>
</table>
</div>

</div>
</div>]]></description>
      <styleUrl>#flightPath</styleUrl>
      <LineString>
        <extrude>1</extrude>
        <tessellate>1</tessellate>
        <altitudeMode>absolute</altitudeMode>
        <coordinates>
          18.433342,-33.900131,60.96 18.438091,-33.898037,121.92 18.439878,-33.89447,182.88 18.440552,-33.890587,243.84 18.439991,-33.886688,304.8 18.438606,-33.882675,365.76 18.436375,-33.878532,426.72 18.433208,-33.875473,487.68 18.428892,-33.873642,518.16 18.423176,-33.87442,518.16 18.420296,-33.877365,518.16 18.420982,-33.881046,548.64 18.42453,-33.883232,548.64 18.428879,-33.88216,518.16 18.429108,-33.878159,518.16 18.424913,-33.875153,548.64 18.419252,-33.874329,548.64 18.412971,-33.874619,548.64 18.406471,-33.87561,548.64 18.399639,-33.877365,548.64 18.39323,-33.879929,548.64 18.387451,-33.883278,548.64 18.382032,-33.887283,579.12 18.376865,-33.891659,579.12 18.371943,-33.896301,579.12 18.36668,-33.901573,548.64 18.362446,-33.906414,579.12 18.358435,-33.911453,579.12 18.354721,-33.916798,609.6 18.351288,-33.921871,609.6 18.344479,-33.93351,640.08 18.344364,-33.93821,670.56 18.34734,-33.941608,701.04 18.352432,-33.94212,701.04 18.355694,-33.93956,701.04 18.35552,-33.93544,701.04 18.351372,-33.934753,731.52 18.348484,-33.940353,701.04 18.347225,-33.945518,701.04 18.345991,-33.951416,701.04 18.342684,-33.970596,670.56 18.342819,-33.985649,670.56 18.344479,-33.996403,701.04 18.345852,-34.001942,701.04 18.34734,-34.007668,701.04 18.3521,-34.028824,701.04 18.35495,-34.046024,640.08 18.355064,-34.052731,579.12 18.353951,-34.05899,579.12 18.351517,-34.065765,548.64 18.348427,-34.072094,518.16 18.345037,-34.082016,518.16 18.344757,-34.088333,518.16 18.345966,-34.094299,518.16 18.348457,-34.100281,518.16 18.350544,-34.105518,518.16 18.352489,-34.113338,518.16 18.351988,-34.118958,518.16 18.349113,-34.124279,518.16 18.344421,-34.12875,518.16 18.3391,-34.132614,518.16 18.333603,-34.136261,518.16 18.325644,-34.146286,518.16 18.324802,-34.154846,518.16 18.325367,-34.161011,518.16 18.327158,-34.166382,548.64 18.330408,-34.171143,548.64 18.334051,-34.175674,548.64 18.338127,-34.180191,518.16 18.34259,-34.184193,518.16 18.347282,-34.188148,518.16 18.354092,-34.194622,548.64 18.357697,-34.198811,548.64 18.360846,-34.203278,518.16 18.363876,-34.208588,518.16 18.366394,-34.214035,518.16 18.36834,-34.21962,518.16 18.369421,-34.225433,518.16 18.370228,-34.231396,518.16 18.372561,-34.240585,518.16 18.37413,-34.245895,518.16 18.38063,-34.265579,548.64 18.395405,-34.297733,518.16 18.40353,-34.311607,518.16 18.407879,-34.317566,518.16 18.416634,-34.328087,518.16 18.421555,-34.332275,518.16 18.426704,-34.336044,518.16 18.431303,-34.339279,548.64 18.44257,-34.347107,548.64 18.45776,-34.358047,548.64 18.468876,-34.365654,548.64 18.474745,-34.368988,548.64 18.480293,-34.371735,548.64 18.48601,-34.373886,548.64 18.491707,-34.375336,548.64 18.497372,-34.376034,579.12 18.502865,-34.375896,579.12 18.508015,-34.374916,579.12 18.512135,-34.372868,609.6 18.514137,-34.369331,609.6 18.512691,-34.365326,609.6 18.507614,-34.363186,579.12 18.500584,-34.363403,579.12 18.493423,-34.364071,548.64 18.484385,-34.363998,518.16 18.477322,-34.36203,518.16 18.471107,-34.358952,548.64 18.469734,-34.360813,579.12 18.474827,-34.361603,579.12 18.480148,-34.362164,548.64 18.488478,-34.36322,548.64 18.497772,-34.362812,579.12 18.501144,-34.358276,579.12 18.499855,-34.352692,579.12 18.496113,-34.346661,548.64 18.492451,-34.341167,548.64 18.485954,-34.332367,518.16 18.479118,-34.32143,518.16 18.476715,-34.315472,518.16 18.474968,-34.309525,518.16 18.474239,-34.303574,518.16 18.474127,-34.297119,518.16 18.474632,-34.290665,518.16 18.475697,-34.284668,487.68 18.476986,-34.278259,487.68 18.480461,-34.260498,518.16 18.481178,-34.251881,518.16 18.481293,-34.246201,548.64 18.480909,-34.240494,548.64 18.479788,-34.234772,548.64 18.477882,-34.228638,548.64 18.475513,-34.222458,518.16 18.472895,-34.216599,518.16 18.470203,-34.210785,518.16 18.46384,-34.19923,518.16 18.460464,-34.194435,518.16 18.456802,-34.189686,518.16 18.450108,-34.178745,457.2 18.447247,-34.172276,426.72 18.445415,-34.166271,365.76 18.444195,-34.159836,335.28 18.443985,-34.153839,304.8 18.444672,-34.14793,304.8 18.445644,-34.14262,304.8 18.448162,-34.13736,304.8 18.451538,-34.132797,274.32 18.455349,-34.128204,274.32 18.459442,-34.123718,243.84 18.463926,-34.119324,243.84 18.46841,-34.115158,243.84 18.473625,-34.111057,213.36 18.478889,-34.107613,182.88 18.484722,-34.104813,182.88 18.490963,-34.102493,182.88 18.496828,-34.100693,213.36 18.502659,-34.099091,213.36 18.508816,-34.097607,182.88 18.515158,-34.096802,182.88 18.521828,-34.096252,152.4 18.523903,-34.092224,152.4 18.520819,-34.088882,182.88 18.515396,-34.089134,182.88 18.512411,-34.092636,182.88 18.51314,-34.097031,182.88 18.517342,-34.099327,182.88 18.522778,-34.098957,182.88 18.528214,-34.097607,182.88 18.532848,-34.095745,182.88 18.534908,-34.092018,182.88 18.532276,-34.088203,182.88 18.527012,-34.087456,182.88 18.522276,-34.089523,182.88 18.520258,-34.094147,182.88 18.52194,-34.098038,182.88 18.526817,-34.099228,182.88 18.53231,-34.098541,182.88 18.536167,-34.096069,182.88 18.539486,-34.092438,182.88 18.546352,-34.090996,121.92 18.552761,-34.090019,91.44 18.559742,-34.087643,60.96 18.565382,-34.085175,30.48 18.572674,-34.083035,30.48 18.578682,-34.08173,30.48 18.583431,-34.080708,30.48 18.589371,-34.079681,30.48 18.593857,-34.079178,30.48 18.597555,-34.078766,30.48 18.609943,-34.077805,30.48 18.626976,-34.076237,0 18.638754,-34.07515,60.96 18.644829,-34.075169,91.44 18.651409,-34.07526,121.92 18.664482,-34.074646,121.92 18.669491,-34.071304,152.4 18.67345,-34.06723,152.4 18.677502,-34.062645,213.36 18.680962,-34.058167,213.36 18.684381,-34.053497,213.36 18.697071,-34.036949,274.32 18.707699,-34.022049,243.84 18.71212,-34.014835,243.84 18.719788,-34.003757,274.32 18.725243,-33.996643,274.32 18.739985,-33.978653,213.36 18.747883,-33.970284,243.84 18.752518,-33.966141,243.84 18.758011,-33.961906,213.36 18.763359,-33.958649,243.84 18.769526,-33.955399,213.36 18.776207,-33.95269,213.36 18.78376,-33.950222,213.36 18.800526,-33.944916,213.36 18.825857,-33.937317,213.36 18.845196,-33.931366,274.32 18.851923,-33.929901,304.8 18.863239,-33.927505,365.76 18.881207,-33.924152,426.72 18.900408,-33.921661,457.2 18.918686,-33.919914,457.2 18.925095,-33.918285,457.2 18.932133,-33.9161,457.2 18.938356,-33.914108,457.2 18.956125,-33.9077,457.2 18.970194,-33.90303,426.72 18.976707,-33.901714,396.24 18.983917,-33.900364,426.72 18.990898,-33.899479,426.72 18.998108,-33.899002,426.72 19.012066,-33.897537,426.72 19.037189,-33.894173,365.76 19.066372,-33.895012,365.76 19.059105,-33.89394,365.76 19.052143,-33.893326,365.76 19.043655,-33.893101,365.76 19.037075,-33.893242,365.76 19.02586,-33.893753,365.76 19.002514,-33.895382,396.24 18.989532,-33.897217,396.24 18.981293,-33.899002,396.24 18.973961,-33.900784,365.76 18.954836,-33.905228,396.24 18.945698,-33.90683,426.72 18.937571,-33.907745,426.72 18.930531,-33.907532,426.72 18.924175,-33.906784,426.72 18.916719,-33.905869,396.24 18.892536,-33.903252,335.28 18.86801,-33.899872,274.32 18.845982,-33.895523,213.36 18.833542,-33.892265,213.36 18.827076,-33.890167,213.36 18.817291,-33.887516,213.36 18.809938,-33.886505,243.84 18.799381,-33.886677,243.84 18.78828,-33.887653,213.36 18.778997,-33.888657,213.36 18.770199,-33.890308,213.36 18.763472,-33.892136,213.36 18.756695,-33.894497,213.36 18.750074,-33.897125,213.36 18.74346,-33.899963,213.36 18.719044,-33.910931,213.36 18.708572,-33.914238,213.36 18.701702,-33.914749,213.36 18.694021,-33.914886,213.36 18.686771,-33.914886,213.36 18.672161,-33.914474,213.36 18.643967,-33.912598,213.36 18.619192,-33.910629,213.36 18.594416,-33.909027,213.36 18.568668,-33.908604,213.36 18.545265,-33.908417,213.36 18.537655,-33.908928,182.88 18.530573,-33.909805,213.36 18.523407,-33.910976,213.36 18.516369,-33.912281,213.36 18.50481,-33.91354,182.88 18.498117,-33.913513,182.88 18.490963,-33.913025,182.88 18.483982,-33.912189,213.36 18.476715,-33.910793,213.36 18.469963,-33.908463,182.88 18.463308,-33.905685,121.92 18.456974,-33.902924,121.92 18.448624,-33.898682,91.44 18.442457,-33.895798,91.44 18.431919,-33.898773,0 18.426991,-33.90097,0 18.43775,-33.898407,121.92 18.438091,-33.898037,121.92 18.439579,-33.895245,182.88 18.439878,-33.89447,182.88 18.440495,-33.891472,243.84 18.440552,-33.890587,243.84 18.440151,-33.88747,304.8 18.439991,-33.886688,304.8 18.438869,-33.883392,365.76 18.438606,-33.882675,365.76 18.43689,-33.879322,426.72 18.436375,-33.878532,426.72 18.433994,-33.87616,457.2 18.433208,-33.875473,487.68 18.429846,-33.873825,518.16 18.428892,-33.873642,518.16 18.424988,-33.873737,518.16 18.423176,-33.87442,518.16 18.420811,-33.876434,518.16 18.420296,-33.877365,518.16 18.420467,-33.880299,548.64 18.420982,-33.881046,548.64 18.423737,-33.88298,548.64 18.42453,-33.883232,548.64 18.428135,-33.882767,518.16 18.428879,-33.88216,518.16 18.42951,-33.878906,518.16 18.429108,-33.878159,518.16 18.425961,-33.875553,518.16 18.424913,-33.875153,548.64 18.420525,-33.874386,548.64 18.419252,-33.874329,548.64 18.414488,-33.874466,548.64 18.412971,-33.874619,548.64 18.407928,-33.875336,548.64 18.406471,-33.87561,548.64 18.401091,-33.876938,579.12 18.399639,-33.877365,548.64 18.394308,-33.87941,548.64 18.39323,-33.879929,548.64 18.388422,-33.882614,548.64 18.387451,-33.883278,548.64 18.382929,-33.886551,579.12 18.382032,-33.887283,579.12 18.377884,-33.890808,579.12 18.376865,-33.891659,579.12 18.372841,-33.895477,579.12 18.371943,-33.896301,579.12 18.367939,-33.900223,548.64 18.36668,-33.901573,548.64 18.363144,-33.905502,579.12 18.362446,-33.906414,579.12 18.359108,-33.910538,579.12 18.358435,-33.911453,579.12 18.355522,-33.915634,609.6 18.354721,-33.916798,609.6 18.351933,-33.920929,609.6 18.351288,-33.921871,609.6 18.345337,-33.931648,640.08 18.344479,-33.93351,640.08 18.344135,-33.93742,670.56 18.344364,-33.93821,670.56 18.34672,-33.941208,701.04 18.34734,-33.941608,701.04 18.351345,-33.942352,701.04 18.352432,-33.94212,701.04 18.355179,-33.940353,701.04 18.355694,-33.93956,701.04 18.355865,-33.936211,701.04 18.35552,-33.93544,701.04 18.352268,-33.934387,731.52 18.351372,-33.934753,731.52 18.348827,-33.93914,701.04 18.348484,-33.940353,701.04 18.347511,-33.944401,701.04 18.347225,-33.945518,701.04 18.346252,-33.950314,701.04 18.345991,-33.951416,701.04 18.34362,-33.964931,701.04 18.342684,-33.970596,670.56 18.34259,-33.982483,670.56 18.342819,-33.985649,670.56 18.344196,-33.995087,701.04 18.344479,-33.996403,701.04 18.345598,-34.0009,701.04 18.345852,-34.001942,701.04 18.347054,-34.006409,701.04 18.34734,-34.007668,701.04 18.351091,-34.024017,701.04 18.3521,-34.028824,701.04 18.354792,-34.044571,640.08 18.35495,-34.046024,640.08 18.355127,-34.051392,609.6 18.355064,-34.052731,579.12 18.354286,-34.057846,579.12 18.353951,-34.05899,579.12 18.352146,-34.064274,548.64 18.351517,-34.065765,548.64 18.349298,-34.070343,518.16 18.348427,-34.072094,518.16 18.345318,-34.080551,518.16 18.345037,-34.082016,518.16 18.34465,-34.086945,518.16 18.344757,-34.088333,518.16 18.345711,-34.093552,518.16 18.345966,-34.094299,518.16 18.347897,-34.099045,518.16 18.348457,-34.100281,518.16 18.350143,-34.10445,518.16 18.350544,-34.105518,518.16 18.352268,-34.112,518.16 18.352489,-34.113338,518.16 18.352268,-34.117996,518.16 18.351988,-34.118958,518.16 18.349859,-34.123352,518.16 18.349113,-34.124279,518.16 18.345318,-34.127975,518.16 18.344421,-34.12875,518.16 18.340162,-34.131912,518.16 18.3391,-34.132614,518.16 18.334866,-34.135361,518.16 18.333603,-34.136261,518.16 18.326454,-34.144016,518.16 18.325644,-34.146286,518.16 18.324747,-34.153793,518.16 18.324802,-34.154846,518.16 18.325138,-34.159752,518.16 18.325367,-34.161011,518.16 18.326653,-34.165283,518.16 18.327158,-34.166382,548.64 18.329792,-34.170273,548.64 18.330408,-34.171143,548.64 18.33349,-34.174988,518.16 18.334051,-34.175674,548.64 18.337383,-34.179443,518.16 18.338127,-34.180191,518.16 18.341618,-34.183403,518.16 18.34259,-34.184193,518.16 18.346272,-34.187347,518.16 18.347282,-34.188148,518.16 18.353222,-34.193665,548.64 18.354092,-34.194622,548.64 18.35692,-34.19783,548.64 18.357697,-34.198811,548.64 18.360271,-34.202396,548.64 18.360846,-34.203278,518.16 18.363255,-34.207397,518.16 18.363876,-34.208588,518.16 18.365833,-34.212753,518.16 18.366394,-34.214035,518.16 18.367996,-34.218361,518.16 18.36834,-34.21962,518.16 18.369255,-34.224461,518.16 18.369421,-34.225433,518.16 18.370094,-34.230286,518.16 18.370228,-34.231396,518.16 18.372173,-34.239265,518.16 18.372561,-34.240585,518.16 18.37385,-34.245071,518.16 18.37413,-34.245895,518.16 18.379097,-34.261421,518.16 18.38063,-34.265579,548.64 18.38562,-34.277157,548.64 18.395405,-34.297733,518.16 18.399982,-34.30616,518.16 18.40353,-34.311607,518.16 18.406864,-34.316208,518.16 18.407879,-34.317566,518.16 18.415945,-34.327377,518.16 18.416634,-34.328087,518.16 18.420296,-34.331253,518.16 18.421555,-34.332275,518.16 18.425755,-34.335388,518.16 18.426704,-34.336044,518.16 18.430126,-34.338455,548.64 18.431303,-34.339279,548.64 18.43935,-34.344936,548.64 18.44257,-34.347107,548.64 18.455257,-34.356205,548.64 18.45776,-34.358047,548.64 18.467682,-34.364868,548.64 18.468876,-34.365654,548.64 18.473339,-34.368214,548.64 18.474745,-34.368988,548.64 18.479452,-34.371323,548.64 18.480293,-34.371735,548.64 18.484783,-34.373474,548.64 18.48601,-34.373886,548.64 18.490606,-34.375122,548.64 18.491707,-34.375336,548.64 18.49638,-34.375992,579.12 18.497372,-34.376034,579.12 18.50165,-34.375992,579.12 18.502865,-34.375896,579.12 18.506985,-34.375198,579.12 18.508015,-34.374916,579.12 18.511276,-34.373474,579.12 18.512135,-34.372868,609.6 18.513908,-34.370262,609.6 18.514137,-34.369331,609.6 18.51342,-34.366287,609.6 18.512691,-34.365326,609.6 18.509048,-34.363403,609.6 18.507614,-34.363186,579.12 18.501835,-34.363277,579.12 18.500584,-34.363403,579.12 18.494625,-34.363979,548.64 18.493423,-34.364071,548.64 18.485699,-34.364162,518.16 18.484385,-34.363998,518.16 18.4785,-34.362534,518.16 18.477322,-34.36203,518.16 18.472137,-34.359463,518.16 18.471107,-34.358952,548.64 18.468876,-34.360298,579.12 18.469734,-34.360813,579.12 18.473455,-34.361435,579.12 18.474827,-34.361603,579.12 18.479172,-34.36203,548.64 18.480148,-34.362164,548.64 18.484777,-34.362717,548.64 18.488478,-34.36322,548.64 18.496492,-34.36322,548.64 18.497772,-34.362812,579.12 18.500696,-34.360062,579.12 18.501144,-34.358276,579.12 18.500404,-34.353691,579.12 18.499855,-34.352692,579.12 18.496914,-34.347916,548.64 18.496113,-34.346661,548.64 18.493185,-34.342255,548.64 18.492451,-34.341167,548.64 18.488926,-34.336395,518.16 18.485954,-34.332367,518.16 18.479788,-34.322754,518.16 18.479118,-34.32143,518.16 18.477266,-34.31694,518.16 18.476715,-34.315472,518.16 18.475227,-34.310722,518.16 18.474968,-34.309525,518.16 18.474295,-34.304672,518.16 18.474239,-34.303574,518.16 18.474127,-34.298447,518.16 18.474127,-34.297119,518.16 18.474483,-34.292286,518.16 18.474632,-34.290665,518.16 18.475416,-34.285812,487.68 18.475697,-34.284668,487.68 18.476715,-34.279625,487.68 18.476986,-34.278259,487.68 18.479507,-34.265076,518.16 18.480461,-34.260498,518.16 18.481121,-34.253464,518.16 18.481178,-34.251881,518.16 18.481302,-34.247543,548.64 18.481293,-34.246201,548.64 18.481007,-34.241497,548.64 18.480909,-34.240494,548.64 18.480125,-34.235962,548.64 18.479788,-34.234772,548.64 18.47822,-34.229736,548.64 18.477882,-34.228638,548.64 18.476143,-34.223854,518.16 18.475513,-34.222458,518.16 18.473511,-34.217926,518.16 18.472895,-34.216599,518.16 18.470652,-34.211792,518.16 18.470203,-34.210785,518.16 18.464413,-34.200161,518.16 18.46384,-34.19923,518.16 18.46118,-34.195358,518.16 18.460464,-34.194435,518.16 18.457479,-34.190598,518.16 18.456802,-34.189686,518.16 18.450809,-34.180161,457.2 18.450108,-34.178745,457.2 18.44767,-34.17334,426.72 18.447247,-34.172276,426.72 18.445709,-34.167343,365.76 18.445415,-34.166271,365.76 18.444386,-34.161102,335.28 18.444195,-34.159836,335.28 18.443914,-34.154938,335.28 18.443985,-34.153839,304.8 18.444532,-34.149307,304.8 18.444672,-34.14793,304.8 18.445358,-34.143925,304.8 18.445644,-34.14262,304.8 18.447502,-34.138412,304.8 18.448162,-34.13736,304.8 18.450794,-34.133732,274.32 18.451538,-34.132797,274.32 18.454685,-34.128983,274.32 18.455349,-34.128204,274.32 18.458462,-34.124699,274.32 18.459442,-34.123718,243.84 18.46314,-34.120102,243.84 18.463926,-34.119324,243.84 18.467402,-34.116028,243.84 18.46841,-34.115158,243.84 18.472652,-34.11171,213.36 18.473625,-34.111057,213.36 18.477688,-34.10836,182.88 18.478889,-34.107613,182.88 18.483601,-34.10527,182.88 18.484722,-34.104813,182.88 18.489704,-34.102959,182.88 18.490963,-34.102493,182.88 18.495708,-34.101013,213.36 18.496828,-34.100693,213.36 18.501537,-34.099411,213.36 18.502659,-34.099091,213.36 18.507614,-34.097885,182.88 18.508816,-34.097607,182.88 18.513926,-34.096848,152.4 18.515158,-34.096802,182.88 18.520031,-34.096859,152.4 18.521828,-34.096252,152.4 18.523922,-34.093231,182.88 18.523903,-34.092224,152.4 18.521919,-34.089458,182.88 18.520819,-34.088882,182.88 18.516769,-34.088573,182.88 18.515396,-34.089134,182.88 18.512804,-34.091675,182.88 18.512411,-34.092636,182.88 18.512747,-34.096436,182.88 18.51314,-34.097031,182.88 18.51614,-34.099094,182.88 18.517342,-34.099327,182.88 18.521805,-34.099094,182.88 18.522778,-34.098957,182.88 18.52693,-34.097946,152.4 18.528214,-34.097607,182.88 18.531862,-34.096298,182.88 18.532848,-34.095745,182.88 18.534777,-34.093002,182.88 18.534908,-34.092018,182.88 18.533262,-34.088882,182.88 18.532276,-34.088203,182.88 18.528387,-34.087326,182.88 18.527012,-34.087456,182.88 18.523117,-34.088928,182.88 18.522276,-34.089523,182.88 18.52037,-34.093185,182.88 18.520258,-34.094147,182.88 18.521324,-34.097443,182.88 18.52194,-34.098038,182.88 18.525696,-34.099236,182.88 18.526817,-34.099228,182.88 18.531357,-34.098724,182.88 18.53231,-34.098541,182.88 18.535709,-34.096626,182.88 18.536167,-34.096069,182.88 18.53842,-34.093048,182.88 18.539486,-34.092438,182.88 18.545202,-34.091217,121.92 18.546352,-34.090996,121.92 18.551273,-34.090252,91.44 18.552761,-34.090019,91.44 18.55854,-34.088203,60.96 18.559742,-34.087643,60.96 18.564091,-34.08569,30.48 18.565382,-34.085175,30.48 18.570145,-34.083664,30.48 18.572674,-34.083035,30.48 18.577366,-34.082012,30.48 18.578682,-34.08173,30.48 18.582344,-34.080986,30.48 18.583431,-34.080708,30.48 18.588306,-34.079819,30.48 18.589371,-34.079681,30.48 18.59333,-34.079216,30.48 18.593857,-34.079178,30.48 18.596764,-34.078846,30.48 18.597555,-34.078766,30.48 18.606356,-34.078033,30.48 18.609943,-34.077805,30.48 18.625807,-34.076431,30.48 18.626976,-34.076237,0 18.637447,-34.075169,60.96 18.638754,-34.07515,60.96 18.643799,-34.075119,91.44 18.644829,-34.075169,91.44 18.649921,-34.07526,91.44 18.651409,-34.07526,121.92 18.663425,-34.074936,121.92 18.664482,-34.074646,121.92 18.668463,-34.072311,152.4 18.669491,-34.071304,152.4 18.672667,-34.068054,182.88 18.67345,-34.06723,152.4 18.676643,-34.063622,182.88 18.677502,-34.062645,213.36 18.680288,-34.059082,213.36 18.680962,-34.058167,213.36 18.683596,-34.054504,213.36 18.684381,-34.053497,213.36 18.694897,-34.039696,274.32 18.697071,-34.036949,274.32 18.707027,-34.023029,243.84 18.707699,-34.022049,243.84 18.710232,-34.017956,243.84 18.71212,-34.014835,243.84 18.719021,-34.004837,274.32 18.719788,-34.003757,274.32 18.723001,-33.999619,274.32 18.725243,-33.996643,274.32 18.736567,-33.982635,243.84 18.739985,-33.978653,213.36 18.747105,-33.971054,243.84 18.747883,-33.970284,243.84 18.751659,-33.966888,243.84 18.752518,-33.966141,243.84 18.756802,-33.962769,213.36 18.758011,-33.961906,213.36 18.762474,-33.95916,243.84 18.763359,-33.958649,243.84 18.768124,-33.956085,213.36 18.769526,-33.955399,213.36 18.774548,-33.953339,213.36 18.776207,-33.95269,213.36 18.78281,-33.9505,213.36 18.78376,-33.950222,213.36 18.795261,-33.94659,213.36 18.800526,-33.944916,213.36 18.819748,-33.939011,213.36 18.825857,-33.937317,213.36 18.843842,-33.931648,274.32 18.845196,-33.931366,274.32 18.85088,-33.930111,304.8 18.851923,-33.929901,304.8 18.859406,-33.928341,365.76 18.863239,-33.927505,365.76 18.880005,-33.924339,426.72 18.881207,-33.924152,426.72 18.895168,-33.922291,457.2 18.900408,-33.921661,457.2 18.913019,-33.920609,487.68 18.918686,-33.919914,457.2 18.923893,-33.918613,457.2 18.925095,-33.918285,457.2 18.930645,-33.916565,457.2 18.932133,-33.9161,457.2 18.93734,-33.914421,457.2 18.938356,-33.914108,457.2 18.952257,-33.90921,457.2 18.956125,-33.9077,457.2 18.968679,-33.903442,426.72 18.970194,-33.90303,426.72 18.975449,-33.901947,396.24 18.976707,-33.901714,396.24 18.982412,-33.900604,396.24 18.983917,-33.900364,426.72 18.989588,-33.899597,396.24 18.990898,-33.899479,426.72 18.996677,-33.899105,426.72 18.998108,-33.899002,426.72 19.006004,-33.898224,426.72 19.012066,-33.897537,426.72 19.032412,-33.894882,365.76 19.037189,-33.894173,365.76 19.072491,-33.89653,365.76 19.066372,-33.895012,365.76 19.060478,-33.894127,365.76 19.059105,-33.89394,365.76 19.053326,-33.893429,365.76 19.052143,-33.893326,365.76 19.045601,-33.893101,365.76 19.043655,-33.893101,365.76 19.038334,-33.893196,365.76 19.037075,-33.893242,365.76 19.030323,-33.893566,365.76 19.02586,-33.893753,365.76 19.008366,-33.894791,396.24 19.002514,-33.895382,396.24 18.990709,-33.896988,396.24 18.989532,-33.897217,396.24 18.983173,-33.898548,396.24 18.981293,-33.899002,396.24 18.975334,-33.900455,365.76 18.973961,-33.900784,365.76 18.959999,-33.904228,396.24 18.954836,-33.905228,396.24 18.947044,-33.906601,426.72 18.945698,-33.90683,426.72 18.93877,-33.907627,426.72 18.937571,-33.907745,426.72 18.932018,-33.907673,426.72 18.930531,-33.907532,426.72 18.925407,-33.906967,426.72 18.924175,-33.906784,426.72 18.918402,-33.906052,396.24 18.916719,-33.905869,396.24 18.898487,-33.90395,365.76 18.892536,-33.903252,335.28 18.873768,-33.900829,304.8 18.86801,-33.899872,274.32 18.850479,-33.896545,213.36 18.845982,-33.895523,213.36 18.834743,-33.892681,213.36 18.833542,-33.892265,213.36 18.828045,-33.890488,213.36 18.827076,-33.890167,213.36 18.81855,-33.887749,213.36 18.817291,-33.887516,213.36 18.811283,-33.886631,243.84 18.809938,-33.886505,243.84 18.800409,-33.886642,243.84 18.799381,-33.886677,243.84 18.78994,-33.887516,243.84 18.78828,-33.887653,213.36 18.782558,-33.888214,213.36 18.778997,-33.888657,213.36 18.771458,-33.889984,213.36 18.770199,-33.890308,213.36 18.764706,-33.89175,213.36 18.763472,-33.892136,213.36 18.757921,-33.894058,213.36 18.756695,-33.894497,213.36 18.751602,-33.8965,213.36 18.750074,-33.897125,213.36 18.744974,-33.899277,213.36 18.74346,-33.899963,213.36 18.72401,-33.908569,213.36 18.719044,-33.910931,213.36 18.71006,-33.914051,213.36 18.708572,-33.914238,213.36 18.702965,-33.914703,213.36 18.701702,-33.914749,213.36 18.695591,-33.914886,213.36 18.694021,-33.914886,213.36 18.687801,-33.914886,182.88 18.686771,-33.914886,213.36 18.677845,-33.914654,213.36 18.672161,-33.914474,213.36 18.649965,-33.91301,213.36 18.643967,-33.912598,213.36 18.623564,-33.910995,213.36 18.619192,-33.910629,213.36 18.5989,-33.90921,213.36 18.594416,-33.909027,213.36 18.573509,-33.908707,213.36 18.568668,-33.908604,213.36 18.546982,-33.908325,213.36 18.545265,-33.908417,213.36 18.539028,-33.908791,213.36 18.537655,-33.908928,182.88 18.532143,-33.909576,213.36 18.530573,-33.909805,213.36 18.524723,-33.910744,213.36 18.523407,-33.910976,213.36 18.51796,-33.911957,213.36 18.516369,-33.912281,213.36 18.506357,-33.913467,182.88 18.50481,-33.91354,182.88 18.499374,-33.91354,182.88 18.498117,-33.913513,182.88 18.492569,-33.913147,182.88 18.490963,-33.913025,182.88 18.485281,-33.912415,213.36 18.483982,-33.912189,213.36 18.478203,-33.911118,213.36 18.476715,-33.910793,213.36 18.471451,-33.909069,182.88 18.469963,-33.908463,182.88 18.464767,-33.906281,152.4 18.463308,-33.905685,121.92 18.458153,-33.903442,121.92 18.456974,-33.902924,121.92 18.449535,-33.899246,91.44 18.448624,-33.898682,91.44 18.443813,-33.896126,91.44 18.442457,-33.895798,91.44 18.435226,-33.897675,30.48 18.431919,-33.898773,0 18.427044,-33.90065,0 18.426991,-33.90097,0
        </coordinates>
      </LineString>
    </Placemark>
  </Document>
</kml>