<?xml version="1.0" encoding="UTF-8"?>
<kml xmlns="http://www.opengis.net/kml/2.2">
  <Document>
    <name>-/ZTRNW - Optimised</name>
    <description><![CDATA[Optimised flight path with 942 points (decimated from 4709 original points). Source format: Standard KML]]></description>
    
    <Style id="flightPath">
      <LineStyle>
        <color>ff0000ff</color>
        <width>3</width>
      </LineStyle>
    </Style>
    
    <Placemark>
      <name>Flight Path</name>
      <description><![CDATA[<div style="width:220px; text-align:center;">
<div style="width:210px; text-align:center;">
<div style=" background: #000; color: #fff; font-size: 14px; text-align:left; border: 1px solid #000; padding: 2px 6px; text-shadow: 0 1px 0 #000; box-shadow: 0 1px 3px rgba(0,0,0,0.6); background: -webkit-gradient(linear, left top, left bottom, color-stop(0%,#808080), color-stop(2%,#303030), color-stop(100%,#0c0c0c));"><span style="font-size: 14px; font-weight: bold;"><a href="javascript:void(0);" style="color: #fff; cursor: pointer;text-decoration: none;">-</a></span> / ZTRNW<br/>Private owner</div>

<div style="border-top: 1px solid #005c90; color: #fff; padding-bottom: 5px; box-shadow: 0 0 1px #9BE3F6 inset, 0 1px 0 #9BE3F6 inset, 0 -1px 3px rgba(0,0,0,0.4); background:rgba(43,114,173,1); background: -webkit-gradient(linear, left top, left bottom, color-stop(0%,rgba(92,184,229,1)), color-stop(100%,rgba(43,114,173,1)));">
<a style="text-decoration: none; color: rgb(255, 255, 255); font-size: 12px; width:77px; display: inline-block;" title=" Airport" href="javascript:void(0);/departures"><h3 style="padding: 0px; margin: 10px 0px 0px; font-size: 16px; ">?</h3></a>
<span style="background: url(https://www.flightradar24.com/static/images/userUI_sprite.png?14) no-repeat scroll 0 -464px rgba(0, 0, 0, 0); border: medium none; display: inline-block; height: 16px; width: 45px;"></span>
<a style="text-decoration: none; color: rgb(255, 255, 255); font-size: 12px; width:77px; display: inline-block;" title=" Airport" href="javascript:void(0);/arrivals"><h3 style="padding: 0px; margin: 10px 0px 0px; font-size: 16px;">?</h3></a>
<div style=" margin-top:10px;">
<div style="display: inline-block; font-size: 12px; padding: 0 5px;">
<div>
<span style="color: #c1eaff;" title="Actual Time of Departure">ATD </span>
<span title="2025-09-14 06:59">06:59</span> <span title="Coordinated Universal Time">UTC</span>
</div>
</div>
<div style="display: inline-block; font-size: 12px; padding: 0 5px;">
<div>
<span style="color: #c1eaff;" title="Estimated Time of Arrival">ETA </span>
<span title="2025-09-14 07:15">07:15</span> <span title="Coordinated Universal Time">UTC</span>
</div>
</div>
</div>
<br style="clear: both;"/>
</div>

<div style="display: block;">
<table style="border-collapse: collapse; width: 100%;">
<tr style="border-right: 1px solid #dadada; ">
<td style="background: none repeat scroll 0 0 #dadada; padding: 0; width: 31px;">
<span style="background: url(https://www.flightradar24.com/static/images/userUI_sprite.png?14) no-repeat scroll -208px -464px rgba(0, 0, 0, 0); height: 26px; margin: 8px 0 0 4px; width: 23px; display: block;"></span>
</td>
<td colspan="2" style="border-bottom: 1px solid #dadada; border-left: 1px solid #dadada; color: #666; line-height: 1.1em; padding: 3px 6px; vertical-align: top; font-size: 14px;">
Aircraft<span style="float: right; font-size: 12px;">(EC20)</span><br>
<span style="color: #333; font-size: 16px; font-weight: bold; line-height: 1.3em;">Airbus Helicopters H120</span>
</td>
</tr>
<tr style="border-right: 1px solid #dadada; ">
<td style="background: none repeat scroll 0 0 #dadada; padding: 0; width: 31px;">
<td colspan="2" style="border-bottom: 1px solid #dadada; border-left: 1px solid #dadada; color: #666; line-height: 1.1em; padding: 3px 6px; vertical-align: top; font-size: 14px;">
Registration<br>
<span style="color: #333; font-size: 16px; font-weight: bold; line-height: 1.3em;"><a href="https://www.flightradar24.com/reg/zt-rnw" style="text-decoration: none; color: #333;">ZT-RNW</a></span>
</td>
</tr>
</table>
</div>

</div>
</div>]]></description>
      <styleUrl>#flightPath</styleUrl>
      <LineString>
        <extrude>1</extrude>
        <tessellate>1</tessellate>
        <altitudeMode>absolute</altitudeMode>
        <coordinates>
          18.432884,-33.892498,45.72 18.436796,-33.885864,182.88 18.436123,-33.882751,228.6 18.432884,-33.879929,251.46 18.428421,-33.877647,266.7 18.423119,-33.875977,281.94 18.417067,-33.875565,312.42 18.411484,-33.875877,342.9 18.405819,-33.876762,388.62 18.400642,-33.878128,426.72 18.396103,-33.879913,464.82 18.3918,-33.88221,495.3 18.387918,-33.884857,525.78 18.383995,-33.88797,548.64 18.380407,-33.891312,571.5 18.376865,-33.895058,594.36 18.373432,-33.898827,617.22 18.366623,-33.907112,670.56 18.36348,-33.911819,693.42 18.360672,-33.91647,708.66 18.355465,-33.925316,708.66 18.343849,-33.945984,655.32 18.336697,-33.957157,655.32 18.328503,-33.972061,662.94 18.317413,-33.993141,685.8 18.306999,-34.012974,670.56 18.30122,-34.025448,678.18 18.299412,-34.030975,685.8 18.29829,-34.037201,693.42 18.299467,-34.043152,708.66 18.304007,-34.04361,762 18.306885,-34.039413,731.52 18.310734,-34.034225,655.32 18.317572,-34.024429,609.6 18.329119,-34.00589,586.74 18.340946,-33.984421,586.74 18.355015,-33.958099,579.12 18.359642,-33.948406,586.74 18.361759,-33.942448,579.12 18.36359,-33.936859,571.5 18.367996,-33.926945,548.64 18.371607,-33.921707,533.4 18.375418,-33.916489,525.78 18.383331,-33.906464,518.16 18.388535,-33.900696,510.54 18.393915,-33.896576,502.92 18.400555,-33.893429,472.44 18.407312,-33.891037,426.72 18.415329,-33.889023,381 18.42267,-33.887283,274.32 18.43071,-33.885746,312.42 18.438759,-33.885269,281.94 18.444756,-33.887741,251.46 18.448343,-33.892319,228.6 18.45068,-33.897243,205.74 18.446045,-33.900513,144.78 18.439922,-33.900505,106.68 18.431339,-33.900131,30.48 18.428993,-33.900318,0 18.427773,-33.90065,0 18.427435,-33.900009,0 18.429173,-33.89859,0 18.430252,-33.896873,7.62 18.431528,-33.894882,30.48 18.435394,-33.888336,106.68 18.441067,-33.884628,144.78 18.44593,-33.886772,175.26 18.450361,-33.889572,205.74 18.45451,-33.892593,236.22 18.458862,-33.895943,259.08 18.465271,-33.901154,274.32 18.469334,-33.905159,289.56 18.47323,-33.909531,297.18 18.476486,-33.914051,304.8 18.479284,-33.91864,312.42 18.481863,-33.923447,327.66 18.484385,-33.928711,320.04 18.48587,-33.934162,320.04 18.486628,-33.939789,297.18 18.486843,-33.945427,297.18 18.486683,-33.951416,297.18 18.486403,-33.957275,312.42 18.48587,-33.977455,342.9 18.48629,-33.990189,335.28 18.490664,-33.994125,320.04 18.498005,-33.995316,281.94 18.504732,-33.993896,274.32 18.511515,-33.991653,266.7 18.518028,-33.989185,274.32 18.523865,-33.986717,281.94 18.533262,-33.982452,281.94 18.553047,-33.97345,274.32 18.560785,-33.970688,274.32 18.56695,-33.968719,266.7 18.583822,-33.962997,274.32 18.600826,-33.957436,259.08 18.608038,-33.956085,259.08 18.615017,-33.955807,251.46 18.622341,-33.95562,251.46 18.632755,-33.95525,259.08 18.656216,-33.954876,182.88 18.679111,-33.954529,243.84 18.698563,-33.953064,259.08 18.720087,-33.95192,335.28 18.736782,-33.9505,396.24 18.743076,-33.949478,381 18.749428,-33.94836,381 18.7714,-33.944683,365.76 18.792171,-33.93998,419.1 18.812405,-33.934982,419.1 18.833817,-33.930725,411.48 18.854542,-33.927456,434.34 18.869019,-33.925323,457.2 18.875141,-33.924805,480.06 18.894634,-33.922897,541.02 18.909096,-33.92244,548.64 18.91468,-33.924805,579.12 18.920755,-33.926376,586.74 18.92704,-33.925457,594.36 18.932302,-33.922256,571.5 18.937397,-33.917915,571.5 18.942055,-33.913925,571.5 18.951361,-33.906189,571.5 18.95462,-33.901669,563.88 18.957081,-33.906136,624.84 18.953659,-33.91127,632.46 18.949928,-33.916191,640.08 18.946203,-33.920334,640.08 18.941517,-33.924477,640.08 18.939915,-33.929504,670.56 18.939869,-33.925873,609.6 18.942448,-33.926422,571.5 18.938713,-33.929226,579.12 18.933815,-33.929993,586.74 18.929558,-33.929924,601.98 18.926081,-33.929123,579.12 18.924179,-33.927036,533.4 18.923607,-33.925224,480.06 18.923109,-33.923996,441.96 18.922997,-33.922623,403.86 18.918344,-33.923264,457.2 18.913412,-33.923309,480.06 18.907415,-33.923538,487.68 18.89867,-33.924545,480.06 18.892113,-33.925919,464.82 18.885723,-33.927475,457.2 18.879433,-33.929272,464.82 18.869934,-33.932251,449.58 18.852711,-33.938023,449.58 18.847326,-33.940247,449.58 18.829165,-33.947754,434.34 18.811398,-33.954739,358.14 18.803387,-33.957203,358.14 18.797264,-33.958832,365.76 18.788109,-33.96088,350.52 18.780512,-33.962265,358.14 18.774776,-33.962929,365.76 18.76894,-33.963444,373.38 18.751476,-33.965195,419.1 18.731915,-33.96611,426.72 18.711319,-33.966656,426.72 18.690491,-33.967072,426.72 18.676643,-33.967911,434.34 18.659935,-33.969261,419.1 18.64563,-33.970005,441.96 18.640423,-33.969353,457.2 18.636475,-33.968704,457.2 18.632126,-33.968189,434.34 18.630581,-33.96833,434.34 18.62978,-33.969818,434.34 18.629608,-33.972099,441.96 18.629505,-33.974899,426.72 18.629393,-33.979065,426.72 18.628178,-33.982109,434.34 18.624687,-33.983692,411.48 18.620033,-33.985519,411.48 18.615017,-33.987789,411.48 18.607533,-33.989502,419.1 18.601311,-33.988541,411.48 18.595482,-33.986435,419.1 18.590269,-33.983414,434.34 18.58371,-33.980255,441.96 18.577545,-33.980621,441.96 18.571098,-33.981537,449.58 18.565157,-33.982544,441.96 18.55899,-33.983688,441.96 18.53517,-33.987946,441.96 18.514538,-33.991375,434.34 18.499519,-33.99321,434.34 18.493465,-33.991333,426.72 18.489429,-33.986847,411.48 18.488085,-33.981903,403.86 18.487358,-33.976616,396.24 18.486786,-33.971264,373.38 18.4865,-33.966049,342.9 18.485338,-33.955399,297.18 18.484329,-33.950729,281.94 18.482815,-33.945786,266.7 18.481247,-33.941299,266.7 18.479404,-33.936954,274.32 18.477322,-33.932785,281.94 18.474855,-33.928619,281.94 18.472334,-33.924683,281.94 18.469334,-33.920567,289.56 18.466167,-33.91658,274.32 18.462524,-33.912689,251.46 18.458576,-33.909069,236.22 18.453941,-33.905392,213.36 18.449478,-33.902504,190.5 18.443756,-33.901062,152.4 18.438492,-33.900455,114.3 18.432369,-33.900085,45.72 18.427792,-33.899712,0 18.427048,-33.900875,0 18.42794,-33.899231,22.86 18.429005,-33.897995,38.1 18.431683,-33.895103,76.2 18.435339,-33.89003,137.16 18.436852,-33.885864,205.74 18.433657,-33.883621,243.84 18.428892,-33.881882,274.32 18.423399,-33.880692,304.8 18.417778,-33.880531,342.9 18.411684,-33.881332,381 18.406105,-33.88258,403.86 18.400082,-33.884308,434.34 18.395176,-33.886353,502.92 18.390656,-33.88868,556.26 18.386124,-33.891586,609.6 18.381786,-33.894917,655.32 18.377953,-33.898502,701.04 18.374233,-33.902367,731.52 18.370653,-33.906418,746.76 18.366795,-33.911304,746.76 18.36319,-33.916378,777.24 18.359779,-33.921249,777.24 18.353405,-33.931786,792.48 18.343357,-33.9505,746.76 18.34877,-33.957298,601.98 18.353445,-33.952148,556.26 18.356417,-33.946426,579.12 18.358784,-33.941238,601.98 18.365536,-33.927456,609.6 18.369869,-33.920105,594.36 18.373718,-33.915073,571.5 18.377941,-33.909805,563.88 18.383503,-33.903252,563.88 18.393574,-33.894405,487.68 18.400587,-33.891998,464.82 18.408279,-33.889984,434.34 18.415497,-33.888336,411.48 18.422615,-33.886871,403.86 18.430126,-33.886093,381 18.438646,-33.887741,289.56 18.44599,-33.891541,251.46 18.450922,-33.896393,220.98 18.446274,-33.899387,205.74 18.439991,-33.899323,152.4 18.435003,-33.899139,106.68 18.430294,-33.899231,30.48 18.428822,-33.899479,7.62 18.427267,-33.900146,0 18.426987,-33.900833,0 18.427828,-33.899277,22.86 18.429108,-33.897572,30.48 18.430996,-33.895245,68.58 18.4359,-33.888382,144.78 18.436718,-33.884304,198.12 18.434887,-33.880814,243.84 18.429909,-33.879929,297.18 18.425045,-33.879929,350.52 18.420582,-33.88002,396.24 18.415146,-33.880299,464.82 18.410511,-33.880814,518.16 18.405743,-33.881744,579.12 18.401127,-33.882999,624.84 18.396551,-33.884491,662.94 18.392143,-33.887142,701.04 18.388424,-33.8904,731.52 18.384386,-33.893738,754.38 18.37368,-33.902893,754.38 18.369421,-33.907242,754.38 18.365135,-33.912094,754.38 18.360958,-33.917217,769.62 18.357296,-33.92215,769.62 18.353806,-33.927505,769.62 18.350544,-33.933277,769.62 18.346138,-33.941238,762 18.340611,-33.954803,708.66 18.34885,-33.957642,647.7 18.353004,-33.950642,601.98 18.35598,-33.945286,609.6 18.362389,-33.933647,609.6 18.370934,-33.919006,617.22 18.374748,-33.914097,609.6 18.378124,-33.909813,617.22 18.383274,-33.903996,609.6 18.388367,-33.899551,586.74 18.394363,-33.896164,548.64 18.401539,-33.893463,510.54 18.408508,-33.890961,487.68 18.416348,-33.88868,441.96 18.423737,-33.886917,350.52 18.431303,-33.886368,381 18.439375,-33.886871,342.9 18.446438,-33.889297,312.42 18.450279,-33.89436,259.08 18.447166,-33.899002,198.12 18.440832,-33.899414,129.54 18.431969,-33.898968,60.96 18.428764,-33.899479,22.86 18.427334,-33.90004,7.62 18.427212,-33.899918,30.48 18.428535,-33.897526,60.96 18.43071,-33.894032,99.06 18.433571,-33.890263,144.78 18.43626,-33.884628,220.98 18.433882,-33.88147,281.94 18.429565,-33.880508,335.28 18.424688,-33.880783,388.62 18.419363,-33.88179,434.34 18.413944,-33.883465,472.44 18.408051,-33.8857,502.92 18.393459,-33.890633,533.4 18.388195,-33.894451,556.26 18.38349,-33.898315,487.68 18.378782,-33.902481,571.5 18.374405,-33.906788,571.5 18.370171,-33.910976,579.12 18.36628,-33.915306,586.74 18.361073,-33.922058,632.46 18.358938,-33.927063,624.84 18.351036,-33.937454,647.7 18.343861,-33.948715,662.94 18.347336,-33.953247,609.6 18.352604,-33.949711,571.5 18.356585,-33.943542,563.88 18.359928,-33.938351,563.88 18.368299,-33.924362,563.88 18.37904,-33.907299,533.4 18.385792,-33.899014,487.68 18.391787,-33.894424,464.82 18.398289,-33.89122,441.96 18.40519,-33.888958,419.1 18.413086,-33.886955,403.86 18.420822,-33.885818,388.62 18.428331,-33.88504,373.38 18.436031,-33.885422,335.28 18.442625,-33.88884,320.04 18.447615,-33.894058,289.56 18.449465,-33.89946,251.46 18.445759,-33.902737,190.5 18.439823,-33.901657,106.68 18.434666,-33.900238,60.96 18.429285,-33.899414,15.24 18.427391,-33.89999,7.62 18.426874,-33.900421,7.62 18.428307,-33.899059,22.86 18.430294,-33.896439,53.34 18.432484,-33.893566,83.82 18.435562,-33.888611,144.78 18.436684,-33.885269,175.26 18.435394,-33.881744,190.5 18.432255,-33.87923,175.26 18.428108,-33.876984,274.32 18.424015,-33.875923,304.8 18.419027,-33.875793,327.66 18.414095,-33.876251,358.14 18.408882,-33.877167,388.62 18.404005,-33.878769,426.72 18.399633,-33.881012,480.06 18.395933,-33.883484,533.4 18.391897,-33.886459,571.5 18.387623,-33.889843,601.98 18.383938,-33.893234,632.46 18.38047,-33.897011,670.56 18.377266,-33.901154,708.66 18.374241,-33.905273,739.14 18.371271,-33.909851,769.62 18.366966,-33.916889,807.72 18.35737,-33.932922,800.1 18.345165,-33.954739,731.52 18.325939,-33.985367,670.56 18.31163,-34.006897,678.18 18.299332,-34.02573,693.42 18.29607,-34.032711,708.66 18.296665,-34.03862,739.14 18.301205,-34.039948,769.62 18.304996,-34.035412,693.42 18.308945,-34.030758,662.94 18.31398,-34.024006,647.7 18.317356,-34.019119,647.7 18.326204,-34.005432,670.56 18.338816,-33.983231,632.46 18.352146,-33.957531,624.84 18.359837,-33.940109,601.98 18.366566,-33.92485,594.36 18.36977,-33.919498,601.98 18.373203,-33.914143,586.74 18.376707,-33.909256,563.88 18.380871,-33.904507,533.4 18.385391,-33.899899,518.16 18.391857,-33.895756,487.68 18.397865,-33.892776,480.06 18.404398,-33.890671,472.44 18.410969,-33.888821,464.82 18.420753,-33.886166,419.1 18.428993,-33.885094,358.14 18.436604,-33.885513,320.04 18.442905,-33.88916,274.32 18.447418,-33.893894,259.08 18.450565,-33.899712,228.6 18.445187,-33.901386,175.26 18.439522,-33.900272,129.54 18.433685,-33.899387,83.82 18.430069,-33.899414,38.1 18.428612,-33.899551,15.24 18.427044,-33.900421,7.62 18.427267,-33.900009,22.86 18.428892,-33.898224,30.48 18.430799,-33.896255,45.72 18.434385,-33.893875,76.2 18.437347,-33.889191,121.92 18.436909,-33.88472,160.02 18.433571,-33.881371,213.36 18.428421,-33.880627,259.08 18.422951,-33.88092,289.56 18.41757,-33.881332,327.66 18.41177,-33.882069,365.76 18.406471,-33.883118,396.24 18.40147,-33.884491,434.34 18.396439,-33.886414,464.82 18.391449,-33.889252,487.68 18.386909,-33.892593,518.16 18.382702,-33.89608,548.64 18.378639,-33.899666,563.88 18.373457,-33.904495,586.74 18.369541,-33.908745,601.98 18.366001,-33.913147,624.84 18.362919,-33.91745,678.18 18.3601,-33.922195,701.04 18.357296,-33.927273,708.66 18.350531,-33.940201,739.14 18.34173,-33.959152,731.52 18.346104,-33.967712,609.6 18.354118,-33.954666,586.74 18.359184,-33.94524,617.22 18.361702,-33.939747,640.08 18.364208,-33.933655,647.7 18.370514,-33.91782,662.94 18.372952,-33.913055,662.94 18.375698,-33.908066,655.32 18.379902,-33.90303,624.84 18.384876,-33.898224,594.36 18.390385,-33.89447,571.5 18.396606,-33.891148,571.5 18.403301,-33.888584,556.26 18.409723,-33.88678,541.02 18.416748,-33.885422,457.2 18.42396,-33.88472,518.16 18.431282,-33.884537,495.3 18.438148,-33.885002,533.4 18.443859,-33.886963,464.82 18.447418,-33.891098,396.24 18.449072,-33.896851,281.94 18.452511,-33.90004,365.76 18.449465,-33.898819,304.8 18.445036,-33.898956,266.7 18.439543,-33.898956,198.12 18.431808,-33.898956,76.2 18.428556,-33.899734,22.86 18.432884,-33.892498,45.72 18.434486,-33.890167,68.58 18.436796,-33.885864,182.88 18.436964,-33.885315,190.5 18.436123,-33.882751,228.6 18.435688,-33.882256,228.6 18.432884,-33.879929,251.46 18.432087,-33.879456,251.46 18.428421,-33.877647,266.7 18.427492,-33.877304,274.32 18.423119,-33.875977,281.94 18.42207,-33.875786,289.56 18.417067,-33.875565,312.42 18.416168,-33.87561,312.42 18.411484,-33.875877,342.9 18.410397,-33.876019,342.9 18.405819,-33.876762,388.62 18.404846,-33.876949,396.24 18.400642,-33.878128,426.72 18.399578,-33.878448,434.34 18.396103,-33.879913,464.82 18.395119,-33.880394,472.44 18.3918,-33.88221,495.3 18.390884,-33.882812,510.54 18.387918,-33.884857,525.78 18.387108,-33.885468,533.4 18.383995,-33.88797,548.64 18.383322,-33.888565,548.64 18.380407,-33.891312,571.5 18.379612,-33.892124,571.5 18.376865,-33.895058,594.36 18.376259,-33.895706,601.98 18.373432,-33.898827,617.22 18.372728,-33.899643,624.84 18.366623,-33.907112,670.56 18.365833,-33.908157,670.56 18.36348,-33.911819,693.42 18.362961,-33.912701,701.04 18.360672,-33.91647,708.66 18.360117,-33.917358,716.28 18.355465,-33.925316,708.66 18.353558,-33.928711,708.66 18.343849,-33.945984,655.32 18.341507,-33.950317,655.32 18.336697,-33.957157,655.32 18.33601,-33.958088,647.7 18.328503,-33.972061,662.94 18.325756,-33.977234,701.04 18.317413,-33.993141,685.8 18.315697,-33.996307,678.18 18.306999,-34.012974,670.56 18.304882,-34.017071,670.56 18.30122,-34.025448,678.18 18.300701,-34.026764,678.18 18.299412,-34.030975,685.8 18.299046,-34.032291,685.8 18.29829,-34.037201,693.42 18.29829,-34.038528,693.42 18.299467,-34.043152,708.66 18.30019,-34.043976,716.28 18.304007,-34.04361,762 18.304512,-34.042923,754.38 18.306885,-34.039413,731.52 18.307686,-34.0383,723.9 18.310734,-34.034225,655.32 18.311575,-34.033081,647.7 18.317572,-34.024429,609.6 18.320389,-34.020187,594.36 18.329119,-34.00589,586.74 18.331081,-34.002319,586.74 18.340946,-33.984421,586.74 18.34362,-33.978943,533.4 18.355015,-33.958099,579.12 18.356895,-33.954552,586.74 18.359642,-33.948406,586.74 18.360043,-33.94738,586.74 18.361759,-33.942448,579.12 18.362135,-33.941345,579.12 18.36359,-33.936859,571.5 18.365192,-33.932438,563.88 18.367996,-33.926945,548.64 18.368797,-33.925827,541.02 18.371607,-33.921707,533.4 18.372631,-33.920334,533.4 18.375418,-33.916489,525.78 18.37635,-33.915215,525.78 18.383331,-33.906464,518.16 18.38522,-33.904274,518.16 18.388535,-33.900696,510.54 18.389568,-33.899666,510.54 18.393915,-33.896576,502.92 18.395372,-33.895752,495.3 18.400555,-33.893429,472.44 18.401764,-33.89296,472.44 18.407312,-33.891037,426.72 18.409595,-33.89045,411.48 18.415329,-33.889023,381 18.416748,-33.88868,373.38 18.42267,-33.887283,274.32 18.424465,-33.886917,342.9 18.43071,-33.885746,312.42 18.432705,-33.885498,304.8 18.438759,-33.885269,281.94 18.440216,-33.885361,274.32 18.444756,-33.887741,251.46 18.445541,-33.888657,251.46 18.448343,-33.892319,228.6 18.449078,-33.893288,228.6 18.45068,-33.897243,205.74 18.450336,-33.898361,190.5 18.446045,-33.900513,144.78 18.444958,-33.900551,137.16 18.439922,-33.900505,106.68 18.43832,-33.900455,91.44 18.431339,-33.900131,30.48 18.430996,-33.900131,30.48 18.428993,-33.900318,0 18.428707,-33.900364,0 18.427773,-33.90065,0 18.427563,-33.900738,0 18.427435,-33.900009,0 18.42794,-33.899734,0 18.429173,-33.89859,0 18.429451,-33.898174,0 18.430252,-33.896873,7.62 18.430462,-33.896576,7.62 18.431528,-33.894882,30.48 18.431683,-33.894592,38.1 18.435394,-33.888336,106.68 18.436832,-33.885887,137.16 18.441067,-33.884628,144.78 18.442064,-33.884949,144.78 18.44593,-33.886772,175.26 18.446846,-33.887329,182.88 18.450361,-33.889572,205.74 18.451366,-33.890263,213.36 18.45451,-33.892593,236.22 18.455294,-33.893188,236.22 18.458862,-33.895943,259.08 18.459663,-33.896545,251.46 18.465271,-33.901154,274.32 18.466187,-33.902039,281.94 18.469334,-33.905159,289.56 18.46998,-33.905823,289.56 18.47323,-33.909531,297.18 18.473911,-33.910374,304.8 18.476486,-33.914051,304.8 18.477001,-33.914936,312.42 18.479284,-33.91864,312.42 18.479958,-33.919785,320.04 18.481863,-33.923447,327.66 18.482367,-33.924454,327.66 18.484385,-33.928711,320.04 18.484726,-33.929691,320.04 18.48587,-33.934162,320.04 18.486067,-33.935303,312.42 18.486628,-33.939789,297.18 18.48674,-33.941071,297.18 18.486843,-33.945427,297.18 18.486851,-33.946793,297.18 18.486683,-33.951416,297.18 18.486628,-33.952423,297.18 18.486403,-33.957275,312.42 18.486235,-33.960846,312.42 18.48587,-33.977455,342.9 18.485699,-33.980991,335.28 18.48629,-33.990189,335.28 18.486963,-33.991287,335.28 18.490664,-33.994125,320.04 18.491879,-33.994587,304.8 18.498005,-33.995316,281.94 18.49926,-33.99519,274.32 18.504732,-33.993896,274.32 18.506413,-33.993374,266.7 18.511515,-33.991653,266.7 18.513027,-33.99115,274.32 18.518028,-33.989185,274.32 18.519115,-33.98872,274.32 18.523865,-33.986717,281.94 18.525295,-33.986115,281.94 18.533262,-33.982452,281.94 18.536737,-33.98085,281.94 18.553047,-33.97345,274.32 18.555622,-33.972473,274.32 18.560785,-33.970688,274.32 18.56185,-33.970367,274.32 18.56695,-33.968719,266.7 18.568325,-33.968285,266.7 18.583822,-33.962997,274.32 18.588699,-33.961258,274.32 18.600826,-33.957436,259.08 18.602375,-33.957092,259.08 18.608038,-33.956085,259.08 18.609409,-33.955994,251.46 18.615017,-33.955807,251.46 18.616619,-33.955761,251.46 18.622341,-33.95562,251.46 18.623657,-33.955574,251.46 18.632755,-33.95525,259.08 18.638081,-33.955078,251.46 18.656216,-33.954876,182.88 18.66168,-33.954849,251.46 18.679111,-33.954529,243.84 18.683109,-33.954319,251.46 18.698563,-33.953064,259.08 18.702564,-33.952782,266.7 18.720087,-33.95192,335.28 18.723618,-33.951691,350.52 18.736782,-33.9505,396.24 18.738024,-33.950317,396.24 18.743076,-33.949478,381 18.744358,-33.949265,381 18.749428,-33.94836,381 18.753204,-33.947754,381 18.7714,-33.944683,365.76 18.776264,-33.943657,373.38 18.792171,-33.93998,419.1 18.795776,-33.939049,419.1 18.812405,-33.934982,419.1 18.816105,-33.934204,419.1 18.833817,-33.930725,411.48 18.837404,-33.930176,411.48 18.854542,-33.927456,434.34 18.857977,-33.92688,441.96 18.869019,-33.925323,457.2 18.870277,-33.925224,464.82 18.875141,-33.924805,480.06 18.878828,-33.924408,495.3 18.894634,-33.922897,541.02 18.89843,-33.922382,556.26 18.909096,-33.92244,548.64 18.910332,-33.922989,556.26 18.91468,-33.924805,579.12 18.915825,-33.925224,579.12 18.920755,-33.926376,586.74 18.921877,-33.926422,586.74 18.92704,-33.925457,594.36 18.928267,-33.924911,586.74 18.932302,-33.922256,571.5 18.933311,-33.921478,571.5 18.937397,-33.917915,571.5 18.938026,-33.917355,579.12 18.942055,-33.913925,571.5 18.944017,-33.912643,571.5 18.951361,-33.906189,571.5 18.951977,-33.905365,571.5 18.95462,-33.901669,563.88 18.955135,-33.900829,563.88 18.957081,-33.906136,624.84 18.956394,-33.907207,624.84 18.953659,-33.91127,632.46 18.953018,-33.912189,632.46 18.949928,-33.916191,640.08 18.949242,-33.916985,640.08 18.946203,-33.920334,640.08 18.945065,-33.92136,640.08 18.941517,-33.924477,640.08 18.940887,-33.925083,647.7 18.939915,-33.929504,670.56 18.94043,-33.928852,632.46 18.939869,-33.925873,609.6 18.940317,-33.925095,594.36 18.942448,-33.926422,571.5 18.941631,-33.927223,601.98 18.938713,-33.929226,579.12 18.937855,-33.929459,579.12 18.933815,-33.929993,586.74 18.933048,-33.930019,586.74 18.929558,-33.929924,601.98 18.928883,-33.929855,601.98 18.926081,-33.929123,579.12 18.925575,-33.928848,571.5 18.924179,-33.927036,533.4 18.924065,-33.926571,518.16 18.923607,-33.925224,480.06 18.923492,-33.924942,464.82 18.923109,-33.923996,441.96 18.923054,-33.923721,434.34 18.922997,-33.922623,403.86 18.922749,-33.922848,487.68 18.918344,-33.923264,457.2 18.917198,-33.923267,464.82 18.913412,-33.923309,480.06 18.912163,-33.923313,480.06 18.907415,-33.923538,487.68 18.903828,-33.923767,472.44 18.89867,-33.924545,480.06 18.897228,-33.924805,480.06 18.892113,-33.925919,464.82 18.890991,-33.926201,457.2 18.885723,-33.927475,457.2 18.884583,-33.927784,464.82 18.879433,-33.929272,464.82 18.878323,-33.929626,457.2 18.869934,-33.932251,449.58 18.865242,-33.933697,449.58 18.852711,-33.938023,449.58 18.85181,-33.938416,457.2 18.847326,-33.940247,449.58 18.843683,-33.941757,449.58 18.829165,-33.947754,434.34 18.825747,-33.949219,426.72 18.811398,-33.954739,358.14 18.808537,-33.955669,350.52 18.803387,-33.957203,358.14 18.802299,-33.957485,358.14 18.797264,-33.958832,365.76 18.796318,-33.959061,365.76 18.788109,-33.96088,350.52 18.786789,-33.961166,350.52 18.780512,-33.962265,358.14 18.779446,-33.962402,358.14 18.774776,-33.962929,365.76 18.773785,-33.962997,365.76 18.76894,-33.963444,373.38 18.767738,-33.963535,365.76 18.751476,-33.965195,419.1 18.747328,-33.965469,441.96 18.731915,-33.96611,426.72 18.727654,-33.966202,434.34 18.711319,-33.966656,426.72 18.707867,-33.966751,419.1 18.690491,-33.967072,426.72 18.687296,-33.967163,434.34 18.676643,-33.967911,434.34 18.675728,-33.968002,426.72 18.659935,-33.969261,419.1 18.655794,-33.969498,426.72 18.64563,-33.970005,441.96 18.644415,-33.96991,449.58 18.640423,-33.969353,457.2 18.639622,-33.969261,457.2 18.636475,-33.968704,457.2 18.635895,-33.968628,457.2 18.632126,-33.968189,434.34 18.631804,-33.968216,434.34 18.630581,-33.96833,434.34 18.630352,-33.968472,434.34 18.62978,-33.969818,434.34 18.62973,-33.970184,434.34 18.629608,-33.972099,441.96 18.629618,-33.972702,441.96 18.629505,-33.974899,426.72 18.629505,-33.975449,426.72 18.629393,-33.979065,426.72 18.629225,-33.98053,426.72 18.628178,-33.982109,434.34 18.627834,-33.982296,426.72 18.624687,-33.983692,411.48 18.623844,-33.984009,411.48 18.620033,-33.985519,411.48 18.61908,-33.985931,411.48 18.615017,-33.987789,411.48 18.612913,-33.988678,411.48 18.607533,-33.989502,419.1 18.606377,-33.989418,419.1 18.601311,-33.988541,411.48 18.60014,-33.988209,411.48 18.595482,-33.986435,419.1 18.594303,-33.985832,426.72 18.590269,-33.983414,434.34 18.589039,-33.982529,441.96 18.58371,-33.980255,441.96 18.582287,-33.980247,441.96 18.577545,-33.980621,441.96 18.575863,-33.980804,449.58 18.571098,-33.981537,449.58 18.570099,-33.981689,449.58 18.565157,-33.982544,441.96 18.563923,-33.982773,441.96 18.55899,-33.983688,441.96 18.55505,-33.984436,434.34 18.53517,-33.987946,441.96 18.531475,-33.988533,434.34 18.514538,-33.991375,434.34 18.509441,-33.992249,441.96 18.499519,-33.99321,434.34 18.49823,-33.992981,434.34 18.493465,-33.991333,426.72 18.492393,-33.990677,426.72 18.489429,-33.986847,411.48 18.489094,-33.985886,403.86 18.488085,-33.981903,403.86 18.48793,-33.980854,403.86 18.487358,-33.976616,396.24 18.487186,-33.975498,388.62 18.486786,-33.971264,373.38 18.486729,-33.970238,373.38 18.4865,-33.966049,342.9 18.48646,-33.965057,335.28 18.485338,-33.955399,297.18 18.485226,-33.954712,289.56 18.484329,-33.950729,281.94 18.484039,-33.949661,274.32 18.482815,-33.945786,266.7 18.482592,-33.945099,266.7 18.481247,-33.941299,266.7 18.481007,-33.940723,274.32 18.479404,-33.936954,274.32 18.479059,-33.936264,274.32 18.477322,-33.932785,281.94 18.47683,-33.931973,281.94 18.474855,-33.928619,281.94 18.474407,-33.927887,281.94 18.472334,-33.924683,281.94 18.471828,-33.923996,289.56 18.469334,-33.920567,289.56 18.468746,-33.91983,289.56 18.466167,-33.91658,274.32 18.465384,-33.91571,266.7 18.462524,-33.912689,251.46 18.461851,-33.912003,251.46 18.458576,-33.909069,236.22 18.457592,-33.908295,236.22 18.453941,-33.905392,213.36 18.453108,-33.904724,205.74 18.449478,-33.902504,190.5 18.448563,-33.902134,182.88 18.443756,-33.901062,152.4 18.442783,-33.900921,144.78 18.438492,-33.900455,114.3 18.437469,-33.900375,99.06 18.432369,-33.900085,45.72 18.431583,-33.900009,38.1 18.427792,-33.899712,0 18.427492,-33.899918,0 18.427048,-33.900875,0 18.427048,-33.900642,7.62 18.42794,-33.899231,22.86 18.428135,-33.899014,22.86 18.429005,-33.897995,38.1 18.429337,-33.897663,38.1 18.431683,-33.895103,76.2 18.432367,-33.894287,83.82 18.435339,-33.89003,137.16 18.435843,-33.889069,152.4 18.436852,-33.885864,205.74 18.436661,-33.885048,205.74 18.433657,-33.883621,243.84 18.432713,-33.883278,251.46 18.428892,-33.881882,274.32 18.427677,-33.881557,281.94 18.423399,-33.880692,304.8 18.422335,-33.8806,312.42 18.417778,-33.880531,342.9 18.416561,-33.880646,335.28 18.411684,-33.881332,381 18.410625,-33.881557,381 18.406105,-33.88258,403.86 18.405014,-33.882843,411.48 18.400082,-33.884308,434.34 18.399239,-33.884628,441.96 18.395176,-33.886353,502.92 18.394432,-33.886677,510.54 18.390656,-33.88868,556.26 18.389656,-33.889252,571.5 18.386124,-33.891586,609.6 18.385105,-33.892311,617.22 18.381786,-33.894917,655.32 18.380871,-33.89571,670.56 18.377953,-33.898502,701.04 18.377266,-33.8992,708.66 18.374233,-33.902367,731.52 18.373569,-33.90303,739.14 18.370653,-33.906418,746.76 18.36977,-33.907486,739.14 18.366795,-33.911304,746.76 18.365993,-33.912468,754.38 18.36319,-33.916378,777.24 18.362617,-33.917168,777.24 18.359779,-33.921249,777.24 18.358383,-33.923454,784.86 18.353405,-33.931786,792.48 18.351517,-33.935139,792.48 18.343357,-33.9505,746.76 18.342934,-33.951805,739.14 18.34877,-33.957298,601.98 18.350201,-33.956646,579.12 18.353445,-33.952148,556.26 18.354092,-33.951012,556.26 18.356417,-33.946426,579.12 18.35692,-33.945282,586.74 18.358784,-33.941238,601.98 18.359299,-33.940121,601.98 18.365536,-33.927456,609.6 18.366282,-33.926193,609.6 18.369869,-33.920105,594.36 18.370766,-33.918915,579.12 18.373718,-33.915073,571.5 18.374521,-33.914017,571.5 18.377941,-33.909805,563.88 18.37867,-33.908981,563.88 18.383503,-33.903252,563.88 18.386078,-33.900318,556.26 18.393574,-33.894405,487.68 18.394924,-33.893875,480.06 18.400587,-33.891998,464.82 18.402155,-33.891541,464.82 18.408279,-33.889984,434.34 18.409767,-33.889656,426.72 18.415497,-33.888336,411.48 18.416954,-33.88797,403.86 18.422615,-33.886871,403.86 18.423958,-33.886677,403.86 18.430126,-33.886093,381 18.431911,-33.88612,358.14 18.438646,-33.887741,289.56 18.440496,-33.888565,281.94 18.44599,-33.891541,251.46 18.447166,-33.892273,182.88 18.450922,-33.896393,220.98 18.450851,-33.897758,220.98 18.446274,-33.899387,205.74 18.444786,-33.899433,205.74 18.439991,-33.899323,152.4 18.438778,-33.899246,137.16 18.435003,-33.899139,106.68 18.434105,-33.899139,99.06 18.430294,-33.899231,30.48 18.429966,-33.899292,22.86 18.428822,-33.899479,7.62 18.428535,-33.89957,7.62 18.427267,-33.900146,0 18.427162,-33.900364,0 18.426987,-33.900833,0 18.427044,-33.900558,7.62 18.427828,-33.899277,22.86 18.427996,-33.899048,22.86 18.429108,-33.897572,30.48 18.429285,-33.897354,38.1 18.430996,-33.895245,68.58 18.432257,-33.893784,83.82 18.4359,-33.888382,144.78 18.43618,-33.88765,152.4 18.436718,-33.884304,198.12 18.436628,-33.883575,205.74 18.434887,-33.880814,243.84 18.434143,-33.88044,251.46 18.429909,-33.879929,297.18 18.428612,-33.879913,312.42 18.425045,-33.879929,350.52 18.424244,-33.879929,358.14 18.420582,-33.88002,396.24 18.419609,-33.880066,411.48 18.415146,-33.880299,464.82 18.414345,-33.880344,480.06 18.410511,-33.880814,518.16 18.409666,-33.88092,525.78 18.405743,-33.881744,579.12 18.404846,-33.881927,579.12 18.401127,-33.882999,624.84 18.400194,-33.883301,632.46 18.396551,-33.884491,662.94 18.395405,-33.884956,670.56 18.392143,-33.887142,701.04 18.391506,-33.887741,708.66 18.388424,-33.8904,731.52 18.387693,-33.891037,739.14 18.384386,-33.893738,754.38 18.383617,-33.894405,762 18.37368,-33.902893,754.38 18.372841,-33.903717,754.38 18.369421,-33.907242,754.38 18.368299,-33.908524,754.38 18.365135,-33.912094,754.38 18.364208,-33.913193,762 18.360958,-33.917217,769.62 18.360453,-33.917862,769.62 18.357296,-33.92215,769.62 18.356724,-33.922989,769.62 18.353806,-33.927505,769.62 18.353277,-33.928436,769.62 18.350544,-33.933277,769.62 18.349972,-33.934254,769.62 18.346138,-33.941238,762 18.343637,-33.94574,746.76 18.340611,-33.954803,708.66 18.341045,-33.955994,693.42 18.34885,-33.957642,647.7 18.349686,-33.9566,632.46 18.353004,-33.950642,601.98 18.353519,-33.949711,601.98 18.35598,-33.945286,609.6 18.356585,-33.944138,609.6 18.362389,-33.933647,609.6 18.364162,-33.930344,601.98 18.370934,-33.919006,617.22 18.371658,-33.918098,609.6 18.374748,-33.914097,609.6 18.375418,-33.913239,617.22 18.378124,-33.909813,617.22 18.37895,-33.908752,617.22 18.383274,-33.903996,609.6 18.38405,-33.903259,609.6 18.388367,-33.899551,586.74 18.389208,-33.898911,579.12 18.394363,-33.896164,548.64 18.395597,-33.895706,533.4 18.401539,-33.893463,510.54 18.402843,-33.892963,510.54 18.408508,-33.890961,487.68 18.410225,-33.8904,472.44 18.416348,-33.88868,441.96 18.417738,-33.88829,434.34 18.423737,-33.886917,350.52 18.425081,-33.886734,388.62 18.431303,-33.886368,381 18.433056,-33.886353,373.38 18.439375,-33.886871,342.9 18.440777,-33.8871,342.9 18.446438,-33.889297,312.42 18.447418,-33.89003,304.8 18.450279,-33.89436,259.08 18.450361,-33.895477,251.46 18.447166,-33.899002,198.12 18.446217,-33.899246,175.26 18.440832,-33.899414,129.54 18.439407,-33.899338,114.3 18.431969,-33.898968,60.96 18.431168,-33.899014,53.34 18.428764,-33.899479,22.86 18.428556,-33.899551,22.86 18.427334,-33.90004,7.62 18.427155,-33.900375,7.62 18.427212,-33.899918,30.48 18.427435,-33.899551,30.48 18.428535,-33.897526,60.96 18.428936,-33.896824,60.96 18.43071,-33.894032,99.06 18.431396,-33.893101,114.3 18.433571,-33.890263,144.78 18.434162,-33.889389,160.02 18.43626,-33.884628,220.98 18.436123,-33.88385,228.6 18.433882,-33.88147,281.94 18.433113,-33.881138,289.56 18.429565,-33.880508,335.28 18.428707,-33.880486,342.9 18.424688,-33.880783,388.62 18.423792,-33.880875,396.24 18.419363,-33.88179,434.34 18.418131,-33.882111,441.96 18.413944,-33.883465,472.44 18.4128,-33.883884,480.06 18.408051,-33.8857,502.92 18.406752,-33.886185,502.92 18.393459,-33.890633,533.4 18.392458,-33.891266,548.64 18.388195,-33.894451,556.26 18.387337,-33.895195,563.88 18.38349,-33.898315,487.68 18.38253,-33.899105,495.3 18.378782,-33.902481,571.5 18.377884,-33.903351,571.5 18.374405,-33.906788,571.5 18.373604,-33.907532,571.5 18.370171,-33.910976,579.12 18.369427,-33.91177,579.12 18.36628,-33.915306,586.74 18.363647,-33.918381,594.36 18.361073,-33.922058,632.46 18.360729,-33.923126,556.26 18.358938,-33.927063,624.84 18.356361,-33.930313,632.46 18.351036,-33.937454,647.7 18.350418,-33.938416,655.32 18.343861,-33.948715,662.94 18.343748,-33.949951,655.32 18.347336,-33.953247,609.6 18.348906,-33.95311,609.6 18.352604,-33.949711,571.5 18.353445,-33.948395,563.88 18.356585,-33.943542,563.88 18.357201,-33.942581,563.88 18.359928,-33.938351,563.88 18.360508,-33.937363,563.88 18.368299,-33.924362,563.88 18.370285,-33.921127,556.26 18.37904,-33.907299,533.4 18.381901,-33.903065,518.16 18.385792,-33.899014,487.68 18.386707,-33.898224,480.06 18.391787,-33.894424,464.82 18.39283,-33.893753,464.82 18.398289,-33.89122,441.96 18.399467,-33.890774,434.34 18.40519,-33.888958,419.1 18.406906,-33.888493,419.1 18.413086,-33.886955,403.86 18.414488,-33.886688,403.86 18.420822,-33.885818,388.62 18.421955,-33.8857,381 18.428331,-33.88504,373.38 18.430195,-33.884956,373.38 18.436031,-33.885422,335.28 18.437691,-33.885979,327.66 18.442625,-33.88884,320.04 18.443527,-33.889519,320.04 18.447615,-33.894058,289.56 18.448175,-33.895065,289.56 18.449465,-33.89946,251.46 18.44924,-33.900375,243.84 18.445759,-33.902737,190.5 18.444252,-33.902664,160.02 18.439823,-33.901657,106.68 18.438927,-33.901428,99.06 18.434666,-33.900238,60.96 18.433743,-33.89999,53.34 18.429285,-33.899414,15.24 18.428764,-33.899479,15.24 18.427391,-33.89999,7.62 18.427155,-33.900375,7.62 18.426874,-33.900421,7.62 18.427155,-33.900192,7.62 18.428307,-33.899059,22.86 18.42865,-33.898594,30.48 18.430294,-33.896439,53.34 18.430653,-33.895988,60.96 18.432484,-33.893566,83.82 18.433056,-33.892822,99.06 18.435562,-33.888611,144.78 18.435843,-33.88797,152.4 18.436684,-33.885269,175.26 18.436718,-33.884441,182.88 18.435394,-33.881744,190.5 18.43483,-33.881184,220.98 18.432255,-33.87923,175.26 18.431282,-33.878624,251.46 18.428108,-33.876984,274.32 18.42738,-33.876709,281.94 18.424015,-33.875923,304.8 18.422928,-33.875786,304.8 18.419027,-33.875793,327.66 18.41795,-33.875877,335.28 18.414095,-33.876251,358.14 18.413031,-33.876389,365.76 18.408882,-33.877167,388.62 18.407764,-33.87746,396.24 18.404005,-33.878769,426.72 18.402901,-33.879276,434.34 18.399633,-33.881012,480.06 18.398792,-33.881516,487.68 18.395933,-33.883484,533.4 18.395233,-33.883976,541.02 18.391897,-33.886459,571.5 18.390999,-33.887142,571.5 18.387623,-33.889843,601.98 18.386854,-33.890533,609.6 18.383938,-33.893234,632.46 18.383102,-33.894077,640.08 18.38047,-33.897011,670.56 18.379734,-33.897903,678.18 18.377266,-33.901154,708.66 18.376694,-33.901901,716.28 18.374241,-33.905273,739.14 18.373604,-33.906277,746.76 18.371271,-33.909851,769.62 18.37071,-33.910767,777.24 18.366966,-33.916889,807.72 18.365217,-33.919785,807.72 18.35737,-33.932922,800.1 18.354778,-33.93742,792.48 18.345165,-33.954739,731.52 18.340702,-33.962326,693.42 18.325939,-33.985367,670.56 18.322334,-33.990814,670.56 18.31163,-34.006897,678.18 18.309402,-34.010227,678.18 18.299332,-34.02573,693.42 18.298016,-34.027962,701.04 18.29607,-34.032711,708.66 18.295841,-34.033875,716.28 18.296665,-34.03862,739.14 18.297443,-34.039646,754.38 18.301205,-34.039948,769.62 18.301878,-34.039078,762 18.304996,-34.035412,693.42 18.305801,-34.034546,685.8 18.308945,-34.030758,662.94 18.309517,-34.03006,655.32 18.31398,-34.024006,647.7 18.314724,-34.022984,647.7 18.317356,-34.019119,647.7 18.3181,-34.018047,647.7 18.326204,-34.005432,670.56 18.327827,-34.002731,670.56 18.338816,-33.983231,632.46 18.34173,-33.977646,617.22 18.352146,-33.957531,624.84 18.353863,-33.953899,617.22 18.359837,-33.940109,601.98 18.361126,-33.936951,601.98 18.366566,-33.92485,594.36 18.36731,-33.923454,594.36 18.36977,-33.919498,601.98 18.370485,-33.918365,594.36 18.373203,-33.914143,586.74 18.373793,-33.913284,579.12 18.376707,-33.909256,563.88 18.377552,-33.90823,556.26 18.380871,-33.904507,533.4 18.381844,-33.903484,525.78 18.385391,-33.899899,518.16 18.386629,-33.898865,510.54 18.391857,-33.895756,487.68 18.393059,-33.895103,480.06 18.397865,-33.892776,480.06 18.399067,-33.892311,480.06 18.404398,-33.890671,472.44 18.405462,-33.89035,472.44 18.410969,-33.888821,464.82 18.412285,-33.888447,457.2 18.420753,-33.886166,419.1 18.422279,-33.885864,403.86 18.428993,-33.885094,358.14 18.430424,-33.885048,350.52 18.436604,-33.885513,320.04 18.438148,-33.885979,312.42 18.442905,-33.88916,274.32 18.443691,-33.889938,274.32 18.447418,-33.893894,259.08 18.448231,-33.894836,175.26 18.450565,-33.899712,228.6 18.450193,-33.900604,213.36 18.445187,-33.901386,175.26 18.444027,-33.901199,175.26 18.439522,-33.900272,129.54 18.438091,-33.89999,121.92 18.433685,-33.899387,83.82 18.432816,-33.899368,68.58 18.430069,-33.899414,38.1 18.429846,-33.899414,30.48 18.428612,-33.899551,15.24 18.428164,-33.899643,15.24 18.427044,-33.900421,7.62 18.427048,-33.900688,7.62 18.427267,-33.900009,22.86 18.427547,-33.899689,30.48 18.428892,-33.898224,30.48 18.429108,-33.897991,30.48 18.430799,-33.896255,45.72 18.431358,-33.895752,53.34 18.434385,-33.893875,76.2 18.435516,-33.893196,91.44 18.437347,-33.889191,121.92 18.437412,-33.888153,129.54 18.436909,-33.88472,160.02 18.436546,-33.883976,175.26 18.433571,-33.881371,213.36 18.432537,-33.88092,228.6 18.428421,-33.880627,259.08 18.427099,-33.880692,266.7 18.422951,-33.88092,289.56 18.421841,-33.880951,297.18 18.41757,-33.881332,327.66 18.416519,-33.881462,335.28 18.41177,-33.882069,365.76 18.4109,-33.882248,365.76 18.406471,-33.883118,396.24 18.40559,-33.883327,403.86 18.40147,-33.884491,434.34 18.40053,-33.884811,441.96 18.396439,-33.886414,464.82 18.395519,-33.886818,472.44 18.391449,-33.889252,487.68 18.390427,-33.889984,487.68 18.386909,-33.892593,518.16 18.386068,-33.893234,525.78 18.382702,-33.89608,548.64 18.381786,-33.896824,548.64 18.378639,-33.899666,563.88 18.377716,-33.900513,571.5 18.373457,-33.904495,586.74 18.372631,-33.905346,594.36 18.369541,-33.908745,601.98 18.368683,-33.909767,609.6 18.366001,-33.913147,624.84 18.365217,-33.914154,640.08 18.362919,-33.91745,678.18 18.362389,-33.918285,685.8 18.3601,-33.922195,701.04 18.359642,-33.923035,701.04 18.357296,-33.927273,708.66 18.356781,-33.928154,708.66 18.350531,-33.940201,739.14 18.349073,-33.943176,746.76 18.34173,-33.959152,731.52 18.338535,-33.968353,701.04 18.346104,-33.967712,609.6 18.347729,-33.965057,579.12 18.354118,-33.954666,586.74 18.356152,-33.951199,601.98 18.359184,-33.94524,617.22 18.359724,-33.944138,624.84 18.361702,-33.939747,640.08 18.362135,-33.938736,640.08 18.364208,-33.933655,647.7 18.36533,-33.930725,647.7 18.370514,-33.91782,662.94 18.370972,-33.916798,662.94 18.372952,-33.913055,662.94 18.373547,-33.911907,662.94 18.375698,-33.908066,655.32 18.376522,-33.906929,647.7 18.379902,-33.90303,624.84 18.380814,-33.902039,617.22 18.384876,-33.898224,594.36 18.385792,-33.897476,586.74 18.390385,-33.89447,571.5 18.391743,-33.893707,571.5 18.396606,-33.891148,571.5 18.397783,-33.890625,563.88 18.403301,-33.888584,556.26 18.404398,-33.888245,556.26 18.409723,-33.88678,541.02 18.410955,-33.886459,541.02 18.416748,-33.885422,457.2 18.418293,-33.885235,541.02 18.42396,-33.88472,518.16 18.425249,-33.884628,510.54 18.431282,-33.884537,495.3 18.432928,-33.884583,487.68 18.438148,-33.885002,533.4 18.439207,-33.885132,533.4 18.443859,-33.886963,464.82 18.4447,-33.887741,457.2 18.447418,-33.891098,396.24 18.447876,-33.892078,358.14 18.449072,-33.896851,281.94 18.449421,-33.89785,281.94 18.452511,-33.90004,365.76 18.452322,-33.899551,350.52 18.449465,-33.898819,304.8 18.448677,-33.898827,304.8 18.445036,-33.898956,266.7 18.443813,-33.898968,251.46 18.439543,-33.898956,198.12 18.438589,-33.898956,182.88 18.431808,-33.898956,76.2 18.431078,-33.899048,68.58 18.428556,-33.899734,22.86 18.427792,-33.900318,15.24
        </coordinates>
      </LineString>
    </Placemark>
  </Document>
</kml>