<?xml version="1.0" encoding="UTF-8"?>
<kml xmlns="http://www.opengis.net/kml/2.2">
  <Document>
    <name>-/ZTHOT - Optimised</name>
    <description><![CDATA[Optimised flight path with 1176 points (decimated from 5877 original points). Source format: Standard KML]]></description>
    
    <Style id="flightPath">
      <LineStyle>
        <color>ff0000ff</color>
        <width>3</width>
      </LineStyle>
    </Style>
    
    <Placemark>
      <name>Flight Path</name>
      <description><![CDATA[<div style="width:220px; text-align:center;">
<div style="width:210px; text-align:center;">
<div style=" background: #000; color: #fff; font-size: 14px; text-align:left; border: 1px solid #000; padding: 2px 6px; text-shadow: 0 1px 0 #000; box-shadow: 0 1px 3px rgba(0,0,0,0.6); background: -webkit-gradient(linear, left top, left bottom, color-stop(0%,#808080), color-stop(2%,#303030), color-stop(100%,#0c0c0c));"><span style="font-size: 14px; font-weight: bold;"><a href="javascript:void(0);" style="color: #fff; cursor: pointer;text-decoration: none;">-</a></span> / ZTHOT<br/>Cape Town Helicopters</div>

<div style="border-top: 1px solid #005c90; color: #fff; padding-bottom: 5px; box-shadow: 0 0 1px #9BE3F6 inset, 0 1px 0 #9BE3F6 inset, 0 -1px 3px rgba(0,0,0,0.4); background:rgba(43,114,173,1); background: -webkit-gradient(linear, left top, left bottom, color-stop(0%,rgba(92,184,229,1)), color-stop(100%,rgba(43,114,173,1)));">
<a style="text-decoration: none; color: rgb(255, 255, 255); font-size: 12px; width:77px; display: inline-block;" title=" Airport" href="javascript:void(0);/departures"><h3 style="padding: 0px; margin: 10px 0px 0px; font-size: 16px; ">?</h3></a>
<span style="background: url(https://www.flightradar24.com/static/images/userUI_sprite.png?14) no-repeat scroll 0 -464px rgba(0, 0, 0, 0); border: medium none; display: inline-block; height: 16px; width: 45px;"></span>
<a style="text-decoration: none; color: rgb(255, 255, 255); font-size: 12px; width:77px; display: inline-block;" title=" Airport" href="javascript:void(0);/arrivals"><h3 style="padding: 0px; margin: 10px 0px 0px; font-size: 16px;">?</h3></a>
<div style=" margin-top:10px;">
<div style="display: inline-block; font-size: 12px; padding: 0 5px;">
<div>
<span style="color: #c1eaff;" title="Actual Time of Departure">ATD </span>
<span title="2025-06-21 09:43">09:43</span> <span title="Coordinated Universal Time">UTC</span>
</div>
</div>
<div style="display: inline-block; font-size: 12px; padding: 0 5px;">
<div>
<span style="color: #c1eaff;" title="Estimated Time of Arrival">ETA </span>
<span title="2025-06-21 10:02">10:02</span> <span title="Coordinated Universal Time">UTC</span>
</div>
</div>
</div>
<br style="clear: both;"/>
</div>

<div style="display: block;">
<table style="border-collapse: collapse; width: 100%;">
<tr style="border-right: 1px solid #dadada; ">
<td style="background: none repeat scroll 0 0 #dadada; padding: 0; width: 31px;">
<span style="background: url(https://www.flightradar24.com/static/images/userUI_sprite.png?14) no-repeat scroll -208px -464px rgba(0, 0, 0, 0); height: 26px; margin: 8px 0 0 4px; width: 23px; display: block;"></span>
</td>
<td colspan="2" style="border-bottom: 1px solid #dadada; border-left: 1px solid #dadada; color: #666; line-height: 1.1em; padding: 3px 6px; vertical-align: top; font-size: 14px;">
Aircraft<span style="float: right; font-size: 12px;">(AS50)</span><br>
<span style="color: #333; font-size: 16px; font-weight: bold; line-height: 1.3em;">Airbus Helicopters H125</span>
</td>
</tr>
<tr style="border-right: 1px solid #dadada; ">
<td style="background: none repeat scroll 0 0 #dadada; padding: 0; width: 31px;">
<td colspan="2" style="border-bottom: 1px solid #dadada; border-left: 1px solid #dadada; color: #666; line-height: 1.1em; padding: 3px 6px; vertical-align: top; font-size: 14px;">
Registration<br>
<span style="color: #333; font-size: 16px; font-weight: bold; line-height: 1.3em;"><a href="https://www.flightradar24.com/reg/zt-hot" style="text-decoration: none; color: #333;">ZT-HOT</a></span>
</td>
</tr>
</table>
</div>

</div>
</div>]]></description>
      <styleUrl>#flightPath</styleUrl>
      <LineString>
        <extrude>1</extrude>
        <tessellate>1</tessellate>
        <altitudeMode>absolute</altitudeMode>
        <coordinates>
          18.432087,-33.896667,60.96 18.434498,-33.893555,121.92 18.434772,-33.890354,182.88 18.433937,-33.887009,213.36 18.432537,-33.883163,243.84 18.430481,-33.879463,243.84 18.426203,-33.877808,304.8 18.421154,-33.877926,335.28 18.41629,-33.87825,396.24 18.411598,-33.878716,426.72 18.40662,-33.879555,487.68 18.401764,-33.880417,548.64 18.395823,-33.881699,579.12 18.390665,-33.883163,609.6 18.385391,-33.885094,609.6 18.380182,-33.8871,670.56 18.374298,-33.89035,701.04 18.371887,-33.896988,670.56 18.377209,-33.901386,609.6 18.383322,-33.899185,579.12 18.388647,-33.895203,518.16 18.39414,-33.891266,487.68 18.401184,-33.886539,396.24 18.407764,-33.882812,335.28 18.415661,-33.879463,274.32 18.423624,-33.877853,243.84 18.431808,-33.878311,213.36 18.43935,-33.880764,182.88 18.445415,-33.884724,152.4 18.448231,-33.890991,152.4 18.447361,-33.897339,91.44 18.441696,-33.90041,30.48 18.437918,-33.90097,0 18.434946,-33.901199,0 18.432083,-33.901386,0 18.427603,-33.901154,0 18.430182,-33.897263,30.48 18.432369,-33.894592,91.44 18.432541,-33.891285,121.92 18.430967,-33.888107,182.88 18.429451,-33.885002,243.84 18.427677,-33.881927,274.32 18.424465,-33.879227,304.8 18.420317,-33.877579,365.76 18.415947,-33.876156,396.24 18.411123,-33.875107,426.72 18.406359,-33.875336,487.68 18.401642,-33.876434,518.16 18.396214,-33.877991,579.12 18.391226,-33.87973,609.6 18.385735,-33.882023,609.6 18.380241,-33.884583,640.08 18.375362,-33.887192,670.56 18.370113,-33.890217,701.04 18.363304,-33.894497,731.52 18.360615,-33.900223,701.04 18.362135,-33.906555,670.56 18.36858,-33.910492,640.08 18.374969,-33.908066,579.12 18.379097,-33.903065,518.16 18.382988,-33.898315,487.68 18.388023,-33.892914,487.68 18.393131,-33.888794,457.2 18.399746,-33.885727,457.2 18.406963,-33.88393,426.72 18.414824,-33.882706,365.76 18.4231,-33.882767,304.8 18.431358,-33.884354,274.32 18.439121,-33.886166,213.36 18.446789,-33.889286,152.4 18.450249,-33.894608,121.92 18.447279,-33.898865,91.44 18.441525,-33.900177,60.96 18.436403,-33.901016,30.48 18.434105,-33.901474,0 18.431911,-33.901573,0 18.429453,-33.900879,0 18.427212,-33.900833,0 18.430882,-33.896358,30.48 18.432999,-33.893566,91.44 18.434486,-33.889984,152.4 18.434944,-33.886257,182.88 18.4338,-33.882675,243.84 18.430882,-33.879879,274.32 18.427435,-33.877533,335.28 18.423792,-33.875702,396.24 18.41914,-33.875107,457.2 18.414345,-33.875553,487.68 18.408882,-33.876617,548.64 18.403473,-33.87788,579.12 18.398232,-33.879089,609.6 18.38625,-33.882347,701.04 18.381191,-33.885315,731.52 18.376371,-33.888794,762 18.371429,-33.89259,792.48 18.362078,-33.90033,762 18.359814,-33.907486,731.52 18.365665,-33.910492,670.56 18.371773,-33.907719,670.56 18.37738,-33.903717,609.6 18.38253,-33.8992,579.12 18.387133,-33.894974,548.64 18.395348,-33.88826,487.68 18.401413,-33.884861,487.68 18.407761,-33.882339,426.72 18.414991,-33.880737,396.24 18.422871,-33.880112,365.76 18.430939,-33.881184,335.28 18.438869,-33.883255,274.32 18.446846,-33.886444,243.84 18.452322,-33.891541,182.88 18.454285,-33.898129,121.92 18.450304,-33.902161,91.44 18.444271,-33.901901,60.96 18.438778,-33.901108,60.96 18.43483,-33.900597,30.48 18.431511,-33.900364,0 18.427792,-33.900642,0 18.426933,-33.900364,0 18.428707,-33.898689,0 18.429901,-33.897537,30.48 18.432199,-33.894699,91.44 18.433971,-33.891705,152.4 18.435619,-33.888657,213.36 18.436403,-33.885498,243.84 18.435843,-33.882019,304.8 18.434498,-33.878723,365.76 18.43063,-33.876617,396.24 18.425755,-33.876297,457.2 18.420933,-33.876251,518.16 18.415947,-33.876762,548.64 18.410395,-33.877625,609.6 18.405014,-33.878632,640.08 18.398569,-33.880463,670.56 18.392601,-33.88216,670.56 18.384361,-33.884956,701.04 18.378725,-33.887787,731.52 18.372917,-33.891006,731.52 18.367538,-33.895012,731.52 18.364992,-33.901337,701.04 18.36937,-33.906509,670.56 18.375923,-33.90477,640.08 18.380743,-33.900375,579.12 18.385227,-33.895706,548.64 18.390541,-33.891098,518.16 18.39632,-33.887653,457.2 18.403221,-33.884766,396.24 18.410452,-33.882706,365.76 18.418751,-33.881184,304.8 18.426538,-33.880646,274.32 18.434555,-33.880508,243.84 18.44257,-33.88092,213.36 18.449352,-33.883301,182.88 18.454628,-33.888771,152.4 18.453255,-33.894218,121.92 18.446548,-33.897125,121.92 18.439865,-33.898689,60.96 18.434946,-33.899277,30.48 18.43276,-33.899506,30.48 18.427322,-33.900742,0 18.427492,-33.899918,0 18.429279,-33.898502,0 18.430882,-33.897152,30.48 18.433041,-33.894562,91.44 18.434443,-33.891037,121.92 18.435339,-33.887924,182.88 18.436068,-33.884308,213.36 18.436012,-33.880646,243.84 18.434086,-33.877415,243.84 18.43111,-33.874386,304.8 18.427996,-33.871719,365.76 18.423063,-33.87085,426.72 18.417721,-33.871593,457.2 18.411827,-33.872665,518.16 18.406359,-33.874146,579.12 18.400698,-33.875839,609.6 18.395119,-33.877785,670.56 18.389111,-33.880581,701.04 18.384108,-33.883392,762 18.379005,-33.88678,762 18.373457,-33.890533,762 18.367964,-33.894699,792.48 18.363018,-33.899757,762 18.359331,-33.906097,731.52 18.361629,-33.912552,701.04 18.369196,-33.913742,640.08 18.374233,-33.909489,548.64 18.379005,-33.904587,518.16 18.38349,-33.899643,487.68 18.393187,-33.890121,487.68 18.399525,-33.886909,457.2 18.405762,-33.88435,457.2 18.412342,-33.882069,426.72 18.419701,-33.880508,396.24 18.427162,-33.880299,396.24 18.435631,-33.881092,304.8 18.444532,-33.883575,243.84 18.45109,-33.888199,182.88 18.451706,-33.894882,152.4 18.446157,-33.898682,91.44 18.439375,-33.89946,60.96 18.436628,-33.899643,30.48 18.433994,-33.899826,0 18.42762,-33.900784,0 18.427162,-33.90004,0 18.42865,-33.89864,0 18.430126,-33.897263,0 18.433714,-33.893509,60.96 18.435339,-33.889709,91.44 18.434887,-33.885887,152.4 18.432999,-33.882767,182.88 18.429966,-33.880207,243.84 18.426189,-33.878437,274.32 18.421213,-33.877167,304.8 18.416748,-33.877365,396.24 18.412132,-33.878357,426.72 18.4072,-33.880096,457.2 18.401651,-33.882156,457.2 18.391628,-33.885933,518.16 18.384611,-33.889252,548.64 18.379669,-33.891705,609.6 18.371773,-33.896591,670.56 18.368132,-33.899918,731.52 18.364824,-33.904129,762 18.365385,-33.909393,762 18.371201,-33.912701,731.52 18.375923,-33.909348,640.08 18.379841,-33.904648,548.64 18.384533,-33.8992,426.72 18.393692,-33.889664,396.24 18.399801,-33.886368,365.76 18.406048,-33.884026,396.24 18.412638,-33.882568,396.24 18.419588,-33.881699,365.76 18.427435,-33.882156,304.8 18.435507,-33.884125,243.84 18.442514,-33.887787,182.88 18.444981,-33.894012,152.4 18.441055,-33.898682,91.44 18.437347,-33.899479,30.48 18.434715,-33.899712,0 18.432425,-33.899918,0 18.427734,-33.900738,0 18.427435,-33.899918,0 18.429108,-33.89864,0 18.43071,-33.897617,30.48 18.43317,-33.895615,60.96 18.43523,-33.892635,91.44 18.435955,-33.889206,152.4 18.435675,-33.885635,182.88 18.433601,-33.882111,274.32 18.429337,-33.880672,335.28 18.425194,-33.880371,426.72 18.42071,-33.880142,487.68 18.41629,-33.880344,548.64 18.411655,-33.880951,609.6 18.406734,-33.88179,640.08 18.401699,-33.882858,701.04 18.396214,-33.884216,731.52 18.390884,-33.88649,731.52 18.385172,-33.889297,762 18.379734,-33.892548,792.48 18.374577,-33.89608,792.48 18.369869,-33.900009,822.96 18.365593,-33.904366,822.96 18.361187,-33.909348,822.96 18.357594,-33.91507,822.96 18.354149,-33.921219,822.96 18.349131,-33.930588,822.96 18.343861,-33.941711,822.96 18.341389,-33.9478,853.44 18.328951,-33.973709,975.36 18.320263,-33.987946,1005.84 18.310833,-34.001194,1036.32 18.300421,-34.015366,1097.28 18.297558,-34.020889,1127.76 18.295263,-34.026215,1127.76 18.293806,-34.031937,1158.24 18.292685,-34.03775,1158.24 18.291664,-34.043793,1158.24 18.292797,-34.049698,1188.72 18.296757,-34.054871,1249.68 18.30283,-34.058578,1310.64 18.310398,-34.05986,1310.64 18.31604,-34.057384,1341.12 18.314724,-34.053848,1280.16 18.309517,-34.051659,1158.24 18.304024,-34.048214,1005.84 18.300133,-34.042255,883.92 18.29801,-34.03624,762 18.299187,-34.030197,670.56 18.303335,-34.024887,609.6 18.310959,-34.01857,548.64 18.319244,-34.008785,579.12 18.321419,-34.00441,579.12 18.324966,-33.998077,609.6 18.338312,-33.982819,670.56 18.348738,-33.969269,609.6 18.353895,-33.95787,548.64 18.355352,-33.951828,548.64 18.355968,-33.946747,579.12 18.357929,-33.93631,579.12 18.361462,-33.921249,518.16 18.364208,-33.916214,518.16 18.367683,-33.911819,548.64 18.371429,-33.907532,548.64 18.375206,-33.90353,579.12 18.379343,-33.899414,579.12 18.384418,-33.895802,579.12 18.389683,-33.892868,609.6 18.395823,-33.890488,609.6 18.403276,-33.888885,579.12 18.411198,-33.887981,548.64 18.418524,-33.887512,548.64 18.426533,-33.886955,426.72 18.44128,-33.886963,243.84 18.448399,-33.890762,182.88 18.449593,-33.896408,152.4 18.445129,-33.899105,91.44 18.438892,-33.89957,30.48 18.436089,-33.89962,30.48 18.431416,-33.899918,0 18.427505,-33.900829,0 18.427155,-33.900192,0 18.42865,-33.898968,0 18.430309,-33.897709,30.48 18.433514,-33.894451,91.44 18.43483,-33.891331,152.4 18.435116,-33.887886,213.36 18.4342,-33.884769,243.84 18.43071,-33.883511,304.8 18.426538,-33.883072,335.28 18.422728,-33.882568,396.24 18.415489,-33.881649,487.68 18.411461,-33.881653,548.64 18.407368,-33.882523,609.6 18.403164,-33.883575,640.08 18.398737,-33.885498,640.08 18.39386,-33.888519,640.08 18.388702,-33.891449,640.08 18.378725,-33.896896,670.56 18.372391,-33.901611,731.52 18.368076,-33.905823,762 18.363934,-33.910419,762 18.360228,-33.915619,792.48 18.357651,-33.920517,822.96 18.354836,-33.926247,822.96 18.352325,-33.932281,853.44 18.350945,-33.937744,975.36 18.349857,-33.942635,1066.8 18.34734,-33.952457,1188.72 18.344936,-33.958321,1219.2 18.342178,-33.962997,1249.68 18.339041,-33.967484,1280.16 18.33534,-33.972107,1280.16 18.33153,-33.976547,1280.16 18.325195,-33.983734,1280.16 18.311182,-34.000992,1188.72 18.300421,-34.015961,1188.72 18.297558,-34.021168,1219.2 18.295269,-34.026848,1219.2 18.294029,-34.033035,1219.2 18.293896,-34.040161,1219.2 18.295155,-34.046257,1219.2 18.297955,-34.05304,1249.68 18.30162,-34.059155,1219.2 18.306643,-34.064484,1249.68 18.312639,-34.070526,1188.72 18.320375,-34.07872,1127.76 18.337669,-34.095325,975.36 18.345375,-34.100418,944.88 18.353691,-34.104588,883.92 18.362846,-34.108311,792.48 18.376522,-34.114365,731.52 18.405855,-34.126465,548.64 18.42609,-34.133469,518.16 18.433857,-34.135639,518.16 18.441448,-34.136993,548.64 18.448566,-34.136169,548.64 18.454571,-34.133545,579.12 18.460058,-34.130035,548.64 18.465271,-34.126602,548.64 18.470148,-34.122849,548.64 18.473167,-34.118229,548.64 18.474295,-34.113327,548.64 18.473911,-34.10878,579.12 18.472895,-34.104263,609.6 18.471548,-34.09964,609.6 18.469448,-34.094997,640.08 18.466759,-34.09053,670.56 18.46314,-34.086319,731.52 18.459162,-34.08252,762 18.454678,-34.078857,762 18.450249,-34.075333,792.48 18.444363,-34.069107,792.48 18.441525,-34.064602,792.48 18.439522,-34.059807,822.96 18.437302,-34.055145,792.48 18.434258,-34.047607,792.48 18.433096,-34.042694,792.48 18.432144,-34.037888,762 18.431528,-34.032715,762 18.431911,-34.026939,762 18.433342,-34.021679,762 18.435619,-34.016739,762 18.440094,-34.01218,670.56 18.447018,-34.008224,640.08 18.453611,-34.004974,640.08 18.463253,-33.999847,579.12 18.467514,-33.995453,579.12 18.470484,-33.990692,548.64 18.473511,-33.985474,518.16 18.475922,-33.980438,518.16 18.477802,-33.975498,487.68 18.479958,-33.970367,457.2 18.482265,-33.963024,426.72 18.483639,-33.957485,396.24 18.483925,-33.952316,396.24 18.483467,-33.947197,396.24 18.482759,-33.942123,426.72 18.481407,-33.934345,426.72 18.479452,-33.929718,426.72 18.476257,-33.924759,396.24 18.472334,-33.920242,365.76 18.467905,-33.916443,365.76 18.463533,-33.912689,304.8 18.457489,-33.907997,274.32 18.445759,-33.899155,152.4 18.441448,-33.897903,91.44 18.437077,-33.898315,60.96 18.428331,-33.900238,0 18.426973,-33.900661,0 18.428724,-33.898773,30.48 18.431568,-33.896641,60.96 18.4342,-33.89259,121.92 18.436031,-33.888493,182.88 18.434772,-33.884628,243.84 18.432425,-33.881561,304.8 18.427849,-33.880486,365.76 18.421661,-33.88147,426.72 18.41572,-33.882751,518.16 18.399754,-33.885838,640.08 18.394089,-33.887562,701.04 18.388142,-33.889893,762 18.383547,-33.892502,792.48 18.37841,-33.896175,822.96 18.374409,-33.900146,883.92 18.370113,-33.905018,914.4 18.366394,-33.90958,975.36 18.360453,-33.917725,1005.84 18.358326,-33.926945,1066.8 18.366169,-33.929718,1097.28 18.368916,-33.935577,1066.8 18.364937,-33.942581,1036.32 18.359837,-33.949036,1005.84 18.354792,-33.954895,1005.84 18.345909,-33.96521,975.36 18.332201,-33.982086,944.88 18.322906,-33.995331,944.88 18.314938,-34.009094,975.36 18.312864,-34.015091,1005.84 18.313087,-34.022598,1005.84 18.314896,-34.030197,1005.84 18.317299,-34.037182,1005.84 18.319702,-34.043839,1005.84 18.323936,-34.053429,1005.84 18.329487,-34.060272,1005.84 18.33663,-34.065445,1036.32 18.345108,-34.069859,1066.8 18.355236,-34.075306,1097.28 18.363934,-34.081032,1097.28 18.372173,-34.087738,1066.8 18.378983,-34.093742,1005.84 18.389992,-34.10408,914.4 18.405743,-34.117676,762 18.415497,-34.122345,731.52 18.42738,-34.124954,670.56 18.437233,-34.126236,640.08 18.44593,-34.125629,640.08 18.453426,-34.1213,670.56 18.455854,-34.114792,670.56 18.45462,-34.108612,670.56 18.45109,-34.103531,640.08 18.447132,-34.098583,640.08 18.440495,-34.089645,640.08 18.43248,-34.077667,640.08 18.430996,-34.071907,670.56 18.429846,-34.066086,701.04 18.428879,-34.05864,701.04 18.428389,-34.052994,670.56 18.428331,-34.044159,701.04 18.428669,-34.033539,701.04 18.429737,-34.024891,731.52 18.432257,-34.019302,731.52 18.435631,-34.014137,731.52 18.43998,-34.009342,731.52 18.443747,-34.00502,762 18.451874,-33.999893,670.56 18.46118,-33.99765,670.56 18.468578,-33.994217,640.08 18.474127,-33.988632,579.12 18.477211,-33.982315,548.64 18.479347,-33.974987,518.16 18.481806,-33.966568,487.68 18.484777,-33.954803,396.24 18.484329,-33.94899,396.24 18.482479,-33.941483,335.28 18.480068,-33.934387,304.8 18.477459,-33.928619,304.8 18.474127,-33.923447,304.8 18.470148,-33.917816,304.8 18.464598,-33.910995,304.8 18.460732,-33.906876,274.32 18.456303,-33.902756,213.36 18.45109,-33.899597,91.44 18.444923,-33.89859,60.96 18.438421,-33.898773,60.96 18.433376,-33.899185,30.48 18.430855,-33.899597,30.48 18.427677,-33.900455,0 18.426987,-33.900238,0 18.42923,-33.898453,30.48 18.432484,-33.895523,91.44 18.435001,-33.891891,152.4 18.436235,-33.888199,213.36 18.435917,-33.884441,274.32 18.434217,-33.880508,335.28 18.429966,-33.877834,396.24 18.424746,-33.877487,457.2 18.41914,-33.877579,487.68 18.411827,-33.878159,518.16 18.405819,-33.879135,579.12 18.398895,-33.880814,609.6 18.393402,-33.883045,640.08 18.387077,-33.886276,701.04 18.38063,-33.890305,701.04 18.37532,-33.894032,731.52 18.370094,-33.898727,731.52 18.364824,-33.904404,731.52 18.360956,-33.909714,762 18.35737,-33.916672,762 18.354511,-33.923904,762 18.352089,-33.930622,762 18.347511,-33.944866,792.48 18.339321,-33.968079,822.96 18.330914,-33.984512,853.44 18.32329,-33.996368,883.92 18.315611,-34.006943,853.44 18.306484,-34.01963,853.44 18.302765,-34.026333,853.44 18.299274,-34.033596,853.44 18.295956,-34.045559,914.4 18.302607,-34.048233,975.36 18.303448,-34.043884,883.92 18.302879,-34.036716,762 18.302937,-34.030525,762 18.304512,-34.02475,731.52 18.307482,-34.019623,731.52 18.311176,-34.014324,762 18.314896,-34.009808,731.52 18.320217,-34.004501,701.04 18.326054,-33.999428,670.56 18.346104,-33.979248,640.08 18.35367,-33.96698,609.6 18.356953,-33.955761,609.6 18.357706,-33.949356,609.6 18.358154,-33.944168,609.6 18.359779,-33.934753,640.08 18.361187,-33.928806,640.08 18.364431,-33.919281,640.08 18.367596,-33.91391,609.6 18.371773,-33.908092,579.12 18.376122,-33.902599,548.64 18.380585,-33.898037,579.12 18.386349,-33.893509,579.12 18.393299,-33.889618,579.12 18.400555,-33.886398,548.64 18.407307,-33.884209,548.64 18.416897,-33.883209,548.64 18.424913,-33.884491,518.16 18.432537,-33.88623,457.2 18.441353,-33.888912,243.84 18.449306,-33.894264,91.44 18.447727,-33.899368,60.96 18.443186,-33.899918,60.96 18.438478,-33.899918,60.96 18.431225,-33.899853,30.48 18.427563,-33.900597,0 18.433041,-33.895889,60.96 18.433546,-33.89534,91.44 18.434658,-33.892822,121.92 18.434772,-33.892357,121.92 18.434723,-33.889893,182.88 18.434601,-33.889145,182.88 18.433657,-33.886322,213.36 18.433399,-33.885654,213.36 18.432312,-33.882523,243.84 18.431911,-33.881649,243.84 18.429794,-33.878857,274.32 18.429005,-33.878403,274.32 18.425217,-33.877834,304.8 18.424015,-33.877834,335.28 18.420296,-33.877972,365.76 18.419308,-33.878036,365.76 18.415432,-33.8783,396.24 18.414488,-33.878403,426.72 18.410452,-33.878906,457.2 18.409538,-33.879044,457.2 18.405533,-33.879787,487.68 18.404675,-33.879929,518.16 18.400955,-33.880531,548.64 18.399073,-33.88092,548.64 18.39489,-33.881927,579.12 18.393917,-33.88221,579.12 18.389683,-33.883465,609.6 18.388538,-33.883884,609.6 18.384386,-33.885498,640.08 18.383322,-33.885864,640.08 18.379005,-33.887604,670.56 18.378054,-33.888016,670.56 18.373375,-33.891193,701.04 18.372561,-33.892136,701.04 18.372574,-33.898457,640.08 18.37326,-33.899338,640.08 18.378868,-33.901386,609.6 18.380014,-33.901154,579.12 18.384418,-33.898315,548.64 18.385448,-33.897476,548.64 18.389568,-33.894497,518.16 18.390598,-33.893799,518.16 18.39489,-33.890682,457.2 18.396263,-33.889702,457.2 18.40238,-33.885818,396.24 18.403645,-33.885094,396.24 18.409023,-33.88216,335.28 18.410397,-33.881512,304.8 18.41692,-33.879089,274.32 18.418243,-33.878769,243.84 18.425102,-33.877739,243.84 18.427048,-33.877693,213.36 18.433434,-33.878677,213.36 18.434887,-33.879089,213.36 18.440439,-33.881287,182.88 18.441982,-33.882069,152.4 18.446159,-33.885746,152.4 18.44696,-33.886955,152.4 18.448343,-33.892319,152.4 18.448399,-33.893509,121.92 18.446438,-33.898361,91.44 18.445484,-33.899094,60.96 18.440552,-33.900604,30.48 18.43998,-33.900688,30.48 18.437691,-33.901016,0 18.436546,-33.901108,0 18.434275,-33.901245,0 18.433685,-33.901295,0 18.431639,-33.901428,0 18.430126,-33.901474,0 18.427322,-33.901016,0 18.427057,-33.900948,0 18.430855,-33.896622,30.48 18.431168,-33.896267,30.48 18.432598,-33.894032,91.44 18.43277,-33.893379,91.44 18.432312,-33.89082,121.92 18.431854,-33.889984,121.92 18.430687,-33.887466,182.88 18.430367,-33.886772,182.88 18.429108,-33.88435,243.84 18.428724,-33.883667,243.84 18.427099,-33.881149,274.32 18.426594,-33.8806,274.32 18.423672,-33.878902,335.28 18.422838,-33.87854,335.28 18.419609,-33.877319,365.76 18.418751,-33.876995,396.24 18.415159,-33.875977,426.72 18.414095,-33.875702,426.72 18.410282,-33.875038,457.2 18.409163,-33.875015,457.2 18.405361,-33.875504,487.68 18.404503,-33.87569,518.16 18.40044,-33.876762,548.64 18.399353,-33.877041,548.64 18.395485,-33.87822,579.12 18.394318,-33.878624,579.12 18.390083,-33.880161,609.6 18.388996,-33.880627,609.6 18.384836,-33.882477,640.08 18.383602,-33.883026,640.08 18.379511,-33.884995,670.56 18.378389,-33.885544,670.56 18.374241,-33.887787,670.56 18.37326,-33.888351,670.56 18.369255,-33.890682,701.04 18.368111,-33.891331,701.04 18.362135,-33.895752,731.52 18.361517,-33.896759,731.52 18.36062,-33.901337,701.04 18.360786,-33.902924,701.04 18.36319,-33.90781,670.56 18.364162,-33.908649,670.56 18.369982,-33.910583,640.08 18.371607,-33.910355,609.6 18.375721,-33.907066,548.64 18.376465,-33.906136,548.64 18.379902,-33.902115,518.16 18.380585,-33.901249,518.16 18.38377,-33.8974,487.68 18.384533,-33.8965,487.68 18.38887,-33.892044,487.68 18.390026,-33.891098,487.68 18.394476,-33.88797,457.2 18.395485,-33.887421,457.2 18.401091,-33.885269,426.72 18.40266,-33.884857,426.72 18.408279,-33.883698,396.24 18.40971,-33.883419,396.24 18.416058,-33.882614,365.76 18.417892,-33.882488,335.28 18.424702,-33.882999,304.8 18.426247,-33.883278,304.8 18.432928,-33.88472,274.32 18.434666,-33.885132,274.32 18.441,-33.886642,213.36 18.442326,-33.887051,182.88 18.447783,-33.890121,152.4 18.44862,-33.890915,121.92 18.450222,-33.895523,121.92 18.4498,-33.896713,121.92 18.446331,-33.8992,60.96 18.444756,-33.899597,60.96 18.440437,-33.900318,60.96 18.439465,-33.900455,60.96 18.435802,-33.901154,30.48 18.435562,-33.901199,30.48 18.433434,-33.90152,0 18.433113,-33.901573,0 18.431135,-33.901474,0 18.43063,-33.901382,0 18.428879,-33.900688,0 18.428307,-33.900597,0 18.426991,-33.900944,0 18.427219,-33.90004,0 18.43111,-33.89608,30.48 18.431639,-33.895523,60.96 18.433285,-33.893009,91.44 18.433714,-33.892181,121.92 18.434601,-33.889286,152.4 18.434715,-33.888351,152.4 18.434946,-33.885452,182.88 18.434834,-33.88472,213.36 18.433266,-33.881973,243.84 18.43277,-33.881416,274.32 18.430182,-33.87941,304.8 18.429508,-33.878902,304.8 18.426931,-33.877213,365.76 18.426035,-33.876663,365.76 18.422838,-33.875427,396.24 18.42211,-33.87529,426.72 18.418186,-33.875153,457.2 18.417177,-33.875244,487.68 18.413366,-33.875702,518.16 18.412413,-33.875885,518.16 18.407707,-33.8769,548.64 18.406696,-33.877167,548.64 18.402603,-33.878082,579.12 18.401413,-33.8783,609.6 18.39728,-33.879364,640.08 18.39386,-33.880344,640.08 18.385117,-33.882843,701.04 18.383938,-33.883484,731.52 18.380299,-33.885933,731.52 18.379154,-33.886772,762 18.375378,-33.889565,792.48 18.374348,-33.890354,792.48 18.37043,-33.893372,792.48 18.367138,-33.895847,762 18.361301,-33.90134,762 18.360453,-33.902664,762 18.36034,-33.908569,731.52 18.361404,-33.909622,731.52 18.366966,-33.910091,670.56 18.368412,-33.909439,670.56 18.372917,-33.907066,670.56 18.37429,-33.906181,670.56 18.378296,-33.902924,609.6 18.379211,-33.902134,609.6 18.383446,-33.898407,579.12 18.38419,-33.897758,548.64 18.388142,-33.894012,518.16 18.391169,-33.891312,518.16 18.396551,-33.887512,487.68 18.397636,-33.886818,487.68 18.40266,-33.884308,457.2 18.40353,-33.883884,457.2 18.409081,-33.881977,426.72 18.410284,-33.881653,426.72 18.416561,-33.880508,396.24 18.417963,-33.880371,365.76 18.424759,-33.880253,365.76 18.426247,-33.880394,365.76 18.432541,-33.881603,304.8 18.434498,-33.882111,304.8 18.440552,-33.883743,274.32 18.442514,-33.884399,274.32 18.448008,-33.887192,243.84 18.449352,-33.888245,213.36 18.453083,-33.892914,182.88 18.453712,-33.894405,152.4 18.453827,-33.899525,121.92 18.453276,-33.900375,121.92 18.448906,-33.902317,91.44 18.447727,-33.902252,60.96 18.442955,-33.901714,60.96 18.442234,-33.901611,60.96 18.437693,-33.90097,60.96 18.436628,-33.900833,60.96 18.434372,-33.900551,30.48 18.434029,-33.900551,30.48 18.43119,-33.900375,0 18.430481,-33.900364,0 18.427505,-33.900688,0 18.427267,-33.900787,0 18.427277,-33.89999,0 18.42766,-33.899597,0 18.428936,-33.898502,0 18.429173,-33.89827,0 18.430138,-33.897339,30.48 18.430574,-33.896805,60.96 18.432655,-33.893986,91.44 18.432985,-33.893463,121.92 18.434372,-33.891052,152.4 18.434715,-33.890354,182.88 18.4359,-33.888062,213.36 18.436235,-33.887329,243.84 18.436317,-33.884628,274.32 18.43626,-33.884071,274.32 18.435675,-33.881424,304.8 18.435459,-33.880718,335.28 18.433857,-33.878067,365.76 18.433113,-33.877506,365.76 18.429451,-33.87653,426.72 18.428669,-33.87648,426.72 18.424688,-33.876205,487.68 18.423786,-33.876202,487.68 18.419981,-33.876297,518.16 18.419083,-33.876434,548.64 18.414745,-33.876949,579.12 18.413773,-33.877087,579.12 18.409386,-33.877808,609.6 18.408337,-33.877972,640.08 18.403782,-33.878952,670.56 18.402325,-33.879364,670.56 18.397522,-33.880764,670.56 18.396263,-33.881092,670.56 18.391514,-33.882488,670.56 18.390141,-33.882908,670.56 18.383041,-33.885544,701.04 18.382072,-33.886024,731.52 18.377268,-33.888565,731.52 18.376204,-33.88916,731.52 18.371662,-33.891769,731.52 18.370653,-33.892456,731.52 18.366562,-33.896164,731.52 18.365936,-33.897243,731.52 18.365192,-33.902645,701.04 18.365822,-33.903854,701.04 18.371159,-33.90683,670.56 18.372671,-33.906693,670.56 18.376987,-33.903809,640.08 18.377773,-33.903122,609.6 18.381809,-33.899231,579.12 18.382645,-33.898361,579.12 18.386236,-33.894699,518.16 18.387337,-33.893661,518.16 18.391617,-33.89035,487.68 18.392887,-33.889565,487.68 18.397783,-33.886917,457.2 18.399124,-33.886353,426.72 18.40456,-33.88435,396.24 18.405855,-33.883942,396.24 18.412228,-33.882301,335.28 18.413544,-33.881977,335.28 18.420149,-33.881058,304.8 18.421841,-33.880951,304.8 18.428444,-33.880554,274.32 18.429846,-33.880508,274.32 18.435917,-33.880531,243.84 18.437691,-33.880581,243.84 18.443972,-33.881195,213.36 18.445415,-33.881603,213.36 18.450794,-33.884258,182.88 18.451767,-33.885048,182.88 18.455086,-33.889984,152.4 18.455181,-33.891037,152.4 18.452168,-33.894825,121.92 18.45109,-33.89534,121.92 18.444923,-33.897629,91.44 18.443813,-33.897942,91.44 18.439064,-33.898781,60.96 18.437973,-33.898956,60.96 18.434498,-33.899323,30.48 18.434105,-33.899368,30.48 18.432369,-33.89957,30.48 18.432026,-33.89962,30.48 18.427105,-33.900864,0 18.426905,-33.901005,0 18.42802,-33.899479,0 18.428421,-33.899155,0 18.429565,-33.898315,0 18.429966,-33.898037,30.48 18.431225,-33.896824,30.48 18.431625,-33.896358,60.96 18.433456,-33.893845,91.44 18.433714,-33.893234,91.44 18.434601,-33.89045,152.4 18.43483,-33.889751,152.4 18.435562,-33.887192,182.88 18.435688,-33.886585,182.88 18.43618,-33.883667,213.36 18.436235,-33.882843,213.36 18.435787,-33.880005,243.84 18.435516,-33.879368,243.84 18.433456,-33.876762,243.84 18.432884,-33.87611,274.32 18.430424,-33.873688,304.8 18.429909,-33.873177,335.28 18.427105,-33.871315,365.76 18.426258,-33.871033,396.24 18.422054,-33.870941,426.72 18.420811,-33.871128,457.2 18.416176,-33.871872,487.68 18.415375,-33.872013,487.68 18.410683,-33.872944,548.64 18.40971,-33.873177,548.64 18.405071,-33.874512,579.12 18.40395,-33.874832,579.12 18.399639,-33.876202,640.08 18.398266,-33.876621,640.08 18.393917,-33.87825,670.56 18.392601,-33.878857,670.56 18.388367,-33.880951,731.52 18.387133,-33.881607,731.52 18.383154,-33.883987,762 18.381844,-33.884861,762 18.377781,-33.887608,762 18.376808,-33.888306,762 18.372616,-33.891083,762 18.371258,-33.892033,762 18.367081,-33.895523,792.48 18.366001,-33.896622,792.48 18.36219,-33.90065,762 18.361359,-33.901714,762 18.359184,-33.90744,701.04 18.359356,-33.908836,701.04 18.362864,-33.913422,701.04 18.364376,-33.914017,670.56 18.370317,-33.913101,640.08 18.371494,-33.912186,609.6 18.375149,-33.908558,548.64 18.376091,-33.907608,548.64 18.379898,-33.903667,518.16 18.380814,-33.902691,518.16 18.384304,-33.898735,487.68 18.386797,-33.896072,487.68 18.394432,-33.889423,487.68 18.39543,-33.88884,457.2 18.400555,-33.886444,457.2 18.401699,-33.885933,457.2 18.407021,-33.883884,457.2 18.408394,-33.883419,457.2 18.413927,-33.881561,426.72 18.41526,-33.881229,426.72 18.42104,-33.880394,396.24 18.42256,-33.880325,396.24 18.428822,-33.880394,365.76 18.430687,-33.880508,365.76 18.437637,-33.88147,274.32 18.439236,-33.881836,274.32 18.445709,-33.884079,243.84 18.447475,-33.884907,213.36 18.451706,-33.889252,182.88 18.452168,-33.890865,182.88 18.450966,-33.89608,152.4 18.450108,-33.896919,121.92 18.445204,-33.898865,91.44 18.443411,-33.899094,60.96 18.438778,-33.899479,30.48 18.438263,-33.899525,30.48 18.435843,-33.899734,30.48 18.435631,-33.899712,30.48 18.433546,-33.899872,0 18.429852,-33.900272,0 18.427334,-33.900829,0 18.427099,-33.90089,0 18.427563,-33.899666,0 18.427828,-33.89946,0 18.428949,-33.898407,0 18.42923,-33.898132,0 18.430595,-33.896873,30.48 18.430882,-33.896591,30.48 18.434258,-33.892731,60.96 18.434601,-33.892078,60.96 18.435402,-33.888821,121.92 18.435394,-33.888107,121.92 18.434666,-33.885315,152.4 18.434315,-33.884537,182.88 18.432426,-33.882114,213.36 18.431919,-33.881607,213.36 18.429337,-33.879879,243.84 18.428478,-33.879414,243.84 18.425102,-33.878017,274.32 18.42453,-33.877834,274.32 18.420317,-33.877121,335.28 18.419495,-33.877087,335.28 18.415718,-33.877506,396.24 18.414917,-33.877647,396.24 18.411236,-33.878632,426.72 18.410227,-33.879044,426.72 18.4058,-33.8806,457.2 18.404846,-33.880997,457.2 18.400698,-33.882523,457.2 18.399525,-33.882908,487.68 18.388592,-33.887238,518.16 18.387583,-33.887741,548.64 18.383617,-33.889797,548.64 18.382538,-33.89035,579.12 18.376036,-33.893509,640.08 18.374409,-33.894516,640.08 18.371086,-33.897198,701.04 18.370171,-33.897991,701.04 18.367458,-33.90065,731.52 18.36673,-33.901382,731.52 18.364506,-33.905018,762 18.364449,-33.905903,762 18.366165,-33.910465,731.52 18.367458,-33.911545,731.52 18.372448,-33.912506,731.52 18.373661,-33.911907,731.52 18.376637,-33.908417,609.6 18.377325,-33.907562,609.6 18.380985,-33.903343,518.16 18.381752,-33.902435,487.68 18.385448,-33.898224,426.72 18.388195,-33.895012,396.24 18.394756,-33.888931,365.76 18.396034,-33.888168,365.76 18.400923,-33.885864,365.76 18.402267,-33.885315,365.76 18.407312,-33.883667,396.24 18.408602,-33.883392,396.24 18.413887,-33.882347,396.24 18.415329,-33.882111,396.24 18.421101,-33.881699,365.76 18.422838,-33.881699,335.28 18.42905,-33.882393,304.8 18.430824,-33.882767,274.32 18.436852,-33.884628,243.84 18.43832,-33.885235,213.36 18.443356,-33.888634,182.88 18.444386,-33.889984,152.4 18.444614,-33.89529,121.92 18.444042,-33.896313,121.92 18.440048,-33.899048,60.96 18.438869,-33.899323,60.96 18.43689,-33.899525,30.48 18.436203,-33.89957,30.48 18.434086,-33.899757,0 18.433857,-33.899757,0 18.432026,-33.899944,0 18.429737,-33.900272,0 18.427492,-33.900787,0 18.427261,-33.900852,0 18.42766,-33.899689,0 18.427996,-33.89946,0 18.429398,-33.898499,0 18.429794,-33.898174,0 18.430967,-33.897446,30.48 18.431282,-33.897198,30.48 18.433685,-33.895058,60.96 18.434086,-33.894497,91.44 18.435562,-33.891815,121.92 18.435732,-33.891312,121.92 18.435974,-33.888401,152.4 18.435955,-33.887878,152.4 18.435452,-33.884857,213.36 18.435226,-33.884171,213.36 18.433041,-33.881744,274.32 18.432198,-33.881371,274.32 18.42865,-33.880627,335.28 18.42766,-33.880554,365.76 18.424297,-33.880325,426.72 18.423214,-33.880253,457.2 18.419868,-33.880142,487.68 18.419083,-33.880142,518.16 18.415384,-33.880463,579.12 18.414431,-33.880554,579.12 18.410732,-33.881058,609.6 18.409723,-33.881241,609.6 18.40563,-33.882019,640.08 18.404732,-33.88221,670.56 18.400383,-33.883141,701.04 18.399353,-33.883373,701.04 18.39543,-33.884491,731.52 18.394146,-33.885002,731.52 18.389544,-33.887146,731.52 18.388824,-33.88747,731.52 18.384163,-33.889847,762 18.383274,-33.890354,762 18.378782,-33.893188,792.48 18.377661,-33.893967,792.48 18.373737,-33.896713,792.48 18.372803,-33.89743,792.48 18.369141,-33.900738,822.96 18.368076,-33.901749,822.96 18.36462,-33.905392,822.96 18.363876,-33.906231,822.96 18.360329,-33.910511,822.96 18.359612,-33.911591,822.96 18.356977,-33.916168,822.96 18.356323,-33.917309,822.96 18.353634,-33.922291,822.96 18.35289,-33.923641,822.96 18.347282,-33.934162,822.96 18.345598,-33.937775,822.96 18.343357,-33.942993,853.44 18.342796,-33.944321,853.44 18.339264,-33.952744,883.92 18.337727,-33.956039,883.92 18.326708,-33.977646,975.36 18.32428,-33.981876,1005.84 18.319588,-33.988811,1005.84 18.318806,-33.990005,1005.84 18.308548,-34.004288,1036.32 18.30653,-34.006897,1036.32 18.299847,-34.016464,1097.28 18.299187,-34.017654,1097.28 18.297113,-34.02182,1127.76 18.296585,-34.022934,1127.76 18.294926,-34.027218,1127.76 18.294582,-34.028477,1127.76 18.293581,-34.033127,1158.24 18.293438,-34.03397,1158.24 18.292517,-34.038849,1158.24 18.292236,-34.040176,1158.24 18.29162,-34.044846,1158.24 18.291733,-34.04631,1188.72 18.293438,-34.050869,1219.2 18.294254,-34.052078,1219.2 18.297897,-34.055832,1249.68 18.298906,-34.056519,1280.16 18.304367,-34.059059,1310.64 18.305744,-34.059402,1310.64 18.311911,-34.059677,1341.12 18.313087,-34.059402,1341.12 18.316441,-34.056595,1341.12 18.316498,-34.05566,1310.64 18.313984,-34.053543,1249.68 18.312807,-34.05304,1219.2 18.308268,-34.051117,1127.76 18.307228,-34.050632,1097.28 18.303223,-34.047318,1005.84 18.301907,-34.045376,944.88 18.299618,-34.041279,883.92 18.299074,-34.040085,853.44 18.297958,-34.035038,762 18.298073,-34.03392,731.52 18.299803,-34.029053,640.08 18.300476,-34.028046,640.08 18.307034,-34.021774,579.12 18.307987,-34.020996,548.64 18.315331,-34.014496,548.64 18.317123,-34.012253,548.64 18.319645,-34.007946,579.12 18.32015,-34.006943,579.12 18.321991,-34.003338,579.12 18.322449,-34.002544,609.6 18.326149,-33.996277,640.08 18.329006,-33.992477,640.08 18.341904,-33.978756,670.56 18.343693,-33.97641,640.08 18.350195,-33.96666,579.12 18.351427,-33.964279,579.12 18.354435,-33.956039,548.64 18.354721,-33.954739,548.64 18.35552,-33.950684,548.64 18.355633,-33.949768,548.64 18.356094,-33.945614,579.12 18.356266,-33.944496,579.12 18.358498,-33.932858,548.64 18.359184,-33.929691,548.64 18.361855,-33.920288,518.16 18.362446,-33.919125,518.16 18.364824,-33.915344,518.16 18.365553,-33.914337,518.16 18.368454,-33.910885,548.64 18.369083,-33.910141,548.64 18.372112,-33.90683,548.64 18.373009,-33.905823,548.64 18.376064,-33.902645,579.12 18.37682,-33.90184,579.12 18.380239,-33.898727,579.12 18.381042,-33.898083,579.12 18.385284,-33.895294,609.6 18.386421,-33.894638,609.6 18.39072,-33.892365,609.6 18.392086,-33.8918,609.6 18.397522,-33.89003,609.6 18.399124,-33.889656,579.12 18.405075,-33.888584,548.64 18.406191,-33.888474,548.64 18.412571,-33.887886,548.64 18.413982,-33.887833,548.64 18.419895,-33.887421,518.16 18.421829,-33.887283,487.68 18.43119,-33.886688,365.76 18.436571,-33.886597,274.32 18.443241,-33.88747,213.36 18.444672,-33.888027,182.88 18.449184,-33.891815,152.4 18.449707,-33.892868,152.4 18.449135,-33.897106,152.4 18.448162,-33.898037,121.92 18.443691,-33.899323,60.96 18.441753,-33.899479,60.96 18.438366,-33.899597,30.48 18.437862,-33.89962,30.48 18.435631,-33.89962,30.48 18.435173,-33.89962,30.48 18.430069,-33.900238,0 18.428993,-33.900455,0 18.427267,-33.900879,0 18.427063,-33.900909,0 18.427505,-33.899853,0 18.427715,-33.899689,0 18.428949,-33.898727,0 18.42934,-33.898407,30.48 18.430574,-33.897491,30.48 18.430799,-33.897308,30.48 18.433971,-33.893753,121.92 18.434217,-33.893188,121.92 18.434946,-33.890625,152.4 18.435059,-33.889847,182.88 18.435116,-33.887142,213.36 18.435059,-33.886505,213.36 18.433628,-33.88435,243.84 18.432985,-33.883987,274.32 18.429901,-33.883438,304.8 18.429173,-33.883392,304.8 18.425922,-33.88298,365.76 18.425045,-33.882858,365.76 18.421999,-33.882477,426.72 18.419363,-33.882065,457.2 18.414631,-33.881603,518.16 18.413927,-33.881561,518.16 18.410625,-33.881744,579.12 18.409779,-33.881927,579.12 18.406506,-33.882721,609.6 18.40563,-33.882935,640.08 18.40238,-33.883804,640.08 18.401539,-33.884079,640.08 18.397671,-33.886139,670.56 18.396887,-33.886688,640.08 18.392944,-33.889004,640.08 18.391842,-33.889664,640.08 18.387852,-33.891937,640.08 18.384108,-33.893875,640.08 18.376637,-33.898224,701.04 18.375607,-33.898968,701.04 18.371601,-33.902317,731.52 18.3708,-33.903065,731.52 18.367138,-33.906879,762 18.366339,-33.9077,762 18.362961,-33.911537,792.48 18.36216,-33.912605,792.48 18.359814,-33.916378,792.48 18.359184,-33.917542,792.48 18.356977,-33.921707,822.96 18.356323,-33.92308,822.96 18.354231,-33.927567,822.96 18.353783,-33.928619,853.44 18.351933,-33.933563,853.44 18.351652,-33.934387,883.92 18.350698,-33.938828,1005.84 18.350487,-33.939747,1005.84 18.349634,-33.943634,1097.28 18.349514,-33.944309,1097.28 18.346939,-33.953526,1188.72 18.346424,-33.954922,1219.2 18.344477,-33.959198,1249.68 18.343906,-33.960232,1249.68 18.34156,-33.963955,1280.16 18.340931,-33.964886,1280.16 18.338299,-33.968517,1280.16 18.337526,-33.969452,1280.16 18.334612,-33.972931,1280.16 18.33395,-33.973778,1280.16 18.330803,-33.97736,1280.16 18.330059,-33.978199,1280.16 18.322168,-33.987534,1249.68 18.31953,-33.990677,1219.2 18.308603,-34.004379,1158.24 18.307034,-34.006531,1158.24 18.299803,-34.017014,1188.72 18.299242,-34.017975,1188.72 18.297043,-34.022144,1219.2 18.296471,-34.023495,1219.2 18.294868,-34.028194,1219.2 18.294582,-34.029408,1219.2 18.293861,-34.034546,1219.2 18.293724,-34.036064,1219.2 18.294029,-34.041183,1249.68 18.294239,-34.042347,1249.68 18.295555,-34.047703,1219.2 18.296013,-34.048912,1249.68 18.298626,-34.054184,1249.68 18.299299,-34.05542,1249.68 18.302439,-34.060181,1249.68 18.303394,-34.061249,1249.68 18.308086,-34.065811,1249.68 18.309389,-34.067093,1219.2 18.313705,-34.071625,1188.72 18.314667,-34.072655,1188.72 18.324165,-34.082569,1097.28 18.328915,-34.087273,1066.8 18.339264,-34.096573,975.36 18.340721,-34.09758,944.88 18.346882,-34.101284,914.4 18.348656,-34.102215,914.4 18.355579,-34.105331,853.44 18.357239,-34.105984,853.44 18.364391,-34.108963,792.48 18.366051,-34.109756,792.48 18.381584,-34.116486,701.04 18.386822,-34.11874,670.56 18.411083,-34.128471,548.64 18.417906,-34.130905,518.16 18.427773,-34.133972,518.16 18.42923,-34.134384,518.16 18.435287,-34.136013,518.16 18.436947,-34.136383,518.16 18.442726,-34.13699,548.64 18.444307,-34.136856,548.64 18.450417,-34.13562,548.64 18.451538,-34.135174,548.64 18.455715,-34.132797,579.12 18.456638,-34.132233,579.12 18.461235,-34.129303,548.64 18.462299,-34.128616,548.64 18.466244,-34.125957,548.64 18.467388,-34.125118,548.64 18.47105,-34.121861,548.64 18.471737,-34.121021,548.64 18.473455,-34.117401,548.64 18.473797,-34.116272,548.64 18.474295,-34.112503,548.64 18.474295,-34.11145,579.12 18.47374,-34.107941,579.12 18.473511,-34.106915,579.12 18.472652,-34.103191,609.6 18.472366,-34.102306,609.6 18.4711,-34.098633,640.08 18.470819,-34.097992,640.08 18.468933,-34.09388,670.56 18.468466,-34.093002,670.56 18.465944,-34.089523,701.04 18.465214,-34.088619,701.04 18.462244,-34.085358,731.52 18.461571,-34.084671,731.52 18.458233,-34.081684,762 18.457432,-34.081081,762 18.453949,-34.078308,792.48 18.452969,-34.077541,792.48 18.447018,-34.072372,792.48 18.446274,-34.071629,792.48 18.443642,-34.068092,792.48 18.443012,-34.067207,792.48 18.441113,-34.063705,822.96 18.440666,-34.062553,792.48 18.43915,-34.058807,792.48 18.438721,-34.057896,792.48 18.436832,-34.054314,792.48 18.436403,-34.05336,822.96 18.433994,-34.046631,792.48 18.433769,-34.045761,792.48 18.432928,-34.041916,792.48 18.432648,-34.040726,792.48 18.431976,-34.036743,762 18.431864,-34.035828,762 18.431454,-34.031689,762 18.431396,-34.030384,762 18.432083,-34.02615,762 18.432312,-34.025162,762 18.433714,-34.020767,762 18.434217,-34.019669,762 18.43618,-34.015686,731.52 18.436909,-34.014771,731.52 18.441505,-34.011337,670.56 18.442669,-34.010601,640.08 18.448391,-34.007481,640.08 18.449745,-34.006851,640.08 18.454857,-34.004314,640.08 18.456345,-34.003571,609.6 18.464241,-33.999054,579.12 18.465157,-33.998264,579.12 18.468304,-33.994305,579.12 18.468859,-33.993347,579.12 18.4711,-33.989594,548.64 18.471622,-33.988579,548.64 18.474014,-33.984512,518.16 18.47452,-33.983551,518.16 18.476315,-33.979458,518.16 18.47665,-33.978561,487.68 18.47822,-33.974533,487.68 18.478668,-33.973618,487.68 18.480349,-33.969223,457.2 18.480686,-33.968124,457.2 18.482552,-33.961952,426.72 18.482815,-33.960938,426.72 18.483768,-33.956497,396.24 18.483881,-33.955536,396.24 18.483824,-33.951096,396.24 18.483768,-33.950043,396.24 18.483353,-33.946262,396.24 18.483238,-33.945194,426.72 18.482666,-33.941284,426.72 18.482552,-33.940353,426.72 18.481134,-33.933563,426.72 18.480742,-33.93251,426.72 18.478836,-33.928665,426.72 18.478203,-33.927689,396.24 18.475571,-33.923824,365.76 18.474688,-33.92276,365.76 18.471565,-33.919544,365.76 18.470535,-33.918659,365.76 18.466988,-33.915634,335.28 18.466187,-33.914936,335.28 18.46258,-33.911911,304.8 18.461796,-33.91127,304.8 18.454117,-33.905457,274.32 18.451767,-33.903622,243.84 18.445091,-33.898865,152.4 18.443972,-33.898453,121.92 18.440495,-33.897896,91.44 18.439487,-33.897995,91.44 18.43461,-33.898865,30.48 18.433937,-33.899002,30.48 18.427792,-33.900455,0 18.427505,-33.900642,0 18.427162,-33.900223,0 18.427603,-33.899689,0 18.429005,-33.89859,30.48 18.42968,-33.898129,30.48 18.432255,-33.895847,91.44 18.432713,-33.895149,91.44 18.434723,-33.891678,152.4 18.435173,-33.89082,152.4 18.436068,-33.887833,213.36 18.4359,-33.8871,213.36 18.43433,-33.883942,274.32 18.433937,-33.883301,274.32 18.431864,-33.881149,304.8 18.43063,-33.8806,335.28 18.426874,-33.8806,365.76 18.425362,-33.88092,396.24 18.420753,-33.881603,457.2 18.419895,-33.88179,457.2 18.414824,-33.882935,518.16 18.410797,-33.883606,548.64 18.398624,-33.886139,670.56 18.397783,-33.886368,670.56 18.393076,-33.88797,701.04 18.391743,-33.888447,701.04 18.387165,-33.8904,762 18.386135,-33.890961,762 18.382481,-33.893234,792.48 18.381386,-33.893894,822.96 18.377666,-33.896778,853.44 18.376522,-33.89785,853.44 18.373569,-33.901154,883.92 18.372561,-33.902344,914.4 18.369255,-33.905903,944.88 18.368357,-33.906967,944.88 18.363247,-33.913677,1005.84 18.362638,-33.91452,1005.84 18.35849,-33.92038,1036.32 18.356642,-33.923264,1036.32 18.3601,-33.927738,1066.8 18.361517,-33.928162,1066.8 18.367138,-33.930389,1097.28 18.368187,-33.931595,1097.28 18.36858,-33.936722,1066.8 18.36771,-33.938396,1066.8 18.36376,-33.944183,1036.32 18.362864,-33.945374,1005.84 18.358841,-33.950222,1005.84 18.357819,-33.951416,1005.84 18.354034,-33.955807,1005.84 18.35289,-33.957157,1005.84 18.342991,-33.96875,975.36 18.34013,-33.972149,975.36 18.329454,-33.985886,944.88 18.326765,-33.989594,944.88 18.32056,-33.999149,944.88 18.318581,-34.002457,944.88 18.314377,-34.010193,975.36 18.31398,-34.01125,975.36 18.312639,-34.01683,1005.84 18.312607,-34.01828,1005.84 18.313293,-34.023869,1005.84 18.31358,-34.025265,1005.84 18.315331,-34.031342,1005.84 18.315722,-34.032578,1005.84 18.317739,-34.038391,1005.84 18.3183,-34.039993,1005.84 18.320332,-34.045467,1005.84 18.321775,-34.048874,1005.84 18.324579,-34.054504,1005.84 18.325481,-34.055943,1005.84 18.331192,-34.061737,1005.84 18.332291,-34.062553,1005.84 18.338299,-34.066368,1036.32 18.340105,-34.067322,1036.32 18.346424,-34.070511,1066.8 18.347672,-34.071121,1066.8 18.358555,-34.077309,1097.28 18.3601,-34.078335,1097.28 18.366001,-34.082657,1097.28 18.367138,-34.083546,1097.28 18.373547,-34.088902,1066.8 18.374689,-34.089844,1066.8 18.380407,-34.095016,1005.84 18.381529,-34.096069,1005.84 18.394089,-34.107941,883.92 18.398209,-34.11171,853.44 18.407192,-34.118649,762 18.409138,-34.119717,762 18.418243,-34.123123,701.04 18.420542,-34.123672,701.04 18.429846,-34.125366,670.56 18.431454,-34.125584,670.56 18.43895,-34.126328,640.08 18.440664,-34.126373,640.08 18.448175,-34.124817,640.08 18.449364,-34.124325,670.56 18.454397,-34.119965,670.56 18.455013,-34.118774,670.56 18.455854,-34.113327,670.56 18.455687,-34.112228,670.56 18.45417,-34.107567,640.08 18.453444,-34.106369,640.08 18.450508,-34.102772,640.08 18.449465,-34.101562,640.08 18.446617,-34.097931,640.08 18.44593,-34.097,640.08 18.43792,-34.086155,640.08 18.436123,-34.083618,640.08 18.432144,-34.076752,640.08 18.431683,-34.075214,640.08 18.430767,-34.070793,670.56 18.430481,-34.069443,670.56 18.42968,-34.065159,701.04 18.429222,-34.062088,701.04 18.428764,-34.057384,670.56 18.42865,-34.056362,670.56 18.428331,-34.051575,670.56 18.428276,-34.050705,670.56 18.428364,-34.042721,701.04 18.428421,-34.041462,701.04 18.428822,-34.030941,701.04 18.429117,-34.027817,701.04 18.430195,-34.023636,731.52 18.430824,-34.022236,731.52 18.432827,-34.018234,731.52 18.433153,-34.017609,731.52 18.436571,-34.013123,731.52 18.437244,-34.012344,731.52 18.440664,-34.008499,731.52 18.441582,-34.007481,731.52 18.446438,-34.00209,762 18.44739,-34.001404,731.52 18.453827,-33.999565,670.56 18.455967,-33.999115,670.56 18.462467,-33.997192,670.56 18.464241,-33.996494,670.56 18.469868,-33.993301,640.08 18.471279,-33.992073,609.6 18.475023,-33.987259,579.12 18.475529,-33.986206,579.12 18.477827,-33.980621,548.64 18.478388,-33.978973,548.64 18.479519,-33.97401,518.16 18.480013,-33.972198,518.16 18.482838,-33.963394,457.2 18.484049,-33.959473,426.72 18.484833,-33.953156,396.24 18.484777,-33.952057,396.24 18.483994,-33.94725,365.76 18.483639,-33.945751,365.76 18.482037,-33.93998,335.28 18.481636,-33.938629,335.28 18.479519,-33.933044,304.8 18.479116,-33.932144,304.8 18.476593,-33.927017,304.8 18.476032,-33.926239,304.8 18.473511,-33.922523,304.8 18.472824,-33.921452,304.8 18.469252,-33.916489,304.8 18.467344,-33.913971,304.8 18.463869,-33.910172,304.8 18.463211,-33.909489,304.8 18.460114,-33.906235,274.32 18.45892,-33.905113,274.32 18.455486,-33.902084,182.88 18.454229,-33.901154,152.4 18.450081,-33.899231,60.96 18.448219,-33.898827,60.96 18.444027,-33.898544,60.96 18.442514,-33.89859,60.96 18.437462,-33.898827,60.96 18.436293,-33.898911,60.96 18.43277,-33.899246,60.96 18.432198,-33.899338,30.48 18.430367,-33.899712,30.48 18.430126,-33.899734,30.48 18.42738,-33.90065,0 18.42712,-33.900841,0 18.427435,-33.899872,0 18.427849,-33.89957,30.48 18.429966,-33.897896,60.96 18.43063,-33.897354,60.96 18.432941,-33.894962,91.44 18.433434,-33.894333,121.92 18.435402,-33.891148,182.88 18.435675,-33.890579,182.88 18.436293,-33.887558,243.84 18.436235,-33.88678,243.84 18.435631,-33.883465,304.8 18.435459,-33.882767,304.8 18.433714,-33.879959,335.28 18.432941,-33.87923,365.76 18.429108,-33.877647,396.24 18.42794,-33.877533,426.72 18.423557,-33.87746,457.2 18.422241,-33.877506,457.2 18.417835,-33.877598,487.68 18.416176,-33.877693,518.16 18.410854,-33.8783,548.64 18.40971,-33.878483,548.64 18.404173,-33.879456,579.12 18.402901,-33.879742,579.12 18.397465,-33.881325,640.08 18.396549,-33.881695,640.08 18.39201,-33.883713,670.56 18.390999,-33.884209,670.56 18.385956,-33.886963,701.04 18.384647,-33.887703,701.04 18.379623,-33.890991,701.04 18.378277,-33.891907,701.04 18.374462,-33.89473,731.52 18.373177,-33.895844,731.52 18.369083,-33.899807,731.52 18.368282,-33.900642,731.52 18.364096,-33.905273,731.52 18.363419,-33.906181,731.52 18.359892,-33.911545,762 18.359299,-33.912605,762 18.356752,-33.91832,762 18.356249,-33.919556,762 18.35392,-33.925316,762 18.353348,-33.926804,762 18.351746,-33.93174,792.48 18.350811,-33.934982,792.48 18.346195,-33.948776,792.48 18.344814,-33.952789,792.48 18.336754,-33.974102,822.96 18.335398,-33.976685,822.96 18.32996,-33.985931,853.44 18.329201,-33.98695,883.92 18.320879,-33.999802,853.44 18.31819,-34.003464,853.44 18.314434,-34.008453,853.44 18.313465,-34.009575,853.44 18.305798,-34.02084,853.44 18.305073,-34.022049,853.44 18.302078,-34.027683,853.44 18.301334,-34.029266,853.44 18.297386,-34.037273,853.44 18.295383,-34.041512,883.92 18.296888,-34.046722,914.4 18.29813,-34.047607,914.4 18.303503,-34.047592,975.36 18.303951,-34.046539,944.88 18.303278,-34.042328,853.44 18.303108,-34.040627,822.96 18.302879,-34.035133,762 18.302822,-34.03392,762 18.303108,-34.029362,731.52 18.303337,-34.028194,731.52 18.305016,-34.023743,731.52 18.305634,-34.022644,731.52 18.308155,-34.018616,762 18.308941,-34.017471,762 18.311749,-34.013531,762 18.312584,-34.012527,731.52 18.316002,-34.008591,731.52 18.31707,-34.007481,701.04 18.321495,-34.003418,701.04 18.323009,-34.002136,701.04 18.329086,-33.996449,640.08 18.333378,-33.992256,640.08 18.347912,-33.977127,640.08 18.3498,-33.974567,640.08 18.354664,-33.964279,609.6 18.356081,-33.959885,609.6 18.357201,-33.954163,609.6 18.35737,-33.95311,609.6 18.357819,-33.948349,609.6 18.357874,-33.947159,609.6 18.358267,-33.943176,609.6 18.358727,-33.939606,640.08 18.360004,-33.933746,640.08 18.360228,-33.932831,640.08 18.362022,-33.925232,670.56 18.362806,-33.922897,670.56 18.364937,-33.918274,640.08 18.365593,-33.917076,640.08 18.368168,-33.913071,609.6 18.369141,-33.911674,609.6 18.372402,-33.907253,579.12 18.373232,-33.906097,579.12 18.377045,-33.90152,548.64 18.377884,-33.90065,548.64 18.381639,-33.897079,579.12 18.383045,-33.895893,579.12 18.387526,-33.892731,579.12 18.388481,-33.89217,579.12 18.394421,-33.889023,579.12 18.395863,-33.888401,548.64 18.401814,-33.885933,548.64 18.403244,-33.885422,548.64 18.409498,-33.883713,548.64 18.411198,-33.883419,548.64 18.418972,-33.883392,548.64 18.420317,-33.883621,548.64 18.426247,-33.884815,518.16 18.427963,-33.885189,518.16 18.434217,-33.886688,426.72 18.436031,-33.887238,365.76 18.443184,-33.889565,182.88 18.445036,-33.890442,152.4 18.449764,-33.895382,91.44 18.449764,-33.896824,91.44 18.44696,-33.89962,60.96 18.445873,-33.899807,60.96 18.442211,-33.899944,60.96 18.441124,-33.899899,60.96 18.437357,-33.899872,60.96 18.436546,-33.899853,60.96 18.430939,-33.899899,30.48 18.429565,-33.90004,30.48 18.427322,-33.900742,0 18.42709,-33.900887,0
        </coordinates>
      </LineString>
    </Placemark>
  </Document>
</kml>