<?xml version="1.0" encoding="UTF-8"?>
<kml xmlns="http://www.opengis.net/kml/2.2">
  <Document>
    <name>-/ZTHOT - Optimised</name>
    <description><![CDATA[Optimised flight path with 659 points (decimated from 3295 original points). Source format: Standard KML]]></description>
    
    <Style id="flightPath">
      <LineStyle>
        <color>ff0000ff</color>
        <width>3</width>
      </LineStyle>
    </Style>
    
    <Placemark>
      <name>Flight Path</name>
      <description><![CDATA[<div style="width:220px; text-align:center;">
<div style="width:210px; text-align:center;">
<div style=" background: #000; color: #fff; font-size: 14px; text-align:left; border: 1px solid #000; padding: 2px 6px; text-shadow: 0 1px 0 #000; box-shadow: 0 1px 3px rgba(0,0,0,0.6); background: -webkit-gradient(linear, left top, left bottom, color-stop(0%,#808080), color-stop(2%,#303030), color-stop(100%,#0c0c0c));"><span style="font-size: 14px; font-weight: bold;"><a href="javascript:void(0);" style="color: #fff; cursor: pointer;text-decoration: none;">-</a></span> / ZTHOT<br/>Cape Town Helicopters</div>

<div style="border-top: 1px solid #005c90; color: #fff; padding-bottom: 5px; box-shadow: 0 0 1px #9BE3F6 inset, 0 1px 0 #9BE3F6 inset, 0 -1px 3px rgba(0,0,0,0.4); background:rgba(43,114,173,1); background: -webkit-gradient(linear, left top, left bottom, color-stop(0%,rgba(92,184,229,1)), color-stop(100%,rgba(43,114,173,1)));">
<a style="text-decoration: none; color: rgb(255, 255, 255); font-size: 12px; width:77px; display: inline-block;" title=" Airport" href="javascript:void(0);/departures"><h3 style="padding: 0px; margin: 10px 0px 0px; font-size: 16px; ">?</h3></a>
<span style="background: url(https://www.flightradar24.com/static/images/userUI_sprite.png?14) no-repeat scroll 0 -464px rgba(0, 0, 0, 0); border: medium none; display: inline-block; height: 16px; width: 45px;"></span>
<a style="text-decoration: none; color: rgb(255, 255, 255); font-size: 12px; width:77px; display: inline-block;" title="Cape Town Airport" href="https://www.flightradar24.com/airport/cpt/arrivals"><h3 style="padding: 0px; margin: 10px 0px 0px; font-size: 16px;">CPT</h3>Cape Town</a>
<div style=" margin-top:10px;">
<div style="display: inline-block; font-size: 12px; padding: 0 5px;">
<div>
<span style="color: #c1eaff;" title="Actual Time of Departure">ATD </span>
<span title="2025-03-15 15:41">15:41</span> <span title="Coordinated Universal Time">UTC</span>
</div>
</div>
<div style="display: inline-block; font-size: 12px; padding: 0 5px;">
<div>
<span style="color: #c1eaff;" title="Estimated Time of Arrival">ETA </span>
<span title="2025-03-15 16:04">16:04</span> <span title="Coordinated Universal Time">UTC</span>
</div>
</div>
</div>
<br style="clear: both;"/>
</div>

<div style="display: block;">
<table style="border-collapse: collapse; width: 100%;">
<tr style="border-right: 1px solid #dadada; ">
<td style="background: none repeat scroll 0 0 #dadada; padding: 0; width: 31px;">
<span style="background: url(https://www.flightradar24.com/static/images/userUI_sprite.png?14) no-repeat scroll -208px -464px rgba(0, 0, 0, 0); height: 26px; margin: 8px 0 0 4px; width: 23px; display: block;"></span>
</td>
<td colspan="2" style="border-bottom: 1px solid #dadada; border-left: 1px solid #dadada; color: #666; line-height: 1.1em; padding: 3px 6px; vertical-align: top; font-size: 14px;">
Aircraft<span style="float: right; font-size: 12px;">(AS50)</span><br>
<span style="color: #333; font-size: 16px; font-weight: bold; line-height: 1.3em;">Airbus Helicopters H125</span>
</td>
</tr>
<tr style="border-right: 1px solid #dadada; ">
<td style="background: none repeat scroll 0 0 #dadada; padding: 0; width: 31px;">
<td colspan="2" style="border-bottom: 1px solid #dadada; border-left: 1px solid #dadada; color: #666; line-height: 1.1em; padding: 3px 6px; vertical-align: top; font-size: 14px;">
Registration<br>
<span style="color: #333; font-size: 16px; font-weight: bold; line-height: 1.3em;"><a href="https://www.flightradar24.com/reg/zt-hot" style="text-decoration: none; color: #333;">ZT-HOT</a></span>
</td>
</tr>
</table>
</div>

</div>
</div>]]></description>
      <styleUrl>#flightPath</styleUrl>
      <LineString>
        <extrude>1</extrude>
        <tessellate>1</tessellate>
        <altitudeMode>absolute</altitudeMode>
        <coordinates>
          18.428078,-33.898922,60.96 18.43091,-33.894379,152.4 18.432999,-33.891937,213.36 18.435339,-33.889114,274.32 18.437132,-33.884995,274.32 18.435507,-33.881378,243.84 18.431919,-33.878174,274.32 18.426819,-33.876156,274.32 18.42144,-33.87569,274.32 18.416233,-33.875969,274.32 18.409891,-33.876938,274.32 18.404732,-33.87825,274.32 18.399521,-33.880005,274.32 18.394604,-33.882023,274.32 18.389711,-33.884537,274.32 18.385452,-33.887375,274.32 18.38047,-33.891193,274.32 18.376522,-33.894779,274.32 18.372688,-33.898735,274.32 18.366737,-33.904694,243.84 18.363361,-33.90921,243.84 18.359814,-33.914562,243.84 18.352493,-33.928299,243.84 18.341904,-33.949009,243.84 18.329905,-33.97197,243.84 18.315697,-34.000172,213.36 18.300364,-34.01825,243.84 18.305634,-34.027267,243.84 18.312696,-34.017746,243.84 18.323479,-33.999474,243.84 18.332539,-33.991241,213.36 18.336582,-33.981037,243.84 18.342123,-33.964874,243.84 18.349743,-33.948963,243.84 18.355183,-33.936081,243.84 18.362846,-33.919964,274.32 18.366966,-33.914005,274.32 18.370317,-33.910126,274.32 18.373793,-33.906189,274.32 18.377436,-33.902481,274.32 18.381136,-33.898956,274.32 18.386364,-33.894218,274.32 18.39072,-33.891083,274.32 18.395691,-33.888538,274.32 18.401146,-33.886459,274.32 18.407078,-33.885002,304.8 18.413086,-33.884258,304.8 18.418694,-33.884026,304.8 18.424913,-33.884171,304.8 18.431168,-33.885002,274.32 18.436489,-33.888168,274.32 18.440151,-33.8918,243.84 18.441353,-33.895615,213.36 18.439007,-33.89785,182.88 18.435955,-33.898682,152.4 18.432827,-33.899059,91.44 18.428892,-33.899551,30.48 18.429173,-33.896027,121.92 18.430481,-33.893009,182.88 18.430239,-33.888931,243.84 18.426819,-33.887283,274.32 18.422413,-33.887375,335.28 18.416977,-33.887749,335.28 18.410797,-33.888634,304.8 18.403725,-33.889938,274.32 18.397055,-33.891403,243.84 18.389376,-33.893509,213.36 18.3822,-33.895889,182.88 18.375378,-33.899807,182.88 18.370628,-33.903854,213.36 18.366623,-33.909256,213.36 18.364105,-33.914005,213.36 18.350756,-33.937271,243.84 18.351059,-33.952457,243.84 18.36533,-33.959747,274.32 18.368916,-33.949631,274.32 18.366852,-33.936813,274.32 18.368969,-33.922802,243.84 18.375195,-33.914566,243.84 18.3808,-33.911865,243.84 18.386797,-33.909348,243.84 18.392143,-33.9039,243.84 18.394701,-33.898956,243.84 18.399914,-33.894424,243.84 18.405762,-33.891472,243.84 18.411684,-33.888794,274.32 18.417963,-33.886917,274.32 18.424688,-33.884766,243.84 18.431248,-33.883759,213.36 18.437748,-33.885048,182.88 18.442669,-33.888027,152.4 18.446102,-33.891983,121.92 18.445541,-33.894974,121.92 18.442064,-33.896576,91.44 18.439064,-33.898502,60.96 18.437132,-33.899048,60.96 18.435114,-33.899139,60.96 18.432537,-33.899185,60.96 18.428764,-33.899479,30.48 18.429165,-33.896408,60.96 18.431225,-33.893288,121.92 18.433376,-33.890259,182.88 18.435619,-33.887283,243.84 18.437233,-33.882721,274.32 18.435917,-33.878578,304.8 18.432484,-33.874992,335.28 18.42762,-33.872898,335.28 18.421612,-33.872105,365.76 18.41572,-33.872269,396.24 18.409595,-33.873596,426.72 18.403221,-33.876022,457.2 18.397579,-33.878811,457.2 18.392178,-33.882248,457.2 18.386593,-33.885933,457.2 18.380688,-33.89003,457.2 18.375418,-33.894745,457.2 18.370571,-33.899853,457.2 18.365721,-33.90509,457.2 18.355122,-33.917542,457.2 18.352261,-33.923176,457.2 18.349747,-33.929352,457.2 18.34515,-33.940063,426.72 18.331833,-33.967026,426.72 18.322784,-33.987076,426.72 18.315891,-34.014587,396.24 18.327427,-34.027496,365.76 18.331375,-34.024612,365.76 18.322393,-34.010651,396.24 18.324451,-33.999008,396.24 18.33149,-33.98262,365.76 18.343187,-33.960526,426.72 18.351746,-33.941704,457.2 18.360733,-33.924957,426.72 18.36525,-33.917866,426.72 18.37071,-33.910217,457.2 18.374519,-33.905533,426.72 18.3811,-33.897942,426.72 18.385677,-33.89352,457.2 18.38932,-33.890305,487.68 18.393467,-33.887375,487.68 18.398737,-33.88504,487.68 18.404617,-33.883606,487.68 18.4109,-33.882843,487.68 18.417345,-33.882843,487.68 18.423786,-33.883465,487.68 18.429852,-33.885281,487.68 18.435059,-33.888584,426.72 18.439878,-33.891998,365.76 18.443127,-33.895615,304.8 18.441067,-33.89864,213.36 18.436909,-33.899231,152.4 18.432884,-33.899433,91.44 18.42766,-33.899368,60.96 18.430481,-33.895893,121.92 18.432941,-33.893379,152.4 18.435001,-33.89045,213.36 18.435226,-33.887466,274.32 18.433657,-33.885223,304.8 18.43091,-33.884766,396.24 18.428276,-33.884903,457.2 18.425446,-33.885094,487.68 18.420036,-33.885681,548.64 18.416462,-33.88649,609.6 18.41247,-33.88765,640.08 18.404732,-33.889797,670.56 18.393805,-33.892685,640.08 18.388138,-33.895382,640.08 18.382706,-33.89827,609.6 18.37698,-33.901852,609.6 18.372616,-33.905502,609.6 18.36834,-33.910419,609.6 18.364882,-33.915344,579.12 18.362675,-33.920475,609.6 18.361069,-33.925781,609.6 18.357067,-33.932812,579.12 18.35083,-33.944263,548.64 18.348232,-33.952194,548.64 18.339602,-33.976913,548.64 18.331417,-33.995453,579.12 18.326797,-34.011482,640.08 18.327198,-34.016975,640.08 18.330576,-34.022598,640.08 18.335733,-34.026398,670.56 18.342291,-34.027634,701.04 18.347672,-34.026215,701.04 18.351259,-34.023056,731.52 18.352213,-34.018845,731.52 18.35186,-34.01437,731.52 18.350756,-34.009827,701.04 18.350418,-34.00415,670.56 18.362103,-33.992584,640.08 18.366619,-33.980118,609.6 18.362806,-33.963593,579.12 18.363132,-33.954178,579.12 18.364105,-33.947941,548.64 18.365498,-33.936768,518.16 18.367851,-33.928391,487.68 18.370571,-33.922661,457.2 18.373318,-33.917263,426.72 18.376923,-33.911861,457.2 18.3808,-33.907288,487.68 18.384779,-33.902802,487.68 18.389208,-33.898956,518.16 18.394375,-33.895195,518.16 18.399801,-33.891861,518.16 18.406219,-33.88868,487.68 18.413589,-33.886139,426.72 18.421326,-33.884308,426.72 18.430182,-33.883209,365.76 18.439039,-33.883255,304.8 18.447361,-33.885887,274.32 18.449936,-33.891006,274.32 18.445316,-33.895111,213.36 18.43998,-33.897385,152.4 18.434217,-33.899826,91.44 18.429222,-33.89957,60.96 18.428108,-33.898132,91.44 18.430653,-33.895382,152.4 18.432928,-33.892365,213.36 18.433914,-33.889004,274.32 18.433056,-33.885838,335.28 18.43008,-33.885002,396.24 18.426991,-33.884907,457.2 18.423904,-33.88472,518.16 18.415945,-33.884445,609.6 18.411573,-33.88504,640.08 18.406864,-33.885864,701.04 18.401756,-33.887238,731.52 18.397236,-33.889053,762 18.392773,-33.891705,792.48 18.387526,-33.895203,792.48 18.3815,-33.899899,822.96 18.376877,-33.903763,853.44 18.372671,-33.9077,883.92 18.368397,-33.912422,914.4 18.364656,-33.917221,914.4 18.36219,-33.922119,944.88 18.363087,-33.927658,1005.84 18.368168,-33.928947,1036.32 18.372459,-33.932484,1066.8 18.373232,-33.938873,1097.28 18.372459,-33.944775,1066.8 18.370571,-33.950409,1097.28 18.368397,-33.956039,1097.28 18.36561,-33.961533,1097.28 18.361874,-33.966606,1127.76 18.357468,-33.970982,1127.76 18.351877,-33.9776,1188.72 18.348312,-33.982761,1158.24 18.346195,-33.989185,1158.24 18.347504,-33.995224,1158.24 18.349972,-34.001102,1127.76 18.352833,-34.007156,1127.76 18.357124,-34.011902,1158.24 18.36113,-34.018143,1188.72 18.360228,-34.024567,1097.28 18.357925,-34.031315,1066.8 18.356642,-34.040039,975.36 18.356724,-34.047375,944.88 18.357353,-34.054359,914.4 18.359219,-34.061371,853.44 18.361574,-34.067688,822.96 18.365765,-34.074051,792.48 18.369884,-34.079681,792.48 18.374176,-34.085083,792.48 18.379154,-34.091133,792.48 18.388647,-34.101517,822.96 18.393059,-34.105659,822.96 18.398232,-34.109894,792.48 18.403725,-34.114105,762 18.40971,-34.118416,731.52 18.418407,-34.123768,731.52 18.425217,-34.125538,731.52 18.432367,-34.126099,701.04 18.439598,-34.12674,701.04 18.44656,-34.12698,701.04 18.452995,-34.126099,701.04 18.457603,-34.122746,701.04 18.457144,-34.117355,701.04 18.454901,-34.112411,701.04 18.452168,-34.107197,670.56 18.449364,-34.102402,670.56 18.446274,-34.097607,670.56 18.442955,-34.092716,670.56 18.433628,-34.080288,670.56 18.428164,-34.07103,640.08 18.426651,-34.065491,670.56 18.425026,-34.060684,701.04 18.42239,-34.054092,731.52 18.419037,-34.044441,762 18.417625,-34.039032,762 18.41383,-34.027916,792.48 18.4109,-34.021866,792.48 18.41404,-34.017334,762 18.419588,-34.013718,731.52 18.425217,-34.010368,731.52 18.431078,-34.005203,701.04 18.434601,-34.000031,670.56 18.438377,-33.995098,640.08 18.445372,-33.990326,609.6 18.450865,-33.986938,609.6 18.458656,-33.981812,609.6 18.464012,-33.977734,548.64 18.469162,-33.973358,518.16 18.473904,-33.968491,487.68 18.477882,-33.963455,457.2 18.481302,-33.957825,457.2 18.483263,-33.952606,426.72 18.484329,-33.946884,426.72 18.483656,-33.941574,396.24 18.481636,-33.936722,396.24 18.479118,-33.932114,396.24 18.475416,-33.928024,426.72 18.470993,-33.92485,426.72 18.465384,-33.919006,365.76 18.461571,-33.913467,304.8 18.457872,-33.90834,274.32 18.446503,-33.893429,304.8 18.441673,-33.89328,304.8 18.438034,-33.898594,182.88 18.434029,-33.903435,182.88 18.431135,-33.899643,152.4 18.43248,-33.895111,182.88 18.437525,-33.892456,213.36 18.443184,-33.893894,182.88 18.441729,-33.898499,152.4 18.437634,-33.902225,91.44 18.432598,-33.901619,91.44 18.429733,-33.900146,60.96 18.427521,-33.900761,0 18.429901,-33.895889,121.92 18.430195,-33.895428,121.92 18.431639,-33.893463,182.88 18.432198,-33.892868,182.88 18.4338,-33.891006,243.84 18.43433,-33.890305,243.84 18.436718,-33.887238,274.32 18.437021,-33.886368,274.32 18.436661,-33.883232,243.84 18.436235,-33.882477,243.84 18.434143,-33.879879,274.32 18.433376,-33.879227,274.32 18.429909,-33.877132,274.32 18.428879,-33.876762,274.32 18.424969,-33.875839,274.32 18.423512,-33.875702,274.32 18.419588,-33.875748,274.32 18.418179,-33.875832,274.32 18.413141,-33.876389,274.32 18.411964,-33.876572,274.32 18.407822,-33.877415,274.32 18.406809,-33.87767,274.32 18.402557,-33.878902,274.32 18.401356,-33.879322,274.32 18.397448,-33.880829,274.32 18.396719,-33.881149,274.32 18.392487,-33.883045,274.32 18.391628,-33.883465,274.32 18.387966,-33.885654,274.32 18.386936,-33.886307,274.32 18.383389,-33.888866,274.32 18.382538,-33.889526,274.32 18.378983,-33.892448,274.32 18.37801,-33.893333,274.32 18.374859,-33.896439,243.84 18.37413,-33.897217,243.84 18.368973,-33.902206,274.32 18.368225,-33.903019,274.32 18.365307,-33.906509,243.84 18.364321,-33.907883,243.84 18.361816,-33.911442,243.84 18.361069,-33.912598,243.84 18.356136,-33.920609,243.84 18.354792,-33.923172,243.84 18.348738,-33.935806,243.84 18.345337,-33.941143,243.84 18.337919,-33.956223,243.84 18.335266,-33.961254,243.84 18.325027,-33.982864,243.84 18.32222,-33.988533,213.36 18.311806,-34.006317,213.36 18.309116,-34.009575,213.36 18.294697,-34.025589,213.36 18.299355,-34.031845,243.84 18.309002,-34.023773,243.84 18.310398,-34.021683,243.84 18.316326,-34.011765,243.84 18.318806,-34.007858,243.84 18.326797,-33.996075,243.84 18.328285,-33.994957,243.84 18.334499,-33.987625,213.36 18.335228,-33.985519,243.84 18.337919,-33.976364,243.84 18.339386,-33.971588,243.84 18.344421,-33.960323,274.32 18.345598,-33.958008,243.84 18.351288,-33.944542,274.32 18.351597,-33.943588,274.32 18.358898,-33.927971,274.32 18.359985,-33.925735,274.32 18.364964,-33.916565,274.32 18.365721,-33.915573,274.32 18.368397,-33.912327,274.32 18.368969,-33.911629,274.32 18.371601,-33.908558,274.32 18.372173,-33.907951,274.32 18.375092,-33.904739,274.32 18.375923,-33.903946,274.32 18.378868,-33.901108,274.32 18.379612,-33.90041,274.32 18.382481,-33.897766,274.32 18.38316,-33.897106,274.32 18.388086,-33.892822,274.32 18.388927,-33.892181,274.32 18.392683,-33.889938,274.32 18.393635,-33.889481,304.8 18.39798,-33.887608,274.32 18.398905,-33.887238,274.32 18.403645,-33.885746,274.32 18.40451,-33.885544,274.32 18.409424,-33.884628,304.8 18.410675,-33.884445,304.8 18.415216,-33.884125,304.8 18.416393,-33.884079,304.8 18.421383,-33.884071,304.8 18.422642,-33.884071,304.8 18.427773,-33.884354,304.8 18.428724,-33.884445,304.8 18.433514,-33.88612,274.32 18.434498,-33.886734,274.32 18.438141,-33.889618,274.32 18.438835,-33.890354,243.84 18.44101,-33.893147,243.84 18.441296,-33.893894,243.84 18.44072,-33.896667,213.36 18.440159,-33.897217,213.36 18.437805,-33.89827,152.4 18.437244,-33.898407,152.4 18.434601,-33.898872,121.92 18.434029,-33.898968,121.92 18.431751,-33.899185,91.44 18.431454,-33.899246,91.44 18.428331,-33.899597,0 18.428164,-33.898865,60.96 18.429565,-33.894962,152.4 18.429852,-33.894314,152.4 18.430939,-33.891148,213.36 18.430855,-33.89035,213.36 18.429165,-33.887981,243.84 18.428535,-33.887608,274.32 18.424801,-33.887329,304.8 18.423958,-33.887329,335.28 18.420124,-33.88747,335.28 18.418915,-33.887558,335.28 18.414574,-33.887981,335.28 18.413086,-33.888245,335.28 18.407928,-33.889069,304.8 18.406696,-33.889297,304.8 18.401184,-33.890495,274.32 18.399969,-33.890762,274.32 18.393574,-33.892311,213.36 18.392122,-33.892685,213.36 18.386404,-33.894516,182.88 18.384933,-33.894962,182.88 18.378811,-33.89743,182.88 18.377953,-33.897991,182.88 18.373432,-33.901386,182.88 18.372503,-33.902161,182.88 18.368912,-33.905766,182.88 18.368019,-33.906921,213.36 18.365385,-33.911545,213.36 18.364849,-33.912514,213.36 18.356838,-33.926479,243.84 18.355295,-33.928986,243.84 18.349073,-33.943085,243.84 18.349073,-33.946243,243.84 18.355179,-33.957157,243.84 18.358042,-33.958511,243.84 18.369884,-33.957203,274.32 18.370094,-33.95462,274.32 18.368282,-33.94482,274.32 18.368111,-33.943985,274.32 18.366795,-33.928806,274.32 18.367252,-33.926155,243.84 18.372728,-33.917587,274.32 18.373512,-33.916534,274.32 18.37698,-33.913212,243.84 18.378109,-33.912643,243.84 18.383675,-33.910885,243.84 18.384724,-33.910446,243.84 18.389168,-33.907627,243.84 18.39077,-33.905949,243.84 18.393131,-33.901978,243.84 18.393635,-33.900833,243.84 18.396103,-33.897125,243.84 18.396887,-33.896393,243.84 18.402271,-33.893196,243.84 18.403358,-33.892681,243.84 18.407936,-33.89045,243.84 18.409275,-33.889801,274.32 18.414263,-33.887924,274.32 18.415546,-33.887562,274.32 18.420542,-33.886139,243.84 18.421719,-33.885727,243.84 18.427162,-33.884163,243.84 18.428364,-33.88393,243.84 18.433657,-33.883942,213.36 18.435173,-33.884209,213.36 18.439865,-33.885979,182.88 18.44101,-33.886631,182.88 18.444082,-33.889526,152.4 18.444868,-33.890396,152.4 18.446503,-33.893333,152.4 18.446388,-33.893986,121.92 18.444252,-33.895569,91.44 18.443523,-33.895889,91.44 18.440664,-33.897171,60.96 18.440094,-33.897476,60.96 18.438141,-33.898865,60.96 18.437862,-33.898872,60.96 18.436403,-33.899231,60.96 18.435917,-33.899246,60.96 18.434385,-33.899048,60.96 18.433825,-33.899002,91.44 18.431396,-33.899387,60.96 18.430294,-33.89946,60.96 18.428164,-33.898682,30.48 18.428556,-33.897583,30.48 18.429966,-33.895103,91.44 18.430407,-33.894516,91.44 18.432032,-33.89209,152.4 18.432369,-33.891613,182.88 18.4342,-33.889145,213.36 18.434772,-33.888401,243.84 18.436852,-33.885132,274.32 18.437077,-33.884399,274.32 18.437004,-33.881138,304.8 18.436741,-33.880417,304.8 18.434715,-33.877041,304.8 18.434105,-33.876389,304.8 18.430595,-33.873875,335.28 18.429623,-33.873505,335.28 18.425503,-33.872478,365.76 18.424244,-33.872341,365.76 18.419195,-33.87204,396.24 18.418121,-33.872059,396.24 18.413366,-33.872635,426.72 18.412077,-33.87291,426.72 18.40765,-33.874249,426.72 18.405533,-33.875038,457.2 18.401035,-33.877029,457.2 18.399969,-33.877579,457.2 18.395372,-33.880188,457.2 18.394308,-33.880829,457.2 18.389797,-33.883793,457.2 18.388479,-33.884674,457.2 18.383961,-33.887749,457.2 18.382702,-33.888584,457.2 18.378725,-33.891632,457.2 18.377552,-33.892635,457.2 18.373489,-33.896732,457.2 18.372517,-33.897804,457.2 18.368637,-33.901932,457.2 18.367538,-33.903111,457.2 18.359499,-33.911682,457.2 18.356838,-33.914936,457.2 18.353838,-33.919876,457.2 18.353291,-33.920986,457.2 18.351259,-33.925598,457.2 18.350698,-33.926971,457.2 18.34877,-33.93174,457.2 18.348289,-33.932877,457.2 18.340988,-33.948776,426.72 18.337751,-33.955536,396.24 18.326708,-33.976685,426.72 18.325024,-33.980667,426.72 18.317986,-33.999054,396.24 18.316172,-34.00502,396.24 18.323851,-34.026855,365.76 18.325024,-34.027218,365.76 18.329887,-34.026894,365.76 18.330688,-34.026241,365.76 18.32571,-34.016838,365.76 18.324108,-34.015022,365.76 18.322617,-34.005981,396.24 18.322792,-34.004826,396.24 18.326204,-33.994217,365.76 18.327213,-33.991837,365.76 18.336237,-33.973572,396.24 18.33876,-33.969177,396.24 18.346775,-33.95256,457.2 18.348513,-33.948715,457.2 18.355576,-33.934479,426.72 18.35709,-33.931503,426.72 18.363647,-33.92038,426.72 18.36404,-33.919785,426.72 18.368916,-33.91246,457.2 18.369421,-33.911819,457.2 18.371887,-33.908752,426.72 18.372574,-33.907951,426.72 18.375811,-33.903992,426.72 18.376465,-33.903202,426.72 18.383377,-33.89566,457.2 18.384108,-33.894928,457.2 18.387165,-33.892216,457.2 18.387737,-33.891705,457.2 18.390827,-33.889099,487.68 18.391571,-33.888493,487.68 18.395691,-33.886257,487.68 18.396606,-33.885838,487.68 18.401035,-33.884399,487.68 18.4021,-33.884125,487.68 18.407145,-33.883209,487.68 18.408321,-33.883072,487.68 18.413429,-33.882721,487.68 18.414656,-33.882751,487.68 18.419895,-33.883045,487.68 18.42144,-33.883186,487.68 18.426426,-33.883942,487.68 18.427547,-33.884262,487.68 18.431911,-33.88649,457.2 18.433041,-33.887238,457.2 18.436852,-33.889801,396.24 18.437748,-33.89045,396.24 18.441673,-33.893417,335.28 18.442326,-33.894032,304.8 18.442963,-33.897171,274.32 18.442514,-33.897858,243.84 18.43935,-33.898968,182.88 18.438549,-33.899059,182.88 18.435339,-33.899323,121.92 18.434385,-33.899368,121.92 18.431225,-33.899525,60.96 18.42968,-33.89957,60.96 18.428593,-33.897476,60.96 18.429337,-33.896919,91.44 18.431528,-33.894928,121.92 18.432026,-33.894405,152.4 18.433825,-33.892319,182.88 18.434372,-33.891613,182.88 18.435284,-33.889252,243.84 18.435339,-33.888702,243.84 18.434778,-33.886322,274.32 18.434498,-33.88591,304.8 18.432648,-33.884857,335.28 18.431911,-33.884724,365.76 18.429794,-33.884815,396.24 18.429337,-33.884861,426.72 18.427155,-33.884949,457.2 18.426651,-33.884949,487.68 18.424187,-33.885189,518.16 18.421612,-33.885372,548.64 18.418694,-33.885933,579.12 18.418064,-33.886074,579.12 18.41486,-33.886909,640.08 18.414095,-33.8871,640.08 18.41074,-33.888168,670.56 18.410004,-33.888382,670.56 18.399914,-33.8909,670.56 18.398792,-33.891129,670.56 18.3918,-33.893566,640.08 18.390497,-33.894196,640.08 18.385792,-33.896641,640.08 18.384762,-33.897152,640.08 18.38047,-33.899479,609.6 18.379211,-33.900223,609.6 18.375034,-33.903389,609.6 18.374298,-33.903992,609.6 18.37071,-33.907562,609.6 18.369982,-33.908386,609.6 18.36701,-33.912094,609.6 18.366114,-33.91333,579.12 18.363876,-33.917309,609.6 18.363476,-33.918285,609.6 18.361988,-33.92271,609.6 18.361685,-33.92363,609.6 18.360271,-33.927971,609.6 18.358435,-33.930954,579.12 18.352947,-33.938908,548.64 18.352432,-33.939934,548.64 18.350027,-33.946701,548.64 18.349686,-33.947708,548.64 18.345165,-33.963257,518.16 18.343019,-33.968811,548.64 18.33704,-33.982063,579.12 18.334724,-33.986893,579.12 18.328915,-34.003197,609.6 18.327827,-34.006874,609.6 18.326569,-34.013718,640.08 18.326683,-34.014835,640.08 18.328342,-34.019444,640.08 18.328915,-34.020374,640.08 18.332258,-34.0242,640.08 18.333435,-34.025078,640.08 18.338242,-34.027264,670.56 18.339729,-34.027546,670.56 18.344421,-34.027359,701.04 18.345623,-34.027031,701.04 18.349466,-34.025162,731.52 18.350082,-34.024612,731.52 18.351933,-34.021454,731.52 18.352089,-34.020657,731.52 18.352213,-34.017288,731.52 18.352146,-34.016277,731.52 18.351517,-34.012554,731.52 18.351372,-34.011841,731.52 18.350363,-34.008087,701.04 18.35025,-34.006897,701.04 18.352604,-33.998684,640.08 18.356323,-33.995285,640.08 18.366051,-33.988441,640.08 18.366787,-33.985977,640.08 18.364906,-33.974522,579.12 18.364208,-33.971878,579.12 18.362638,-33.959427,579.12 18.362675,-33.957668,579.12 18.36348,-33.951736,579.12 18.363705,-33.950455,579.12 18.364449,-33.945614,548.64 18.364656,-33.944458,548.64 18.366623,-33.931881,518.16 18.367023,-33.930622,487.68 18.368912,-33.926105,487.68 18.369366,-33.925095,487.68 18.371544,-33.920662,457.2 18.372223,-33.919281,426.72 18.374746,-33.914978,457.2 18.375492,-33.913818,457.2 18.378389,-33.91008,487.68 18.379063,-33.909256,487.68 18.382257,-33.905502,487.68 18.382986,-33.904678,487.68 18.38665,-33.901154,518.16 18.387245,-33.900604,518.16 18.391226,-33.8974,518.16 18.3922,-33.896687,518.16 18.396378,-33.893894,518.16 18.397408,-33.893288,518.16 18.40238,-33.890442,487.68 18.403612,-33.889847,487.68 18.409275,-33.887512,457.2 18.41074,-33.887005,457.2 18.417009,-33.885223,426.72 18.41835,-33.884907,426.72 18.424931,-33.883698,396.24 18.426764,-33.883484,396.24 18.433376,-33.883118,365.76 18.435287,-33.883091,335.28 18.442682,-33.883804,304.8 18.444271,-33.884304,274.32 18.449306,-33.887886,274.32 18.449745,-33.888748,274.32 18.448511,-33.893097,243.84 18.447704,-33.893707,243.84 18.443523,-33.895889,182.88 18.441925,-33.896545,182.88 18.436741,-33.898911,152.4 18.436031,-33.899246,121.92 18.431303,-33.89978,60.96 18.430824,-33.899712,60.96 18.42865,-33.89957,60.96 18.428389,-33.899597,0 18.428936,-33.896965,91.44 18.429453,-33.896439,121.92 18.431854,-33.894173,182.88 18.432144,-33.893738,182.88 18.433456,-33.890961,243.84 18.433601,-33.890442,243.84 18.433937,-33.887558,274.32 18.433769,-33.886917,304.8 18.431911,-33.885189,335.28 18.431303,-33.88504,365.76 18.428993,-33.884956,426.72 18.428389,-33.884949,426.72 18.425846,-33.884956,487.68 18.425194,-33.884949,487.68 18.421886,-33.884445,548.64 18.421268,-33.884396,548.64 18.41423,-33.884674,640.08 18.413372,-33.884769,640.08 18.409653,-33.885326,670.56 18.408794,-33.885468,670.56 18.405014,-33.886322,701.04 18.40395,-33.886642,701.04 18.399754,-33.887936,731.52 18.399067,-33.888168,762 18.395634,-33.889935,792.48 18.394421,-33.890625,792.48 18.390385,-33.89328,792.48 18.389626,-33.893799,792.48 18.384275,-33.897537,822.96 18.38356,-33.898129,822.96 18.379791,-33.901337,822.96 18.378754,-33.902225,853.44 18.374977,-33.905346,853.44 18.37413,-33.906143,853.44 18.370914,-33.909534,883.92 18.370113,-33.910374,883.92 18.36673,-33.914383,914.4 18.366108,-33.915215,914.4 18.363422,-33.919235,944.88 18.362904,-33.920242,944.88 18.361702,-33.924057,975.36 18.361874,-33.925781,1005.84 18.364882,-33.928436,1036.32 18.366051,-33.928619,1036.32 18.370399,-33.929924,1066.8 18.371214,-33.930634,1066.8 18.373121,-33.93576,1066.8 18.373203,-33.936581,1097.28 18.373121,-33.940979,1066.8 18.372952,-33.942352,1066.8 18.371775,-33.947067,1066.8 18.371494,-33.947983,1066.8 18.369757,-33.952652,1097.28 18.369253,-33.953934,1097.28 18.367424,-33.958275,1097.28 18.366955,-33.959335,1097.28 18.364208,-33.963593,1127.76 18.363535,-33.964554,1127.76 18.360172,-33.968353,1127.76 18.359299,-33.96917,1127.76 18.355576,-33.972702,1127.76 18.354664,-33.973682,1158.24 18.350531,-33.979752,1158.24 18.349915,-33.980621,1158.24 18.346767,-33.985649,1158.24 18.346424,-33.986717,1158.24 18.346439,-33.991928,1158.24 18.34671,-33.993004,1158.24 18.348541,-33.997749,1158.24 18.348999,-33.998917,1127.76 18.351036,-34.003372,1127.76 18.351688,-34.004734,1127.76 18.354567,-34.009369,1127.76 18.355179,-34.009995,1158.24 18.358841,-34.013763,1158.24 18.359556,-34.014633,1188.72 18.361181,-34.02063,1158.24 18.360958,-34.021866,1127.76 18.359241,-34.027451,1097.28 18.358784,-34.02866,1066.8 18.35737,-34.033905,1036.32 18.357067,-34.035553,1036.32 18.356642,-34.04274,975.36 18.356667,-34.044537,944.88 18.356838,-34.050076,914.4 18.356977,-34.051758,914.4 18.357983,-34.057152,883.92 18.358379,-34.058578,883.92 18.3601,-34.064228,853.44 18.360558,-34.065483,853.44 18.363199,-34.070251,822.96 18.364151,-34.071671,822.96 18.367178,-34.076111,792.48 18.368168,-34.0774,792.48 18.371429,-34.081638,792.48 18.372345,-34.082848,792.48 18.376579,-34.088108,792.48 18.37738,-34.089134,792.48 18.384304,-34.096909,822.96 18.387051,-34.099934,822.96 18.390553,-34.103348,822.96 18.391394,-34.104126,822.96 18.394947,-34.107288,822.96 18.396103,-34.108246,822.96 18.400642,-34.111771,792.48 18.401484,-34.112411,792.48 18.406191,-34.115891,762 18.407307,-34.116692,762 18.414402,-34.121578,731.52 18.415833,-34.122437,731.52 18.420811,-34.124607,731.52 18.42247,-34.125027,731.52 18.427996,-34.125778,701.04 18.429285,-34.12587,701.04 18.435114,-34.126328,701.04 18.436432,-34.126423,701.04 18.44244,-34.126934,701.04 18.443634,-34.126968,701.04 18.448963,-34.126839,701.04 18.450584,-34.126602,701.04 18.455486,-34.125027,701.04 18.456459,-34.124325,701.04 18.457985,-34.12056,701.04 18.45776,-34.119324,701.04 18.456358,-34.115479,701.04 18.455797,-34.114243,701.04 18.453884,-34.1105,670.56 18.453276,-34.109299,670.56 18.451145,-34.105408,670.56 18.450584,-34.104446,670.56 18.448118,-34.100464,670.56 18.447615,-34.09964,670.56 18.444923,-34.095657,670.56 18.444363,-34.094788,670.56 18.439465,-34.08783,670.56 18.438646,-34.086823,670.56 18.429678,-34.074371,640.08 18.429117,-34.07341,640.08 18.427547,-34.068787,609.6 18.427277,-34.067814,640.08 18.426075,-34.063576,670.56 18.425697,-34.062515,701.04 18.423456,-34.056793,701.04 18.423119,-34.055923,731.52 18.421612,-34.05217,731.52 18.420597,-34.049469,731.52 18.418524,-34.042557,762 18.418236,-34.041416,762 18.416233,-34.03397,792.48 18.414991,-34.029968,792.48 18.412571,-34.026009,792.48 18.411999,-34.025078,792.48 18.411484,-34.020004,792.48 18.412302,-34.018845,792.48 18.416176,-34.015812,731.52 18.417458,-34.014999,731.52 18.422012,-34.012276,731.52 18.423119,-34.011658,731.52 18.42766,-34.008728,731.52 18.429453,-34.007034,701.04 18.432537,-34.003143,701.04 18.43317,-34.002129,670.56 18.435955,-33.998154,640.08 18.436661,-33.997147,640.08 18.441561,-33.992569,609.6 18.44285,-33.991745,609.6 18.447475,-33.989094,609.6 18.448736,-33.988312,640.08 18.45294,-33.985611,609.6 18.453999,-33.984951,609.6 18.460842,-33.980209,579.12 18.461964,-33.97934,579.12 18.466112,-33.975998,518.16 18.467402,-33.974899,518.16 18.471045,-33.971512,487.68 18.47208,-33.97047,487.68 18.475641,-33.966431,457.2 18.476429,-33.965443,457.2 18.479462,-33.960976,457.2 18.480125,-33.959885,457.2 18.482199,-33.955811,457.2 18.482534,-33.954941,457.2 18.483824,-33.950272,426.72 18.484104,-33.949036,426.72 18.484272,-33.944916,426.72 18.484154,-33.943703,426.72 18.483009,-33.939747,396.24 18.482609,-33.938725,396.24 18.480629,-33.934799,396.24 18.480125,-33.933929,396.24 18.477516,-33.930157,396.24 18.476715,-33.929272,426.72 18.473623,-33.926559,426.72 18.47267,-33.925873,426.72 18.469027,-33.923492,426.72 18.468243,-33.92276,396.24 18.463926,-33.916809,335.28 18.463097,-33.915634,335.28 18.460226,-33.911499,304.8 18.459385,-33.910309,274.32 18.453484,-33.902412,274.32 18.451309,-33.89962,304.8 18.444363,-33.89241,335.28 18.443523,-33.892456,335.28 18.439751,-33.895523,243.84 18.439121,-33.8965,243.84 18.436741,-33.901474,182.88 18.43586,-33.902645,182.88 18.432199,-33.902481,152.4 18.431696,-33.901428,152.4 18.430996,-33.897942,152.4 18.431339,-33.896824,152.4 18.434372,-33.893661,182.88 18.435345,-33.893147,182.88 18.440037,-33.892265,213.36 18.441467,-33.892635,213.36 18.443523,-33.896118,182.88 18.443069,-33.896919,182.88 18.440439,-33.899872,121.92 18.439522,-33.900738,121.92 18.435688,-33.902599,91.44 18.433657,-33.902023,91.44 18.431078,-33.900696,91.44 18.430519,-33.90033,91.44 18.428782,-33.900387,0 18.428421,-33.900455,60.96
        </coordinates>
      </LineString>
    </Placemark>
  </Document>
</kml>