<?xml version="1.0" encoding="UTF-8"?>
<kml xmlns="http://www.opengis.net/kml/2.2">
  <Document>
    <name>-/ZTHOT - Optimised</name>
    <description><![CDATA[Optimised flight path with 186 points (decimated from 927 original points). Source format: Standard KML]]></description>
    
    <Style id="flightPath">
      <LineStyle>
        <color>ff0000ff</color>
        <width>3</width>
      </LineStyle>
    </Style>
    
    <Placemark>
      <name>Flight Path</name>
      <description><![CDATA[<div style="width:220px; text-align:center;">
<div style="width:210px; text-align:center;">
<div style=" background: #000; color: #fff; font-size: 14px; text-align:left; border: 1px solid #000; padding: 2px 6px; text-shadow: 0 1px 0 #000; box-shadow: 0 1px 3px rgba(0,0,0,0.6); background: -webkit-gradient(linear, left top, left bottom, color-stop(0%,#808080), color-stop(2%,#303030), color-stop(100%,#0c0c0c));"><span style="font-size: 14px; font-weight: bold;"><a href="javascript:void(0);" style="color: #fff; cursor: pointer;text-decoration: none;">-</a></span> / ZTHOT<br/>Cape Town Helicopters</div>

<div style="border-top: 1px solid #005c90; color: #fff; padding-bottom: 5px; box-shadow: 0 0 1px #9BE3F6 inset, 0 1px 0 #9BE3F6 inset, 0 -1px 3px rgba(0,0,0,0.4); background:rgba(43,114,173,1); background: -webkit-gradient(linear, left top, left bottom, color-stop(0%,rgba(92,184,229,1)), color-stop(100%,rgba(43,114,173,1)));">
<a style="text-decoration: none; color: rgb(255, 255, 255); font-size: 12px; width:77px; display: inline-block;" title=" Airport" href="javascript:void(0);/departures"><h3 style="padding: 0px; margin: 10px 0px 0px; font-size: 16px; ">?</h3></a>
<span style="background: url(https://www.flightradar24.com/static/images/userUI_sprite.png?14) no-repeat scroll 0 -464px rgba(0, 0, 0, 0); border: medium none; display: inline-block; height: 16px; width: 45px;"></span>
<a style="text-decoration: none; color: rgb(255, 255, 255); font-size: 12px; width:77px; display: inline-block;" title=" Airport" href="javascript:void(0);/arrivals"><h3 style="padding: 0px; margin: 10px 0px 0px; font-size: 16px;">?</h3></a>
<div style=" margin-top:10px;">
<div style="display: inline-block; font-size: 12px; padding: 0 5px;">
<div>
<span style="color: #c1eaff;" title="Actual Time of Departure">ATD </span>
<span title="2025-11-07 06:31">06:31</span> <span title="Coordinated Universal Time">UTC</span>
</div>
</div>
<div style="display: inline-block; font-size: 12px; padding: 0 5px;">
<div>
<span style="color: #c1eaff;" title="Estimated Time of Arrival">ETA </span>
<span title="2025-11-07 06:56">06:56</span> <span title="Coordinated Universal Time">UTC</span>
</div>
</div>
</div>
<br style="clear: both;"/>
</div>

<div style="display: block;">
<table style="border-collapse: collapse; width: 100%;">
<tr style="border-right: 1px solid #dadada; ">
<td style="background: none repeat scroll 0 0 #dadada; padding: 0; width: 31px;">
<span style="background: url(https://www.flightradar24.com/static/images/userUI_sprite.png?14) no-repeat scroll -208px -464px rgba(0, 0, 0, 0); height: 26px; margin: 8px 0 0 4px; width: 23px; display: block;"></span>
</td>
<td colspan="2" style="border-bottom: 1px solid #dadada; border-left: 1px solid #dadada; color: #666; line-height: 1.1em; padding: 3px 6px; vertical-align: top; font-size: 14px;">
Aircraft<span style="float: right; font-size: 12px;">(AS50)</span><br>
<span style="color: #333; font-size: 16px; font-weight: bold; line-height: 1.3em;">Airbus Helicopters H125</span>
</td>
</tr>
<tr style="border-right: 1px solid #dadada; ">
<td style="background: none repeat scroll 0 0 #dadada; padding: 0; width: 31px;">
<td colspan="2" style="border-bottom: 1px solid #dadada; border-left: 1px solid #dadada; color: #666; line-height: 1.1em; padding: 3px 6px; vertical-align: top; font-size: 14px;">
Registration<br>
<span style="color: #333; font-size: 16px; font-weight: bold; line-height: 1.3em;"><a href="https://www.flightradar24.com/reg/zt-hot" style="text-decoration: none; color: #333;">ZT-HOT</a></span>
</td>
</tr>
</table>
</div>

</div>
</div>]]></description>
      <styleUrl>#flightPath</styleUrl>
      <LineString>
        <extrude>1</extrude>
        <tessellate>1</tessellate>
        <altitudeMode>absolute</altitudeMode>
        <coordinates>
          18.428053,-33.899094,91.44 18.435459,-33.889332,274.32 18.437021,-33.88504,335.28 18.436546,-33.879929,396.24 18.434498,-33.874969,426.72 18.421383,-33.868755,548.64 18.416176,-33.873642,579.12 18.418524,-33.876617,609.6 18.422167,-33.876114,640.08 18.42144,-33.872154,640.08 18.415888,-33.870117,640.08 18.40868,-33.871128,640.08 18.400417,-33.874741,640.08 18.393917,-33.878437,640.08 18.388479,-33.882477,640.08 18.383045,-33.887005,670.56 18.378614,-33.891037,701.04 18.374409,-33.895111,731.52 18.36701,-33.902893,762 18.363361,-33.907486,792.48 18.359871,-33.912094,792.48 18.350258,-33.925735,822.96 18.347448,-33.930634,822.96 18.347225,-33.940258,883.92 18.351059,-33.939934,914.4 18.353838,-33.936356,944.88 18.352774,-33.932327,944.88 18.344307,-33.938072,944.88 18.339386,-33.952549,975.36 18.333206,-33.969681,1066.8 18.331833,-33.974613,1097.28 18.330744,-33.979752,1097.28 18.329773,-33.985088,1097.28 18.329029,-33.990349,1097.28 18.328615,-33.996002,1097.28 18.328671,-34.001266,1097.28 18.329399,-34.006577,1097.28 18.330801,-34.012115,1097.28 18.333155,-34.017059,1097.28 18.336407,-34.021957,1097.28 18.339882,-34.026855,1097.28 18.345394,-34.034805,1097.28 18.349859,-34.042145,1066.8 18.351652,-34.047272,1066.8 18.352203,-34.053101,1036.32 18.351204,-34.059311,1005.84 18.347855,-34.064602,1005.84 18.344366,-34.069244,975.36 18.340874,-34.074421,944.88 18.338425,-34.080231,914.4 18.338312,-34.085907,914.4 18.340931,-34.091599,883.92 18.346214,-34.096481,822.96 18.352089,-34.100121,822.96 18.358435,-34.103348,792.48 18.364489,-34.106232,731.52 18.372803,-34.109989,701.04 18.379063,-34.112366,670.56 18.384705,-34.114552,670.56 18.392738,-34.11763,640.08 18.397751,-34.119625,640.08 18.406528,-34.12326,670.56 18.417625,-34.128067,640.08 18.435287,-34.134987,640.08 18.440327,-34.135849,640.08 18.44599,-34.134796,640.08 18.451023,-34.132797,640.08 18.456247,-34.130219,640.08 18.461666,-34.127071,640.08 18.466473,-34.123814,640.08 18.470306,-34.119392,640.08 18.472939,-34.113899,640.08 18.474407,-34.107788,640.08 18.474968,-34.101929,640.08 18.47508,-34.09552,640.08 18.474913,-34.08902,609.6 18.474483,-34.082661,609.6 18.473455,-34.067734,640.08 18.473343,-34.046722,640.08 18.474072,-34.023788,640.08 18.475584,-34.000443,548.64 18.478031,-33.980572,457.2 18.481922,-33.959114,457.2 18.481918,-33.952332,426.72 18.480263,-33.94524,396.24 18.47723,-33.937977,365.76 18.473791,-33.931641,335.28 18.469082,-33.9245,335.28 18.464584,-33.918381,304.8 18.459892,-33.91256,274.32 18.455406,-33.907379,243.84 18.441238,-33.896358,182.88 18.429794,-33.899899,91.44 18.430126,-33.896805,152.4 18.43214,-33.894264,213.36 18.435955,-33.888245,304.8 18.43626,-33.887516,304.8 18.437061,-33.883976,335.28 18.437077,-33.88298,365.76 18.436293,-33.878998,396.24 18.4359,-33.877991,396.24 18.433937,-33.874008,426.72 18.433489,-33.873367,457.2 18.419027,-33.869614,579.12 18.417234,-33.871033,579.12 18.416449,-33.874695,579.12 18.416748,-33.875225,609.6 18.419151,-33.876762,609.6 18.42001,-33.8769,609.6 18.422642,-33.875179,640.08 18.422728,-33.874374,640.08 18.420429,-33.871399,670.56 18.419252,-33.870804,640.08 18.414288,-33.870152,640.08 18.413198,-33.870209,640.08 18.405533,-33.872341,640.08 18.404503,-33.872807,640.08 18.398952,-33.875504,640.08 18.397808,-33.87611,640.08 18.392738,-33.879272,640.08 18.391729,-33.880005,640.08 18.38728,-33.883373,640.08 18.386181,-33.884308,670.56 18.382425,-33.887558,670.56 18.381386,-33.888493,670.56 18.377773,-33.891861,701.04 18.376808,-33.892731,731.52 18.373775,-33.89571,731.52 18.371258,-33.89827,762 18.366394,-33.903671,762 18.365665,-33.904541,762 18.362751,-33.908295,792.48 18.362045,-33.90921,792.48 18.357481,-33.915207,792.48 18.355408,-33.918045,792.48 18.349743,-33.92662,822.96 18.349241,-33.927429,822.96 18.346607,-33.932236,853.44 18.345205,-33.935898,853.44 18.347784,-33.94043,883.92 18.348713,-33.940586,883.92 18.351933,-33.939331,914.4 18.352604,-33.938583,914.4 18.354174,-33.93544,944.88 18.354263,-33.934578,944.88 18.351933,-33.932007,944.88 18.350773,-33.931881,944.88 18.3433,-33.94075,944.88 18.342403,-33.943497,944.88 18.337212,-33.958508,1005.84 18.336069,-33.961578,1036.32 18.332977,-33.970516,1066.8 18.332651,-33.971558,1066.8 18.331585,-33.975769,1097.28 18.331417,-33.976639,1097.28 18.33046,-33.980991,1097.28 18.330296,-33.981949,1097.28 18.329601,-33.986065,1097.28 18.329454,-33.98735,1097.28 18.328915,-33.991699,1097.28 18.328857,-33.99263,1097.28 18.328629,-33.997005,1097.28 18.328571,-33.998032,1097.28 18.328743,-34.002174,1097.28 18.328896,-34.003326,1127.76 18.329601,-34.007759,1097.28 18.329887,-34.008785,1097.28 18.331089,-34.012928,1097.28 18.331547,-34.014046,1097.28 18.333715,-34.017883,1097.28 18.334332,-34.01889,1097.28 18.337023,-34.022781,1097.28 18.337784,-34.023869,1097.28 18.340473,-34.027683,1097.28 18.341227,-34.028824,1097.28 18.347504,-34.037979,1066.8 18.348026,-34.038857,1066.8 18.350307,-34.043152,1066.8 18.350658,-34.044071,1066.8 18.351917,-34.048771,1066.8 18.352045,-34.049835,1066.8 18.352146,-34.054497,1036.32 18.352089,-34.055569,1036.32 18.350756,-34.060272,1005.84 18.35025,-34.061142,1005.84 18.347168,-34.065483,1005.84 18.346424,-34.066463,1005.84 18.343735,-34.070187,975.36 18.342964,-34.071213,975.36 18.340162,-34.075607,944.88 18.339729,-34.076565,944.88 18.3382,-34.081192,914.4 18.338087,-34.082336,914.4 18.338528,-34.086945,883.92 18.338985,-34.088249,883.92 18.341904,-34.092716,853.44 18.343048,-34.09388,853.44 18.347569,-34.097374,822.96 18.348598,-34.098118,822.96 18.353277,-34.100784,822.96 18.354435,-34.101376,792.48 18.359356,-34.103798,762 18.360788,-34.104492,762 18.36533,-34.106644,731.52 18.36668,-34.107288,731.52 18.374119,-34.1105,701.04 18.375307,-34.110947,701.04 18.380072,-34.112732,670.56 18.381136,-34.113144,670.56 18.385735,-34.114922,640.08 18.387077,-34.115479,640.08 18.393631,-34.117996,640.08 18.394756,-34.118454,640.08 18.398838,-34.120045,640.08 18.400097,-34.120556,640.08 18.407421,-34.123676,670.56 18.408321,-34.124039,670.56 18.42127,-34.129623,640.08 18.425081,-34.131134,640.08 18.436031,-34.13522,640.08 18.437189,-34.135529,640.08 18.441296,-34.135777,640.08 18.442497,-34.135639,640.08 18.44696,-34.134476,640.08 18.448219,-34.13401,640.08 18.452211,-34.132278,640.08 18.453255,-34.131775,640.08 18.457432,-34.129585,640.08 18.45829,-34.129074,640.08 18.462524,-34.12656,640.08 18.463589,-34.125824,640.08 18.467388,-34.123024,640.08 18.468353,-34.121979,640.08 18.470936,-34.118229,640.08 18.471437,-34.11731,640.08 18.473396,-34.112595,640.08 18.473679,-34.111542,640.08 18.474598,-34.106636,640.08 18.474688,-34.105499,640.08 18.475023,-34.10051,640.08 18.475056,-34.099236,640.08 18.47508,-34.094101,640.08 18.475056,-34.092903,640.08 18.474855,-34.087601,609.6 18.47477,-34.086433,609.6 18.474407,-34.081467,609.6 18.474295,-34.080276,609.6 18.47323,-34.063431,640.08 18.47311,-34.05999,670.56 18.473396,-34.042675,640.08 18.473566,-34.037704,640.08 18.474184,-34.020035,609.6 18.474407,-34.015137,609.6 18.475914,-33.99654,548.64 18.476482,-33.99115,518.16 18.478546,-33.977222,457.2 18.479507,-33.972061,457.2 18.482037,-33.957764,426.72 18.482094,-33.956459,457.2 18.481693,-33.950779,426.72 18.481415,-33.949219,426.72 18.479805,-33.943844,396.24 18.479116,-33.942215,396.24 18.476601,-33.936768,365.76 18.475914,-33.935463,365.76 18.473118,-33.930542,335.28 18.472195,-33.929039,335.28 18.468189,-33.923222,335.28 18.467176,-33.921844,335.28 18.463701,-33.917267,304.8 18.462749,-33.916077,304.8 18.459091,-33.911629,274.32 18.458004,-33.910374,274.32 18.45434,-33.906189,243.84 18.451483,-33.90303,243.84 18.437693,-33.897263,182.88 18.43586,-33.89785,152.4 18.429062,-33.900192,91.44 18.428078,-33.900364,60.96
        </coordinates>
      </LineString>
    </Placemark>
  </Document>
</kml>