<?xml version="1.0" encoding="UTF-8"?>
<kml xmlns="http://www.opengis.net/kml/2.2">
  <Document>
    <name>-/ZTRNW - Optimised</name>
    <description><![CDATA[Optimised flight path with 1955 points (decimated from 9771 original points). Source format: Standard KML]]></description>
    
    <Style id="flightPath">
      <LineStyle>
        <color>ff0000ff</color>
        <width>3</width>
      </LineStyle>
    </Style>
    
    <Placemark>
      <name>Flight Path</name>
      <description><![CDATA[<div style="width:220px; text-align:center;">
<div style="width:210px; text-align:center;">
<div style=" background: #000; color: #fff; font-size: 14px; text-align:left; border: 1px solid #000; padding: 2px 6px; text-shadow: 0 1px 0 #000; box-shadow: 0 1px 3px rgba(0,0,0,0.6); background: -webkit-gradient(linear, left top, left bottom, color-stop(0%,#808080), color-stop(2%,#303030), color-stop(100%,#0c0c0c));"><span style="font-size: 14px; font-weight: bold;"><a href="javascript:void(0);" style="color: #fff; cursor: pointer;text-decoration: none;">-</a></span> / ZTRNW<br/>Private owner</div>

<div style="border-top: 1px solid #005c90; color: #fff; padding-bottom: 5px; box-shadow: 0 0 1px #9BE3F6 inset, 0 1px 0 #9BE3F6 inset, 0 -1px 3px rgba(0,0,0,0.4); background:rgba(43,114,173,1); background: -webkit-gradient(linear, left top, left bottom, color-stop(0%,rgba(92,184,229,1)), color-stop(100%,rgba(43,114,173,1)));">
<a style="text-decoration: none; color: rgb(255, 255, 255); font-size: 12px; width:77px; display: inline-block;" title=" Airport" href="javascript:void(0);/departures"><h3 style="padding: 0px; margin: 10px 0px 0px; font-size: 16px; ">?</h3></a>
<span style="background: url(https://www.flightradar24.com/static/images/userUI_sprite.png?14) no-repeat scroll 0 -464px rgba(0, 0, 0, 0); border: medium none; display: inline-block; height: 16px; width: 45px;"></span>
<a style="text-decoration: none; color: rgb(255, 255, 255); font-size: 12px; width:77px; display: inline-block;" title=" Airport" href="javascript:void(0);/arrivals"><h3 style="padding: 0px; margin: 10px 0px 0px; font-size: 16px;">?</h3></a>
<div style=" margin-top:10px;">
<div style="display: inline-block; font-size: 12px; padding: 0 5px;">
<div>
<span style="color: #c1eaff;" title="Actual Time of Departure">ATD </span>
<span title="2025-09-26 07:53">07:53</span> <span title="Coordinated Universal Time">UTC</span>
</div>
</div>
<div style="display: inline-block; font-size: 12px; padding: 0 5px;">
<div>
<span style="color: #c1eaff;" title="Estimated Time of Arrival">ETA </span>
<span title="2025-09-26 08:31">08:31</span> <span title="Coordinated Universal Time">UTC</span>
</div>
</div>
</div>
<br style="clear: both;"/>
</div>

<div style="display: block;">
<table style="border-collapse: collapse; width: 100%;">
<tr style="border-right: 1px solid #dadada; ">
<td style="background: none repeat scroll 0 0 #dadada; padding: 0; width: 31px;">
<span style="background: url(https://www.flightradar24.com/static/images/userUI_sprite.png?14) no-repeat scroll -208px -464px rgba(0, 0, 0, 0); height: 26px; margin: 8px 0 0 4px; width: 23px; display: block;"></span>
</td>
<td colspan="2" style="border-bottom: 1px solid #dadada; border-left: 1px solid #dadada; color: #666; line-height: 1.1em; padding: 3px 6px; vertical-align: top; font-size: 14px;">
Aircraft<span style="float: right; font-size: 12px;">(EC20)</span><br>
<span style="color: #333; font-size: 16px; font-weight: bold; line-height: 1.3em;">Airbus Helicopters H120</span>
</td>
</tr>
<tr style="border-right: 1px solid #dadada; ">
<td style="background: none repeat scroll 0 0 #dadada; padding: 0; width: 31px;">
<td colspan="2" style="border-bottom: 1px solid #dadada; border-left: 1px solid #dadada; color: #666; line-height: 1.1em; padding: 3px 6px; vertical-align: top; font-size: 14px;">
Registration<br>
<span style="color: #333; font-size: 16px; font-weight: bold; line-height: 1.3em;"><a href="https://www.flightradar24.com/reg/zt-rnw" style="text-decoration: none; color: #333;">ZT-RNW</a></span>
</td>
</tr>
</table>
</div>

</div>
</div>]]></description>
      <styleUrl>#flightPath</styleUrl>
      <LineString>
        <extrude>1</extrude>
        <tessellate>1</tessellate>
        <altitudeMode>absolute</altitudeMode>
        <coordinates>
          18.430138,-33.895943,45.72 18.435974,-33.889004,91.44 18.437004,-33.884769,114.3 18.43405,-33.880417,167.64 18.429117,-33.878357,213.36 18.422871,-33.876762,259.08 18.417091,-33.875877,297.18 18.411598,-33.875366,342.9 18.405462,-33.875198,381 18.399868,-33.875458,411.48 18.39414,-33.876526,434.34 18.388882,-33.878624,457.2 18.384705,-33.881229,472.44 18.381023,-33.884949,495.3 18.37738,-33.888885,502.92 18.374176,-33.892868,525.78 18.365946,-33.902298,586.74 18.358498,-33.910652,647.7 18.353615,-33.917267,678.18 18.350475,-33.921753,678.18 18.345623,-33.929459,678.18 18.343077,-33.93425,678.18 18.340702,-33.93914,670.56 18.338312,-33.944458,670.56 18.340498,-33.94899,685.8 18.345795,-33.946262,624.84 18.351402,-33.942074,586.74 18.356609,-33.936954,525.78 18.360729,-33.932251,518.16 18.364162,-33.927456,518.16 18.367367,-33.922523,518.16 18.377094,-33.908325,502.92 18.385162,-33.898502,472.44 18.390026,-33.894077,441.96 18.395691,-33.890308,419.1 18.401699,-33.88784,411.48 18.408321,-33.886322,388.62 18.414688,-33.885468,358.14 18.421326,-33.885048,358.14 18.42794,-33.885269,335.28 18.434162,-33.886871,312.42 18.439751,-33.888821,236.22 18.444386,-33.8918,266.7 18.446503,-33.895756,213.36 18.444532,-33.899643,137.16 18.438534,-33.89978,76.2 18.433399,-33.899853,45.72 18.427547,-33.899872,0 18.426931,-33.90097,0 18.427492,-33.899551,15.24 18.428879,-33.89785,22.86 18.430595,-33.895943,45.72 18.434946,-33.890671,106.68 18.436348,-33.886322,160.02 18.434275,-33.882111,190.5 18.429565,-33.879089,236.22 18.424873,-33.877228,281.94 18.419027,-33.875519,342.9 18.413258,-33.874481,381 18.407593,-33.874146,419.1 18.401814,-33.874851,449.58 18.396091,-33.876202,480.06 18.391001,-33.87822,510.54 18.386192,-33.881046,533.4 18.381386,-33.884491,563.88 18.377155,-33.887878,579.12 18.373064,-33.891495,601.98 18.368748,-33.895706,624.84 18.365105,-33.899643,647.7 18.361416,-33.904087,662.94 18.357986,-33.908707,678.18 18.354893,-33.913303,678.18 18.351803,-33.918285,685.8 18.344421,-33.93095,708.66 18.333771,-33.950363,701.04 18.320711,-33.975311,723.9 18.312584,-33.990417,800.1 18.302214,-34.008316,822.96 18.296047,-34.020676,784.86 18.294582,-34.026287,784.86 18.29431,-34.031799,792.48 18.294815,-34.037659,784.86 18.29616,-34.043243,784.86 18.297958,-34.048355,777.24 18.299789,-34.053474,769.62 18.302078,-34.058826,762 18.30468,-34.063751,762 18.307819,-34.06842,762 18.31152,-34.072746,754.38 18.315639,-34.076843,723.9 18.320332,-34.081264,685.8 18.328726,-34.089249,716.28 18.342648,-34.102169,579.12 18.348198,-34.105331,533.4 18.354118,-34.107925,487.68 18.359837,-34.110489,464.82 18.370914,-34.114876,441.96 18.377094,-34.11697,441.96 18.385906,-34.119579,449.58 18.391897,-34.118591,434.34 18.385162,-34.118599,403.86 18.386078,-34.123211,358.14 18.391685,-34.124886,312.42 18.392963,-34.120102,342.9 18.391113,-34.121811,297.18 18.39599,-34.123398,327.66 18.400497,-34.12521,350.52 18.408623,-34.128239,388.62 18.423958,-34.133358,495.3 18.431135,-34.134842,495.3 18.437189,-34.135345,487.68 18.443298,-34.134613,472.44 18.449192,-34.132286,472.44 18.453611,-34.127792,472.44 18.456303,-34.122574,457.2 18.46443,-34.117722,426.72 18.470364,-34.11404,403.86 18.475056,-34.109013,419.1 18.477745,-34.102959,411.48 18.479397,-34.096848,411.48 18.480125,-34.090393,411.48 18.4799,-34.083893,426.72 18.479576,-34.077541,434.34 18.479977,-34.066463,449.58 18.480516,-34.059998,464.82 18.481918,-34.04425,487.68 18.482254,-34.030518,518.16 18.482985,-34.017426,518.16 18.484049,-34.010742,457.2 18.485786,-34.001358,434.34 18.488926,-33.983002,441.96 18.489487,-33.975998,434.34 18.489933,-33.968422,358.14 18.489532,-33.960556,281.94 18.488028,-33.953201,228.6 18.485674,-33.946289,213.36 18.483152,-33.939606,220.98 18.480377,-33.933136,213.36 18.477058,-33.926666,213.36 18.47267,-33.920471,213.36 18.468073,-33.914749,213.36 18.462244,-33.909302,220.98 18.455742,-33.905594,213.36 18.448849,-33.902786,175.26 18.441753,-33.901108,137.16 18.434658,-33.900272,76.2 18.429909,-33.899666,22.86 18.42802,-33.900272,0 18.42738,-33.899506,7.62 18.429005,-33.897537,22.86 18.431797,-33.895756,45.72 18.436293,-33.894882,91.44 18.441238,-33.896732,129.54 18.444868,-33.899689,167.64 18.448505,-33.902737,190.5 18.455349,-33.907928,220.98 18.465046,-33.914658,251.46 18.479061,-33.923359,259.08 18.491728,-33.932098,259.08 18.507982,-33.94313,289.56 18.515774,-33.947571,304.8 18.521862,-33.949711,304.8 18.528162,-33.951187,289.56 18.534889,-33.952698,281.94 18.551846,-33.9566,266.7 18.562523,-33.958191,274.32 18.569416,-33.958878,274.32 18.576311,-33.959198,281.94 18.582926,-33.959244,289.56 18.590012,-33.957901,281.94 18.59705,-33.956505,274.32 18.606691,-33.954987,266.7 18.614044,-33.954269,274.32 18.621311,-33.953758,259.08 18.628553,-33.953522,251.46 18.635559,-33.953621,251.46 18.654337,-33.953751,259.08 18.67816,-33.9543,259.08 18.698956,-33.954346,304.8 18.716274,-33.953934,304.8 18.733932,-33.953979,342.9 18.740713,-33.952744,358.14 18.747496,-33.950912,350.52 18.75721,-33.948452,342.9 18.780842,-33.942352,342.9 18.804703,-33.935745,327.66 18.816498,-33.933243,320.04 18.825245,-33.931648,327.66 18.84367,-33.929085,350.52 18.866327,-33.926514,350.52 18.888412,-33.923813,411.48 18.908043,-33.920753,464.82 18.974991,-33.898315,533.4 18.969017,-33.901382,541.02 18.960686,-33.905949,510.54 18.95525,-33.909534,502.92 18.950443,-33.913258,495.3 18.945808,-33.91703,495.3 18.938313,-33.921684,495.3 18.932762,-33.923267,510.54 18.92664,-33.925362,533.4 18.920082,-33.926651,548.64 18.912735,-33.926479,525.78 18.90506,-33.926422,502.92 18.895168,-33.926712,472.44 18.877987,-33.927567,449.58 18.854485,-33.929367,419.1 18.830341,-33.932327,373.38 18.822212,-33.933929,350.52 18.815746,-33.935417,335.28 18.803501,-33.938629,342.9 18.788752,-33.943222,342.9 18.768572,-33.950317,335.28 18.756689,-33.953659,327.66 18.750074,-33.954895,320.04 18.743248,-33.955853,312.42 18.736958,-33.956131,312.42 18.73003,-33.956272,304.8 18.717283,-33.956451,297.18 18.70657,-33.957298,289.56 18.699589,-33.958183,289.56 18.684214,-33.960526,281.94 18.664202,-33.963593,289.56 18.651524,-33.964607,289.56 18.64492,-33.963547,281.94 18.638025,-33.962265,281.94 18.622456,-33.95916,266.7 18.600021,-33.955078,251.46 18.593071,-33.954346,251.46 18.586292,-33.953899,259.08 18.58017,-33.953571,259.08 18.570425,-33.953339,266.7 18.55608,-33.952595,281.94 18.549406,-33.951141,281.94 18.542288,-33.949722,274.32 18.533134,-33.948406,289.56 18.51852,-33.945511,289.56 18.512192,-33.942493,274.32 18.505854,-33.938873,274.32 18.499743,-33.93576,274.32 18.482759,-33.926102,289.56 18.477001,-33.921871,281.94 18.47168,-33.917633,281.94 18.45647,-33.90509,289.56 18.444443,-33.894451,342.9 18.43915,-33.890762,365.76 18.433546,-33.886642,403.86 18.427715,-33.883575,441.96 18.421268,-33.881371,472.44 18.414598,-33.880188,502.92 18.407761,-33.880005,518.16 18.400269,-33.880764,533.4 18.393915,-33.882156,548.64 18.38747,-33.884628,571.5 18.381752,-33.888016,571.5 18.376637,-33.891613,563.88 18.371086,-33.895615,556.26 18.366282,-33.89978,594.36 18.362919,-33.903625,647.7 18.36034,-33.907425,685.8 18.358435,-33.912003,716.28 18.357426,-33.916763,731.52 18.356552,-33.921825,746.76 18.354836,-33.931694,769.62 18.352718,-33.946079,731.52 18.350487,-33.964001,716.28 18.340473,-33.982018,777.24 18.333378,-33.991325,876.3 18.324411,-34.004562,906.78 18.317127,-34.013813,891.54 18.312136,-34.01857,861.06 18.307314,-34.023239,868.68 18.300762,-34.031502,845.82 18.29801,-34.037521,830.58 18.297272,-34.043327,830.58 18.298065,-34.04892,845.82 18.300304,-34.054173,838.2 18.303616,-34.05899,838.2 18.307707,-34.063339,822.96 18.31295,-34.068047,807.72 18.31819,-34.072495,800.1 18.328503,-34.082062,800.1 18.332426,-34.087326,784.86 18.335621,-34.092682,769.62 18.33848,-34.099091,739.14 18.340473,-34.105331,723.9 18.339769,-34.111588,701.04 18.336697,-34.117344,662.94 18.331753,-34.123215,640.08 18.326653,-34.128662,624.84 18.320711,-34.133194,609.6 18.31505,-34.137863,601.98 18.310398,-34.144821,601.98 18.311005,-34.150627,609.6 18.313929,-34.155396,617.22 18.31802,-34.160751,624.84 18.32329,-34.167755,594.36 18.329792,-34.175079,579.12 18.334892,-34.179108,579.12 18.339901,-34.182285,579.12 18.346195,-34.18787,571.5 18.350143,-34.192245,571.5 18.35367,-34.197327,563.88 18.356865,-34.202637,556.26 18.359642,-34.20789,563.88 18.361742,-34.213165,563.88 18.363247,-34.219109,563.88 18.364391,-34.224415,563.88 18.367023,-34.235355,571.5 18.368511,-34.244663,594.36 18.369026,-34.250065,617.22 18.369198,-34.255836,624.84 18.370317,-34.267227,601.98 18.371943,-34.272995,594.36 18.37429,-34.278461,579.12 18.377605,-34.283936,548.64 18.391857,-34.302109,495.3 18.394814,-34.307007,487.68 18.39798,-34.311932,502.92 18.402386,-34.318123,518.16 18.406963,-34.323895,525.78 18.410797,-34.327854,525.78 18.414488,-34.331039,533.4 18.418524,-34.334381,533.4 18.424416,-34.338932,548.64 18.432713,-34.344658,563.88 18.445484,-34.353012,617.22 18.460121,-34.362022,586.74 18.467159,-34.365513,571.5 18.471998,-34.367615,579.12 18.476658,-34.369236,594.36 18.480909,-34.37027,601.98 18.485394,-34.371002,609.6 18.489822,-34.371689,617.22 18.498623,-34.37265,640.08 18.503162,-34.372513,655.32 18.508015,-34.370869,655.32 18.51099,-34.367191,662.94 18.512188,-34.361847,647.7 18.511677,-34.35667,632.46 18.50996,-34.351875,617.22 18.50647,-34.347656,601.98 18.50165,-34.343491,563.88 18.496284,-34.339352,556.26 18.488365,-34.332504,533.4 18.485012,-34.326828,510.54 18.483208,-34.320282,510.54 18.482323,-34.31398,510.54 18.481579,-34.307976,518.16 18.480949,-34.299271,510.54 18.481064,-34.293545,510.54 18.48135,-34.288006,518.16 18.481522,-34.271198,518.16 18.481979,-34.253044,510.54 18.482143,-34.23587,533.4 18.480892,-34.229675,533.4 18.478668,-34.223648,541.02 18.475742,-34.217339,533.4 18.472137,-34.210682,533.4 18.466301,-34.199463,548.64 18.460171,-34.190186,541.02 18.455462,-34.184692,548.64 18.450529,-34.177139,548.64 18.448792,-34.170868,548.64 18.44767,-34.1651,541.02 18.447132,-34.1591,533.4 18.446157,-34.151047,525.78 18.446941,-34.14061,518.16 18.451195,-34.136894,525.78 18.455574,-34.132782,525.78 18.46118,-34.126373,502.92 18.468914,-34.118088,502.92 18.475628,-34.111897,518.16 18.482609,-34.105564,502.92 18.489304,-34.10347,434.34 18.495197,-34.102028,403.86 18.501549,-34.100166,365.76 18.522892,-34.094765,251.46 18.531933,-34.093182,198.12 18.538588,-34.092224,152.4 18.550863,-34.090851,68.58 18.560505,-34.088974,45.72 18.566391,-34.086639,30.48 18.57296,-34.084476,22.86 18.582344,-34.08215,38.1 18.588531,-34.080963,38.1 18.594864,-34.079865,30.48 18.61454,-34.076477,22.86 18.621153,-34.076065,22.86 18.638641,-34.074142,22.86 18.645592,-34.074097,30.48 18.656845,-34.074329,38.1 18.674685,-34.074829,45.72 18.681049,-34.075447,53.34 18.68965,-34.075012,53.34 18.696041,-34.07354,53.34 18.704224,-34.073586,76.2 18.710333,-34.073776,83.82 18.717842,-34.072842,137.16 18.722706,-34.071026,175.26 18.727283,-34.069256,198.12 18.736267,-34.06609,228.6 18.74531,-34.062286,259.08 18.750057,-34.05962,281.94 18.754864,-34.056545,297.18 18.759327,-34.053055,297.18 18.76442,-34.049099,312.42 18.771038,-34.043976,327.66 18.776138,-34.041275,327.66 18.78273,-34.039696,335.28 18.789255,-34.038483,342.9 18.79818,-34.036484,365.76 18.816147,-34.032246,396.24 18.822327,-34.029968,419.1 18.828548,-34.027176,426.72 18.839928,-34.022415,449.58 18.844635,-34.019165,472.44 18.848476,-34.014744,472.44 18.851624,-34.009529,487.68 18.854164,-34.004288,487.68 18.856407,-33.999069,480.06 18.85849,-33.993374,472.44 18.862381,-33.985741,480.06 18.865376,-33.980209,480.06 18.868793,-33.972473,487.68 18.876755,-33.956863,502.92 18.883648,-33.944916,510.54 18.888416,-33.940678,518.16 18.893795,-33.937744,518.16 18.899689,-33.935558,541.02 18.906013,-33.933563,556.26 18.912563,-33.931599,586.74 18.919859,-33.92981,601.98 18.92601,-33.928852,594.36 18.931789,-33.928204,563.88 18.939308,-33.926285,533.4 18.944521,-33.922668,525.78 18.949986,-33.91917,518.16 18.962177,-33.911179,518.16 18.976421,-33.901619,533.4 18.982258,-33.901436,586.74 18.987122,-33.902527,640.08 18.990709,-33.903488,685.8 18.996202,-33.904999,769.62 19.013634,-33.904816,731.52 19.029217,-33.899734,594.36 19.035187,-33.898315,556.26 19.040852,-33.897106,541.02 19.048862,-33.89566,518.16 19.054832,-33.894882,510.54 19.062849,-33.893967,487.68 19.075796,-33.892822,449.58 18.969841,-33.900455,464.82 18.958647,-33.912369,495.3 18.954218,-33.915985,510.54 18.949585,-33.918983,495.3 18.944633,-33.921387,502.92 18.9398,-33.92429,510.54 18.933735,-33.927223,533.4 18.927538,-33.927567,556.26 18.921204,-33.927887,563.88 18.911955,-33.928024,541.02 18.905182,-33.927364,533.4 18.898558,-33.926514,518.16 18.884468,-33.92569,449.58 18.877258,-33.92601,426.72 18.870335,-33.926945,396.24 18.86319,-33.928299,365.76 18.851643,-33.93013,358.14 18.833084,-33.93351,342.9 18.825989,-33.935326,335.28 18.816273,-33.938004,320.04 18.795757,-33.944412,320.04 18.78067,-33.948826,342.9 18.775074,-33.950821,350.52 18.770702,-33.954529,358.14 18.765097,-33.958145,358.14 18.758595,-33.958374,350.52 18.75215,-33.957779,350.52 18.745197,-33.956955,342.9 18.732491,-33.956181,320.04 18.725567,-33.956039,304.8 18.706455,-33.955761,297.18 18.683453,-33.956318,281.94 18.672466,-33.955902,266.7 18.666172,-33.95525,251.46 18.645369,-33.954163,251.46 18.630867,-33.952969,259.08 18.623619,-33.951828,266.7 18.620144,-33.955032,251.46 18.617174,-33.958054,251.46 18.613243,-33.957298,266.7 18.61187,-33.954411,274.32 18.610504,-33.954346,251.46 18.610559,-33.956543,243.84 18.609327,-33.958374,236.22 18.605633,-33.957855,228.6 18.600368,-33.957157,236.22 18.593502,-33.957298,236.22 18.587242,-33.957092,251.46 18.573565,-33.956543,289.56 18.555107,-33.95525,281.94 18.546659,-33.954163,274.32 18.538971,-33.952641,281.94 18.532366,-33.950638,281.94 18.525352,-33.948311,274.32 18.518944,-33.945614,281.94 18.51305,-33.942539,289.56 18.507366,-33.939468,289.56 18.489418,-33.929691,289.56 18.483353,-33.925781,281.94 18.477631,-33.92173,266.7 18.463898,-33.91256,259.08 18.452339,-33.904228,274.32 18.446789,-33.899387,175.26 18.439865,-33.896641,236.22 18.434723,-33.897812,175.26 18.432026,-33.899944,137.16 18.429966,-33.900688,53.34 18.427883,-33.900604,22.86 18.42762,-33.898781,38.1 18.428612,-33.896988,38.1 18.429909,-33.895195,38.1 18.431864,-33.892181,83.82 18.4338,-33.888214,160.02 18.434891,-33.884628,205.74 18.432827,-33.880905,274.32 18.428612,-33.87941,312.42 18.423624,-33.878952,350.52 18.418751,-33.879089,396.24 18.413715,-33.879601,426.72 18.408377,-33.880325,449.58 18.402828,-33.881378,457.2 18.397179,-33.882858,487.68 18.391457,-33.884769,525.78 18.386536,-33.887238,556.26 18.38253,-33.890121,579.12 18.378239,-33.893661,594.36 18.374119,-33.897152,609.6 18.367516,-33.903259,632.46 18.363535,-33.907745,624.84 18.3601,-33.912655,617.22 18.357258,-33.917679,609.6 18.354567,-33.922852,632.46 18.352268,-33.927933,647.7 18.350258,-33.93351,662.94 18.348906,-33.938553,693.42 18.346996,-33.946823,731.52 18.346327,-33.951691,739.14 18.341562,-33.968994,754.38 18.332634,-33.990814,769.62 18.325939,-34.007015,746.76 18.320766,-34.015366,739.14 18.316563,-34.019669,731.52 18.311966,-34.024612,723.9 18.305969,-34.032154,739.14 18.302719,-34.037064,762 18.300531,-34.041458,861.06 18.301149,-34.040131,883.92 18.30534,-34.036995,838.2 18.308487,-34.032433,830.58 18.312752,-34.026123,830.58 18.317242,-34.018745,762 18.327885,-34.001709,701.04 18.341227,-33.982544,647.7 18.355408,-33.963211,617.22 18.360729,-33.95171,624.84 18.360733,-33.945648,617.22 18.360172,-33.939514,594.36 18.360729,-33.932392,586.74 18.362675,-33.926388,594.36 18.36565,-33.921452,586.74 18.369589,-33.916534,586.74 18.373793,-33.912094,579.12 18.378124,-33.907532,571.5 18.391228,-33.894592,556.26 18.398209,-33.88868,533.4 18.403893,-33.884903,518.16 18.410511,-33.88216,487.68 18.418064,-33.880997,457.2 18.424816,-33.881882,434.34 18.43063,-33.884216,396.24 18.435507,-33.887329,365.76 18.439808,-33.891148,358.14 18.443413,-33.89566,327.66 18.444307,-33.900146,289.56 18.441225,-33.903397,251.46 18.436604,-33.901482,198.12 18.433153,-33.898178,129.54 18.429852,-33.8992,60.96 18.427906,-33.900642,22.86 18.428822,-33.900784,22.86 18.430538,-33.900455,38.1 18.434486,-33.897991,76.2 18.436964,-33.894012,137.16 18.436718,-33.889145,190.5 18.435459,-33.884117,243.84 18.432083,-33.879833,281.94 18.427105,-33.876995,320.04 18.421726,-33.875969,350.52 18.41629,-33.875923,373.38 18.410788,-33.876526,403.86 18.405575,-33.877808,426.72 18.400383,-33.879555,457.2 18.395462,-33.881836,495.3 18.391056,-33.884258,533.4 18.386307,-33.887188,579.12 18.381977,-33.890076,601.98 18.377325,-33.893463,601.98 18.372616,-33.897079,601.98 18.368076,-33.901016,601.98 18.364096,-33.905136,594.36 18.360558,-33.909721,601.98 18.357811,-33.914284,617.22 18.355465,-33.919033,640.08 18.353277,-33.923813,662.94 18.348083,-33.936954,731.52 18.34631,-33.942867,754.38 18.344994,-33.948311,769.62 18.34358,-33.955765,769.62 18.350716,-33.962696,754.38 18.356472,-33.954895,685.8 18.356438,-33.948219,655.32 18.356667,-33.941887,632.46 18.358383,-33.933414,624.84 18.360672,-33.927643,624.84 18.363876,-33.922195,609.6 18.367458,-33.917038,594.36 18.371601,-33.911861,579.12 18.376236,-33.907299,563.88 18.381081,-33.903214,556.26 18.385849,-33.899292,556.26 18.401127,-33.887981,487.68 18.407312,-33.884262,449.58 18.413944,-33.881977,426.72 18.421326,-33.881512,396.24 18.427322,-33.883026,381 18.432537,-33.88559,365.76 18.437061,-33.888912,342.9 18.439865,-33.892681,304.8 18.43803,-33.895889,281.94 18.432484,-33.894497,190.5 18.428192,-33.895615,121.92 18.427563,-33.898361,68.58 18.427105,-33.899853,38.1 18.427435,-33.90065,22.86 18.429794,-33.901016,45.72 18.431969,-33.901108,68.58 18.433937,-33.90065,38.1 18.436068,-33.897446,76.2 18.434946,-33.89296,152.4 18.432312,-33.887787,198.12 18.428993,-33.883091,228.6 18.424465,-33.878952,259.08 18.419195,-33.876068,297.18 18.413086,-33.874947,320.04 18.406963,-33.875832,342.9 18.401539,-33.877533,365.76 18.396549,-33.879742,381 18.390598,-33.882675,411.48 18.385391,-33.885468,434.34 18.380407,-33.888611,457.2 18.375893,-33.892033,472.44 18.371719,-33.895798,487.68 18.367825,-33.900085,502.92 18.364431,-33.904541,510.54 18.361244,-33.909161,525.78 18.358547,-33.913879,548.64 18.356037,-33.918659,541.02 18.353634,-33.923592,533.4 18.346943,-33.938873,571.5 18.341843,-33.954208,609.6 18.333549,-33.979221,655.32 18.326569,-33.999565,723.9 18.324802,-34.00676,739.14 18.324411,-34.012115,693.42 18.326988,-34.017563,777.24 18.331081,-34.021042,777.24 18.335781,-34.024658,762 18.342247,-34.030338,746.76 18.345852,-34.034805,754.38 18.348122,-34.039902,762 18.348738,-34.045166,769.62 18.351059,-34.049519,822.96 18.355064,-34.048492,845.82 18.354549,-34.044025,807.72 18.350716,-34.038998,769.62 18.346552,-34.034088,731.52 18.342361,-34.029545,723.9 18.333883,-34.019989,701.04 18.33153,-34.01445,708.66 18.331249,-34.008728,693.42 18.33181,-34.002548,693.42 18.334108,-33.994034,662.94 18.339602,-33.980621,609.6 18.348827,-33.95953,556.26 18.356529,-33.940155,487.68 18.360846,-33.93187,464.82 18.363876,-33.926712,472.44 18.371372,-33.913956,495.3 18.376539,-33.906464,502.92 18.380356,-33.901852,502.92 18.384991,-33.897106,487.68 18.389601,-33.893234,480.06 18.395519,-33.889702,464.82 18.401987,-33.887009,441.96 18.408051,-33.885048,449.58 18.41404,-33.883484,426.72 18.419266,-33.883327,403.86 18.422699,-33.885468,373.38 18.424873,-33.888447,335.28 18.426426,-33.890945,281.94 18.42738,-33.893143,213.36 18.427828,-33.895706,144.78 18.427563,-33.898174,76.2 18.427099,-33.900055,38.1 18.427715,-33.900787,38.1 18.430882,-33.900642,68.58 18.434486,-33.898968,106.68 18.435688,-33.894127,152.4 18.434385,-33.888931,198.12 18.432426,-33.884071,228.6 18.428892,-33.879547,266.7 18.423512,-33.875702,304.8 18.417234,-33.873734,358.14 18.411198,-33.874062,388.62 18.405704,-33.87532,419.1 18.400137,-33.877167,441.96 18.394947,-33.879322,472.44 18.389431,-33.882111,487.68 18.384361,-33.885139,518.16 18.379847,-33.888428,533.4 18.375492,-33.892078,556.26 18.371271,-33.896164,563.88 18.367424,-33.900551,571.5 18.364277,-33.904831,579.12 18.36153,-33.909393,579.12 18.358955,-33.914375,586.74 18.356697,-33.919281,594.36 18.350315,-33.932766,579.12 18.341282,-33.951096,563.88 18.333435,-33.970379,601.98 18.343187,-33.971375,647.7 18.349113,-33.958229,609.6 18.355463,-33.94455,548.64 18.36191,-33.932053,533.4 18.371029,-33.913399,487.68 18.374863,-33.907299,403.86 18.378582,-33.902599,403.86 18.382986,-33.898132,457.2 18.387974,-33.893967,434.34 18.393345,-33.890217,419.1 18.399296,-33.887051,335.28 18.405294,-33.884537,403.86 18.411348,-33.882568,403.86 18.417458,-33.881836,373.38 18.422928,-33.882767,335.28 18.426361,-33.885468,297.18 18.427773,-33.88829,243.84 18.428331,-33.891632,190.5 18.428249,-33.894264,144.78 18.42802,-33.896873,91.44 18.428421,-33.899155,38.1 18.429337,-33.896778,60.96 18.430574,-33.894196,15.24 18.431911,-33.891472,121.92 18.433685,-33.885792,182.88 18.43248,-33.881332,243.84 18.428993,-33.87746,304.8 18.42424,-33.875061,350.52 18.418694,-33.874573,388.62 18.412685,-33.875271,426.72 18.407312,-33.876251,464.82 18.401203,-33.877853,495.3 18.396046,-33.879684,533.4 18.391056,-33.882023,571.5 18.386797,-33.884537,594.36 18.38213,-33.88784,609.6 18.377716,-33.891541,617.22 18.373146,-33.895756,632.46 18.369312,-33.899944,632.46 18.365879,-33.904366,632.46 18.362638,-33.909164,624.84 18.359699,-33.914143,617.22 18.357145,-33.918823,624.84 18.354792,-33.923813,624.84 18.352432,-33.929134,632.46 18.34877,-33.938675,640.08 18.342348,-33.957962,662.94 18.351631,-33.958973,647.7 18.354721,-33.95129,632.46 18.359388,-33.938416,624.84 18.365721,-33.921158,617.22 18.369644,-33.913284,601.98 18.373318,-33.908092,594.36 18.377213,-33.903442,594.36 18.38192,-33.898636,579.12 18.387165,-33.894314,571.5 18.393116,-33.89045,556.26 18.399185,-33.887329,533.4 18.405819,-33.885002,510.54 18.41275,-33.883484,480.06 18.419552,-33.882534,434.34 18.425865,-33.882065,396.24 18.431416,-33.882935,358.14 18.435516,-33.886074,320.04 18.438141,-33.889526,266.7 18.438927,-33.893555,205.74 18.435732,-33.896347,152.4 18.431303,-33.89859,83.82 18.427563,-33.900642,30.48 18.427448,-33.899666,38.1 18.429108,-33.896641,68.58 18.430687,-33.893372,121.92 18.432087,-33.888794,167.64 18.431248,-33.884537,213.36 18.427505,-33.880627,251.46 18.422585,-33.878113,297.18 18.41692,-33.877228,350.52 18.410969,-33.877319,403.86 18.406105,-33.878578,464.82 18.400555,-33.880486,426.72 18.395094,-33.882706,518.16 18.389912,-33.885281,548.64 18.385048,-33.888306,586.74 18.380575,-33.891769,601.98 18.376036,-33.895523,617.22 18.371487,-33.899525,632.46 18.367653,-33.903809,647.7 18.364208,-33.908524,670.56 18.361126,-33.913376,685.8 18.35804,-33.918892,685.8 18.355236,-33.924759,678.18 18.352661,-33.930202,678.18 18.345934,-33.947205,678.18 18.33847,-33.968517,716.28 18.330746,-33.996216,739.14 18.328838,-34.005798,739.14 18.328743,-34.011948,678.18 18.331024,-34.018295,746.76 18.335398,-34.023285,746.76 18.339558,-34.027451,754.38 18.34515,-34.033768,754.38 18.348141,-34.039043,769.62 18.349073,-34.044846,800.1 18.3494,-34.050354,807.72 18.350258,-34.056965,861.06 18.354624,-34.058395,952.5 18.35535,-34.053986,937.26 18.353119,-34.048447,906.78 18.350698,-34.043015,899.16 18.347841,-34.03743,876.3 18.344421,-34.032303,845.82 18.34005,-34.027588,838.2 18.334051,-34.020172,815.34 18.331923,-34.014908,800.1 18.331318,-34.008179,800.1 18.332371,-34.002045,777.24 18.336868,-33.989326,731.52 18.349228,-33.961998,670.56 18.358379,-33.941025,624.84 18.366795,-33.92308,594.36 18.37492,-33.90823,548.64 18.378782,-33.902893,487.68 18.383099,-33.897858,525.78 18.388424,-33.893009,510.54 18.394146,-33.889469,495.3 18.400898,-33.886585,487.68 18.407986,-33.884079,464.82 18.414598,-33.882477,457.2 18.421438,-33.881699,441.96 18.427792,-33.88221,411.48 18.432985,-33.884491,373.38 18.436741,-33.887695,335.28 18.439064,-33.891193,281.94 18.43832,-33.894497,236.22 18.435284,-33.896713,175.26 18.431797,-33.898174,114.3 18.428249,-33.899899,45.72 18.427155,-33.901154,22.86 18.427773,-33.899094,45.72 18.429846,-33.896072,76.2 18.431854,-33.892544,129.54 18.433743,-33.888538,175.26 18.435173,-33.884163,220.98 18.433714,-33.879776,274.32 18.429451,-33.877041,320.04 18.424301,-33.875923,365.76 18.418522,-33.875969,419.1 18.413086,-33.876621,464.82 18.407593,-33.877693,495.3 18.401814,-33.879181,518.16 18.396494,-33.880783,563.88 18.391394,-33.88266,594.36 18.386364,-33.885094,632.46 18.381901,-33.887794,662.94 18.377716,-33.890717,685.8 18.373604,-33.893986,716.28 18.369644,-33.897491,739.14 18.366226,-33.901108,769.62 18.362846,-33.905579,762 18.359779,-33.910263,754.38 18.356838,-33.915539,739.14 18.354343,-33.920837,739.14 18.352318,-33.925968,754.38 18.35043,-33.931461,769.62 18.347626,-33.940399,784.86 18.341618,-33.957718,807.72 18.33534,-33.976181,807.72 18.326397,-33.991421,746.76 18.314882,-34.009781,769.62 18.307114,-34.024006,769.62 18.302994,-34.033222,754.38 18.30143,-34.03981,754.38 18.301205,-34.046082,762 18.302422,-34.051613,762 18.305397,-34.057198,746.76 18.309746,-34.063019,746.76 18.314545,-34.067505,739.14 18.319757,-34.071442,731.52 18.326912,-34.078659,716.28 18.331261,-34.083641,708.66 18.337269,-34.09132,685.8 18.340473,-34.097046,670.56 18.342991,-34.102959,670.56 18.346481,-34.108963,678.18 18.351204,-34.11145,678.18 18.357651,-34.111496,647.7 18.364151,-34.111404,632.46 18.371552,-34.113007,632.46 18.377495,-34.11404,640.08 18.391001,-34.116989,647.7 18.402443,-34.119949,655.32 18.422054,-34.125229,655.32 18.432648,-34.128708,662.94 18.443914,-34.131638,647.7 18.450193,-34.132233,655.32 18.456078,-34.130493,655.32 18.461494,-34.126747,632.46 18.466616,-34.122711,624.84 18.471493,-34.118408,617.22 18.4758,-34.113712,601.98 18.479061,-34.108128,594.36 18.479061,-34.102352,586.74 18.476543,-34.096443,586.74 18.477379,-34.086823,571.5 18.47826,-34.08094,571.5 18.479233,-34.069954,601.98 18.478668,-34.063477,601.98 18.476257,-34.057892,617.22 18.473566,-34.05217,624.84 18.470652,-34.04393,632.46 18.46899,-34.038113,632.46 18.467674,-34.032246,632.46 18.46656,-34.025986,617.22 18.465775,-34.019806,617.22 18.465786,-34.013531,624.84 18.465664,-34.007401,624.84 18.466335,-33.999069,601.98 18.468859,-33.992661,586.74 18.47138,-33.986664,548.64 18.477287,-33.970284,441.96 18.483994,-33.951736,419.1 18.484497,-33.945282,403.86 18.483467,-33.938396,388.62 18.479977,-33.932529,381 18.475685,-33.926853,365.76 18.4711,-33.921524,342.9 18.465551,-33.915939,320.04 18.460058,-33.910583,304.8 18.444811,-33.89653,259.08 18.43758,-33.891861,243.84 18.431248,-33.891998,228.6 18.431416,-33.895386,160.02 18.432873,-33.898773,106.68 18.430767,-33.90004,68.58 18.428053,-33.899826,45.72 18.427044,-33.900833,30.48 18.435452,-33.889847,83.82 18.435974,-33.889004,91.44 18.437004,-33.885559,106.68 18.437004,-33.884769,114.3 18.434887,-33.880951,160.02 18.43405,-33.880417,167.64 18.430182,-33.878723,205.74 18.429117,-33.878357,213.36 18.424128,-33.877029,251.46 18.422871,-33.876762,259.08 18.418293,-33.876064,289.56 18.417091,-33.875877,297.18 18.41275,-33.875427,335.28 18.411598,-33.875366,342.9 18.406734,-33.875225,373.38 18.405462,-33.875198,381 18.401184,-33.87532,403.86 18.399868,-33.875458,411.48 18.395317,-33.876251,426.72 18.39414,-33.876526,434.34 18.390049,-33.877991,449.58 18.388882,-33.878624,457.2 18.385334,-33.880764,472.44 18.384705,-33.881229,472.44 18.381786,-33.884163,487.68 18.381023,-33.884949,495.3 18.377941,-33.888245,502.92 18.37738,-33.888885,502.92 18.374689,-33.892181,518.16 18.374176,-33.892868,525.78 18.368683,-33.899338,563.88 18.365946,-33.902298,586.74 18.361349,-33.907333,624.84 18.358498,-33.910652,647.7 18.354893,-33.915493,670.56 18.353615,-33.917267,678.18 18.351116,-33.920845,678.18 18.350475,-33.921753,678.18 18.346252,-33.928295,678.18 18.345623,-33.929459,678.18 18.343525,-33.933334,678.18 18.343077,-33.93425,678.18 18.341171,-33.938141,670.56 18.340702,-33.93914,670.56 18.338699,-33.94347,662.94 18.338312,-33.944458,670.56 18.339558,-33.948685,693.42 18.340498,-33.94899,685.8 18.344765,-33.946964,640.08 18.345795,-33.946262,624.84 18.350307,-33.942993,594.36 18.351402,-33.942074,586.74 18.355408,-33.938164,548.64 18.356609,-33.936954,525.78 18.359871,-33.933323,518.16 18.360729,-33.932251,518.16 18.363592,-33.928253,518.16 18.364162,-33.927456,518.16 18.366909,-33.923267,518.16 18.367367,-33.922523,518.16 18.374863,-33.911396,510.54 18.377094,-33.908325,502.92 18.384132,-33.89957,480.06 18.385162,-33.898502,472.44 18.38904,-33.894882,449.58 18.390026,-33.894077,441.96 18.394375,-33.891052,419.1 18.395691,-33.890308,419.1 18.400497,-33.888214,411.48 18.401699,-33.88784,411.48 18.406906,-33.886585,396.24 18.408321,-33.886322,388.62 18.413486,-33.885605,373.38 18.414688,-33.885468,358.14 18.419868,-33.885086,365.76 18.421326,-33.885048,358.14 18.426704,-33.885139,335.28 18.42794,-33.885269,335.28 18.433096,-33.886551,312.42 18.434162,-33.886871,312.42 18.438549,-33.888306,304.8 18.439751,-33.888821,236.22 18.443691,-33.891174,266.7 18.444386,-33.8918,266.7 18.446331,-33.894962,220.98 18.446503,-33.895756,213.36 18.445652,-33.899048,167.64 18.444532,-33.899643,137.16 18.439487,-33.89978,83.82 18.438534,-33.89978,76.2 18.434486,-33.899853,53.34 18.433399,-33.899853,45.72 18.427963,-33.899712,0 18.427547,-33.899872,0 18.427099,-33.900742,0 18.426931,-33.90097,0 18.427334,-33.899807,7.62 18.427492,-33.899551,15.24 18.428669,-33.898132,22.86 18.428879,-33.89785,22.86 18.429966,-33.896641,38.1 18.430595,-33.895943,45.72 18.432928,-33.893143,76.2 18.434946,-33.890671,106.68 18.436293,-33.887329,144.78 18.436348,-33.886322,160.02 18.434946,-33.882889,182.88 18.434275,-33.882111,190.5 18.430294,-33.879456,228.6 18.429565,-33.879089,236.22 18.425529,-33.877441,274.32 18.424873,-33.877228,281.94 18.420296,-33.875832,335.28 18.419027,-33.875519,342.9 18.414345,-33.874619,373.38 18.413258,-33.874481,381 18.408937,-33.874146,411.48 18.407593,-33.874146,419.1 18.402996,-33.874695,441.96 18.401814,-33.874851,449.58 18.397223,-33.875885,480.06 18.396091,-33.876202,480.06 18.391972,-33.877785,495.3 18.391001,-33.87822,510.54 18.387165,-33.880394,533.4 18.386192,-33.881046,533.4 18.382301,-33.883793,556.26 18.381386,-33.884491,563.88 18.377996,-33.887146,579.12 18.377155,-33.887878,579.12 18.374004,-33.890633,594.36 18.373064,-33.891495,601.98 18.369884,-33.894592,617.22 18.368748,-33.895706,624.84 18.365778,-33.898911,640.08 18.365105,-33.899643,647.7 18.362078,-33.903214,662.94 18.361416,-33.904087,662.94 18.358727,-33.907673,670.56 18.357986,-33.908707,678.18 18.35535,-33.912605,678.18 18.354893,-33.913303,678.18 18.352325,-33.917404,685.8 18.351803,-33.918285,685.8 18.346367,-33.927505,701.04 18.344421,-33.93095,708.66 18.336237,-33.945877,716.28 18.333771,-33.950363,701.04 18.323479,-33.969913,716.28 18.320711,-33.975311,723.9 18.314322,-33.987396,784.86 18.312584,-33.990417,800.1 18.304138,-34.004875,830.58 18.302214,-34.008316,822.96 18.296585,-34.019444,792.48 18.296047,-34.020676,784.86 18.294811,-34.025078,784.86 18.294582,-34.026287,784.86 18.29431,-34.030792,784.86 18.29431,-34.031799,792.48 18.29459,-34.03624,784.86 18.294815,-34.037659,784.86 18.295824,-34.042099,784.86 18.29616,-34.043243,784.86 18.297558,-34.047375,777.24 18.297958,-34.048355,777.24 18.299467,-34.05249,769.62 18.299789,-34.053474,769.62 18.301506,-34.057617,762 18.302078,-34.058826,762 18.304176,-34.062881,701.04 18.30468,-34.063751,762 18.307114,-34.06744,762 18.307819,-34.06842,762 18.310661,-34.071861,754.38 18.31152,-34.072746,754.38 18.31477,-34.076019,731.52 18.315639,-34.076843,723.9 18.319534,-34.080597,693.42 18.320332,-34.081264,685.8 18.325825,-34.086292,701.04 18.328726,-34.089249,716.28 18.339882,-34.099777,609.6 18.342648,-34.102169,579.12 18.346939,-34.104774,541.02 18.348198,-34.105331,533.4 18.353004,-34.107475,495.3 18.354118,-34.107925,487.68 18.358841,-34.110035,472.44 18.359837,-34.110489,464.82 18.369701,-34.114426,441.96 18.370914,-34.114876,441.96 18.375835,-34.11655,449.58 18.377094,-34.11697,441.96 18.382706,-34.118546,449.58 18.385906,-34.119579,449.58 18.392067,-34.119965,441.96 18.391897,-34.118591,434.34 18.386536,-34.117531,411.48 18.385162,-34.118599,403.86 18.38534,-34.122482,373.38 18.386078,-34.123211,358.14 18.39061,-34.125,320.04 18.391685,-34.124886,312.42 18.39414,-34.121155,327.66 18.392963,-34.120102,342.9 18.390369,-34.121532,312.42 18.391113,-34.121811,297.18 18.395037,-34.123032,320.04 18.39599,-34.123398,327.66 18.399582,-34.12484,342.9 18.400497,-34.12521,350.52 18.405855,-34.127243,373.38 18.408623,-34.128239,388.62 18.419981,-34.132004,480.06 18.423958,-34.133358,495.3 18.429901,-34.134659,502.92 18.431135,-34.134842,495.3 18.436146,-34.135311,487.68 18.437189,-34.135345,487.68 18.442064,-34.134842,472.44 18.443298,-34.134613,472.44 18.448162,-34.132797,472.44 18.449192,-34.132286,472.44 18.452969,-34.128937,472.44 18.453611,-34.127792,472.44 18.455519,-34.123489,464.82 18.456303,-34.122574,457.2 18.463308,-34.118317,426.72 18.46443,-34.117722,426.72 18.469162,-34.114922,403.86 18.470364,-34.11404,403.86 18.474352,-34.110123,419.1 18.475056,-34.109013,419.1 18.477266,-34.104309,411.48 18.477745,-34.102959,411.48 18.479118,-34.098072,411.48 18.479397,-34.096848,411.48 18.480068,-34.091583,411.48 18.480125,-34.090393,411.48 18.479977,-34.085316,426.72 18.4799,-34.083893,426.72 18.47962,-34.078857,426.72 18.479576,-34.077541,434.34 18.479862,-34.067764,441.96 18.479977,-34.066463,449.58 18.480406,-34.061234,457.2 18.480516,-34.059998,464.82 18.481579,-34.047749,480.06 18.481918,-34.04425,487.68 18.482254,-34.031845,510.54 18.482254,-34.030518,518.16 18.482815,-34.018295,525.78 18.482985,-34.017426,518.16 18.483868,-34.011856,495.3 18.484049,-34.010742,457.2 18.485058,-34.005157,419.1 18.485786,-34.001358,434.34 18.488813,-33.984238,441.96 18.488926,-33.983002,441.96 18.489374,-33.976959,434.34 18.489487,-33.975998,434.34 18.489878,-33.970047,381 18.489933,-33.968422,358.14 18.489765,-33.962265,289.56 18.489532,-33.960556,281.94 18.488274,-33.954319,228.6 18.488028,-33.953201,228.6 18.486179,-33.947662,213.36 18.485674,-33.946289,213.36 18.483753,-33.941097,213.36 18.483152,-33.939606,220.98 18.480909,-33.93425,213.36 18.480377,-33.933136,213.36 18.47777,-33.927841,220.98 18.477058,-33.926666,213.36 18.473454,-33.921497,213.36 18.47267,-33.920471,213.36 18.468971,-33.91571,228.6 18.468073,-33.914749,213.36 18.463533,-33.910309,220.98 18.462244,-33.909302,220.98 18.456919,-33.906189,213.36 18.455742,-33.905594,213.36 18.450108,-33.903202,83.82 18.448849,-33.902786,175.26 18.443527,-33.901386,83.82 18.441753,-33.901108,137.16 18.435974,-33.900505,91.44 18.434658,-33.900272,76.2 18.430195,-33.89962,30.48 18.429909,-33.899666,22.86 18.428478,-33.900085,7.62 18.42802,-33.900272,0 18.427277,-33.899899,7.62 18.42738,-33.899506,7.62 18.428782,-33.897766,15.24 18.429005,-33.897537,22.86 18.430595,-33.896358,38.1 18.431797,-33.895756,45.72 18.435394,-33.894928,83.82 18.436293,-33.894882,91.44 18.440327,-33.896118,129.54 18.441238,-33.896732,129.54 18.444195,-33.899094,167.64 18.444868,-33.899689,167.64 18.44767,-33.902115,182.88 18.448505,-33.902737,190.5 18.454514,-33.907345,220.98 18.455349,-33.907928,220.98 18.462811,-33.913166,236.22 18.465046,-33.914658,251.46 18.475571,-33.921219,259.08 18.479061,-33.923359,259.08 18.488253,-33.929626,259.08 18.491728,-33.932098,259.08 18.504957,-33.941162,281.94 18.507982,-33.94313,289.56 18.514765,-33.947113,304.8 18.515774,-33.947571,304.8 18.520538,-33.94931,304.8 18.521862,-33.949711,304.8 18.527012,-33.95092,297.18 18.528162,-33.951187,289.56 18.533543,-33.952377,281.94 18.534889,-33.952698,281.94 18.547668,-33.955715,266.7 18.551846,-33.9566,266.7 18.561058,-33.957996,274.32 18.562523,-33.958191,274.32 18.568096,-33.958786,274.32 18.569416,-33.958878,274.32 18.574963,-33.95916,281.94 18.576311,-33.959198,281.94 18.581657,-33.959347,297.18 18.582926,-33.959244,289.56 18.588812,-33.958145,281.94 18.590012,-33.957901,281.94 18.595705,-33.956772,274.32 18.59705,-33.956505,274.32 18.605402,-33.95517,266.7 18.606691,-33.954987,266.7 18.612728,-33.954411,274.32 18.614044,-33.954269,274.32 18.619595,-33.953854,259.08 18.621311,-33.953758,259.08 18.626862,-33.953571,259.08 18.628553,-33.953522,251.46 18.634357,-33.953621,251.46 18.635559,-33.953621,251.46 18.648548,-33.953712,259.08 18.654337,-33.953751,259.08 18.673508,-33.954208,259.08 18.67816,-33.9543,259.08 18.696156,-33.954456,304.8 18.698956,-33.954346,304.8 18.711679,-33.953979,304.8 18.716274,-33.953934,304.8 18.732376,-33.954086,342.9 18.733932,-33.953979,342.9 18.739536,-33.952972,358.14 18.740713,-33.952744,358.14 18.745647,-33.951416,358.14 18.747496,-33.950912,350.52 18.753046,-33.949493,342.9 18.75721,-33.948452,342.9 18.776436,-33.943516,342.9 18.780842,-33.942352,342.9 18.799065,-33.937271,342.9 18.804703,-33.935745,327.66 18.815117,-33.93351,320.04 18.816498,-33.933243,320.04 18.822439,-33.93219,320.04 18.825245,-33.931648,327.66 18.839321,-33.929646,335.28 18.84367,-33.929085,350.52 18.861843,-33.927063,342.9 18.866327,-33.926514,350.52 18.884209,-33.9245,403.86 18.888412,-33.923813,411.48 18.903212,-33.921341,457.2 18.908043,-33.920753,464.82 18.976364,-33.897709,533.4 18.974991,-33.898315,533.4 18.970356,-33.900688,541.02 18.969017,-33.901382,541.02 18.964291,-33.90395,525.78 18.960686,-33.905949,510.54 18.956181,-33.908844,502.92 18.95525,-33.909534,502.92 18.951361,-33.912506,495.3 18.950443,-33.913258,495.3 18.946781,-33.916191,495.3 18.945808,-33.91703,495.3 18.939972,-33.921078,495.3 18.938313,-33.921684,495.3 18.934021,-33.922894,510.54 18.932762,-33.923267,510.54 18.928099,-33.924866,533.4 18.92664,-33.925362,533.4 18.921318,-33.926525,541.02 18.920082,-33.926651,548.64 18.914394,-33.926525,533.4 18.912735,-33.926479,525.78 18.906797,-33.926422,510.54 18.90506,-33.926422,502.92 18.896599,-33.926666,480.06 18.895168,-33.926712,472.44 18.8832,-33.927338,457.2 18.877987,-33.927567,449.58 18.859119,-33.928947,426.72 18.854485,-33.929367,419.1 18.834858,-33.931599,381 18.830341,-33.932327,373.38 18.823528,-33.933647,342.9 18.822212,-33.933929,350.52 18.816662,-33.935184,335.28 18.815746,-33.935417,335.28 18.807163,-33.937557,342.9 18.803501,-33.938629,342.9 18.792395,-33.942032,342.9 18.788752,-33.943222,342.9 18.772047,-33.949081,327.66 18.768572,-33.950317,335.28 18.758411,-33.953247,327.66 18.756689,-33.953659,327.66 18.751476,-33.954666,320.04 18.750074,-33.954895,320.04 18.744678,-33.955715,312.42 18.743248,-33.955853,312.42 18.738213,-33.956085,312.42 18.736958,-33.956131,312.42 18.731632,-33.956272,312.42 18.73003,-33.956272,304.8 18.72139,-33.956367,297.18 18.717283,-33.956451,297.18 18.708147,-33.957138,289.56 18.70657,-33.957298,289.56 18.701134,-33.957996,289.56 18.699589,-33.958183,289.56 18.688087,-33.959904,281.94 18.684214,-33.960526,281.94 18.667889,-33.963024,289.56 18.664202,-33.963593,289.56 18.652439,-33.964699,281.94 18.651524,-33.964607,289.56 18.646097,-33.963776,289.56 18.64492,-33.963547,281.94 18.639507,-33.962559,281.94 18.638025,-33.962265,281.94 18.627377,-33.960182,266.7 18.622456,-33.95916,266.7 18.605234,-33.955856,259.08 18.600021,-33.955078,251.46 18.594875,-33.954502,251.46 18.593071,-33.954346,251.46 18.58769,-33.953979,259.08 18.586292,-33.953899,259.08 18.581314,-33.953621,259.08 18.58017,-33.953571,259.08 18.574406,-33.95343,259.08 18.570425,-33.953339,266.7 18.557533,-33.952835,281.94 18.55608,-33.952595,281.94 18.550529,-33.951385,289.56 18.549406,-33.951141,281.94 18.543688,-33.949997,274.32 18.542288,-33.949722,274.32 18.534664,-33.948624,281.94 18.533134,-33.948406,289.56 18.519917,-33.945984,289.56 18.51852,-33.945511,289.56 18.513622,-33.943237,274.32 18.512192,-33.942493,274.32 18.50687,-33.939423,274.32 18.505854,-33.938873,274.32 18.500862,-33.936348,274.32 18.499743,-33.93576,274.32 18.485058,-33.927567,289.56 18.482759,-33.926102,289.56 18.478317,-33.922894,281.94 18.477001,-33.921871,281.94 18.47271,-33.918472,289.56 18.47168,-33.917633,281.94 18.460899,-33.909164,297.18 18.45647,-33.90509,289.56 18.447783,-33.897171,327.66 18.444443,-33.894451,342.9 18.440208,-33.891472,358.14 18.43915,-33.890762,365.76 18.434666,-33.887421,396.24 18.433546,-33.886642,403.86 18.428949,-33.884171,434.34 18.427715,-33.883575,441.96 18.422585,-33.881744,464.82 18.421268,-33.881371,472.44 18.416168,-33.880371,495.3 18.414598,-33.880188,502.92 18.409252,-33.879974,518.16 18.407761,-33.880005,518.16 18.401484,-33.8806,533.4 18.400269,-33.880764,533.4 18.395119,-33.881836,548.64 18.393915,-33.882156,548.64 18.388939,-33.883976,563.88 18.38747,-33.884628,571.5 18.382988,-33.887188,571.5 18.381752,-33.888016,571.5 18.377609,-33.890915,563.88 18.376637,-33.891613,563.88 18.372112,-33.894882,556.26 18.371086,-33.895615,556.26 18.367067,-33.899048,586.74 18.366282,-33.89978,594.36 18.36359,-33.902832,632.46 18.362919,-33.903625,647.7 18.360672,-33.906788,678.18 18.36034,-33.907425,685.8 18.358784,-33.910931,708.66 18.358435,-33.912003,716.28 18.357582,-33.915913,731.52 18.357426,-33.916763,731.52 18.356697,-33.920929,746.76 18.356552,-33.921825,746.76 18.355463,-33.928436,769.62 18.354836,-33.931694,769.62 18.352833,-33.944775,739.14 18.352718,-33.946079,731.52 18.351707,-33.958099,708.66 18.350487,-33.964001,716.28 18.342178,-33.979706,762 18.340473,-33.982018,777.24 18.335117,-33.988998,845.82 18.333378,-33.991325,876.3 18.326569,-34.001568,906.78 18.324411,-34.004562,906.78 18.318729,-34.011902,899.16 18.317127,-34.013813,891.54 18.313122,-34.017673,876.3 18.312136,-34.01857,861.06 18.308315,-34.022144,868.68 18.307314,-34.023239,868.68 18.301449,-34.03043,845.82 18.300762,-34.031502,845.82 18.298416,-34.036388,830.58 18.29801,-34.037521,830.58 18.297272,-34.042301,830.58 18.297272,-34.043327,830.58 18.297844,-34.047981,838.2 18.298065,-34.04892,845.82 18.299732,-34.053196,845.82 18.300304,-34.054173,838.2 18.302822,-34.058037,838.2 18.303616,-34.05899,838.2 18.306923,-34.062561,830.58 18.307707,-34.063339,822.96 18.311855,-34.067047,807.72 18.31295,-34.068047,807.72 18.317299,-34.071724,800.1 18.31819,-34.072495,800.1 18.327713,-34.081081,800.1 18.328503,-34.082062,800.1 18.33181,-34.086456,792.48 18.332426,-34.087326,784.86 18.335005,-34.091492,777.24 18.335621,-34.092682,769.62 18.337898,-34.097839,739.14 18.33848,-34.099091,739.14 18.340218,-34.103989,723.9 18.340473,-34.105331,723.9 18.340162,-34.11026,701.04 18.339769,-34.111588,701.04 18.337358,-34.116394,670.56 18.336697,-34.117344,662.94 18.332634,-34.122231,640.08 18.331753,-34.123215,640.08 18.32777,-34.127678,632.46 18.326653,-34.128662,624.84 18.321934,-34.132286,617.22 18.320711,-34.133194,609.6 18.316282,-34.136765,601.98 18.31505,-34.137863,601.98 18.311014,-34.143265,601.98 18.310398,-34.144821,601.98 18.310547,-34.149605,609.6 18.311005,-34.150627,609.6 18.313368,-34.154572,609.6 18.313929,-34.155396,617.22 18.317242,-34.159752,624.84 18.31802,-34.160751,624.84 18.321075,-34.164688,609.6 18.32329,-34.167755,594.36 18.328857,-34.174137,586.74 18.329792,-34.175079,579.12 18.333883,-34.178467,579.12 18.334892,-34.179108,579.12 18.338984,-34.181717,579.12 18.339901,-34.182285,579.12 18.345375,-34.186981,571.5 18.346195,-34.18787,571.5 18.349285,-34.191315,571.5 18.350143,-34.192245,571.5 18.352886,-34.196091,563.88 18.35367,-34.197327,563.88 18.356081,-34.201309,556.26 18.356865,-34.202637,556.26 18.359108,-34.206757,563.88 18.359642,-34.20789,563.88 18.361349,-34.211975,563.88 18.361742,-34.213165,563.88 18.362974,-34.217834,563.88 18.363247,-34.219109,563.88 18.364096,-34.22319,563.88 18.364391,-34.224415,563.88 18.366001,-34.231247,563.88 18.367023,-34.235355,571.5 18.368467,-34.243744,594.36 18.368511,-34.244663,594.36 18.368916,-34.248871,609.6 18.369026,-34.250065,617.22 18.369196,-34.254456,632.46 18.369198,-34.255836,624.84 18.369999,-34.265568,609.6 18.370317,-34.267227,601.98 18.371487,-34.271759,594.36 18.371943,-34.272995,594.36 18.373775,-34.277344,579.12 18.37429,-34.278461,579.12 18.377037,-34.28307,556.26 18.377605,-34.283936,548.64 18.389544,-34.298996,502.92 18.391857,-34.302109,495.3 18.394089,-34.305832,487.68 18.394814,-34.307007,487.68 18.397465,-34.311142,495.3 18.39798,-34.311932,502.92 18.402042,-34.317657,518.16 18.402386,-34.318123,518.16 18.406359,-34.323166,525.78 18.406963,-34.323895,525.78 18.410059,-34.327103,525.78 18.410797,-34.327854,525.78 18.413658,-34.330414,525.78 18.414488,-34.331039,533.4 18.417625,-34.333649,525.78 18.418524,-34.334381,533.4 18.421829,-34.33699,541.02 18.424416,-34.338932,548.64 18.431969,-34.344147,571.5 18.432713,-34.344658,563.88 18.443073,-34.351364,601.98 18.445484,-34.353012,617.22 18.457087,-34.360245,601.98 18.460121,-34.362022,586.74 18.466,-34.36496,571.5 18.467159,-34.365513,571.5 18.471107,-34.367237,579.12 18.471998,-34.367615,579.12 18.475529,-34.368896,586.74 18.476658,-34.369236,594.36 18.479733,-34.370041,601.98 18.480909,-34.37027,601.98 18.484554,-34.370869,609.6 18.485394,-34.371002,609.6 18.48896,-34.371517,617.22 18.489822,-34.371689,617.22 18.497782,-34.37265,632.46 18.498623,-34.37265,640.08 18.502121,-34.372589,647.7 18.503162,-34.372513,655.32 18.507099,-34.37138,647.7 18.508015,-34.370869,655.32 18.510475,-34.368122,662.94 18.51099,-34.367191,662.94 18.512192,-34.362907,655.32 18.512188,-34.361847,647.7 18.51185,-34.357681,632.46 18.511677,-34.35667,632.46 18.510418,-34.352665,617.22 18.50996,-34.351875,617.22 18.507214,-34.348431,609.6 18.50647,-34.347656,601.98 18.502546,-34.344223,579.12 18.50165,-34.343491,563.88 18.497543,-34.340328,563.88 18.496284,-34.339352,556.26 18.48959,-34.333858,541.02 18.488365,-34.332504,533.4 18.48547,-34.3279,518.16 18.485012,-34.326828,510.54 18.48341,-34.321381,510.54 18.483208,-34.320282,510.54 18.482494,-34.315239,510.54 18.482323,-34.31398,510.54 18.48175,-34.309296,510.54 18.481579,-34.307976,518.16 18.480967,-34.300781,510.54 18.480949,-34.299271,510.54 18.481022,-34.294647,510.54 18.481064,-34.293545,510.54 18.481293,-34.288937,525.78 18.48135,-34.288006,518.16 18.481638,-34.274689,518.16 18.481522,-34.271198,518.16 18.481863,-34.256927,518.16 18.481979,-34.253044,510.54 18.482323,-34.238148,533.4 18.482143,-34.23587,533.4 18.481236,-34.230839,533.4 18.480892,-34.229675,533.4 18.479116,-34.224747,541.02 18.478668,-34.223648,541.02 18.476257,-34.21841,541.02 18.475742,-34.217339,533.4 18.472939,-34.212124,533.4 18.472137,-34.210682,533.4 18.468361,-34.20351,533.4 18.466301,-34.199463,548.64 18.461208,-34.191502,541.02 18.460171,-34.190186,541.02 18.456402,-34.18573,548.64 18.455462,-34.184692,548.64 18.450977,-34.178146,548.64 18.450529,-34.177139,548.64 18.449135,-34.172184,548.64 18.448792,-34.170868,548.64 18.447838,-34.166153,541.02 18.44767,-34.1651,541.02 18.447247,-34.160545,533.4 18.447132,-34.1591,533.4 18.446732,-34.154446,533.4 18.446157,-34.151047,525.78 18.446325,-34.141617,525.78 18.446941,-34.14061,518.16 18.450394,-34.137547,525.78 18.451195,-34.136894,525.78 18.454628,-34.133778,525.78 18.455574,-34.132782,525.78 18.460407,-34.127213,502.92 18.46118,-34.126373,502.92 18.466335,-34.120789,502.92 18.468914,-34.118088,502.92 18.47311,-34.11441,510.54 18.475628,-34.111897,518.16 18.481808,-34.106033,510.54 18.482609,-34.105564,502.92 18.48786,-34.103851,449.58 18.489304,-34.10347,434.34 18.493938,-34.102352,411.48 18.495197,-34.102028,403.86 18.500193,-34.100555,381 18.501549,-34.100166,365.76 18.517736,-34.095932,281.94 18.522892,-34.094765,251.46 18.530731,-34.093369,205.74 18.531933,-34.093182,198.12 18.537197,-34.092392,160.02 18.538588,-34.092224,152.4 18.546638,-34.091183,91.44 18.550863,-34.090851,68.58 18.559513,-34.089367,45.72 18.560505,-34.088974,45.72 18.56535,-34.08704,30.48 18.566391,-34.086639,30.48 18.571529,-34.084942,30.48 18.57296,-34.084476,22.86 18.580963,-34.082474,30.48 18.582344,-34.08215,38.1 18.587379,-34.081173,38.1 18.588531,-34.080963,38.1 18.593674,-34.080055,38.1 18.594864,-34.079865,30.48 18.612328,-34.076752,22.86 18.61454,-34.076477,22.86 18.619881,-34.076145,22.86 18.621153,-34.076065,22.86 18.637333,-34.074142,22.86 18.638641,-34.074142,22.86 18.644142,-34.074097,30.48 18.645592,-34.074097,30.48 18.652374,-34.074234,38.1 18.656845,-34.074329,38.1 18.673325,-34.074703,45.72 18.674685,-34.074829,45.72 18.679672,-34.075333,53.34 18.681049,-34.075447,53.34 18.688545,-34.075306,53.34 18.68965,-34.075012,53.34 18.694471,-34.07373,53.34 18.696041,-34.07354,53.34 18.703102,-34.073502,76.2 18.704224,-34.073586,76.2 18.708933,-34.07373,83.82 18.710333,-34.073776,83.82 18.716835,-34.073135,129.54 18.717842,-34.072842,137.16 18.721848,-34.07135,167.64 18.722706,-34.071026,175.26 18.726254,-34.069626,190.5 18.727283,-34.069256,198.12 18.733259,-34.067093,220.98 18.736267,-34.06609,228.6 18.744638,-34.062607,259.08 18.74531,-34.062286,259.08 18.749178,-34.060181,281.94 18.750057,-34.05962,281.94 18.754063,-34.057106,297.18 18.754864,-34.056545,297.18 18.758595,-34.05368,297.18 18.759327,-34.053055,297.18 18.763359,-34.049927,304.8 18.76442,-34.049099,312.42 18.770142,-34.044582,327.66 18.771038,-34.043976,327.66 18.775234,-34.041603,327.66 18.776138,-34.041275,327.66 18.781521,-34.039902,335.28 18.78273,-34.039696,335.28 18.788134,-34.038712,342.9 18.789255,-34.038483,342.9 18.79446,-34.037319,358.14 18.79818,-34.036484,365.76 18.813572,-34.032944,396.24 18.816147,-34.032246,396.24 18.821093,-34.030518,411.48 18.822327,-34.029968,419.1 18.827362,-34.027683,419.1 18.828548,-34.027176,426.72 18.83634,-34.024017,434.34 18.839928,-34.022415,449.58 18.843796,-34.019897,464.82 18.844635,-34.019165,472.44 18.847904,-34.015629,472.44 18.848476,-34.014744,472.44 18.850969,-34.010696,487.68 18.851624,-34.009529,487.68 18.853626,-34.005478,487.68 18.854164,-34.004288,487.68 18.85603,-33.999985,480.06 18.856407,-33.999069,480.06 18.858145,-33.9944,480.06 18.85849,-33.993374,472.44 18.86158,-33.986858,480.06 18.862381,-33.985741,480.06 18.864759,-33.981445,480.06 18.865376,-33.980209,480.06 18.868235,-33.973618,487.68 18.868793,-33.972473,487.68 18.875084,-33.960045,502.92 18.876755,-33.956863,502.92 18.882864,-33.946106,502.92 18.883648,-33.944916,510.54 18.887157,-33.941471,518.16 18.888416,-33.940678,518.16 18.892536,-33.938305,518.16 18.893795,-33.937744,518.16 18.898558,-33.935944,533.4 18.899689,-33.935558,541.02 18.904669,-33.933975,556.26 18.906013,-33.933563,556.26 18.911247,-33.931973,579.12 18.912563,-33.931599,586.74 18.918402,-33.930084,601.98 18.919859,-33.92981,601.98 18.924566,-33.929077,609.6 18.92601,-33.928852,594.36 18.930702,-33.928295,571.5 18.931789,-33.928204,563.88 18.938187,-33.92688,541.02 18.939308,-33.926285,533.4 18.943344,-33.923492,525.78 18.944521,-33.922668,525.78 18.948782,-33.919876,518.16 18.949986,-33.91917,518.16 18.95874,-33.91349,510.54 18.962177,-33.911179,518.16 18.975105,-33.902134,525.78 18.976421,-33.901619,533.4 18.981342,-33.901295,579.12 18.982258,-33.901436,586.74 18.98632,-33.902317,632.46 18.987122,-33.902527,640.08 18.990036,-33.903305,678.18 18.990709,-33.903488,685.8 18.995586,-33.904816,754.38 18.996202,-33.904999,769.62 18.998501,-33.906555,792.48 19.013634,-33.904816,731.52 19.028149,-33.90004,601.98 19.029217,-33.899734,594.36 19.033871,-33.89864,563.88 19.035187,-33.898315,556.26 19.039536,-33.897385,541.02 19.040852,-33.897106,541.02 19.047882,-33.895798,518.16 19.048862,-33.89566,518.16 19.053543,-33.895065,510.54 19.054832,-33.894882,510.54 19.059149,-33.894379,518.16 19.062849,-33.893967,487.68 19.075012,-33.892868,457.2 19.075796,-33.892822,449.58 19.090919,-33.892681,441.96 18.969841,-33.900455,464.82 18.959484,-33.911629,495.3 18.958647,-33.912369,495.3 18.955059,-33.91539,510.54 18.954218,-33.915985,510.54 18.95052,-33.918457,502.92 18.949585,-33.918983,495.3 18.945868,-33.920929,502.92 18.944633,-33.921387,502.92 18.940544,-33.923454,518.16 18.9398,-33.92429,510.54 18.934822,-33.927132,533.4 18.933735,-33.927223,533.4 18.928547,-33.927521,548.64 18.927538,-33.927567,556.26 18.92252,-33.92783,563.88 18.921204,-33.927887,563.88 18.913651,-33.928108,548.64 18.911955,-33.928024,541.02 18.906349,-33.927475,533.4 18.905182,-33.927364,533.4 18.899975,-33.926666,518.16 18.898558,-33.926514,518.16 18.886013,-33.92569,449.58 18.884468,-33.92569,449.58 18.878632,-33.925873,426.72 18.877258,-33.92601,426.72 18.871653,-33.926743,396.24 18.870335,-33.926945,396.24 18.86467,-33.928017,365.76 18.86319,-33.928299,365.76 18.855398,-33.929626,365.76 18.851643,-33.93013,358.14 18.835276,-33.933014,350.52 18.833084,-33.93351,342.9 18.827595,-33.934891,335.28 18.825989,-33.935326,335.28 18.820038,-33.936954,327.66 18.816273,-33.938004,320.04 18.799095,-33.943424,312.42 18.795757,-33.944412,320.04 18.781912,-33.948395,342.9 18.78067,-33.948826,342.9 18.776083,-33.950409,350.52 18.775074,-33.950821,350.52 18.7714,-33.953571,358.14 18.770702,-33.954529,358.14 18.766947,-33.957504,358.14 18.765097,-33.958145,358.14 18.759785,-33.958462,350.52 18.758595,-33.958374,350.52 18.753326,-33.95787,342.9 18.75215,-33.957779,350.52 18.746624,-33.957111,342.9 18.745197,-33.956955,342.9 18.733875,-33.956223,320.04 18.732491,-33.956181,320.04 18.727112,-33.956085,304.8 18.725567,-33.956039,304.8 18.711622,-33.955673,297.18 18.706455,-33.955761,297.18 18.687344,-33.956272,281.94 18.683453,-33.956318,281.94 18.673956,-33.956039,274.32 18.672466,-33.955902,266.7 18.667284,-33.955353,251.46 18.666172,-33.95525,251.46 18.649235,-33.954319,251.46 18.645369,-33.954163,251.46 18.632084,-33.953247,259.08 18.630867,-33.952969,259.08 18.62603,-33.951645,259.08 18.623619,-33.951828,266.7 18.620649,-33.954117,259.08 18.620144,-33.955032,251.46 18.617935,-33.957623,251.46 18.617174,-33.958054,251.46 18.613867,-33.957916,259.08 18.613243,-33.957298,266.7 18.612099,-33.95483,274.32 18.61187,-33.954411,274.32 18.610725,-33.953758,259.08 18.610504,-33.954346,251.46 18.610554,-33.956085,251.46 18.610559,-33.956543,243.84 18.60981,-33.958134,236.22 18.609327,-33.958374,236.22 18.606377,-33.958042,228.6 18.605633,-33.957855,228.6 18.601646,-33.957184,236.22 18.600368,-33.957157,236.22 18.594704,-33.957298,228.6 18.593502,-33.957298,236.22 18.588364,-33.957138,243.84 18.587242,-33.957092,251.46 18.577377,-33.956726,281.94 18.573565,-33.956543,289.56 18.556881,-33.955437,281.94 18.555107,-33.95525,281.94 18.548355,-33.954411,281.94 18.546659,-33.954163,274.32 18.540058,-33.952969,281.94 18.538971,-33.952641,281.94 18.533592,-33.951057,281.94 18.532366,-33.950638,281.94 18.526497,-33.94873,274.32 18.525352,-33.948311,274.32 18.520428,-33.946335,281.94 18.518944,-33.945614,281.94 18.514429,-33.943268,281.94 18.51305,-33.942539,289.56 18.508186,-33.939934,289.56 18.507366,-33.939468,289.56 18.49369,-33.93219,289.56 18.489418,-33.929691,289.56 18.48461,-33.926605,281.94 18.483353,-33.925781,281.94 18.478611,-33.92244,266.7 18.477631,-33.92173,266.7 18.465099,-33.913258,251.46 18.463898,-33.91256,259.08 18.454004,-33.905594,266.7 18.452339,-33.904228,274.32 18.448008,-33.900421,266.7 18.446789,-33.899387,175.26 18.441067,-33.896687,243.84 18.439865,-33.896641,236.22 18.435339,-33.897491,182.88 18.434723,-33.897812,175.26 18.432484,-33.899433,144.78 18.432026,-33.899944,137.16 18.430349,-33.900787,76.2 18.429966,-33.900688,53.34 18.428221,-33.900421,30.48 18.427883,-33.900604,22.86 18.427547,-33.899094,38.1 18.42762,-33.898781,38.1 18.428389,-33.897308,38.1 18.428612,-33.896988,38.1 18.429623,-33.895569,38.1 18.429909,-33.895195,38.1 18.431528,-33.892685,68.58 18.431864,-33.892181,83.82 18.433514,-33.888771,152.4 18.4338,-33.888214,160.02 18.434834,-33.885406,190.5 18.434891,-33.884628,205.74 18.433601,-33.881516,259.08 18.432827,-33.880905,274.32 18.429451,-33.879601,304.8 18.428612,-33.87941,312.42 18.424746,-33.878952,335.28 18.423624,-33.878952,350.52 18.419781,-33.879044,381 18.418751,-33.879089,396.24 18.414656,-33.879501,419.1 18.413715,-33.879601,426.72 18.40933,-33.880188,449.58 18.408377,-33.880325,449.58 18.403931,-33.881138,457.2 18.402828,-33.881378,457.2 18.398266,-33.882534,480.06 18.397179,-33.882858,487.68 18.392715,-33.884304,510.54 18.391457,-33.884769,525.78 18.387394,-33.886631,548.64 18.386536,-33.887238,556.26 18.383446,-33.889423,571.5 18.38253,-33.890121,579.12 18.379211,-33.892822,594.36 18.378239,-33.893661,594.36 18.374748,-33.896641,601.98 18.374119,-33.897152,609.6 18.368282,-33.902504,624.84 18.367516,-33.903259,632.46 18.364391,-33.906696,624.84 18.363535,-33.907745,624.84 18.360672,-33.911724,617.22 18.3601,-33.912655,617.22 18.357697,-33.916843,609.6 18.357258,-33.917679,609.6 18.355072,-33.921799,632.46 18.354567,-33.922852,632.46 18.352774,-33.926788,647.7 18.352268,-33.927933,647.7 18.350658,-33.932205,662.94 18.350258,-33.93351,662.94 18.349113,-33.937698,685.8 18.348906,-33.938553,693.42 18.348064,-33.942673,708.66 18.346996,-33.946823,731.52 18.346384,-33.950958,739.14 18.346327,-33.951691,739.14 18.342516,-33.966385,746.76 18.341562,-33.968994,754.38 18.334522,-33.986717,769.62 18.332634,-33.990814,769.62 18.327255,-34.003616,754.38 18.325939,-34.007015,746.76 18.321833,-34.01413,739.14 18.320766,-34.015366,739.14 18.317413,-34.018841,731.52 18.316563,-34.019669,731.52 18.312893,-34.02354,723.9 18.311966,-34.024612,723.9 18.306656,-34.031223,731.52 18.305969,-34.032154,739.14 18.303335,-34.036057,754.38 18.302719,-34.037064,762 18.300812,-34.040771,815.34 18.300531,-34.041458,861.06 18.300877,-34.040813,899.16 18.301149,-34.040131,883.92 18.304287,-34.037659,838.2 18.30534,-34.036995,838.2 18.308043,-34.03331,830.58 18.308487,-34.032433,830.58 18.312023,-34.02713,830.58 18.312752,-34.026123,830.58 18.315182,-34.022377,792.48 18.317242,-34.018745,762 18.325825,-34.005154,708.66 18.327885,-34.001709,701.04 18.339264,-33.985016,655.32 18.341227,-33.982544,647.7 18.353895,-33.965515,617.22 18.355408,-33.963211,617.22 18.360453,-33.952881,624.84 18.360729,-33.95171,624.84 18.360786,-33.946915,617.22 18.360733,-33.945648,617.22 18.360271,-33.940865,601.98 18.360172,-33.939514,594.36 18.360558,-33.933464,594.36 18.360729,-33.932392,586.74 18.362217,-33.927364,594.36 18.362675,-33.926388,594.36 18.364849,-33.922615,594.36 18.36565,-33.921452,586.74 18.368805,-33.917496,586.74 18.369589,-33.916534,586.74 18.373009,-33.912918,579.12 18.373793,-33.912094,579.12 18.37738,-33.908371,571.5 18.378124,-33.907532,571.5 18.388138,-33.897385,563.88 18.391228,-33.894592,556.26 18.397335,-33.889343,541.02 18.398209,-33.88868,533.4 18.40313,-33.885372,518.16 18.403893,-33.884903,518.16 18.409218,-33.882568,487.68 18.410511,-33.88216,487.68 18.416729,-33.881058,464.82 18.418064,-33.880997,457.2 18.423615,-33.881603,434.34 18.424816,-33.881882,434.34 18.429794,-33.883793,403.86 18.43063,-33.884216,396.24 18.434723,-33.88678,373.38 18.435507,-33.887329,365.76 18.438927,-33.890259,358.14 18.439808,-33.891148,358.14 18.442738,-33.894608,327.66 18.443413,-33.89566,327.66 18.4445,-33.899105,297.18 18.444307,-33.900146,289.56 18.441954,-33.903076,251.46 18.441225,-33.903397,251.46 18.437244,-33.902298,220.98 18.436604,-33.901482,198.12 18.433971,-33.898502,144.78 18.433153,-33.898178,129.54 18.430294,-33.898956,68.58 18.429852,-33.8992,60.96 18.428192,-33.900318,30.48 18.427906,-33.900642,22.86 18.428612,-33.900833,22.86 18.428822,-33.900784,22.86 18.430294,-33.900513,38.1 18.430538,-33.900455,38.1 18.433434,-33.898727,68.58 18.434486,-33.897991,76.2 18.436775,-33.894825,129.54 18.436964,-33.894012,137.16 18.436852,-33.889938,175.26 18.436718,-33.889145,190.5 18.43586,-33.885235,228.6 18.435459,-33.884117,243.84 18.432941,-33.880531,274.32 18.432083,-33.879833,281.94 18.428276,-33.877487,312.42 18.427105,-33.876995,320.04 18.422951,-33.876114,342.9 18.421726,-33.875969,350.52 18.417549,-33.875877,365.76 18.41629,-33.875923,373.38 18.411741,-33.876389,396.24 18.410788,-33.876526,403.86 18.406752,-33.877487,426.72 18.405575,-33.877808,426.72 18.401426,-33.879181,449.58 18.400383,-33.879555,457.2 18.39632,-33.881416,487.68 18.395462,-33.881836,495.3 18.391787,-33.883804,525.78 18.391056,-33.884258,533.4 18.387337,-33.88649,571.5 18.386307,-33.887188,579.12 18.382818,-33.889481,601.98 18.381977,-33.890076,601.98 18.378582,-33.892498,601.98 18.377325,-33.893463,601.98 18.37389,-33.896034,609.6 18.372616,-33.897079,601.98 18.36886,-33.900284,601.98 18.368076,-33.901016,601.98 18.364792,-33.90432,594.36 18.364096,-33.905136,594.36 18.361294,-33.908707,601.98 18.360558,-33.909721,601.98 18.358154,-33.913586,617.22 18.357811,-33.914284,617.22 18.355923,-33.918053,632.46 18.355465,-33.919033,640.08 18.35367,-33.922943,662.94 18.353277,-33.923813,662.94 18.349113,-33.934067,716.28 18.348083,-33.936954,731.52 18.346653,-33.94175,754.38 18.34631,-33.942867,754.38 18.345222,-33.947243,769.62 18.344994,-33.948311,769.62 18.344193,-33.952408,762 18.34358,-33.955765,769.62 18.34774,-33.962509,762 18.350716,-33.962696,754.38 18.356438,-33.955948,693.42 18.356472,-33.954895,685.8 18.356472,-33.949493,662.94 18.356438,-33.948219,655.32 18.356585,-33.943222,640.08 18.356667,-33.941887,632.46 18.357925,-33.935043,624.84 18.358383,-33.933414,624.84 18.360004,-33.928986,624.84 18.360672,-33.927643,624.84 18.363132,-33.923313,617.22 18.363876,-33.922195,609.6 18.366795,-33.918007,594.36 18.367458,-33.917038,594.36 18.370457,-33.913166,579.12 18.371601,-33.911861,579.12 18.375149,-33.908279,571.5 18.376236,-33.907299,563.88 18.380014,-33.904129,556.26 18.381081,-33.903214,556.26 18.385004,-33.900009,541.02 18.385849,-33.899292,556.26 18.397615,-33.890396,510.54 18.401127,-33.887981,487.68 18.405968,-33.884995,464.82 18.407312,-33.884262,449.58 18.412806,-33.882248,426.72 18.413944,-33.881977,426.72 18.420036,-33.881378,403.86 18.421326,-33.881512,396.24 18.426075,-33.882534,388.62 18.427322,-33.883026,381 18.431528,-33.88504,365.76 18.432537,-33.88559,365.76 18.436068,-33.888107,350.52 18.437061,-33.888912,342.9 18.439407,-33.891659,312.42 18.439865,-33.892681,304.8 18.439095,-33.895432,289.56 18.43803,-33.895889,281.94 18.433769,-33.894928,205.74 18.432484,-33.894497,190.5 18.428724,-33.894836,144.78 18.428192,-33.895615,121.92 18.427677,-33.89785,83.82 18.427563,-33.898361,68.58 18.427212,-33.899643,38.1 18.427105,-33.899853,38.1 18.427212,-33.90065,22.86 18.427435,-33.90065,22.86 18.42923,-33.90097,38.1 18.429794,-33.901016,45.72 18.431303,-33.901108,68.58 18.431969,-33.901108,68.58 18.433285,-33.900921,15.24 18.433937,-33.90065,38.1 18.435843,-33.898453,60.96 18.436068,-33.897446,76.2 18.435339,-33.893784,152.4 18.434946,-33.89296,152.4 18.432884,-33.888866,190.5 18.432312,-33.887787,198.12 18.429846,-33.884216,220.98 18.428993,-33.883091,228.6 18.425362,-33.879593,251.46 18.424465,-33.878952,259.08 18.420429,-33.876572,289.56 18.419195,-33.876068,297.18 18.414574,-33.874947,320.04 18.413086,-33.874947,320.04 18.407993,-33.875599,335.28 18.406963,-33.875832,342.9 18.4025,-33.877182,289.56 18.401539,-33.877533,365.76 18.397503,-33.879318,373.38 18.396549,-33.879742,381 18.391842,-33.882065,403.86 18.390598,-33.882675,411.48 18.386478,-33.884861,426.72 18.385391,-33.885468,434.34 18.381329,-33.887981,449.58 18.380407,-33.888611,457.2 18.376877,-33.89122,464.82 18.375893,-33.892033,472.44 18.372784,-33.894791,480.06 18.371719,-33.895798,487.68 18.368568,-33.8992,502.92 18.367825,-33.900085,502.92 18.365021,-33.903717,510.54 18.364431,-33.904541,510.54 18.361931,-33.908138,525.78 18.361244,-33.909161,525.78 18.35907,-33.912888,541.02 18.358547,-33.913879,548.64 18.356552,-33.917587,541.02 18.356037,-33.918659,541.02 18.354006,-33.922806,533.4 18.353634,-33.923592,533.4 18.348083,-33.936115,563.88 18.346943,-33.938873,571.5 18.342739,-33.951141,609.6 18.341843,-33.954208,609.6 18.335228,-33.974258,640.08 18.333549,-33.979221,655.32 18.327494,-33.99646,723.9 18.326569,-33.999565,723.9 18.324966,-34.005898,731.52 18.324802,-34.00676,739.14 18.324394,-34.011345,693.42 18.324411,-34.012115,693.42 18.326204,-34.016693,769.62 18.326988,-34.017563,777.24 18.33024,-34.020401,784.86 18.331081,-34.021042,777.24 18.334724,-34.023834,769.62 18.335781,-34.024658,762 18.341274,-34.029362,754.38 18.342247,-34.030338,746.76 18.345318,-34.034042,754.38 18.345852,-34.034805,754.38 18.347784,-34.038803,754.38 18.348122,-34.039902,762 18.34868,-34.044022,769.62 18.348738,-34.045166,769.62 18.350029,-34.04882,807.72 18.351059,-34.049519,822.96 18.354454,-34.049103,853.44 18.355064,-34.048492,845.82 18.355072,-34.045029,815.34 18.354549,-34.044025,807.72 18.351652,-34.040085,777.24 18.350716,-34.038998,769.62 18.347511,-34.035225,746.76 18.346552,-34.034088,731.52 18.343245,-34.030426,731.52 18.342361,-34.029545,723.9 18.336582,-34.023403,716.28 18.333883,-34.019989,701.04 18.331833,-34.015629,708.66 18.33153,-34.01445,708.66 18.331192,-34.009918,701.04 18.331249,-34.008728,693.42 18.331661,-34.003803,693.42 18.33181,-34.002548,693.42 18.332806,-33.998032,678.18 18.334108,-33.994034,662.94 18.338312,-33.983276,624.84 18.339602,-33.980621,609.6 18.34672,-33.964874,579.12 18.348827,-33.95953,556.26 18.354847,-33.944183,502.92 18.356529,-33.940155,487.68 18.360329,-33.932766,464.82 18.360846,-33.93187,464.82 18.36319,-33.927876,472.44 18.363876,-33.926712,472.44 18.369598,-33.916752,487.68 18.371372,-33.913956,495.3 18.375778,-33.907486,502.92 18.376539,-33.906464,502.92 18.379623,-33.902664,502.92 18.380356,-33.901852,502.92 18.383961,-33.898083,487.68 18.384991,-33.897106,487.68 18.388702,-33.893921,426.72 18.389601,-33.893234,480.06 18.394547,-33.890167,464.82 18.395519,-33.889702,464.82 18.400726,-33.887516,441.96 18.401987,-33.887009,441.96 18.406734,-33.885468,441.96 18.408051,-33.885048,449.58 18.4128,-33.883743,426.72 18.41404,-33.883484,426.72 18.418293,-33.883141,411.48 18.419266,-33.883327,403.86 18.422222,-33.884995,381 18.422699,-33.885468,373.38 18.424473,-33.887886,342.9 18.424873,-33.888447,335.28 18.426132,-33.89045,289.56 18.426426,-33.890945,281.94 18.427267,-33.892685,228.6 18.42738,-33.893143,213.36 18.427828,-33.895248,160.02 18.427828,-33.895706,144.78 18.42762,-33.897758,83.82 18.427563,-33.898174,76.2 18.427212,-33.899734,38.1 18.427099,-33.900055,38.1 18.427448,-33.900738,15.24 18.427715,-33.900787,38.1 18.430126,-33.900787,53.34 18.430882,-33.900642,68.58 18.433769,-33.899551,99.06 18.434486,-33.898968,106.68 18.435802,-33.895245,144.78 18.435688,-33.894127,152.4 18.434715,-33.889935,182.88 18.434385,-33.888931,198.12 18.432999,-33.885139,220.98 18.432426,-33.884071,228.6 18.429678,-33.880325,259.08 18.428892,-33.879547,266.7 18.424913,-33.876526,297.18 18.423512,-33.875702,304.8 18.418293,-33.873875,350.52 18.417234,-33.873734,358.14 18.412228,-33.873875,381 18.411198,-33.874062,388.62 18.406677,-33.875088,411.48 18.405704,-33.87532,419.1 18.401426,-33.876709,434.34 18.400137,-33.877167,441.96 18.395863,-33.878902,464.82 18.394947,-33.879322,472.44 18.39077,-33.881371,487.68 18.389431,-33.882111,487.68 18.385565,-33.884399,510.54 18.384361,-33.885139,518.16 18.380756,-33.887749,533.4 18.379847,-33.888428,533.4 18.376427,-33.89122,548.64 18.375492,-33.892078,556.26 18.372059,-33.89529,563.88 18.371271,-33.896164,563.88 18.368244,-33.899551,571.5 18.367424,-33.900551,571.5 18.364824,-33.903992,579.12 18.364277,-33.904831,579.12 18.362135,-33.908295,579.12 18.36153,-33.909393,579.12 18.359388,-33.913422,586.74 18.358955,-33.914375,586.74 18.357124,-33.918331,594.36 18.356697,-33.919281,594.36 18.352489,-33.928387,586.74 18.350315,-33.932766,579.12 18.342909,-33.947754,563.88 18.341282,-33.951096,563.88 18.333664,-33.967865,586.74 18.333435,-33.970379,601.98 18.34156,-33.972939,655.32 18.343187,-33.971375,647.7 18.348064,-33.960892,617.22 18.349113,-33.958229,609.6 18.354893,-33.945751,556.26 18.355463,-33.94455,548.64 18.36034,-33.935165,533.4 18.36191,-33.932053,533.4 18.368912,-33.917496,495.3 18.371029,-33.913399,487.68 18.37413,-33.908386,480.06 18.374863,-33.907299,403.86 18.377895,-33.903435,396.24 18.378582,-33.902599,403.86 18.382032,-33.899048,388.62 18.382986,-33.898132,457.2 18.386879,-33.894871,426.72 18.387974,-33.893967,434.34 18.39201,-33.891083,426.72 18.393345,-33.890217,419.1 18.398176,-33.887604,411.48 18.399296,-33.887051,335.28 18.404102,-33.885002,403.86 18.405294,-33.884537,403.86 18.41011,-33.882908,403.86 18.411348,-33.882568,403.86 18.416449,-33.881882,381 18.417458,-33.881836,373.38 18.422127,-33.882442,342.9 18.422928,-33.882767,335.28 18.425789,-33.884769,304.8 18.426361,-33.885468,297.18 18.427547,-33.887741,251.46 18.427773,-33.88829,243.84 18.428307,-33.891006,198.12 18.428331,-33.891632,190.5 18.428307,-33.893799,152.4 18.428249,-33.894264,144.78 18.428053,-33.896347,99.06 18.42802,-33.896873,91.44 18.428331,-33.898819,38.1 18.428421,-33.899155,38.1 18.429062,-33.897308,53.34 18.429337,-33.896778,60.96 18.430407,-33.89447,15.24 18.430574,-33.894196,15.24 18.431454,-33.892448,106.68 18.431911,-33.891472,121.92 18.433601,-33.886734,175.26 18.433685,-33.885792,182.88 18.432928,-33.882294,228.6 18.43248,-33.881332,243.84 18.429901,-33.87822,289.56 18.428993,-33.87746,304.8 18.425388,-33.875412,342.9 18.42424,-33.875061,350.52 18.42001,-33.874573,381 18.418694,-33.874573,388.62 18.413982,-33.875061,419.1 18.412685,-33.875271,426.72 18.408321,-33.876022,457.2 18.407312,-33.876251,464.82 18.402212,-33.877533,487.68 18.401203,-33.877853,495.3 18.397007,-33.879276,525.78 18.396046,-33.879684,533.4 18.391972,-33.881512,563.88 18.391056,-33.882023,571.5 18.38747,-33.884079,586.74 18.386797,-33.884537,594.36 18.383099,-33.8871,609.6 18.38213,-33.88784,609.6 18.378725,-33.890671,617.22 18.377716,-33.891541,617.22 18.374186,-33.894699,624.84 18.373146,-33.895756,632.46 18.370171,-33.898922,632.46 18.369312,-33.899944,632.46 18.366566,-33.903435,632.46 18.365879,-33.904366,632.46 18.363247,-33.90823,624.84 18.362638,-33.909164,624.84 18.36034,-33.91301,617.22 18.359699,-33.914143,617.22 18.357594,-33.917908,617.22 18.357145,-33.918823,624.84 18.355183,-33.922989,624.84 18.354792,-33.923813,624.84 18.352942,-33.927979,632.46 18.352432,-33.929134,632.46 18.350082,-33.935257,632.46 18.34877,-33.938675,640.08 18.343449,-33.953945,655.32 18.342348,-33.957962,662.94 18.349228,-33.962185,685.8 18.351631,-33.958973,647.7 18.354263,-33.952549,632.46 18.354721,-33.95129,632.46 18.358042,-33.942307,624.84 18.359388,-33.938416,624.84 18.364321,-33.924683,617.22 18.365721,-33.921158,617.22 18.368912,-33.914471,609.6 18.369644,-33.913284,601.98 18.372671,-33.908936,601.98 18.373318,-33.908092,594.36 18.376596,-33.904129,594.36 18.377213,-33.903442,594.36 18.381023,-33.899506,579.12 18.38192,-33.898636,579.12 18.386236,-33.89502,571.5 18.387165,-33.894314,571.5 18.391787,-33.89122,563.88 18.393116,-33.89045,556.26 18.397636,-33.888073,541.02 18.399185,-33.887329,533.4 18.404503,-33.885372,518.16 18.405819,-33.885002,510.54 18.411369,-33.883743,495.3 18.41275,-33.883484,480.06 18.418299,-33.88266,441.96 18.419552,-33.882534,434.34 18.424576,-33.882111,403.86 18.425865,-33.882065,396.24 18.430687,-33.882706,358.14 18.431416,-33.882935,358.14 18.434834,-33.885361,327.66 18.435516,-33.886074,320.04 18.437805,-33.888977,274.32 18.438141,-33.889526,266.7 18.439178,-33.892822,213.36 18.438927,-33.893555,205.74 18.43646,-33.895935,160.02 18.435732,-33.896347,152.4 18.432198,-33.898174,99.06 18.431303,-33.89859,83.82 18.428108,-33.90033,38.1 18.427563,-33.900642,30.48 18.427267,-33.899963,38.1 18.427448,-33.899666,38.1 18.428724,-33.897354,60.96 18.429108,-33.896641,68.58 18.430309,-33.894218,106.68 18.430687,-33.893372,121.92 18.431976,-33.889526,160.02 18.432087,-33.888794,167.64 18.431639,-33.885315,205.74 18.431248,-33.884537,213.36 18.428556,-33.881424,243.84 18.427505,-33.880627,251.46 18.423792,-33.87854,281.94 18.422585,-33.878113,297.18 18.417906,-33.877304,342.9 18.41692,-33.877228,350.52 18.412022,-33.877213,396.24 18.410969,-33.877319,403.86 18.406864,-33.878357,457.2 18.406105,-33.878578,464.82 18.401764,-33.880051,411.48 18.400555,-33.880486,426.72 18.396326,-33.882156,510.54 18.395094,-33.882706,518.16 18.390999,-33.884674,541.02 18.389912,-33.885281,548.64 18.385906,-33.887749,579.12 18.385048,-33.888306,586.74 18.3815,-33.891006,601.98 18.380575,-33.891769,601.98 18.376865,-33.894825,609.6 18.376036,-33.895523,617.22 18.372574,-33.898548,624.84 18.371487,-33.899525,632.46 18.368299,-33.90303,640.08 18.367653,-33.903809,647.7 18.364792,-33.907627,662.94 18.364208,-33.908524,670.56 18.361816,-33.912281,685.8 18.361126,-33.913376,685.8 18.358547,-33.917862,685.8 18.35804,-33.918892,685.8 18.355801,-33.923538,678.18 18.355236,-33.924759,678.18 18.353222,-33.928986,678.18 18.352661,-33.930202,678.18 18.347168,-33.943657,678.18 18.345934,-33.947205,678.18 18.340015,-33.963768,693.42 18.33847,-33.968517,716.28 18.33181,-33.992477,731.52 18.330746,-33.996216,739.14 18.329006,-34.004745,731.52 18.328838,-34.005798,739.14 18.328629,-34.010551,739.14 18.328743,-34.011948,678.18 18.330296,-34.016968,739.14 18.331024,-34.018295,746.76 18.334351,-34.022285,746.76 18.335398,-34.023285,746.76 18.338757,-34.026661,754.38 18.339558,-34.027451,754.38 18.342909,-34.030975,754.38 18.34515,-34.033768,754.38 18.347616,-34.03775,769.62 18.348141,-34.039043,769.62 18.349018,-34.04361,792.48 18.349073,-34.044846,800.1 18.349298,-34.04924,800.1 18.3494,-34.050354,807.72 18.349747,-34.054962,845.82 18.350258,-34.056965,861.06 18.353462,-34.058735,937.26 18.354624,-34.058395,952.5 18.355743,-34.055145,944.88 18.35535,-34.053986,937.26 18.35367,-34.049698,906.78 18.353119,-34.048447,906.78 18.351149,-34.044022,899.16 18.350698,-34.043015,899.16 18.348427,-34.038483,876.3 18.347841,-34.03743,876.3 18.345108,-34.033176,853.44 18.344421,-34.032303,845.82 18.340702,-34.028244,838.2 18.34005,-34.027588,838.2 18.336182,-34.023285,822.96 18.334051,-34.020172,815.34 18.332176,-34.015862,800.1 18.331923,-34.014908,800.1 18.331305,-34.009644,800.1 18.331318,-34.008179,800.1 18.332119,-34.003151,777.24 18.332371,-34.002045,777.24 18.334637,-33.994678,746.76 18.336868,-33.989326,731.52 18.346481,-33.968143,701.04 18.349228,-33.961998,670.56 18.356585,-33.944962,632.46 18.358379,-33.941025,624.84 18.365192,-33.926479,601.98 18.366795,-33.92308,594.36 18.374241,-33.909256,556.26 18.37492,-33.90823,548.64 18.377838,-33.904087,533.4 18.378782,-33.902893,487.68 18.382257,-33.898727,525.78 18.383099,-33.897858,525.78 18.387133,-33.894012,518.16 18.388424,-33.893009,510.54 18.393288,-33.889935,502.92 18.394146,-33.889469,495.3 18.399696,-33.887051,487.68 18.400898,-33.886585,487.68 18.406563,-33.884537,464.82 18.407986,-33.884079,464.82 18.413086,-33.882767,396.24 18.414598,-33.882477,457.2 18.419952,-33.88179,441.96 18.421438,-33.881699,441.96 18.426538,-33.881973,419.1 18.427792,-33.88221,411.48 18.431976,-33.88385,381 18.432985,-33.884491,373.38 18.436012,-33.886963,342.9 18.436741,-33.887695,335.28 18.438721,-33.890263,289.56 18.439064,-33.891193,281.94 18.438778,-33.893894,243.84 18.43832,-33.894497,236.22 18.435917,-33.896358,182.88 18.435284,-33.896713,175.26 18.43248,-33.897903,91.44 18.431797,-33.898174,114.3 18.429279,-33.899155,68.58 18.428249,-33.899899,45.72 18.427219,-33.900921,22.86 18.427155,-33.901154,22.86 18.427435,-33.899643,45.72 18.427773,-33.899094,45.72 18.429451,-33.896687,68.58 18.429846,-33.896072,76.2 18.431583,-33.893097,121.92 18.431854,-33.892544,129.54 18.433376,-33.889252,160.02 18.433743,-33.888538,175.26 18.435001,-33.885189,205.74 18.435173,-33.884163,220.98 18.434372,-33.880718,259.08 18.433714,-33.879776,274.32 18.430239,-33.877396,312.42 18.429451,-33.877041,320.04 18.425159,-33.876019,358.14 18.424301,-33.875923,365.76 18.419868,-33.875839,411.48 18.418522,-33.875969,419.1 18.414173,-33.876434,457.2 18.413086,-33.876621,464.82 18.408882,-33.877396,495.3 18.407593,-33.877693,495.3 18.403072,-33.878857,518.16 18.401814,-33.879181,518.16 18.397636,-33.880394,556.26 18.396494,-33.880783,563.88 18.39229,-33.882294,586.74 18.391394,-33.88266,594.36 18.38719,-33.884674,624.84 18.386364,-33.885094,632.46 18.382761,-33.887238,655.32 18.381901,-33.887794,662.94 18.378445,-33.890167,685.8 18.377716,-33.890717,685.8 18.374409,-33.893326,708.66 18.373604,-33.893986,716.28 18.370205,-33.896942,739.14 18.369644,-33.897491,739.14 18.366842,-33.900375,762 18.366226,-33.901108,769.62 18.363533,-33.904552,769.62 18.362846,-33.905579,762 18.360386,-33.909302,754.38 18.359779,-33.910263,754.38 18.35741,-33.914421,739.14 18.356838,-33.915539,739.14 18.354893,-33.919636,739.14 18.354343,-33.920837,739.14 18.352661,-33.924992,746.76 18.352318,-33.925968,754.38 18.350773,-33.930389,762 18.35043,-33.931461,769.62 18.349018,-33.936127,777.24 18.347626,-33.940399,784.86 18.342796,-33.954163,807.72 18.341618,-33.957718,807.72 18.335896,-33.974941,815.34 18.33534,-33.976181,807.72 18.328167,-33.988632,754.38 18.326397,-33.991421,746.76 18.31707,-34.006222,769.62 18.314882,-34.009781,769.62 18.307629,-34.022984,777.24 18.307114,-34.024006,769.62 18.303394,-34.0322,762 18.302994,-34.033222,754.38 18.301653,-34.038528,754.38 18.30143,-34.03981,754.38 18.301163,-34.044861,762 18.301205,-34.046082,762 18.302135,-34.050682,762 18.302422,-34.051613,762 18.304792,-34.05629,754.38 18.305397,-34.057198,746.76 18.308884,-34.062012,746.76 18.309746,-34.063019,746.76 18.313593,-34.066727,739.14 18.314545,-34.067505,739.14 18.318806,-34.070709,731.52 18.319757,-34.071442,731.52 18.32571,-34.077263,723.9 18.326912,-34.078659,716.28 18.330463,-34.082748,708.66 18.331261,-34.083641,708.66 18.33498,-34.088203,693.42 18.337269,-34.09132,685.8 18.339882,-34.095749,678.18 18.340473,-34.097046,670.56 18.342419,-34.101654,670.56 18.342991,-34.102959,670.56 18.345655,-34.107971,678.18 18.346481,-34.108963,678.18 18.350201,-34.111153,685.8 18.351204,-34.11145,678.18 18.356529,-34.111588,655.32 18.357651,-34.111496,647.7 18.362583,-34.111267,632.46 18.364151,-34.111404,632.46 18.370171,-34.112736,632.46 18.371552,-34.113007,632.46 18.376522,-34.113853,632.46 18.377495,-34.11404,640.08 18.387108,-34.116135,640.08 18.391001,-34.116989,647.7 18.398792,-34.119049,647.7 18.402443,-34.119949,655.32 18.420582,-34.124744,647.7 18.422054,-34.125229,655.32 18.429508,-34.127678,670.56 18.432648,-34.128708,662.94 18.442841,-34.131401,647.7 18.443914,-34.131638,647.7 18.448963,-34.132195,655.32 18.450193,-34.132233,655.32 18.455069,-34.130997,662.94 18.456078,-34.130493,655.32 18.460636,-34.127354,632.46 18.461494,-34.126747,632.46 18.465719,-34.123489,624.84 18.466616,-34.122711,624.84 18.470707,-34.11916,617.22 18.471493,-34.118408,617.22 18.474998,-34.114689,594.36 18.4758,-34.113712,601.98 18.478603,-34.109291,594.36 18.479061,-34.108128,594.36 18.479519,-34.103657,586.74 18.479061,-34.102352,586.74 18.476818,-34.09758,586.74 18.476543,-34.096443,586.74 18.476658,-34.091599,579.12 18.477379,-34.086823,571.5 18.478088,-34.082012,571.5 18.47826,-34.08094,571.5 18.479172,-34.071075,594.36 18.479233,-34.069954,601.98 18.479004,-34.064835,601.98 18.478668,-34.063477,601.98 18.476772,-34.058968,609.6 18.476257,-34.057892,617.22 18.474127,-34.053406,617.22 18.473566,-34.05217,624.84 18.471045,-34.045212,632.46 18.470652,-34.04393,632.46 18.469307,-34.039215,632.46 18.46899,-34.038113,632.46 18.467846,-34.033318,632.46 18.467674,-34.032246,632.46 18.466728,-34.026993,617.22 18.46656,-34.025986,617.22 18.465832,-34.021133,617.22 18.465775,-34.019806,617.22 18.465786,-34.014881,617.22 18.465786,-34.013531,624.84 18.465672,-34.00869,624.84 18.465664,-34.007401,624.84 18.466055,-33.999939,601.98 18.466335,-33.999069,601.98 18.468304,-33.994026,594.36 18.468859,-33.992661,586.74 18.470993,-33.987698,556.26 18.47138,-33.986664,548.64 18.475971,-33.974197,472.44 18.477287,-33.970284,441.96 18.483768,-33.952789,419.1 18.483994,-33.951736,419.1 18.484497,-33.946404,411.48 18.484497,-33.945282,403.86 18.48381,-33.939606,388.62 18.483467,-33.938396,388.62 18.480721,-33.933556,388.62 18.479977,-33.932529,381 18.476601,-33.927971,365.76 18.475685,-33.926853,365.76 18.471998,-33.922485,350.52 18.4711,-33.921524,342.9 18.466702,-33.91703,312.42 18.465551,-33.915939,320.04 18.461266,-33.91177,312.42 18.460058,-33.910583,304.8 18.448105,-33.899479,274.32 18.444811,-33.89653,259.08 18.438702,-33.892273,243.84 18.43758,-33.891861,243.84 18.43214,-33.891613,228.6 18.431248,-33.891998,228.6 18.431053,-33.894684,175.26 18.431416,-33.895386,160.02 18.43277,-33.898174,114.3 18.432873,-33.898773,106.68 18.43119,-33.900055,68.58 18.430767,-33.90004,68.58 18.428364,-33.899757,45.72 18.428053,-33.899826,45.72 18.427044,-33.900604,30.48 18.427044,-33.900833,30.48
        </coordinates>
      </LineString>
    </Placemark>
  </Document>
</kml>