<?xml version="1.0" encoding="UTF-8"?>
<kml xmlns="http://www.opengis.net/kml/2.2">
  <Document>
    <name>-/ZTHOT - Optimised</name>
    <description><![CDATA[Optimised flight path with 1514 points (decimated from 7567 original points). Source format: Standard KML]]></description>
    
    <Style id="flightPath">
      <LineStyle>
        <color>ff0000ff</color>
        <width>3</width>
      </LineStyle>
    </Style>
    
    <Placemark>
      <name>Flight Path</name>
      <description><![CDATA[<div style="width:220px; text-align:center;">
<div style="width:210px; text-align:center;">
<div style=" background: #000; color: #fff; font-size: 14px; text-align:left; border: 1px solid #000; padding: 2px 6px; text-shadow: 0 1px 0 #000; box-shadow: 0 1px 3px rgba(0,0,0,0.6); background: -webkit-gradient(linear, left top, left bottom, color-stop(0%,#808080), color-stop(2%,#303030), color-stop(100%,#0c0c0c));"><span style="font-size: 14px; font-weight: bold;"><a href="javascript:void(0);" style="color: #fff; cursor: pointer;text-decoration: none;">-</a></span> / ZTHOT<br/>Cape Town Helicopters</div>

<div style="border-top: 1px solid #005c90; color: #fff; padding-bottom: 5px; box-shadow: 0 0 1px #9BE3F6 inset, 0 1px 0 #9BE3F6 inset, 0 -1px 3px rgba(0,0,0,0.4); background:rgba(43,114,173,1); background: -webkit-gradient(linear, left top, left bottom, color-stop(0%,rgba(92,184,229,1)), color-stop(100%,rgba(43,114,173,1)));">
<a style="text-decoration: none; color: rgb(255, 255, 255); font-size: 12px; width:77px; display: inline-block;" title=" Airport" href="javascript:void(0);/departures"><h3 style="padding: 0px; margin: 10px 0px 0px; font-size: 16px; ">?</h3></a>
<span style="background: url(https://www.flightradar24.com/static/images/userUI_sprite.png?14) no-repeat scroll 0 -464px rgba(0, 0, 0, 0); border: medium none; display: inline-block; height: 16px; width: 45px;"></span>
<a style="text-decoration: none; color: rgb(255, 255, 255); font-size: 12px; width:77px; display: inline-block;" title=" Airport" href="javascript:void(0);/arrivals"><h3 style="padding: 0px; margin: 10px 0px 0px; font-size: 16px;">?</h3></a>
<div style=" margin-top:10px;">
<div style="display: inline-block; font-size: 12px; padding: 0 5px;">
<div>
<span style="color: #c1eaff;" title="Actual Time of Departure">ATD </span>
<span title="2025-02-26 15:13">15:13</span> <span title="Coordinated Universal Time">UTC</span>
</div>
</div>
<div style="display: inline-block; font-size: 12px; padding: 0 5px;">
<div>
<span style="color: #c1eaff;" title="Estimated Time of Arrival">ETA </span>
<span title="2025-02-26 15:28">15:28</span> <span title="Coordinated Universal Time">UTC</span>
</div>
</div>
</div>
<br style="clear: both;"/>
</div>

<div style="display: block;">
<table style="border-collapse: collapse; width: 100%;">
<tr style="border-right: 1px solid #dadada; ">
<td style="background: none repeat scroll 0 0 #dadada; padding: 0; width: 31px;">
<span style="background: url(https://www.flightradar24.com/static/images/userUI_sprite.png?14) no-repeat scroll -208px -464px rgba(0, 0, 0, 0); height: 26px; margin: 8px 0 0 4px; width: 23px; display: block;"></span>
</td>
<td colspan="2" style="border-bottom: 1px solid #dadada; border-left: 1px solid #dadada; color: #666; line-height: 1.1em; padding: 3px 6px; vertical-align: top; font-size: 14px;">
Aircraft<span style="float: right; font-size: 12px;">(AS50)</span><br>
<span style="color: #333; font-size: 16px; font-weight: bold; line-height: 1.3em;">Airbus Helicopters H125</span>
</td>
</tr>
<tr style="border-right: 1px solid #dadada; ">
<td style="background: none repeat scroll 0 0 #dadada; padding: 0; width: 31px;">
<td colspan="2" style="border-bottom: 1px solid #dadada; border-left: 1px solid #dadada; color: #666; line-height: 1.1em; padding: 3px 6px; vertical-align: top; font-size: 14px;">
Registration<br>
<span style="color: #333; font-size: 16px; font-weight: bold; line-height: 1.3em;"><a href="https://www.flightradar24.com/reg/zt-hot" style="text-decoration: none; color: #333;">ZT-HOT</a></span>
</td>
</tr>
</table>
</div>

</div>
</div>]]></description>
      <styleUrl>#flightPath</styleUrl>
      <LineString>
        <extrude>1</extrude>
        <tessellate>1</tessellate>
        <altitudeMode>absolute</altitudeMode>
        <coordinates>
          18.427334,-33.900597,60.96 18.435226,-33.902481,182.88 18.438982,-33.901932,213.36 18.441181,-33.898083,243.84 18.440495,-33.893009,274.32 18.437637,-33.887466,304.8 18.433601,-33.882935,335.28 18.428993,-33.879509,365.76 18.423729,-33.876762,396.24 18.417435,-33.875225,426.72 18.411236,-33.87529,487.68 18.403669,-33.876984,518.16 18.398266,-33.879181,548.64 18.392851,-33.882065,579.12 18.387806,-33.885178,609.6 18.382761,-33.888885,609.6 18.377884,-33.893051,609.6 18.373177,-33.897583,609.6 18.368916,-33.902023,609.6 18.364849,-33.906929,609.6 18.361349,-33.911819,609.6 18.358498,-33.91647,640.08 18.355694,-33.921593,640.08 18.351988,-33.928802,670.56 18.349972,-33.938259,731.52 18.354118,-33.938187,762 18.356953,-33.934811,792.48 18.358498,-33.93095,822.96 18.357468,-33.927273,853.44 18.352203,-33.92741,853.44 18.348177,-33.93251,853.44 18.346495,-33.938736,853.44 18.345051,-33.946217,853.44 18.342068,-33.961853,822.96 18.334751,-33.97699,792.48 18.335266,-33.994259,762 18.338699,-34.005013,762 18.342934,-34.015396,762 18.348942,-34.034248,731.52 18.35598,-34.05571,731.52 18.360285,-34.066132,762 18.36319,-34.070885,792.48 18.366566,-34.07568,792.48 18.369942,-34.080147,792.48 18.376371,-34.088562,792.48 18.385059,-34.098862,792.48 18.389454,-34.1031,762 18.394363,-34.10733,731.52 18.39901,-34.110966,701.04 18.404274,-34.114552,670.56 18.409595,-34.117996,640.08 18.414879,-34.121155,640.08 18.428192,-34.128654,609.6 18.43626,-34.132427,579.12 18.442177,-34.134613,579.12 18.447876,-34.136105,579.12 18.454117,-34.137039,579.12 18.459778,-34.135803,579.12 18.464542,-34.131775,579.12 18.468298,-34.127243,579.12 18.471493,-34.12262,579.12 18.474083,-34.117718,548.64 18.476145,-34.112183,548.64 18.477402,-34.106823,518.16 18.47826,-34.100677,518.16 18.478668,-34.095154,518.16 18.478889,-34.089226,518.16 18.479919,-34.071674,518.16 18.481695,-34.052536,548.64 18.483181,-34.031315,548.64 18.483696,-34.01181,579.12 18.484669,-33.991001,518.16 18.48489,-33.967438,487.68 18.484211,-33.961163,457.2 18.482815,-33.954941,457.2 18.481247,-33.948715,426.72 18.477058,-33.931927,396.24 18.473904,-33.926468,365.76 18.468859,-33.920792,365.76 18.46384,-33.915958,335.28 18.457088,-33.908371,304.8 18.453051,-33.903168,335.28 18.449575,-33.898178,335.28 18.443691,-33.891037,304.8 18.437805,-33.890308,274.32 18.434544,-33.893101,213.36 18.431808,-33.89621,152.4 18.42738,-33.899872,60.96 18.427349,-33.90062,0 18.432484,-33.901806,121.92 18.436432,-33.900829,182.88 18.438435,-33.897106,213.36 18.438198,-33.891998,243.84 18.436489,-33.887238,274.32 18.433342,-33.882301,304.8 18.428164,-33.877441,335.28 18.42041,-33.875271,335.28 18.413479,-33.873734,335.28 18.407078,-33.873688,365.76 18.400383,-33.875553,426.72 18.395119,-33.877972,457.2 18.389936,-33.881058,457.2 18.385162,-33.884396,487.68 18.3808,-33.888062,518.16 18.376465,-33.892216,548.64 18.372574,-33.896545,579.12 18.369083,-33.90097,579.12 18.365891,-33.90564,609.6 18.362864,-33.910629,609.6 18.359985,-33.915539,640.08 18.355183,-33.924637,640.08 18.349342,-33.937466,670.56 18.339825,-33.964188,731.52 18.347397,-33.964558,762 18.350029,-33.958275,731.52 18.351765,-33.953339,731.52 18.353519,-33.947987,731.52 18.359444,-33.932007,670.56 18.36348,-33.92363,640.08 18.366169,-33.918594,609.6 18.369484,-33.913353,609.6 18.372784,-33.908524,579.12 18.376146,-33.904129,579.12 18.380463,-33.899323,579.12 18.384991,-33.895103,548.64 18.389711,-33.891174,518.16 18.395485,-33.887558,487.68 18.401871,-33.884396,457.2 18.408337,-33.88179,457.2 18.414991,-33.879776,426.72 18.421383,-33.879463,396.24 18.426647,-33.880344,365.76 18.430996,-33.882858,335.28 18.432655,-33.886585,274.32 18.43277,-33.890263,213.36 18.431919,-33.893784,152.4 18.429117,-33.898087,91.44 18.427048,-33.900223,60.96 18.42934,-33.901016,91.44 18.434658,-33.901016,121.92 18.437576,-33.897758,152.4 18.437233,-33.893055,213.36 18.435402,-33.888027,243.84 18.432598,-33.882858,243.84 18.429108,-33.878578,274.32 18.424416,-33.875504,304.8 18.418243,-33.874283,335.28 18.410788,-33.875336,396.24 18.407879,-33.878998,457.2 18.410114,-33.882065,487.68 18.414263,-33.882477,548.64 18.417549,-33.881138,609.6 18.41785,-33.878311,640.08 18.413315,-33.876808,640.08 18.406906,-33.877132,640.08 18.400497,-33.879135,640.08 18.394661,-33.882023,640.08 18.389225,-33.885422,640.08 18.384108,-33.88884,640.08 18.37895,-33.892548,640.08 18.373457,-33.897171,640.08 18.368637,-33.901794,609.6 18.36462,-33.906696,609.6 18.361069,-33.911865,609.6 18.358042,-33.916992,609.6 18.355127,-33.922577,579.12 18.352716,-33.927933,579.12 18.348427,-33.938725,609.6 18.349522,-33.943268,670.56 18.353634,-33.943378,701.04 18.35598,-33.940166,731.52 18.357353,-33.936211,762 18.357986,-33.932281,792.48 18.354511,-33.929626,853.44 18.350195,-33.932785,853.44 18.348402,-33.93782,853.44 18.346943,-33.943588,853.44 18.346024,-33.949383,853.44 18.34528,-33.955063,853.44 18.342178,-33.979843,822.96 18.341846,-34.000172,792.48 18.342684,-34.006302,792.48 18.343849,-34.012135,762 18.345205,-34.017883,762 18.347672,-34.027267,762 18.352942,-34.046997,731.52 18.35495,-34.052311,731.52 18.358269,-34.060829,731.52 18.362751,-34.07103,731.52 18.365665,-34.076248,731.52 18.366842,-34.082565,731.52 18.364964,-34.088108,731.52 18.362135,-34.093918,731.52 18.359276,-34.099548,701.04 18.353691,-34.112316,670.56 18.351765,-34.117859,670.56 18.350086,-34.123257,670.56 18.34868,-34.128662,670.56 18.347626,-34.134148,701.04 18.346943,-34.139557,701.04 18.346367,-34.145088,701.04 18.345655,-34.158325,701.04 18.346495,-34.163818,701.04 18.348427,-34.169296,701.04 18.351204,-34.174576,670.56 18.354231,-34.179474,670.56 18.35849,-34.184418,670.56 18.362274,-34.188847,670.56 18.369589,-34.198471,670.56 18.374634,-34.205887,701.04 18.385565,-34.223511,731.52 18.395748,-34.238426,762 18.406677,-34.252903,762 18.417625,-34.267776,731.52 18.432144,-34.287186,701.04 18.437525,-34.293411,701.04 18.450851,-34.308487,670.56 18.455294,-34.312408,640.08 18.460058,-34.316299,640.08 18.46796,-34.322453,640.08 18.479845,-34.331131,640.08 18.485413,-34.334602,609.6 18.497086,-34.341633,579.12 18.507759,-34.348526,548.64 18.51045,-34.353607,548.64 18.510361,-34.35881,579.12 18.506973,-34.36322,579.12 18.501257,-34.366653,579.12 18.494511,-34.367935,579.12 18.487473,-34.367748,579.12 18.480549,-34.36705,548.64 18.472895,-34.365829,518.16 18.465328,-34.363327,518.16 18.459206,-34.365047,579.12 18.462982,-34.366676,579.12 18.468361,-34.367096,548.64 18.473682,-34.366909,548.64 18.479519,-34.366398,548.64 18.487524,-34.36647,548.64 18.49638,-34.365829,518.16 18.501434,-34.363419,518.16 18.504238,-34.359043,518.16 18.504753,-34.353409,518.16 18.50378,-34.347733,518.16 18.502266,-34.342163,518.16 18.500696,-34.336349,518.16 18.496267,-34.319046,548.64 18.491896,-34.300781,548.64 18.488216,-34.280697,579.12 18.48489,-34.260269,579.12 18.480909,-34.238754,579.12 18.475628,-34.218781,548.64 18.471451,-34.201183,548.64 18.470879,-34.194992,518.16 18.470478,-34.188663,518.16 18.470478,-34.180374,548.64 18.471222,-34.159519,548.64 18.473167,-34.136711,487.68 18.474426,-34.130844,487.68 18.475809,-34.125137,487.68 18.479677,-34.11145,487.68 18.482479,-34.106644,487.68 18.486614,-34.101982,457.2 18.491167,-34.097946,457.2 18.495428,-34.093964,457.2 18.501663,-34.087364,396.24 18.512363,-34.076099,365.76 18.525982,-34.062878,335.28 18.538284,-34.050167,304.8 18.542118,-34.045609,335.28 18.556366,-34.028057,304.8 18.571529,-34.011204,304.8 18.58326,-33.999195,274.32 18.588867,-33.995956,274.32 18.595201,-33.993256,274.32 18.601284,-33.99128,274.32 18.6077,-33.989365,274.32 18.617062,-33.986847,274.32 18.635273,-33.982529,274.32 18.655962,-33.977737,304.8 18.6702,-33.973846,304.8 18.693066,-33.967957,304.8 18.715782,-33.961441,335.28 18.733692,-33.955528,365.76 18.757586,-33.947571,396.24 18.778269,-33.941437,396.24 18.79715,-33.937233,396.24 18.81588,-33.934158,396.24 18.826675,-33.932858,396.24 18.849163,-33.929413,426.72 18.869934,-33.926571,457.2 18.879147,-33.925922,457.2 18.898544,-33.925175,487.68 18.918064,-33.923721,487.68 18.924351,-33.921917,518.16 18.929729,-33.919033,487.68 18.93568,-33.916004,487.68 18.945465,-33.911724,518.16 18.962116,-33.90353,487.68 19.077816,-33.888538,457.2 19.066601,-33.887283,457.2 19.054756,-33.886539,457.2 18.974791,-33.899139,457.2 18.953133,-33.907673,457.2 18.936825,-33.913258,457.2 18.92046,-33.918797,487.68 18.911226,-33.921249,457.2 18.904276,-33.922485,457.2 18.889029,-33.925095,426.72 18.865757,-33.929226,396.24 18.84201,-33.932999,426.72 18.821262,-33.937042,426.72 18.795776,-33.943237,396.24 18.784618,-33.944633,426.72 18.782362,-33.940933,426.72 18.781464,-33.936859,426.72 18.780006,-33.938187,426.72 18.78096,-33.941391,426.72 18.781757,-33.944729,396.24 18.781521,-33.947708,396.24 18.778152,-33.950222,396.24 18.773392,-33.951965,365.76 18.768179,-33.953568,365.76 18.762589,-33.955017,365.76 18.756924,-33.955994,365.76 18.750401,-33.9566,365.76 18.744188,-33.956818,365.76 18.731918,-33.958321,365.76 18.722441,-33.959427,335.28 18.699646,-33.962093,335.28 18.67659,-33.964691,304.8 18.66011,-33.966614,304.8 18.653755,-33.967072,304.8 18.639931,-33.968536,304.8 18.633785,-33.969959,274.32 18.627039,-33.971878,274.32 18.620567,-33.973682,274.32 18.614315,-33.976089,274.32 18.608036,-33.978477,274.32 18.598509,-33.980988,243.84 18.592014,-33.97913,274.32 18.585892,-33.975685,274.32 18.58046,-33.971695,274.32 18.573017,-33.968098,304.8 18.566669,-33.969955,274.32 18.560785,-33.972382,304.8 18.554935,-33.974709,304.8 18.534664,-33.981857,304.8 18.522894,-33.985199,335.28 18.516222,-33.986755,365.76 18.509789,-33.988022,396.24 18.502922,-33.988953,396.24 18.496056,-33.988953,426.72 18.491192,-33.985928,457.2 18.488731,-33.980572,457.2 18.487358,-33.975266,457.2 18.486122,-33.969315,457.2 18.483295,-33.95483,487.68 18.480206,-33.944122,487.68 18.477631,-33.93821,457.2 18.474426,-33.932392,426.72 18.470535,-33.926991,426.72 18.466129,-33.921452,396.24 18.45829,-33.91177,365.76 18.445261,-33.894974,274.32 18.439465,-33.889984,213.36 18.435003,-33.889435,213.36 18.433376,-33.891403,213.36 18.432941,-33.893333,213.36 18.432426,-33.895245,182.88 18.430967,-33.896942,182.88 18.429398,-33.897995,152.4 18.427219,-33.899666,91.44 18.427521,-33.900749,0 18.432198,-33.901852,121.92 18.436203,-33.900921,152.4 18.43895,-33.897526,213.36 18.439039,-33.893051,243.84 18.437021,-33.888199,274.32 18.43405,-33.88353,304.8 18.43091,-33.879135,365.76 18.426146,-33.875839,396.24 18.420372,-33.874008,426.72 18.413887,-33.873363,457.2 18.407536,-33.874386,487.68 18.401585,-33.876343,518.16 18.396214,-33.878815,548.64 18.391338,-33.88179,548.64 18.386765,-33.885235,579.12 18.382015,-33.88961,579.12 18.377895,-33.894032,579.12 18.374298,-33.89827,609.6 18.370628,-33.903111,609.6 18.367571,-33.907837,609.6 18.364677,-33.912888,609.6 18.360846,-33.91983,609.6 18.354435,-33.933136,640.08 18.349857,-33.945614,670.56 18.342291,-33.965698,701.04 18.350143,-33.96484,731.52 18.353176,-33.957249,731.52 18.355007,-33.95171,701.04 18.357468,-33.943611,670.56 18.363255,-33.928345,609.6 18.368282,-33.917542,609.6 18.371315,-33.91214,579.12 18.374466,-33.90715,579.12 18.377953,-33.902271,548.64 18.381865,-33.897491,548.64 18.386909,-33.893234,518.16 18.393019,-33.890167,518.16 18.398895,-33.887703,518.16 18.404961,-33.885422,518.16 18.411068,-33.883209,518.16 18.417377,-33.881325,457.2 18.423557,-33.880299,426.72 18.428822,-33.881603,396.24 18.431568,-33.884769,335.28 18.432083,-33.888493,304.8 18.432026,-33.892357,213.36 18.431358,-33.895844,152.4 18.428612,-33.898682,91.44 18.427099,-33.900787,91.44 18.429508,-33.90134,121.92 18.432713,-33.901669,152.4 18.43618,-33.901337,243.84 18.438377,-33.898457,274.32 18.438141,-33.894287,304.8 18.437004,-33.889797,335.28 18.434372,-33.885468,365.76 18.430939,-33.881279,396.24 18.426762,-33.877274,396.24 18.421783,-33.874294,426.72 18.415552,-33.872681,457.2 18.409595,-33.873363,487.68 18.403988,-33.87532,518.16 18.398838,-33.877647,518.16 18.393517,-33.880486,548.64 18.388983,-33.883347,579.12 18.384331,-33.886688,579.12 18.380013,-33.890217,609.6 18.375923,-33.894104,609.6 18.371832,-33.898453,609.6 18.368299,-33.902756,609.6 18.364735,-33.90744,579.12 18.361349,-33.912323,579.12 18.358212,-33.917496,579.12 18.355579,-33.922382,579.12 18.353165,-33.92775,579.12 18.351116,-33.933182,579.12 18.349689,-33.940659,609.6 18.353462,-33.941608,701.04 18.356585,-33.938141,701.04 18.358658,-33.933884,731.52 18.360329,-33.929878,792.48 18.361069,-33.925232,822.96 18.362904,-33.921032,883.92 18.36565,-33.922291,944.88 18.36565,-33.926804,914.4 18.364208,-33.932465,883.92 18.362617,-33.937698,883.92 18.358841,-33.95269,853.44 18.351149,-33.984192,822.96 18.349073,-34.004333,762 18.349628,-34.010181,731.52 18.350363,-34.015961,731.52 18.352158,-34.027267,731.52 18.355183,-34.046173,731.52 18.357594,-34.05661,701.04 18.359528,-34.062038,731.52 18.361931,-34.06702,731.52 18.364992,-34.07222,731.52 18.368053,-34.077122,731.52 18.376316,-34.089203,701.04 18.379898,-34.093834,701.04 18.384018,-34.098492,701.04 18.388702,-34.10289,701.04 18.393524,-34.106735,701.04 18.398895,-34.1105,670.56 18.404734,-34.114105,640.08 18.410454,-34.117485,640.08 18.427267,-34.127151,579.12 18.43626,-34.131496,548.64 18.44244,-34.13308,548.64 18.449072,-34.132736,548.64 18.455772,-34.130333,548.64 18.461123,-34.12706,548.64 18.466335,-34.122437,579.12 18.470592,-34.117577,579.12 18.474745,-34.112686,579.12 18.477402,-34.107521,579.12 18.478388,-34.1017,579.12 18.478603,-34.095463,579.12 18.478779,-34.089386,548.64 18.479788,-34.07103,518.16 18.4799,-34.051758,548.64 18.480516,-34.034363,579.12 18.482143,-34.014771,548.64 18.482895,-33.993935,548.64 18.483881,-33.973206,518.16 18.483713,-33.962082,457.2 18.482927,-33.955719,457.2 18.481865,-33.949615,426.72 18.480492,-33.94347,426.72 18.476761,-33.930405,396.24 18.472824,-33.925129,426.72 18.46785,-33.920197,396.24 18.462982,-33.915352,396.24 18.452995,-33.904312,396.24 18.442009,-33.892822,304.8 18.436796,-33.891449,304.8 18.432884,-33.89352,243.84 18.430367,-33.89608,182.88 18.427773,-33.898819,91.44 18.427048,-33.900688,91.44 18.427277,-33.899944,91.44 18.42905,-33.89743,91.44 18.431053,-33.894127,152.4 18.433601,-33.889023,213.36 18.434555,-33.884811,243.84 18.432655,-33.880997,274.32 18.428164,-33.877853,304.8 18.42267,-33.876846,335.28 18.416897,-33.877487,396.24 18.412302,-33.878174,426.72 18.412685,-33.880997,487.68 18.416954,-33.881699,518.16 18.421045,-33.88092,548.64 18.420696,-33.877365,579.12 18.414917,-33.875736,548.64 18.408489,-33.876205,548.64 18.402493,-33.877716,579.12 18.396326,-33.880463,579.12 18.392944,-33.884861,579.12 18.390833,-33.890076,579.12 18.393402,-33.894547,579.12 18.39896,-33.894562,579.12 18.399857,-33.889801,548.64 18.394489,-33.888912,518.16 18.387794,-33.890915,518.16 18.382015,-33.893799,518.16 18.377094,-33.896824,518.16 18.37183,-33.900784,487.68 18.367596,-33.905113,487.68 18.364151,-33.909897,487.68 18.361685,-33.914429,518.16 18.359051,-33.919189,518.16 18.352268,-33.931915,548.64 18.351316,-33.941025,609.6 18.356472,-33.939789,640.08 18.359276,-33.935303,670.56 18.360672,-33.930531,701.04 18.361013,-33.925781,762 18.357033,-33.923813,792.48 18.353558,-33.927109,762 18.351372,-33.932419,731.52 18.349113,-33.93821,731.52 18.346664,-33.945786,701.04 18.345766,-33.952194,670.56 18.344936,-33.966515,670.56 18.347225,-33.980247,640.08 18.352381,-33.995087,670.56 18.353222,-34.008911,701.04 18.353119,-34.01572,701.04 18.353222,-34.021225,701.04 18.353783,-34.032074,670.56 18.354893,-34.037926,670.56 18.356152,-34.045887,670.56 18.358383,-34.058407,701.04 18.360271,-34.064182,670.56 18.362846,-34.069813,701.04 18.365833,-34.074783,701.04 18.369026,-34.079357,701.04 18.37228,-34.083893,701.04 18.380968,-34.094971,701.04 18.385162,-34.099606,701.04 18.389431,-34.103668,731.52 18.394308,-34.107559,731.52 18.39924,-34.111267,701.04 18.404621,-34.114975,701.04 18.412693,-34.120193,670.56 18.421886,-34.125549,640.08 18.430367,-34.129868,609.6 18.4359,-34.132095,609.6 18.441811,-34.133823,609.6 18.448448,-34.133636,609.6 18.4552,-34.131355,609.6 18.460842,-34.12793,609.6 18.466072,-34.123444,609.6 18.470592,-34.118416,579.12 18.474239,-34.112778,579.12 18.476873,-34.107193,579.12 18.478432,-34.100864,579.12 18.478779,-34.094971,579.12 18.478891,-34.088699,548.64 18.479958,-34.07515,548.64 18.482037,-34.054638,579.12 18.483639,-34.033829,579.12 18.485674,-34.013809,609.6 18.48587,-33.995518,579.12 18.48601,-33.972794,548.64 18.485281,-33.963959,518.16 18.484049,-33.957321,518.16 18.482254,-33.951096,487.68 18.479845,-33.945007,487.68 18.477802,-33.937374,457.2 18.477173,-33.930485,426.72 18.47267,-33.922073,396.24 18.467514,-33.916855,365.76 18.462244,-33.912231,365.76 18.455406,-33.904907,335.28 18.45108,-33.899712,335.28 18.443914,-33.895615,304.8 18.438549,-33.896591,243.84 18.433266,-33.898315,152.4 18.426819,-33.900505,91.44 18.431053,-33.899387,91.44 18.436375,-33.8965,152.4 18.437637,-33.892181,182.88 18.437061,-33.887421,213.36 18.434715,-33.883045,243.84 18.43119,-33.879639,243.84 18.426146,-33.877304,274.32 18.420181,-33.876484,304.8 18.413982,-33.876846,365.76 18.407593,-33.8783,396.24 18.401203,-33.880371,426.72 18.395823,-33.88266,457.2 18.390884,-33.885048,457.2 18.386461,-33.887695,487.68 18.381584,-33.8909,518.16 18.377493,-33.893967,518.16 18.373318,-33.89743,548.64 18.369312,-33.901295,548.64 18.365879,-33.905251,548.64 18.362751,-33.909531,579.12 18.360117,-33.913834,579.12 18.357754,-33.91824,579.12 18.355465,-33.922989,609.6 18.353502,-33.927475,609.6 18.350363,-33.935669,609.6 18.344879,-33.951057,640.08 18.342991,-33.968937,701.04 18.350945,-33.962978,701.04 18.354206,-33.954689,701.04 18.35821,-33.944,670.56 18.365891,-33.924545,609.6 18.370285,-33.915913,609.6 18.373375,-33.910652,609.6 18.376751,-33.905766,609.6 18.380928,-33.90134,609.6 18.385788,-33.896805,609.6 18.391058,-33.892685,609.6 18.397694,-33.888958,579.12 18.404045,-33.88649,548.64 18.410568,-33.884583,487.68 18.416897,-33.883118,457.2 18.42267,-33.882156,396.24 18.427996,-33.882843,365.76 18.430252,-33.8857,335.28 18.430767,-33.889191,274.32 18.430824,-33.892776,213.36 18.430481,-33.895988,152.4 18.428822,-33.89999,91.44 18.428936,-33.901108,91.44 18.435226,-33.901978,213.36 18.439178,-33.900318,243.84 18.440838,-33.895943,243.84 18.439407,-33.890774,274.32 18.436403,-33.88559,304.8 18.432484,-33.881184,304.8 18.427435,-33.877899,335.28 18.421783,-33.876434,335.28 18.415546,-33.876621,365.76 18.406809,-33.878448,396.24 18.401699,-33.880299,426.72 18.396662,-33.882797,457.2 18.392086,-33.885372,487.68 18.387751,-33.888245,487.68 18.383675,-33.891567,518.16 18.379669,-33.894917,518.16 18.375811,-33.898682,518.16 18.372055,-33.902573,518.16 18.368683,-33.906696,548.64 18.365479,-33.910931,548.64 18.362638,-33.914886,579.12 18.360004,-33.919098,579.12 18.357426,-33.923721,579.12 18.35535,-33.928108,609.6 18.353334,-33.932785,609.6 18.351345,-33.937931,640.08 18.344254,-33.957458,670.56 18.343077,-33.972977,731.52 18.350773,-33.964188,670.56 18.356024,-33.949539,640.08 18.363705,-33.930344,609.6 18.372223,-33.912872,579.12 18.375607,-33.907719,579.12 18.379498,-33.902878,579.12 18.384075,-33.898174,548.64 18.389208,-33.894012,548.64 18.394814,-33.890533,548.64 18.401091,-33.887512,518.16 18.408051,-33.887051,487.68 18.41526,-33.885559,487.68 18.425846,-33.88393,396.24 18.430462,-33.885498,365.76 18.431639,-33.889114,274.32 18.431864,-33.892822,213.36 18.430855,-33.896301,182.88 18.42762,-33.899479,91.44 18.426987,-33.900833,91.44 18.431864,-33.901703,152.4 18.435732,-33.901566,213.36 18.438148,-33.898457,243.84 18.437576,-33.893845,274.32 18.436348,-33.889023,304.8 18.433914,-33.884304,335.28 18.429794,-33.880066,335.28 18.424129,-33.877274,365.76 18.417892,-33.876484,396.24 18.410284,-33.877579,426.72 18.404453,-33.879501,457.2 18.399239,-33.881416,457.2 18.393579,-33.884537,457.2 18.390026,-33.888401,457.2 18.385508,-33.892181,457.2 18.380871,-33.895477,457.2 18.374578,-33.900513,487.68 18.370628,-33.904415,487.68 18.367023,-33.908371,487.68 18.363476,-33.912746,518.16 18.360672,-33.916985,518.16 18.358269,-33.921127,518.16 18.355576,-33.925964,548.64 18.351059,-33.935276,579.12 18.346272,-33.946152,579.12 18.338585,-33.965443,640.08 18.342648,-33.968002,701.04 18.35186,-33.95306,640.08 18.354378,-33.947475,640.08 18.360956,-33.933014,609.6 18.370457,-33.914005,548.64 18.376637,-33.9039,548.64 18.381042,-33.897804,518.16 18.385565,-33.893051,487.68 18.39072,-33.889114,457.2 18.39695,-33.887051,396.24 18.403587,-33.885979,365.76 18.410053,-33.884724,335.28 18.423737,-33.882385,335.28 18.429062,-33.88266,335.28 18.431454,-33.885513,335.28 18.431471,-33.888748,304.8 18.43063,-33.891815,243.84 18.429398,-33.895111,182.88 18.427906,-33.898174,121.92 18.42923,-33.901154,60.96 18.431168,-33.901714,121.92 18.435917,-33.902554,182.88 18.436571,-33.902573,182.88 18.439636,-33.901386,213.36 18.440159,-33.900833,243.84 18.441238,-33.897106,243.84 18.441181,-33.89608,243.84 18.439922,-33.891567,274.32 18.439487,-33.890533,274.32 18.437004,-33.886585,304.8 18.43626,-33.8857,304.8 18.43277,-33.882256,335.28 18.431976,-33.881607,365.76 18.427677,-33.878716,396.24 18.426764,-33.87822,396.24 18.42239,-33.876297,396.24 18.421326,-33.875977,426.72 18.416393,-33.875153,457.2 18.41526,-33.875134,457.2 18.409481,-33.875504,487.68 18.407307,-33.875969,487.68 18.402729,-33.877319,518.16 18.401596,-33.877716,548.64 18.397223,-33.879684,548.64 18.39599,-33.880325,579.12 18.3918,-33.882626,579.12 18.390884,-33.883186,579.12 18.386797,-33.885864,609.6 18.385733,-33.886642,609.6 18.381786,-33.889656,609.6 18.380642,-33.890633,609.6 18.376865,-33.894032,609.6 18.37595,-33.894917,609.6 18.372116,-33.89864,609.6 18.371601,-33.8992,609.6 18.368187,-33.902893,609.6 18.367178,-33.904037,609.6 18.36422,-33.90781,609.6 18.363312,-33.908981,609.6 18.360788,-33.912689,609.6 18.360172,-33.913651,640.08 18.357925,-33.917496,640.08 18.357353,-33.918564,640.08 18.355293,-33.922382,640.08 18.354778,-33.923409,670.56 18.350658,-33.931553,670.56 18.349241,-33.934982,670.56 18.350601,-33.938675,731.52 18.351316,-33.938828,762 18.354836,-33.937607,762 18.35552,-33.936951,762 18.357296,-33.934113,792.48 18.357754,-33.933182,792.48 18.358658,-33.930084,822.96 18.358669,-33.929367,853.44 18.356438,-33.926804,883.92 18.355295,-33.926605,883.92 18.351116,-33.928204,853.44 18.35014,-33.929214,853.44 18.34774,-33.933788,853.44 18.347397,-33.934811,853.44 18.346252,-33.939888,853.44 18.345852,-33.941982,853.44 18.344822,-33.947521,853.44 18.344646,-33.948578,853.44 18.340441,-33.964508,822.96 18.338699,-33.967213,822.96 18.334351,-33.979691,792.48 18.334122,-33.983227,792.48 18.336182,-33.997833,762 18.337023,-34.00058,762 18.339209,-34.006165,762 18.339712,-34.007401,762 18.344536,-34.019676,762 18.345934,-34.024017,762 18.350201,-34.03867,731.52 18.351231,-34.042114,731.52 18.357145,-34.058945,731.52 18.358269,-34.062088,762 18.360733,-34.067001,762 18.361237,-34.067871,762 18.36376,-34.071762,792.48 18.364506,-34.072792,792.48 18.367178,-34.076569,792.48 18.367851,-34.077484,792.48 18.370543,-34.080826,792.48 18.371384,-34.081879,792.48 18.379398,-34.092499,792.48 18.38237,-34.095978,792.48 18.385788,-34.099548,762 18.386854,-34.100647,762 18.390484,-34.103985,731.52 18.391394,-34.104767,731.52 18.39529,-34.108078,701.04 18.39632,-34.108871,701.04 18.400211,-34.111805,670.56 18.401241,-34.112549,670.56 18.405476,-34.115341,640.08 18.406416,-34.115936,640.08 18.410797,-34.118694,640.08 18.411713,-34.119297,640.08 18.415775,-34.121674,640.08 18.419037,-34.123535,609.6 18.431854,-34.130424,609.6 18.432816,-34.130905,609.6 18.437576,-34.132984,579.12 18.438589,-34.133377,579.12 18.443527,-34.135033,579.12 18.4445,-34.135311,579.12 18.449192,-34.136337,579.12 18.450361,-34.136536,579.12 18.455315,-34.137081,579.12 18.45647,-34.136993,579.12 18.460899,-34.135071,579.12 18.461895,-34.134335,579.12 18.4655,-34.130753,579.12 18.466187,-34.129868,579.12 18.468914,-34.126373,579.12 18.46953,-34.125504,579.12 18.471966,-34.121811,548.64 18.472595,-34.120743,548.64 18.474464,-34.116806,548.64 18.474968,-34.115662,548.64 18.476482,-34.111038,548.64 18.476715,-34.110081,548.64 18.477631,-34.105473,518.16 18.477827,-34.104355,518.16 18.478388,-34.099548,518.16 18.478432,-34.098442,518.16 18.478724,-34.093781,518.16 18.478775,-34.092438,518.16 18.478947,-34.087875,518.16 18.479118,-34.083359,518.16 18.480293,-34.067047,518.16 18.480606,-34.063763,518.16 18.482208,-34.047886,548.64 18.482552,-34.043652,548.64 18.483263,-34.027771,548.64 18.48332,-34.023468,579.12 18.483824,-34.008179,579.12 18.483982,-34.004688,548.64 18.484898,-33.986065,518.16 18.485069,-33.981178,518.16 18.484777,-33.965927,487.68 18.484669,-33.96479,487.68 18.483936,-33.959656,457.2 18.483713,-33.958603,457.2 18.482437,-33.953621,426.72 18.482031,-33.952332,426.72 18.480549,-33.944916,426.72 18.479404,-33.939655,396.24 18.476538,-33.930679,396.24 18.476032,-33.929764,396.24 18.473053,-33.925407,365.76 18.471886,-33.924042,365.76 18.468073,-33.920059,335.28 18.466896,-33.918915,335.28 18.462811,-33.914982,335.28 18.461851,-33.913879,335.28 18.456287,-33.907394,304.8 18.455544,-33.906368,304.8 18.452379,-33.902252,335.28 18.451651,-33.901245,335.28 18.448792,-33.89706,335.28 18.44799,-33.895847,335.28 18.442554,-33.89045,304.8 18.441616,-33.890167,304.8 18.43729,-33.890495,274.32 18.436293,-33.891129,243.84 18.434086,-33.893661,213.36 18.4338,-33.894032,182.88 18.431282,-33.896732,121.92 18.429117,-33.898499,91.44 18.427155,-33.900101,60.96 18.426876,-33.900455,60.96 18.427883,-33.900742,60.96 18.42951,-33.901199,91.44 18.433546,-33.90184,152.4 18.434143,-33.901806,152.4 18.437119,-33.900177,182.88 18.437576,-33.89957,213.36 18.438549,-33.895988,243.84 18.438549,-33.894962,243.84 18.437918,-33.890808,274.32 18.437576,-33.889843,274.32 18.435802,-33.885933,274.32 18.435173,-33.884861,274.32 18.432083,-33.880814,304.8 18.431168,-33.879833,304.8 18.426704,-33.876808,335.28 18.424244,-33.87611,335.28 18.418804,-33.874924,335.28 18.417402,-33.874603,335.28 18.412302,-33.87355,335.28 18.41074,-33.873455,365.76 18.405407,-33.874008,396.24 18.404217,-33.874294,396.24 18.399239,-33.876019,426.72 18.398323,-33.876389,426.72 18.393974,-33.878578,457.2 18.393299,-33.878998,457.2 18.38932,-33.88147,457.2 18.388086,-33.882294,457.2 18.384218,-33.885132,487.68 18.383434,-33.885818,487.68 18.379902,-33.888885,518.16 18.378983,-33.889751,518.16 18.375549,-33.893147,548.64 18.374689,-33.894104,548.64 18.371716,-33.897572,579.12 18.371159,-33.898315,579.12 18.368357,-33.902023,579.12 18.36771,-33.902878,609.6 18.36525,-33.906742,609.6 18.364656,-33.9077,609.6 18.362331,-33.911491,609.6 18.361645,-33.912655,609.6 18.359585,-33.916237,640.08 18.357811,-33.919498,640.08 18.354624,-33.925827,670.56 18.354092,-33.927036,670.56 18.347626,-33.941608,701.04 18.344994,-33.948032,701.04 18.340611,-33.966385,762 18.342852,-33.967575,792.48 18.347969,-33.963348,731.52 18.348827,-33.961487,731.52 18.350315,-33.957668,731.52 18.350773,-33.956272,731.52 18.352158,-33.952194,731.52 18.352549,-33.95105,731.52 18.354778,-33.943844,701.04 18.356024,-33.940521,701.04 18.359892,-33.931046,670.56 18.360443,-33.929832,670.56 18.363983,-33.922577,640.08 18.364489,-33.921616,640.08 18.366674,-33.91777,609.6 18.367424,-33.916519,609.6 18.370113,-33.912422,609.6 18.3708,-33.91135,609.6 18.373289,-33.907837,579.12 18.37413,-33.906693,579.12 18.377094,-33.903019,579.12 18.377716,-33.902298,579.12 18.381443,-33.898361,548.64 18.382301,-33.897526,548.64 18.385956,-33.894241,548.64 18.387077,-33.893326,548.64 18.390942,-33.890354,518.16 18.391914,-33.889702,518.16 18.396549,-33.887005,487.68 18.397923,-33.886257,487.68 18.403053,-33.883896,457.2 18.40423,-33.883392,457.2 18.409767,-33.881279,426.72 18.411013,-33.880829,426.72 18.416168,-33.879593,426.72 18.417664,-33.879463,396.24 18.422503,-33.879547,396.24 18.4235,-33.879646,396.24 18.427734,-33.880764,365.76 18.428669,-33.881195,365.76 18.431568,-33.883511,304.8 18.431911,-33.884163,304.8 18.43277,-33.887238,274.32 18.432816,-33.888107,243.84 18.432598,-33.891052,182.88 18.432484,-33.8918,182.88 18.431696,-33.894424,152.4 18.431396,-33.895103,152.4 18.428535,-33.898689,91.44 18.42802,-33.899155,91.44 18.426933,-33.900455,60.96 18.426991,-33.900738,60.96 18.431528,-33.901382,91.44 18.432369,-33.901386,121.92 18.435507,-33.900604,152.4 18.436146,-33.900177,152.4 18.437693,-33.897079,152.4 18.437691,-33.895893,182.88 18.436909,-33.891953,213.36 18.436571,-33.8909,213.36 18.434946,-33.886963,243.84 18.434372,-33.885838,243.84 18.432087,-33.882156,274.32 18.431339,-33.881138,274.32 18.428389,-33.877945,274.32 18.427391,-33.877132,304.8 18.422728,-33.874969,304.8 18.421612,-33.874714,335.28 18.417091,-33.874294,365.76 18.415552,-33.874329,365.76 18.409779,-33.875885,396.24 18.408714,-33.876755,426.72 18.408041,-33.879868,457.2 18.408394,-33.880581,457.2 18.411013,-33.882385,518.16 18.411741,-33.882568,518.16 18.414824,-33.882339,548.64 18.415546,-33.88216,579.12 18.417906,-33.880829,609.6 18.418293,-33.880253,640.08 18.417206,-33.877834,640.08 18.41629,-33.877415,640.08 18.411852,-33.876755,640.08 18.410507,-33.876755,640.08 18.40535,-33.877487,640.08 18.40423,-33.877762,640.08 18.399353,-33.879639,640.08 18.398232,-33.880142,640.08 18.393631,-33.882626,640.08 18.392601,-33.883232,640.08 18.388254,-33.886093,640.08 18.38719,-33.88678,640.08 18.383041,-33.889572,640.08 18.381901,-33.890354,640.08 18.377548,-33.893646,640.08 18.376637,-33.894451,640.08 18.372616,-33.897949,640.08 18.371607,-33.898865,640.08 18.367739,-33.902802,609.6 18.36701,-33.903717,609.6 18.363873,-33.907745,609.6 18.362961,-33.909069,609.6 18.360329,-33.913025,609.6 18.359928,-33.913677,609.6 18.357353,-33.918285,609.6 18.35681,-33.919281,609.6 18.354664,-33.923641,579.12 18.354063,-33.924866,579.12 18.352213,-33.929031,579.12 18.35186,-33.929878,579.12 18.348255,-33.939888,609.6 18.348289,-33.940887,609.6 18.350201,-33.943657,670.56 18.351002,-33.94389,670.56 18.354343,-33.942856,701.04 18.354847,-33.942307,701.04 18.356304,-33.939468,731.52 18.356642,-33.938461,762 18.357582,-33.935371,762 18.357754,-33.934628,762 18.357706,-33.931366,792.48 18.357239,-33.930717,822.96 18.353634,-33.929737,853.44 18.352776,-33.930019,853.44 18.349743,-33.93388,853.44 18.349411,-33.934753,853.44 18.348026,-33.939049,853.44 18.347855,-33.939747,853.44 18.346775,-33.944366,853.44 18.346539,-33.945938,853.44 18.345879,-33.95018,853.44 18.34568,-33.951572,853.44 18.34515,-33.956131,853.44 18.344421,-33.962082,853.44 18.341675,-33.986343,792.48 18.34145,-33.991425,792.48 18.34201,-34.001312,792.48 18.342133,-34.002544,792.48 18.342934,-34.007572,792.48 18.343132,-34.008682,792.48 18.344141,-34.01326,762 18.344366,-34.01445,762 18.345486,-34.019165,792.48 18.345737,-34.020142,792.48 18.348827,-34.031921,762 18.349628,-34.035225,762 18.353222,-34.047821,731.52 18.353748,-34.049191,731.52 18.355408,-34.053474,731.52 18.355801,-34.054367,731.52 18.359299,-34.06395,731.52 18.361187,-34.068092,731.52 18.363367,-34.072174,731.52 18.363983,-34.073273,731.52 18.366051,-34.07703,762 18.366795,-34.079266,762 18.366562,-34.083755,731.52 18.366394,-34.084526,731.52 18.364449,-34.089321,731.52 18.363815,-34.09053,731.52 18.361588,-34.094997,701.04 18.360956,-34.096298,701.04 18.358841,-34.100399,701.04 18.357124,-34.103985,701.04 18.353334,-34.113373,670.56 18.352942,-34.114334,670.56 18.351427,-34.118958,670.56 18.351091,-34.120056,670.56 18.3498,-34.124233,670.56 18.349466,-34.125458,670.56 18.348402,-34.129898,701.04 18.348177,-34.130859,670.56 18.347448,-34.135162,701.04 18.347336,-34.136307,701.04 18.346832,-34.140564,701.04 18.34671,-34.141785,701.04 18.345934,-34.149261,701.04 18.34568,-34.152584,701.04 18.345737,-34.159286,701.04 18.345934,-34.160614,701.04 18.346832,-34.165146,701.04 18.347168,-34.166107,701.04 18.348999,-34.170414,701.04 18.349522,-34.171463,701.04 18.351746,-34.175579,670.56 18.352261,-34.17651,670.56 18.355122,-34.180515,670.56 18.355808,-34.181355,670.56 18.359413,-34.185452,670.56 18.360043,-34.186241,670.56 18.363144,-34.189865,670.56 18.366058,-34.193573,670.56 18.370399,-34.1996,670.56 18.371046,-34.200623,670.56 18.377155,-34.209686,701.04 18.379555,-34.213566,701.04 18.387222,-34.226276,731.52 18.389656,-34.229828,731.52 18.398094,-34.241592,762 18.400097,-34.244244,762 18.409555,-34.256607,762 18.411655,-34.259514,731.52 18.423672,-34.276134,701.04 18.426146,-34.279633,701.04 18.432928,-34.288055,701.04 18.433628,-34.288887,701.04 18.439936,-34.296295,701.04 18.444157,-34.301456,701.04 18.451651,-34.30925,670.56 18.452715,-34.310165,670.56 18.456173,-34.31319,640.08 18.45726,-34.314072,640.08 18.461235,-34.317215,640.08 18.462124,-34.31789,640.08 18.470819,-34.324677,640.08 18.475113,-34.327854,640.08 18.481302,-34.332047,640.08 18.482265,-34.332649,609.6 18.486443,-34.335209,609.6 18.488789,-34.336651,609.6 18.500584,-34.343536,548.64 18.504227,-34.345688,548.64 18.508432,-34.349396,548.64 18.509102,-34.350292,548.64 18.510647,-34.354668,548.64 18.510761,-34.355598,548.64 18.509832,-34.35997,579.12 18.509329,-34.360794,579.12 18.505909,-34.364044,579.12 18.504982,-34.364723,579.12 18.500118,-34.36705,579.12 18.498859,-34.367424,579.12 18.493185,-34.367981,579.12 18.491993,-34.367935,579.12 18.486179,-34.367661,579.12 18.485001,-34.367569,579.12 18.479118,-34.366863,548.64 18.477402,-34.366585,548.64 18.471325,-34.365417,518.16 18.469677,-34.365002,518.16 18.464127,-34.362907,518.16 18.461552,-34.362675,548.64 18.459497,-34.365509,579.12 18.460339,-34.366104,579.12 18.463898,-34.366817,579.12 18.464928,-34.366909,548.64 18.469362,-34.367111,548.64 18.470364,-34.367096,548.64 18.474745,-34.366837,548.64 18.476257,-34.366676,548.64 18.480549,-34.366306,548.64 18.481806,-34.366196,548.64 18.488789,-34.366539,548.64 18.489878,-34.366516,548.64 18.497658,-34.365467,518.16 18.498566,-34.365097,518.16 18.502121,-34.362766,518.16 18.502865,-34.361881,518.16 18.504452,-34.358139,518.16 18.504696,-34.356853,518.16 18.504696,-34.352386,518.16 18.504507,-34.351089,518.16 18.503498,-34.346649,518.16 18.503208,-34.345451,518.16 18.501949,-34.341167,518.16 18.501593,-34.339874,518.16 18.499855,-34.333145,518.16 18.498917,-34.32962,518.16 18.495426,-34.31575,548.64 18.494282,-34.31142,548.64 18.491249,-34.297733,548.64 18.490551,-34.293915,548.64 18.487415,-34.276226,579.12 18.486628,-34.271713,579.12 18.484154,-34.255512,548.64 18.48332,-34.250977,579.12 18.479748,-34.234005,579.12 18.478891,-34.230515,579.12 18.474426,-34.214218,548.64 18.473566,-34.210464,548.64 18.471279,-34.199741,548.64 18.471165,-34.198669,548.64 18.470764,-34.193619,518.16 18.470709,-34.19252,518.16 18.470484,-34.187302,518.16 18.470478,-34.186241,518.16 18.470539,-34.175674,548.64 18.470592,-34.172462,548.64 18.471548,-34.154434,518.16 18.471886,-34.149719,518.16 18.473343,-34.135574,487.68 18.473625,-34.134289,487.68 18.474745,-34.129623,487.68 18.474998,-34.128517,487.68 18.476089,-34.124084,487.68 18.47637,-34.12294,487.68 18.480125,-34.110443,487.68 18.480629,-34.109528,487.68 18.483238,-34.105705,487.68 18.484039,-34.104729,487.68 18.487415,-34.101238,457.2 18.488331,-34.100445,457.2 18.491953,-34.09726,457.2 18.492737,-34.096535,457.2 18.496284,-34.093136,457.2 18.498802,-34.090485,426.72 18.502714,-34.086273,396.24 18.503437,-34.085503,396.24 18.515774,-34.072632,335.28 18.518578,-34.069885,335.28 18.528778,-34.060181,335.28 18.531647,-34.057339,304.8 18.539028,-34.049286,304.8 18.539772,-34.048355,335.28 18.54538,-34.041836,335.28 18.54847,-34.037926,304.8 18.559496,-34.024475,304.8 18.562374,-34.021305,304.8 18.574125,-34.008362,304.8 18.577433,-34.004654,304.8 18.584347,-33.998447,274.32 18.585224,-33.997925,274.32 18.590044,-33.995361,274.32 18.591557,-33.994633,274.32 18.59621,-33.992935,274.32 18.597622,-33.992443,274.32 18.602428,-33.99091,274.32 18.603973,-33.990444,274.32 18.608934,-33.989044,274.32 18.610096,-33.98872,274.32 18.618164,-33.98658,274.32 18.622742,-33.985462,274.32 18.639278,-33.981644,274.32 18.643284,-33.980759,274.32 18.660614,-33.976456,304.8 18.662853,-33.975826,304.8 18.674011,-33.972893,304.8 18.679224,-33.971558,304.8 18.696785,-33.967026,304.8 18.701649,-33.965675,304.8 18.719975,-33.960159,335.28 18.723507,-33.959114,335.28 18.738359,-33.953842,365.76 18.743517,-33.952103,365.76 18.761454,-33.946335,396.24 18.765335,-33.945053,396.24 18.782043,-33.940445,396.24 18.785837,-33.939514,396.24 18.801842,-33.936302,396.24 18.805962,-33.935558,396.24 18.817234,-33.933975,396.24 18.820095,-33.933601,396.24 18.832054,-33.932114,396.24 18.836004,-33.931549,426.72 18.854313,-33.928669,426.72 18.858261,-33.928062,457.2 18.873539,-33.926292,457.2 18.875027,-33.926155,457.2 18.880577,-33.925827,487.68 18.884811,-33.925594,487.68 18.902706,-33.925003,487.68 18.908443,-33.924618,487.68 18.919373,-33.923546,487.68 18.9207,-33.923309,487.68 18.925381,-33.921406,518.16 18.926353,-33.920895,518.16 18.930931,-33.918331,487.68 18.93219,-33.917633,487.68 18.937067,-33.915436,487.68 18.941746,-33.913399,518.16 18.949005,-33.91008,487.68 18.953434,-33.907883,487.68 19.089361,-33.89035,457.2 19.092922,-33.891331,457.2 19.073162,-33.887924,457.2 19.071705,-33.887787,457.2 19.065514,-33.887238,457.2 19.063339,-33.887051,457.2 19.051189,-33.886368,487.68 19.048107,-33.88623,487.68 18.970585,-33.900738,457.2 18.966179,-33.902554,457.2 18.947811,-33.909626,457.2 18.946316,-33.910126,457.2 18.93247,-33.914658,457.2 18.928099,-33.916077,457.2 18.916512,-33.920147,487.68 18.914927,-33.920517,457.2 18.909588,-33.921543,457.2 18.908312,-33.921799,457.2 18.903008,-33.92271,457.2 18.90152,-33.922943,426.72 18.884869,-33.925873,426.72 18.880749,-33.926666,426.72 18.860163,-33.93013,426.72 18.855686,-33.930855,426.72 18.837797,-33.933655,396.24 18.833761,-33.934387,396.24 18.81609,-33.938305,396.24 18.810883,-33.939514,396.24 18.790741,-33.94445,426.72 18.787651,-33.945148,426.72 18.783707,-33.944,426.72 18.783091,-33.943268,426.72 18.782249,-33.939972,426.72 18.782158,-33.93914,426.72 18.780903,-33.936584,457.2 18.780287,-33.936676,457.2 18.780231,-33.938873,426.72 18.780441,-33.939606,426.72 18.781183,-33.942169,426.72 18.781353,-33.94281,426.72 18.781801,-33.945282,396.24 18.781815,-33.945984,396.24 18.781185,-33.948265,396.24 18.780567,-33.948898,396.24 18.777409,-33.950546,396.24 18.77655,-33.950825,396.24 18.77244,-33.952286,365.76 18.771229,-33.952641,365.76 18.767109,-33.953854,365.76 18.765965,-33.954178,365.76 18.761566,-33.955261,335.28 18.7603,-33.955528,335.28 18.755905,-33.956131,365.76 18.754335,-33.956314,365.76 18.749458,-33.956635,365.76 18.74794,-33.956692,365.76 18.742676,-33.956909,365.76 18.738417,-33.957413,365.76 18.730568,-33.958466,335.28 18.729515,-33.958599,365.76 18.718405,-33.959885,335.28 18.714294,-33.960323,335.28 18.695183,-33.962559,335.28 18.689976,-33.962978,335.28 18.67527,-33.964931,304.8 18.674067,-33.965103,304.8 18.659101,-33.966705,304.8 18.657867,-33.966797,304.8 18.652206,-33.967117,304.8 18.648548,-33.967354,304.8 18.638641,-33.968765,304.8 18.637465,-33.96904,304.8 18.63224,-33.970379,274.32 18.630795,-33.970825,304.8 18.625862,-33.972198,304.8 18.624405,-33.972565,304.8 18.619247,-33.974167,274.32 18.617992,-33.974613,274.32 18.613014,-33.976616,274.32 18.611813,-33.977081,274.32 18.606581,-33.979019,274.32 18.605627,-33.979385,243.84 18.597279,-33.9809,243.84 18.59593,-33.980667,274.32 18.590605,-33.978424,274.32 18.589428,-33.977829,274.32 18.584805,-33.974941,274.32 18.583488,-33.97401,274.32 18.579115,-33.970688,274.32 18.578106,-33.96991,274.32 18.571758,-33.968285,304.8 18.570557,-33.968563,274.32 18.565521,-33.970425,274.32 18.564373,-33.970871,274.32 18.559628,-33.972847,304.8 18.55854,-33.973263,304.8 18.553835,-33.975174,304.8 18.548813,-33.977036,304.8 18.531021,-33.982956,335.28 18.527126,-33.984112,335.28 18.521748,-33.985462,335.28 18.520483,-33.985748,365.76 18.51511,-33.986996,365.76 18.513851,-33.987228,365.76 18.508488,-33.988266,396.24 18.507254,-33.988449,396.24 18.501549,-33.989044,396.24 18.500175,-33.98914,396.24 18.494797,-33.988628,426.72 18.49369,-33.988129,426.72 18.490391,-33.984764,457.2 18.48999,-33.984066,457.2 18.488503,-33.979828,457.2 18.488159,-33.978573,457.2 18.487129,-33.974197,457.2 18.486795,-33.972748,457.2 18.485899,-33.968262,457.2 18.485561,-33.966797,457.2 18.482208,-33.949944,487.68 18.481464,-33.947613,487.68 18.479748,-33.94305,487.68 18.47929,-33.941936,487.68 18.477001,-33.936909,457.2 18.476543,-33.935978,457.2 18.47374,-33.931366,426.72 18.473007,-33.930313,426.72 18.469677,-33.925922,426.72 18.468933,-33.924896,396.24 18.465385,-33.920567,396.24 18.464527,-33.919498,396.24 18.455126,-33.907837,335.28 18.452547,-33.904724,304.8 18.443243,-33.892502,243.84 18.442457,-33.891769,243.84 18.438663,-33.889519,213.36 18.437805,-33.889191,213.36 18.4342,-33.889935,213.36 18.433914,-33.890263,213.36 18.433266,-33.891724,213.36 18.433153,-33.892136,213.36 18.432873,-33.8936,213.36 18.43276,-33.894058,213.36 18.432144,-33.895706,182.88 18.431969,-33.895988,182.88 18.430767,-33.897106,152.4 18.430481,-33.897243,152.4 18.429108,-33.898129,121.92 18.428707,-33.898407,121.92 18.427105,-33.89999,91.44 18.426991,-33.900318,91.44 18.427792,-33.900829,60.96 18.429165,-33.901249,91.44 18.433096,-33.90184,121.92 18.4338,-33.90176,152.4 18.436832,-33.900455,182.88 18.437525,-33.899872,182.88 18.439121,-33.896873,213.36 18.439293,-33.895756,213.36 18.438778,-33.892033,243.84 18.438435,-33.891052,243.84 18.436489,-33.887283,274.32 18.436012,-33.886459,274.32 18.433456,-33.882534,304.8 18.432884,-33.881603,335.28 18.430014,-33.878311,365.76 18.429165,-33.877647,365.76 18.424873,-33.87532,396.24 18.423679,-33.874878,396.24 18.418636,-33.873688,426.72 18.417515,-33.87355,426.72 18.412638,-33.873459,457.2 18.411461,-33.873596,457.2 18.406303,-33.874741,487.68 18.405071,-33.875107,487.68 18.400784,-33.876667,518.16 18.399521,-33.877167,518.16 18.395317,-33.879318,548.64 18.394253,-33.879913,548.64 18.390312,-33.882488,579.12 18.389488,-33.883072,579.12 18.385956,-33.885956,579.12 18.384892,-33.886871,579.12 18.381214,-33.89045,579.12 18.380356,-33.891331,579.12 18.377213,-33.894791,609.6 18.376522,-33.895569,609.6 18.373489,-33.899292,609.6 18.372896,-33.900101,609.6 18.369884,-33.904228,609.6 18.369253,-33.90509,609.6 18.366909,-33.908928,609.6 18.366507,-33.909622,609.6 18.364105,-33.913864,609.6 18.363647,-33.914795,609.6 18.358727,-33.923874,640.08 18.357258,-33.926971,640.08 18.353863,-33.934345,640.08 18.353502,-33.935303,640.08 18.348738,-33.948853,670.56 18.347616,-33.951645,701.04 18.342304,-33.967957,731.52 18.344309,-33.969452,762 18.351059,-33.962791,731.52 18.351259,-33.962265,731.52 18.353577,-33.956272,731.52 18.35392,-33.955204,731.52 18.355408,-33.950455,701.04 18.355633,-33.949631,701.04 18.358938,-33.939148,640.08 18.360443,-33.935326,640.08 18.363705,-33.927273,609.6 18.364162,-33.926247,609.6 18.368805,-33.91658,609.6 18.369427,-33.915401,609.6 18.37183,-33.911304,579.12 18.372459,-33.910233,579.12 18.375092,-33.906231,579.12 18.37595,-33.904972,579.12 18.378811,-33.901062,548.64 18.379454,-33.90033,548.64 18.382874,-33.896408,518.16 18.383732,-33.895615,518.16 18.388081,-33.89259,518.16 18.389111,-33.892078,518.16 18.394085,-33.889709,518.16 18.395462,-33.889099,518.16 18.400026,-33.887238,518.16 18.401258,-33.88678,518.16 18.406048,-33.885002,518.16 18.407421,-33.884491,518.16 18.412228,-33.882812,487.68 18.413601,-33.882393,487.68 18.418636,-33.881046,457.2 18.419838,-33.880764,457.2 18.424873,-33.880394,426.72 18.425674,-33.880486,426.72 18.429508,-33.882069,365.76 18.430252,-33.882721,365.76 18.43174,-33.885326,335.28 18.431911,-33.88612,335.28 18.432087,-33.889206,274.32 18.432087,-33.89003,274.32 18.432026,-33.892868,213.36 18.431969,-33.893661,213.36 18.430939,-33.8965,152.4 18.430481,-33.89706,121.92 18.428164,-33.899002,91.44 18.42738,-33.899734,91.44 18.427309,-33.900799,0 18.427521,-33.900761,0 18.429909,-33.901386,121.92 18.430799,-33.90152,121.92 18.433456,-33.901714,182.88 18.434162,-33.901703,182.88 18.436775,-33.90097,243.84 18.437357,-33.900467,243.84 18.438492,-33.897663,274.32 18.438478,-33.896896,274.32 18.437977,-33.893333,304.8 18.43775,-33.892502,304.8 18.436661,-33.889004,335.28 18.43618,-33.888016,335.28 18.433857,-33.884861,365.76 18.432985,-33.883759,365.76 18.430349,-33.8806,396.24 18.42951,-33.879776,396.24 18.425903,-33.876621,396.24 18.424988,-33.875923,396.24 18.420811,-33.87392,426.72 18.419209,-33.873409,426.72 18.414345,-33.872665,457.2 18.413198,-33.872726,457.2 18.407873,-33.873871,487.68 18.407135,-33.874107,487.68 18.403072,-33.87569,518.16 18.401932,-33.876205,518.16 18.397751,-33.878159,518.16 18.396778,-33.878716,548.64 18.39257,-33.881058,548.64 18.391571,-33.881649,548.64 18.387918,-33.884079,579.12 18.386879,-33.884769,579.12 18.383377,-33.887421,579.12 18.382473,-33.888168,579.12 18.379005,-33.891129,609.6 18.378239,-33.8918,609.6 18.375092,-33.894962,609.6 18.374186,-33.895889,609.6 18.371143,-33.899292,609.6 18.370342,-33.900272,609.6 18.367571,-33.903717,609.6 18.366966,-33.904507,609.6 18.36404,-33.90834,579.12 18.363255,-33.909485,579.12 18.360729,-33.913303,579.12 18.360117,-33.914337,579.12 18.357651,-33.918549,579.12 18.35709,-33.919464,579.12 18.354904,-33.923721,579.12 18.354378,-33.924942,579.12 18.352716,-33.92894,579.12 18.352318,-33.929924,579.12 18.350773,-33.934113,579.12 18.350307,-33.935623,579.12 18.35014,-33.941345,640.08 18.351059,-33.941982,640.08 18.354263,-33.940956,701.04 18.354893,-33.940399,701.04 18.356977,-33.937408,701.04 18.357525,-33.936348,731.52 18.358995,-33.933105,762 18.359356,-33.932392,762 18.360565,-33.928894,792.48 18.360729,-33.927971,792.48 18.361126,-33.924454,822.96 18.361187,-33.923641,822.96 18.36348,-33.920883,914.4 18.36422,-33.920986,914.4 18.365822,-33.922943,944.88 18.365879,-33.923733,914.4 18.36544,-33.927887,914.4 18.365192,-33.928852,914.4 18.363876,-33.933647,883.92 18.363535,-33.934662,883.92 18.362217,-33.93919,883.92 18.36191,-33.940247,883.92 18.356609,-33.961067,853.44 18.355293,-33.966423,853.44 18.349915,-33.990097,792.48 18.348961,-33.998566,762 18.349171,-34.005524,762 18.349228,-34.006687,762 18.349802,-34.011475,731.52 18.349972,-34.012833,731.52 18.350487,-34.017071,731.52 18.350658,-34.018093,731.52 18.352718,-34.030708,731.52 18.353348,-34.034622,731.52 18.355751,-34.049656,701.04 18.356642,-34.05336,701.04 18.357929,-34.057617,701.04 18.358379,-34.05899,701.04 18.359985,-34.063156,731.52 18.360453,-34.064117,731.52 18.362446,-34.067951,731.52 18.363087,-34.069107,731.52 18.36565,-34.073257,731.52 18.366169,-34.074097,731.52 18.368805,-34.078262,731.52 18.371271,-34.082108,731.52 18.3771,-34.09021,701.04 18.377773,-34.09108,701.04 18.380743,-34.094833,701.04 18.381416,-34.095703,701.04 18.384991,-34.099514,731.52 18.385792,-34.100307,701.04 18.389601,-34.103622,701.04 18.390553,-34.104401,701.04 18.394718,-34.107662,701.04 18.395653,-34.108292,701.04 18.399969,-34.111221,670.56 18.401012,-34.111851,670.56 18.405743,-34.114746,640.08 18.407021,-34.115482,640.08 18.411629,-34.118134,640.08 18.416176,-34.120834,609.6 18.431583,-34.129395,579.12 18.432816,-34.12999,579.12 18.437576,-34.131962,548.64 18.438646,-34.132324,548.64 18.444082,-34.133194,548.64 18.445244,-34.133171,548.64 18.450623,-34.132332,548.64 18.451824,-34.131962,548.64 18.456919,-34.129715,548.64 18.458096,-34.129028,548.64 18.462353,-34.126095,548.64 18.463253,-34.125366,548.64 18.467331,-34.121395,579.12 18.468075,-34.120556,579.12 18.471268,-34.11676,579.12 18.471998,-34.115891,579.12 18.475304,-34.111908,579.12 18.475977,-34.110764,579.12 18.477659,-34.106506,579.12 18.477917,-34.105194,579.12 18.478432,-34.10054,579.12 18.478546,-34.09919,579.12 18.478661,-34.094112,579.12 18.478668,-34.093094,579.12 18.478775,-34.088108,548.64 18.478947,-34.084572,548.64 18.479977,-34.067532,518.16 18.480013,-34.06311,518.16 18.479845,-34.048141,548.64 18.479977,-34.04356,548.64 18.480797,-34.030197,579.12 18.481022,-34.026627,579.12 18.482367,-34.010193,548.64 18.482479,-34.006714,548.64 18.482985,-33.990326,548.64 18.483152,-33.986572,548.64 18.483994,-33.969452,518.16 18.483936,-33.965881,487.68 18.483582,-33.960648,457.2 18.483488,-33.959564,457.2 18.482759,-33.954391,457.2 18.482552,-33.953293,457.2 18.481638,-33.948441,426.72 18.481407,-33.947243,426.72 18.479633,-33.93821,396.24 18.478611,-33.934387,396.24 18.475864,-33.929031,396.24 18.475227,-33.928108,396.24 18.472023,-33.924244,396.24 18.470936,-33.923126,396.24 18.466896,-33.919281,396.24 18.465775,-33.918228,396.24 18.462067,-33.91433,396.24 18.459385,-33.911407,396.24 18.450336,-33.90134,396.24 18.44759,-33.898361,365.76 18.440838,-33.892124,304.8 18.439808,-33.89175,304.8 18.435787,-33.891678,304.8 18.435003,-33.891998,274.32 18.432257,-33.894104,213.36 18.431976,-33.894424,213.36 18.429623,-33.896824,152.4 18.429222,-33.897198,152.4 18.427277,-33.89962,91.44 18.427155,-33.899963,91.44 18.427254,-33.900753,0 18.427464,-33.900761,0 18.427505,-33.89957,91.44 18.427883,-33.899139,91.44 18.429453,-33.896759,121.92 18.429794,-33.896221,121.92 18.431808,-33.892776,152.4 18.432198,-33.891937,182.88 18.433882,-33.88829,213.36 18.434258,-33.887375,213.36 18.434372,-33.884026,243.84 18.434029,-33.883091,243.84 18.431751,-33.880096,274.32 18.431053,-33.879555,274.32 18.427448,-33.877506,304.8 18.426189,-33.876995,304.8 18.421606,-33.876938,335.28 18.420181,-33.877087,365.76 18.416168,-33.877533,396.24 18.414936,-33.87767,396.24 18.411404,-33.878769,457.2 18.41118,-33.879364,457.2 18.413372,-33.881279,487.68 18.414207,-33.88147,487.68 18.417892,-33.881695,518.16 18.418747,-33.881653,548.64 18.421606,-33.880371,579.12 18.421886,-33.879501,579.12 18.419609,-33.876762,548.64 18.418579,-33.876343,548.64 18.413773,-33.87569,548.64 18.412571,-33.875736,548.64 18.407368,-33.876434,548.64 18.405933,-33.876717,579.12 18.401258,-33.878128,579.12 18.400194,-33.878494,579.12 18.39543,-33.881378,579.12 18.394756,-33.882248,579.12 18.392315,-33.885838,579.12 18.391617,-33.886963,579.12 18.390999,-33.891285,579.12 18.391281,-33.892136,579.12 18.394533,-33.89502,609.6 18.395597,-33.895248,609.6 18.399857,-33.8936,579.12 18.40044,-33.892731,548.64 18.399073,-33.889252,548.64 18.398037,-33.888866,548.64 18.393345,-33.889145,518.16 18.391914,-33.889469,518.16 18.387051,-33.891239,518.16 18.385508,-33.891953,518.16 18.381023,-33.894333,518.16 18.380127,-33.894871,518.16 18.375698,-33.897812,518.16 18.374969,-33.898315,518.16 18.371159,-33.901382,487.68 18.370037,-33.902435,487.68 18.367138,-33.90567,487.68 18.366108,-33.906975,487.68 18.363703,-33.910675,487.68 18.363199,-33.911499,487.68 18.361181,-33.91539,518.16 18.360615,-33.916424,518.16 18.358547,-33.920059,518.16 18.357067,-33.922802,548.64 18.350811,-33.934891,579.12 18.349689,-33.938965,579.12 18.352436,-33.941299,640.08 18.353634,-33.941238,640.08 18.357258,-33.938965,640.08 18.357874,-33.938187,640.08 18.359612,-33.934433,670.56 18.359928,-33.933369,701.04 18.360901,-33.929459,701.04 18.361069,-33.928299,731.52 18.36062,-33.925003,762 18.359947,-33.924316,762 18.356438,-33.924057,792.48 18.355352,-33.924728,762 18.353062,-33.928204,762 18.352661,-33.929085,762 18.350979,-33.933334,731.52 18.350531,-33.934616,731.52 18.348793,-33.939148,731.52 18.348457,-33.940155,701.04 18.346424,-33.947102,701.04 18.346214,-33.948303,670.56 18.345655,-33.953247,670.56 18.345165,-33.958134,670.56 18.34515,-33.969086,670.56 18.345451,-33.971916,670.56 18.347855,-33.982807,640.08 18.348598,-33.985275,640.08 18.353725,-33.997604,701.04 18.353691,-34.004875,701.04 18.353109,-34.01033,701.04 18.353109,-34.011337,701.04 18.353119,-34.017117,701.04 18.353165,-34.018112,701.04 18.353165,-34.02475,701.04 18.353119,-34.027824,701.04 18.354034,-34.033318,670.56 18.354231,-34.034271,670.56 18.355072,-34.038986,670.56 18.355236,-34.039974,670.56 18.356304,-34.047043,670.56 18.356472,-34.048325,670.56 18.35877,-34.059631,701.04 18.359127,-34.060875,701.04 18.360788,-34.065491,701.04 18.361294,-34.066681,670.56 18.363361,-34.070698,701.04 18.363983,-34.071854,701.04 18.366449,-34.075699,701.04 18.367178,-34.076752,701.04 18.369814,-34.080368,701.04 18.370375,-34.081192,701.04 18.374119,-34.086575,701.04 18.376371,-34.089478,701.04 18.381752,-34.09584,701.04 18.38253,-34.096722,701.04 18.385963,-34.100353,701.04 18.386574,-34.100967,731.52 18.390217,-34.104309,731.52 18.391281,-34.105225,731.52 18.395262,-34.108292,731.52 18.396103,-34.108978,731.52 18.400307,-34.112045,701.04 18.401316,-34.112732,701.04 18.40868,-34.117718,701.04 18.409824,-34.118462,670.56 18.414598,-34.121338,670.56 18.418922,-34.123909,640.08 18.422951,-34.126099,640.08 18.425388,-34.127399,640.08 18.431625,-34.130424,609.6 18.432705,-34.130859,609.6 18.437061,-34.132519,609.6 18.438091,-34.132847,609.6 18.443018,-34.133972,609.6 18.4445,-34.134056,609.6 18.449745,-34.133377,609.6 18.451258,-34.132919,609.6 18.456287,-34.130798,609.6 18.457367,-34.130219,609.6 18.462009,-34.127026,609.6 18.463039,-34.126236,609.6 18.46693,-34.122604,609.6 18.468018,-34.121441,609.6 18.47138,-34.117401,579.12 18.472221,-34.116165,579.12 18.474827,-34.11171,579.12 18.475342,-34.110641,579.12 18.477266,-34.106094,579.12 18.477688,-34.104683,579.12 18.478546,-34.099747,579.12 18.478611,-34.098587,579.12 18.478836,-34.093781,548.64 18.478836,-34.092361,548.64 18.478949,-34.087463,548.64 18.479004,-34.086201,548.64 18.480434,-34.070652,548.64 18.480892,-34.067066,579.12 18.48238,-34.049889,579.12 18.482592,-34.046448,579.12 18.484097,-34.030243,579.12 18.484552,-34.026535,579.12 18.485899,-34.008957,609.6 18.485899,-34.005432,609.6 18.485842,-33.991745,579.12 18.48587,-33.986813,579.12 18.485786,-33.968719,518.16 18.485674,-33.967346,518.16 18.485058,-33.96254,518.16 18.484833,-33.961258,518.16 18.483768,-33.956085,518.16 18.483488,-33.955032,518.16 18.481806,-33.949814,487.68 18.481464,-33.948963,487.68 18.479347,-33.943798,487.68 18.478779,-33.942535,457.2 18.477827,-33.936172,457.2 18.477859,-33.934811,457.2 18.475922,-33.927063,426.72 18.475113,-33.925594,426.72 18.471828,-33.921066,396.24 18.470709,-33.919922,396.24 18.466505,-33.915985,365.76 18.465385,-33.914982,365.76 18.460979,-33.911118,365.76 18.460003,-33.910172,365.76 18.454565,-33.9039,335.28 18.453669,-33.902847,335.28 18.448448,-33.897243,304.8 18.447222,-33.896484,304.8 18.442402,-33.895752,274.32 18.44128,-33.895981,274.32 18.436628,-33.897171,213.36 18.435917,-33.897385,182.88 18.431511,-33.898872,121.92 18.428593,-33.899757,91.44 18.426874,-33.900787,91.44 18.426903,-33.900993,0 18.43174,-33.899155,121.92 18.434443,-33.898041,121.92 18.436775,-33.895802,152.4 18.437119,-33.895149,152.4 18.437634,-33.891285,182.88 18.43758,-33.890305,182.88 18.436684,-33.886368,213.36 18.436348,-33.88559,213.36 18.434162,-33.882294,243.84 18.433434,-33.881516,243.84 18.430014,-33.878906,274.32 18.429108,-33.878391,274.32 18.424873,-33.876995,274.32 18.423792,-33.876801,304.8 18.418865,-33.876484,335.28 18.417683,-33.876526,335.28 18.412973,-33.877029,365.76 18.411942,-33.877228,365.76 18.406219,-33.878716,396.24 18.405247,-33.879044,396.24 18.400026,-33.880875,426.72 18.398905,-33.881332,426.72 18.394924,-33.883072,457.2 18.393803,-33.88356,457.2 18.390104,-33.885498,487.68 18.389053,-33.886074,487.68 18.385452,-33.888336,487.68 18.384418,-33.888958,487.68 18.3808,-33.891449,518.16 18.379841,-33.89217,518.16 18.376465,-33.894779,518.16 18.375643,-33.895523,518.16 18.372517,-33.898174,548.64 18.371773,-33.898872,548.64 18.368626,-33.901993,548.64 18.367767,-33.902924,548.64 18.365192,-33.906044,579.12 18.364563,-33.906975,579.12 18.36219,-33.9104,579.12 18.361702,-33.911163,579.12 18.359667,-33.914658,579.12 18.359163,-33.915573,579.12 18.357296,-33.91917,579.12 18.35681,-33.920242,609.6 18.355127,-33.923813,609.6 18.354679,-33.924728,609.6 18.352776,-33.92918,609.6 18.352375,-33.930298,609.6 18.349298,-33.938461,640.08 18.347897,-33.942261,640.08 18.342684,-33.957001,670.56 18.340874,-33.961906,670.56 18.345991,-33.968765,731.52 18.348312,-33.967354,701.04 18.352432,-33.959251,701.04 18.352833,-33.958275,701.04 18.354679,-33.953476,701.04 18.355064,-33.952457,670.56 18.359585,-33.940445,640.08 18.361349,-33.935715,640.08 18.368076,-33.920013,609.6 18.368511,-33.919079,609.6 18.370972,-33.914749,609.6 18.371494,-33.913834,609.6 18.374073,-33.909531,609.6 18.374746,-33.908524,609.6 18.377609,-33.904739,609.6 18.378334,-33.903992,609.6 18.381958,-33.900318,609.6 18.382759,-33.89957,609.6 18.386936,-33.895847,609.6 18.387806,-33.895111,609.6 18.392626,-33.891678,579.12 18.393635,-33.891083,579.12 18.398737,-33.888474,579.12 18.399982,-33.887981,579.12 18.405239,-33.886093,548.64 18.406734,-33.885654,548.64 18.411684,-33.884308,487.68 18.412971,-33.884026,487.68 18.418076,-33.882889,426.72 18.419083,-33.882706,426.72 18.424015,-33.882069,396.24 18.425217,-33.882114,396.24 18.428707,-33.883278,365.76 18.429285,-33.883804,365.76 18.430407,-33.886505,304.8 18.430519,-33.887146,304.8 18.430824,-33.889984,243.84 18.430882,-33.890728,243.84 18.43071,-33.893566,213.36 18.43071,-33.894032,182.88 18.430424,-33.896545,152.4 18.429958,-33.89859,121.92 18.428444,-33.900284,91.44 18.428108,-33.900467,91.44 18.431135,-33.901566,121.92 18.433153,-33.901886,152.4 18.43626,-33.901901,213.36 18.437021,-33.901703,213.36 18.439636,-33.899807,243.84 18.440266,-33.898735,243.84 18.440723,-33.894779,243.84 18.440437,-33.893661,243.84 18.438835,-33.889565,274.32 18.438263,-33.888584,274.32 18.435675,-33.884628,304.8 18.435001,-33.883793,304.8 18.431696,-33.880554,335.28 18.430538,-33.879696,335.28 18.426361,-33.87746,335.28 18.425249,-33.877121,335.28 18.420261,-33.876343,335.28 18.419037,-33.876343,365.76 18.414207,-33.876755,365.76 18.412861,-33.876984,365.76 18.406023,-33.878677,426.72 18.40519,-33.878948,426.72 18.400923,-33.880646,426.72 18.399811,-33.881138,426.72 18.395748,-33.883278,457.2 18.394644,-33.883896,457.2 18.391056,-33.886024,487.68 18.390541,-33.886353,487.68 18.386993,-33.888821,518.16 18.386068,-33.889526,518.16 18.382929,-33.892136,518.16 18.382244,-33.892681,518.16 18.378983,-33.895615,518.16 18.377953,-33.896545,518.16 18.374969,-33.899506,518.16 18.374241,-33.900238,548.64 18.371439,-33.903305,518.16 18.370743,-33.904133,548.64 18.368076,-33.907425,548.64 18.36729,-33.908478,548.64 18.364937,-33.911636,548.64 18.364264,-33.912552,548.64 18.362135,-33.91571,579.12 18.361462,-33.916763,579.12 18.359444,-33.920059,579.12 18.358938,-33.920883,579.12 18.35701,-33.924526,609.6 18.356609,-33.925362,609.6 18.355007,-33.928947,609.6 18.354511,-33.930038,609.6 18.352942,-33.933838,609.6 18.352547,-33.934765,609.6 18.350201,-33.940956,640.08 18.348738,-33.944824,640.08 18.34259,-33.962139,670.56 18.340778,-33.967255,670.56 18.345623,-33.972427,731.52 18.347616,-33.970505,701.04 18.352436,-33.959793,670.56 18.353445,-33.956955,640.08 18.357239,-33.946171,640.08 18.359051,-33.941528,609.6 18.365707,-33.925968,609.6 18.367538,-33.921825,579.12 18.372841,-33.911911,579.12 18.373604,-33.910652,579.12 18.376259,-33.906784,579.12 18.377213,-33.905594,579.12 18.380463,-33.901749,548.64 18.381361,-33.900787,579.12 18.385105,-33.897243,548.64 18.385849,-33.896641,548.64 18.390217,-33.893326,548.64 18.391342,-33.892635,548.64 18.396158,-33.889755,548.64 18.397465,-33.888958,548.64 18.402386,-33.887329,518.16 18.403988,-33.887283,518.16 18.409386,-33.886826,487.68 18.410955,-33.886551,487.68 18.416462,-33.885281,487.68 18.418007,-33.884956,457.2 18.427099,-33.883987,396.24 18.428164,-33.884171,365.76 18.430855,-33.886139,335.28 18.431225,-33.886909,335.28 18.431683,-33.889751,274.32 18.43174,-33.890587,243.84 18.431797,-33.893566,213.36 18.431696,-33.894241,213.36 18.430407,-33.896805,182.88 18.429453,-33.897675,152.4 18.427334,-33.899807,91.44 18.427162,-33.900085,91.44 18.426903,-33.901039,0 18.427448,-33.901016,91.44 18.432367,-33.901749,182.88 18.433399,-33.90176,182.88 18.43646,-33.901245,213.36 18.437021,-33.900787,213.36 18.438148,-33.897385,243.84 18.438091,-33.896454,243.84 18.437405,-33.892963,274.32 18.437176,-33.891937,274.32 18.435974,-33.887981,304.8 18.435574,-33.887096,304.8 18.433321,-33.88353,335.28 18.432537,-33.882568,335.28 18.428669,-33.879272,335.28 18.428078,-33.878902,335.28 18.422813,-33.876949,365.76 18.421438,-33.876709,396.24 18.416506,-33.87648,396.24 18.415432,-33.876575,396.24 18.408937,-33.877945,426.72 18.407993,-33.87825,426.72 18.403502,-33.879822,457.2 18.402493,-33.880188,457.2 18.398289,-33.881836,457.2 18.397064,-33.882442,457.2 18.392887,-33.885139,457.2 18.392086,-33.885979,457.2 18.389339,-33.889145,457.2 18.388367,-33.89003,457.2 18.38459,-33.892822,457.2 18.383657,-33.893463,457.2 18.379841,-33.896221,457.2 18.37923,-33.896713,457.2 18.37385,-33.901245,487.68 18.373064,-33.901932,487.68 18.369701,-33.905365,487.68 18.369026,-33.906136,487.68 18.366222,-33.909302,487.68 18.365536,-33.910091,487.68 18.362961,-33.91349,518.16 18.362389,-33.91433,518.16 18.360228,-33.91777,518.16 18.359612,-33.918732,518.16 18.357538,-33.922302,548.64 18.357124,-33.923126,548.64 18.354664,-33.927738,548.64 18.354149,-33.928669,548.64 18.350195,-33.937271,579.12 18.349354,-33.939423,579.12 18.345095,-33.949036,609.6 18.343964,-33.95171,609.6 18.33691,-33.970047,701.04 18.336798,-33.971054,762 18.344589,-33.965698,701.04 18.346327,-33.963272,670.56 18.352381,-33.952011,640.08 18.352886,-33.950821,640.08 18.354847,-33.946518,640.08 18.355522,-33.945007,640.08 18.362974,-33.928619,609.6 18.36462,-33.92527,579.12 18.371832,-33.911636,548.64 18.373203,-33.909393,548.64 18.37801,-33.901806,548.64 18.378696,-33.900875,548.64 18.381752,-33.896942,518.16 18.382706,-33.895889,518.16 18.386461,-33.892227,487.68 18.387638,-33.89122,487.68 18.392086,-33.888447,457.2 18.393288,-33.887936,426.72 18.398151,-33.886864,396.24 18.399578,-33.886642,396.24 18.404902,-33.885773,365.76 18.406277,-33.885513,365.76 18.411236,-33.884491,335.28 18.416462,-33.883419,335.28 18.425045,-33.882301,335.28 18.426075,-33.882256,335.28 18.429852,-33.883045,335.28 18.430595,-33.883698,335.28 18.431528,-33.886139,335.28 18.431583,-33.886551,335.28 18.431416,-33.889297,304.8 18.431168,-33.890167,274.32 18.430407,-33.892502,243.84 18.430195,-33.893055,243.84 18.429117,-33.89566,182.88 18.428892,-33.896164,182.88 18.427277,-33.899807,91.44 18.426987,-33.90065,91.44
        </coordinates>
      </LineString>
    </Placemark>
  </Document>
</kml>