<?xml version="1.0" encoding="UTF-8"?>
<kml xmlns="http://www.opengis.net/kml/2.2">
  <Document>
    <name>-/ZTHOT - Optimised</name>
    <description><![CDATA[Optimised flight path with 1826 points (decimated from 9127 original points). Source format: Standard KML]]></description>
    
    <Style id="flightPath">
      <LineStyle>
        <color>ff0000ff</color>
        <width>3</width>
      </LineStyle>
    </Style>
    
    <Placemark>
      <name>Flight Path</name>
      <description><![CDATA[<div style="width:220px; text-align:center;">
<div style="width:210px; text-align:center;">
<div style=" background: #000; color: #fff; font-size: 14px; text-align:left; border: 1px solid #000; padding: 2px 6px; text-shadow: 0 1px 0 #000; box-shadow: 0 1px 3px rgba(0,0,0,0.6); background: -webkit-gradient(linear, left top, left bottom, color-stop(0%,#808080), color-stop(2%,#303030), color-stop(100%,#0c0c0c));"><span style="font-size: 14px; font-weight: bold;"><a href="javascript:void(0);" style="color: #fff; cursor: pointer;text-decoration: none;">-</a></span> / ZTHOT<br/>Cape Town Helicopters</div>

<div style="border-top: 1px solid #005c90; color: #fff; padding-bottom: 5px; box-shadow: 0 0 1px #9BE3F6 inset, 0 1px 0 #9BE3F6 inset, 0 -1px 3px rgba(0,0,0,0.4); background:rgba(43,114,173,1); background: -webkit-gradient(linear, left top, left bottom, color-stop(0%,rgba(92,184,229,1)), color-stop(100%,rgba(43,114,173,1)));">
<a style="text-decoration: none; color: rgb(255, 255, 255); font-size: 12px; width:77px; display: inline-block;" title=" Airport" href="javascript:void(0);/departures"><h3 style="padding: 0px; margin: 10px 0px 0px; font-size: 16px; ">?</h3></a>
<span style="background: url(https://www.flightradar24.com/static/images/userUI_sprite.png?14) no-repeat scroll 0 -464px rgba(0, 0, 0, 0); border: medium none; display: inline-block; height: 16px; width: 45px;"></span>
<a style="text-decoration: none; color: rgb(255, 255, 255); font-size: 12px; width:77px; display: inline-block;" title=" Airport" href="javascript:void(0);/arrivals"><h3 style="padding: 0px; margin: 10px 0px 0px; font-size: 16px;">?</h3></a>
<div style=" margin-top:10px;">
<div style="display: inline-block; font-size: 12px; padding: 0 5px;">
<div>
<span style="color: #c1eaff;" title="Actual Time of Departure">ATD </span>
<span title="2025-03-18 14:16">14:16</span> <span title="Coordinated Universal Time">UTC</span>
</div>
</div>
<div style="display: inline-block; font-size: 12px; padding: 0 5px;">
<div>
<span style="color: #c1eaff;" title="Estimated Time of Arrival">ETA </span>
<span title="2025-03-18 14:40">14:40</span> <span title="Coordinated Universal Time">UTC</span>
</div>
</div>
</div>
<br style="clear: both;"/>
</div>

<div style="display: block;">
<table style="border-collapse: collapse; width: 100%;">
<tr style="border-right: 1px solid #dadada; ">
<td style="background: none repeat scroll 0 0 #dadada; padding: 0; width: 31px;">
<span style="background: url(https://www.flightradar24.com/static/images/userUI_sprite.png?14) no-repeat scroll -208px -464px rgba(0, 0, 0, 0); height: 26px; margin: 8px 0 0 4px; width: 23px; display: block;"></span>
</td>
<td colspan="2" style="border-bottom: 1px solid #dadada; border-left: 1px solid #dadada; color: #666; line-height: 1.1em; padding: 3px 6px; vertical-align: top; font-size: 14px;">
Aircraft<span style="float: right; font-size: 12px;">(AS50)</span><br>
<span style="color: #333; font-size: 16px; font-weight: bold; line-height: 1.3em;">Airbus Helicopters H125</span>
</td>
</tr>
<tr style="border-right: 1px solid #dadada; ">
<td style="background: none repeat scroll 0 0 #dadada; padding: 0; width: 31px;">
<td colspan="2" style="border-bottom: 1px solid #dadada; border-left: 1px solid #dadada; color: #666; line-height: 1.1em; padding: 3px 6px; vertical-align: top; font-size: 14px;">
Registration<br>
<span style="color: #333; font-size: 16px; font-weight: bold; line-height: 1.3em;"><a href="https://www.flightradar24.com/reg/zt-hot" style="text-decoration: none; color: #333;">ZT-HOT</a></span>
</td>
</tr>
</table>
</div>

</div>
</div>]]></description>
      <styleUrl>#flightPath</styleUrl>
      <LineString>
        <extrude>1</extrude>
        <tessellate>1</tessellate>
        <altitudeMode>absolute</altitudeMode>
        <coordinates>
          18.427219,-33.900784,60.96 18.430939,-33.89473,121.92 18.434217,-33.888199,182.88 18.435339,-33.883575,243.84 18.434162,-33.878632,274.32 18.430294,-33.874786,304.8 18.424408,-33.871948,335.28 18.418522,-33.87043,365.76 18.412113,-33.87085,396.24 18.408051,-33.874386,457.2 18.409138,-33.87825,518.16 18.412857,-33.879181,548.64 18.417034,-33.878067,579.12 18.42104,-33.876434,640.08 18.422298,-33.873783,640.08 18.41732,-33.872105,609.6 18.410843,-33.872498,579.12 18.404045,-33.874714,579.12 18.397636,-33.877552,579.12 18.391562,-33.881012,579.12 18.386068,-33.884674,579.12 18.3808,-33.88884,579.12 18.376236,-33.892822,579.12 18.371372,-33.897526,609.6 18.367481,-33.90176,609.6 18.363647,-33.906277,640.08 18.359556,-33.911957,640.08 18.356472,-33.916901,670.56 18.353519,-33.922012,670.56 18.350307,-33.928299,701.04 18.348122,-33.933334,731.52 18.347282,-33.938675,762 18.350979,-33.941574,822.96 18.35552,-33.940063,853.44 18.357874,-33.936264,914.4 18.359413,-33.932205,944.88 18.360117,-33.927887,975.36 18.357697,-33.924339,1005.84 18.352947,-33.925922,1005.84 18.350487,-33.931042,975.36 18.349466,-33.937134,944.88 18.349113,-33.943798,914.4 18.349056,-33.950127,883.92 18.348232,-33.969635,914.4 18.347797,-33.989094,883.92 18.348255,-33.995052,883.92 18.349073,-34.002319,853.44 18.351746,-34.020374,822.96 18.354092,-34.041325,762 18.356136,-34.053223,762 18.357819,-34.059174,762 18.360271,-34.064926,762 18.363705,-34.070885,731.52 18.367195,-34.075867,731.52 18.371159,-34.0811,731.52 18.37904,-34.091133,731.52 18.387863,-34.100876,701.04 18.392796,-34.10527,670.56 18.398666,-34.109943,640.08 18.404566,-34.114197,609.6 18.410452,-34.117996,609.6 18.416336,-34.121613,609.6 18.428535,-34.128609,579.12 18.4359,-34.131912,579.12 18.44313,-34.13356,548.64 18.45005,-34.132381,548.64 18.45619,-34.129303,518.16 18.461403,-34.125641,487.68 18.466448,-34.121063,457.2 18.470428,-34.11644,457.2 18.474184,-34.111404,457.2 18.47683,-34.106125,487.68 18.478443,-34.100922,487.68 18.479233,-34.095417,487.68 18.479507,-34.090302,487.68 18.479691,-34.084663,487.68 18.48175,-34.06525,518.16 18.483582,-34.047237,518.16 18.485451,-34.028091,518.16 18.486683,-34.008453,487.68 18.487637,-33.988083,457.2 18.487301,-33.970703,426.72 18.486271,-33.96051,426.72 18.484552,-33.947388,396.24 18.482037,-33.936348,365.76 18.479633,-33.930298,335.28 18.476538,-33.924637,335.28 18.472252,-33.919498,304.8 18.467045,-33.915073,304.8 18.461781,-33.910465,304.8 18.455294,-33.903809,304.8 18.446941,-33.896942,274.32 18.441067,-33.896358,243.84 18.435955,-33.897537,182.88 18.43111,-33.898827,91.44 18.427391,-33.89999,30.48 18.427048,-33.900551,60.96 18.42923,-33.897125,91.44 18.431416,-33.893646,152.4 18.433825,-33.889297,182.88 18.435284,-33.885178,243.84 18.434275,-33.880371,274.32 18.429958,-33.876343,304.8 18.424633,-33.874969,335.28 18.417963,-33.875198,396.24 18.411404,-33.876526,426.72 18.405182,-33.87822,457.2 18.399017,-33.880234,487.68 18.393412,-33.882706,518.16 18.388195,-33.885559,518.16 18.383041,-33.888977,548.64 18.378222,-33.892502,579.12 18.373203,-33.896408,609.6 18.367767,-33.901108,640.08 18.363535,-33.90509,670.56 18.359642,-33.909489,670.56 18.35598,-33.914143,701.04 18.348177,-33.923401,701.04 18.345205,-33.928619,701.04 18.342291,-33.933929,701.04 18.338871,-33.941471,701.04 18.337841,-33.9478,701.04 18.341446,-33.953247,701.04 18.348513,-33.954437,701.04 18.353004,-33.950176,670.56 18.355463,-33.944458,640.08 18.357819,-33.938232,609.6 18.362358,-33.927155,609.6 18.366108,-33.919544,609.6 18.369196,-33.914429,579.12 18.372561,-33.909622,579.12 18.376579,-33.904648,579.12 18.3811,-33.900131,579.12 18.386068,-33.896072,548.64 18.391571,-33.892216,548.64 18.397694,-33.888821,518.16 18.40395,-33.886322,518.16 18.410625,-33.884537,518.16 18.417683,-33.883575,487.68 18.424746,-33.88353,457.2 18.431911,-33.884724,426.72 18.437357,-33.886963,396.24 18.441124,-33.890308,335.28 18.441868,-33.894547,274.32 18.439207,-33.896896,243.84 18.435173,-33.897991,182.88 18.429565,-33.898819,91.44 18.426931,-33.90033,30.48 18.426762,-33.900597,30.48 18.428421,-33.898407,60.96 18.430349,-33.895203,91.44 18.432426,-33.891148,152.4 18.434217,-33.886871,213.36 18.433434,-33.881882,243.84 18.429737,-33.877785,274.32 18.423792,-33.875244,304.8 18.41757,-33.875198,335.28 18.411068,-33.876526,365.76 18.404734,-33.878586,426.72 18.399128,-33.881104,457.2 18.393688,-33.884258,457.2 18.388996,-33.887421,487.68 18.384418,-33.890961,518.16 18.379959,-33.894745,518.16 18.375549,-33.899014,548.64 18.371662,-33.903214,548.64 18.367939,-33.90786,548.64 18.364544,-33.912598,548.64 18.361473,-33.917542,579.12 18.358727,-33.922382,579.12 18.356081,-33.927429,609.6 18.35367,-33.932648,609.6 18.348064,-33.946243,670.56 18.34857,-33.958694,731.52 18.352268,-33.955215,731.52 18.354206,-33.949802,731.52 18.356249,-33.944046,701.04 18.360733,-33.931503,701.04 18.366001,-33.919052,670.56 18.368683,-33.913956,670.56 18.371719,-33.908936,670.56 18.375149,-33.903667,670.56 18.382257,-33.892639,670.56 18.38871,-33.88961,640.08 18.395748,-33.88747,609.6 18.402828,-33.885727,579.12 18.410168,-33.88435,548.64 18.417549,-33.883373,518.16 18.424873,-33.882858,487.68 18.431797,-33.883743,457.2 18.437302,-33.886414,426.72 18.442039,-33.889797,365.76 18.444386,-33.894127,304.8 18.440895,-33.896919,274.32 18.436348,-33.89772,213.36 18.43174,-33.898457,152.4 18.426987,-33.900375,30.48 18.427267,-33.900009,30.48 18.429173,-33.8974,60.96 18.431168,-33.893845,121.92 18.433228,-33.889469,182.88 18.434486,-33.885235,213.36 18.433714,-33.880737,274.32 18.430855,-33.876343,304.8 18.426203,-33.873459,335.28 18.420372,-33.872955,365.76 18.414488,-33.874191,396.24 18.408937,-33.876389,426.72 18.407368,-33.880005,487.68 18.411293,-33.882935,548.64 18.416061,-33.882767,579.12 18.419756,-33.880966,609.6 18.420092,-33.87735,640.08 18.415833,-33.875061,640.08 18.409367,-33.875877,609.6 18.403782,-33.877899,609.6 18.397751,-33.880905,609.6 18.392029,-33.884304,609.6 18.386936,-33.88784,609.6 18.382015,-33.89175,609.6 18.377436,-33.895981,609.6 18.372974,-33.900688,609.6 18.36858,-33.905731,609.6 18.365021,-33.910419,640.08 18.361742,-33.915298,640.08 18.358898,-33.920242,640.08 18.356094,-33.925594,640.08 18.353634,-33.930996,640.08 18.351345,-33.936443,640.08 18.349689,-33.942215,640.08 18.353634,-33.944729,762 18.355911,-33.941849,792.48 18.35709,-33.937958,822.96 18.358435,-33.933517,853.44 18.36062,-33.930176,944.88 18.364264,-33.930313,1005.84 18.365946,-33.934204,1005.84 18.365049,-33.938965,1005.84 18.363247,-33.944401,975.36 18.361349,-33.949768,975.36 18.354492,-33.969868,914.4 18.349411,-33.988495,853.44 18.34885,-33.994904,822.96 18.348961,-34.001129,792.48 18.349634,-34.007172,792.48 18.350544,-34.013252,762 18.351746,-34.019306,762 18.354836,-34.033504,731.52 18.359947,-34.055099,701.04 18.362961,-34.064182,670.56 18.365307,-34.070095,670.56 18.368111,-34.075726,670.56 18.371544,-34.081264,640.08 18.375263,-34.086338,640.08 18.379326,-34.091785,609.6 18.385906,-34.099514,609.6 18.390778,-34.103668,609.6 18.396263,-34.107567,609.6 18.401642,-34.111057,609.6 18.407078,-34.114273,609.6 18.412514,-34.117344,640.08 18.426132,-34.124466,640.08 18.439095,-34.130676,640.08 18.446388,-34.130333,640.08 18.452225,-34.127304,609.6 18.457546,-34.123676,609.6 18.462181,-34.119534,609.6 18.466225,-34.114426,579.12 18.468704,-34.109478,579.12 18.469734,-34.103889,579.12 18.470203,-34.098221,579.12 18.470484,-34.092957,579.12 18.470989,-34.079269,609.6 18.470596,-34.074234,609.6 18.471605,-34.066681,609.6 18.472939,-34.061153,579.12 18.475513,-34.049984,548.64 18.479462,-34.029312,487.68 18.483713,-34.008224,457.2 18.487579,-33.985199,426.72 18.488216,-33.978012,396.24 18.488085,-33.971832,396.24 18.487358,-33.965725,396.24 18.486403,-33.960068,396.24 18.485226,-33.954208,396.24 18.483433,-33.948166,365.76 18.478832,-33.929646,365.76 18.475571,-33.924152,335.28 18.471045,-33.919144,335.28 18.465607,-33.914154,335.28 18.460293,-33.909489,304.8 18.447704,-33.899014,304.8 18.442682,-33.896942,274.32 18.437132,-33.8974,213.36 18.433285,-33.897942,152.4 18.428421,-33.899292,60.96 18.427044,-33.900833,60.96 18.427563,-33.89957,60.96 18.429623,-33.896641,91.44 18.43174,-33.893009,152.4 18.433743,-33.889236,182.88 18.434723,-33.884171,243.84 18.432312,-33.879929,274.32 18.427391,-33.8769,304.8 18.421829,-33.876068,365.76 18.416842,-33.876434,426.72 18.411942,-33.877972,457.2 18.412399,-33.881138,518.16 18.416225,-33.882156,548.64 18.42001,-33.881695,579.12 18.423042,-33.880253,609.6 18.422985,-33.877972,609.6 18.417963,-33.878494,579.12 18.411909,-33.880737,579.12 18.406048,-33.883186,579.12 18.398037,-33.886772,609.6 18.392738,-33.889526,609.6 18.387133,-33.892868,640.08 18.382072,-33.896267,640.08 18.377155,-33.900238,609.6 18.372917,-33.904228,609.6 18.36874,-33.908882,609.6 18.364937,-33.913742,640.08 18.361742,-33.91832,640.08 18.358379,-33.923126,640.08 18.35552,-33.928207,640.08 18.353119,-33.93351,609.6 18.351372,-33.94075,609.6 18.354286,-33.946152,609.6 18.359985,-33.94957,609.6 18.364449,-33.947334,670.56 18.364277,-33.942585,670.56 18.364449,-33.937885,731.52 18.368168,-33.938908,792.48 18.371086,-33.94268,792.48 18.372116,-33.947662,792.48 18.370514,-33.952873,792.48 18.361187,-33.968937,731.52 18.349571,-33.992352,701.04 18.349056,-34.006783,701.04 18.34997,-34.013214,670.56 18.351803,-34.02354,640.08 18.355688,-34.045212,609.6 18.358603,-34.056381,609.6 18.36062,-34.062103,609.6 18.362919,-34.067551,640.08 18.365993,-34.073307,609.6 18.369541,-34.078426,609.6 18.373432,-34.083408,609.6 18.377953,-34.088715,609.6 18.385733,-34.097534,609.6 18.391954,-34.103806,609.6 18.396887,-34.107971,609.6 18.402271,-34.111897,609.6 18.407707,-34.115528,609.6 18.413589,-34.118958,640.08 18.419363,-34.121841,640.08 18.427277,-34.126049,609.6 18.439693,-34.132565,579.12 18.446846,-34.133125,609.6 18.452969,-34.131218,609.6 18.458714,-34.12738,579.12 18.46384,-34.123161,579.12 18.468304,-34.118786,548.64 18.472277,-34.113968,548.64 18.475285,-34.108685,548.64 18.477001,-34.1031,518.16 18.477745,-34.097092,518.16 18.478163,-34.091629,518.16 18.478949,-34.080276,518.16 18.481415,-34.06279,548.64 18.483181,-34.04258,518.16 18.484272,-34.023651,487.68 18.485413,-34.001896,457.2 18.48629,-33.979294,426.72 18.486042,-33.963348,426.72 18.485413,-33.954971,426.72 18.48341,-33.941517,396.24 18.481522,-33.935558,396.24 18.478775,-33.929459,365.76 18.474312,-33.923824,335.28 18.469105,-33.918938,335.28 18.46384,-33.914471,335.28 18.456022,-33.90683,335.28 18.451986,-33.902344,335.28 18.445652,-33.897766,304.8 18.440552,-33.897526,274.32 18.435394,-33.897995,182.88 18.430996,-33.89864,121.92 18.427099,-33.900192,60.96 18.427547,-33.900375,60.96 18.429108,-33.897526,91.44 18.431168,-33.894451,121.92 18.4338,-33.889656,213.36 18.434891,-33.886002,243.84 18.433657,-33.881836,304.8 18.429846,-33.877991,304.8 18.424801,-33.875336,365.76 18.419666,-33.874435,426.72 18.414631,-33.874901,457.2 18.409996,-33.876343,518.16 18.407421,-33.878948,579.12 18.410284,-33.880966,640.08 18.414516,-33.880581,640.08 18.418859,-33.879776,670.56 18.422356,-33.880672,701.04 18.421383,-33.883045,701.04 18.415947,-33.884163,640.08 18.410053,-33.884769,640.08 18.400307,-33.886368,640.08 18.39414,-33.888153,640.08 18.388195,-33.890865,640.08 18.383154,-33.894058,640.08 18.378389,-33.897812,640.08 18.373718,-33.902039,640.08 18.369541,-33.906509,609.6 18.365479,-33.911583,609.6 18.362303,-33.916397,609.6 18.359184,-33.921825,579.12 18.356495,-33.927132,579.12 18.354063,-33.932739,579.12 18.352146,-33.93779,579.12 18.352776,-33.943192,640.08 18.357468,-33.944218,701.04 18.360676,-33.940842,731.52 18.361988,-33.936394,762 18.363087,-33.932098,822.96 18.36525,-33.928528,883.92 18.368748,-33.928345,944.88 18.370878,-33.931549,975.36 18.370113,-33.936069,975.36 18.368568,-33.940956,975.36 18.366674,-33.946289,975.36 18.361759,-33.959347,975.36 18.355751,-33.977314,914.4 18.353176,-33.98737,883.92 18.351688,-33.995937,853.44 18.351597,-34.00209,822.96 18.351933,-34.00795,822.96 18.352261,-34.013859,792.48 18.353895,-34.027771,822.96 18.356192,-34.047318,792.48 18.360157,-34.068184,792.48 18.362904,-34.086014,792.48 18.363199,-34.091675,792.48 18.363361,-34.09742,792.48 18.364376,-34.114746,792.48 18.36701,-34.133377,822.96 18.368912,-34.141644,792.48 18.370598,-34.147156,792.48 18.372896,-34.154068,792.48 18.379902,-34.172058,822.96 18.388195,-34.19141,822.96 18.39695,-34.21003,792.48 18.406639,-34.22937,792.48 18.416393,-34.246399,792.48 18.427334,-34.264122,762 18.438927,-34.282242,762 18.451767,-34.300201,731.52 18.456001,-34.305229,701.04 18.460562,-34.309982,701.04 18.465439,-34.314651,670.56 18.470707,-34.319286,640.08 18.476315,-34.32399,609.6 18.483152,-34.329163,579.12 18.489075,-34.333065,548.64 18.498566,-34.339279,548.64 18.509388,-34.347778,518.16 18.512077,-34.352573,548.64 18.512077,-34.358158,548.64 18.509272,-34.362625,548.64 18.504009,-34.366306,548.64 18.498287,-34.368259,548.64 18.491783,-34.368851,548.64 18.485394,-34.368439,548.64 18.478891,-34.367432,548.64 18.472366,-34.365746,548.64 18.466167,-34.363449,548.64 18.460064,-34.360439,548.64 18.454685,-34.362022,640.08 18.461094,-34.366211,579.12 18.468075,-34.367096,579.12 18.475342,-34.368355,579.12 18.492962,-34.371002,548.64 18.499855,-34.370956,548.64 18.506357,-34.368942,548.64 18.510189,-34.364536,579.12 18.510761,-34.35923,579.12 18.509159,-34.353874,579.12 18.506805,-34.348251,579.12 18.504452,-34.342941,548.64 18.498734,-34.330215,579.12 18.491673,-34.312592,609.6 18.484612,-34.293499,609.6 18.477745,-34.27264,609.6 18.47374,-34.262913,640.08 18.466358,-34.245083,670.56 18.464184,-34.23661,670.56 18.458994,-34.224106,670.56 18.455294,-34.216553,640.08 18.451538,-34.210308,640.08 18.448175,-34.205154,609.6 18.442554,-34.195786,609.6 18.437977,-34.188568,609.6 18.438086,-34.182953,579.12 18.43935,-34.177025,579.12 18.441238,-34.171299,548.64 18.443298,-34.165054,548.64 18.449821,-34.147743,548.64 18.454571,-34.137733,518.16 18.464487,-34.118958,518.16 18.469419,-34.108154,518.16 18.471212,-34.102478,518.16 18.472595,-34.096767,487.68 18.473791,-34.091492,518.16 18.475193,-34.08316,487.68 18.476658,-34.071491,518.16 18.479507,-34.050934,518.16 18.481806,-34.030838,548.64 18.48381,-34.010738,548.64 18.486067,-33.989822,518.16 18.486963,-33.967667,487.68 18.486385,-33.954086,426.72 18.485241,-33.94836,396.24 18.483713,-33.94281,365.76 18.481922,-33.937187,335.28 18.479404,-33.931973,335.28 18.476429,-33.926758,304.8 18.472557,-33.92189,304.8 18.46813,-33.917404,304.8 18.463726,-33.913025,304.8 18.454628,-33.904415,304.8 18.446331,-33.897709,274.32 18.441505,-33.896393,243.84 18.437233,-33.897152,213.36 18.432713,-33.898174,121.92 18.427212,-33.900055,60.96 18.427492,-33.899689,60.96 18.432655,-33.891983,213.36 18.434315,-33.888073,243.84 18.43405,-33.883942,304.8 18.430687,-33.880371,335.28 18.425503,-33.8783,365.76 18.419323,-33.877182,426.72 18.413486,-33.876854,457.2 18.407593,-33.877579,487.68 18.401985,-33.879181,518.16 18.396492,-33.881603,548.64 18.391449,-33.884308,579.12 18.386707,-33.887283,609.6 18.381865,-33.890717,640.08 18.377213,-33.894424,670.56 18.373375,-33.897709,670.56 18.369312,-33.901852,701.04 18.365833,-33.906052,701.04 18.362806,-33.910309,731.52 18.359871,-33.91526,731.52 18.357353,-33.920101,731.52 18.354893,-33.925129,731.52 18.346888,-33.943863,731.52 18.345795,-33.950687,762 18.350307,-33.95137,792.48 18.352661,-33.946312,792.48 18.354174,-33.941208,762 18.355688,-33.935806,731.52 18.359985,-33.922943,731.52 18.362022,-33.918274,731.52 18.364449,-33.91354,731.52 18.367424,-33.908836,701.04 18.370934,-33.904587,701.04 18.374802,-33.900513,670.56 18.380239,-33.897034,640.08 18.386517,-33.893875,609.6 18.392429,-33.891239,609.6 18.398895,-33.888771,579.12 18.405476,-33.886864,548.64 18.412077,-33.88559,518.16 18.418636,-33.884537,487.68 18.424969,-33.884171,457.2 18.430799,-33.884628,426.72 18.43626,-33.886677,365.76 18.439207,-33.889297,335.28 18.440664,-33.892227,304.8 18.439878,-33.895157,243.84 18.437405,-33.89706,213.36 18.434029,-33.898407,152.4 18.431135,-33.899323,121.92 18.428669,-33.89978,91.44 18.427099,-33.900879,60.96 18.427448,-33.8992,91.44 18.42968,-33.896034,121.92 18.431854,-33.892544,152.4 18.434723,-33.887238,213.36 18.434772,-33.882858,274.32 18.430538,-33.879368,304.8 18.42556,-33.877228,335.28 18.419813,-33.876022,365.76 18.413887,-33.875645,396.24 18.407822,-33.876484,426.72 18.402493,-33.878448,457.2 18.397064,-33.881092,518.16 18.392347,-33.883896,548.64 18.387852,-33.886909,548.64 18.383217,-33.890354,579.12 18.378782,-33.894058,579.12 18.374405,-33.898083,609.6 18.370171,-33.902504,609.6 18.366795,-33.906647,640.08 18.363533,-33.911209,670.56 18.360786,-33.91568,670.56 18.35804,-33.920475,670.56 18.355576,-33.925323,670.56 18.34885,-33.939972,701.04 18.346888,-33.945282,701.04 18.344366,-33.952835,731.52 18.34837,-33.956783,762 18.351372,-33.951645,701.04 18.353502,-33.945786,701.04 18.355579,-33.940025,670.56 18.364162,-33.919914,640.08 18.366966,-33.914562,640.08 18.370094,-33.909439,640.08 18.373569,-33.904678,640.08 18.377773,-33.900146,609.6 18.382818,-33.896072,609.6 18.388535,-33.89241,609.6 18.394032,-33.889565,609.6 18.401012,-33.886955,579.12 18.407879,-33.885422,579.12 18.415203,-33.884304,548.64 18.42247,-33.884026,518.16 18.429508,-33.884396,487.68 18.435675,-33.885773,426.72 18.440607,-33.888519,396.24 18.44313,-33.891907,335.28 18.441925,-33.895149,304.8 18.437973,-33.896622,243.84 18.433628,-33.897804,152.4 18.42802,-33.899387,91.44 18.426991,-33.900784,60.96 18.428501,-33.898499,60.96 18.430407,-33.895752,152.4 18.433546,-33.889572,243.84 18.434143,-33.885468,274.32 18.431864,-33.881607,335.28 18.427505,-33.878391,365.76 18.422012,-33.87611,396.24 18.415552,-33.875153,426.72 18.409163,-33.875381,457.2 18.402843,-33.876949,487.68 18.39711,-33.879089,487.68 18.391281,-33.881882,518.16 18.385956,-33.884857,518.16 18.38047,-33.888401,518.16 18.375755,-33.891998,518.16 18.371384,-33.895798,518.16 18.366966,-33.900455,548.64 18.36348,-33.905045,548.64 18.3605,-33.909626,579.12 18.357697,-33.914654,579.12 18.355236,-33.91959,609.6 18.353062,-33.924526,609.6 18.348026,-33.936954,640.08 18.34322,-33.952175,670.56 18.349228,-33.955204,670.56 18.352549,-33.950546,640.08 18.355127,-33.94455,609.6 18.357761,-33.938461,579.12 18.366623,-33.920334,548.64 18.374914,-33.90596,548.64 18.378838,-33.901062,548.64 18.383789,-33.896641,518.16 18.388983,-33.893051,518.16 18.395119,-33.889656,518.16 18.401316,-33.887192,518.16 18.407707,-33.885326,518.16 18.414402,-33.884071,518.16 18.421326,-33.883698,518.16 18.427996,-33.884262,487.68 18.434498,-33.886002,457.2 18.439487,-33.888565,426.72 18.442289,-33.891586,426.72 18.442402,-33.89447,396.24 18.440159,-33.896439,304.8 18.436909,-33.897766,213.36 18.431808,-33.898911,121.92 18.426991,-33.900688,60.96 18.427277,-33.900223,60.96 18.429453,-33.897903,91.44 18.431808,-33.89502,152.4 18.4342,-33.891052,213.36 18.435955,-33.887192,243.84 18.436089,-33.883045,274.32 18.432884,-33.878998,304.8 18.427996,-33.876663,335.28 18.421438,-33.875381,365.76 18.415318,-33.875225,396.24 18.408508,-33.875877,396.24 18.402328,-33.877415,426.72 18.396206,-33.879787,457.2 18.39077,-33.882488,457.2 18.384705,-33.885887,457.2 18.379734,-33.889252,457.2 18.375027,-33.893143,457.2 18.37071,-33.897491,487.68 18.367023,-33.901669,487.68 18.363367,-33.906235,518.16 18.360271,-33.910652,548.64 18.357258,-33.915665,548.64 18.354549,-33.920475,548.64 18.348345,-33.93251,579.12 18.346252,-33.937466,579.12 18.344021,-33.943611,609.6 18.34116,-33.952549,609.6 18.348656,-33.956833,670.56 18.352045,-33.95105,640.08 18.354231,-33.94519,609.6 18.356192,-33.93956,609.6 18.362446,-33.924107,548.64 18.367067,-33.914886,548.64 18.370171,-33.909489,518.16 18.373661,-33.904087,518.16 18.377661,-33.898819,487.68 18.381844,-33.894218,518.16 18.387108,-33.890121,518.16 18.393524,-33.886826,518.16 18.399811,-33.884628,487.68 18.407145,-33.882889,487.68 18.414001,-33.882069,487.68 18.421101,-33.882065,457.2 18.427505,-33.882908,487.68 18.433914,-33.884628,487.68 18.439121,-33.887283,457.2 18.440271,-33.891861,426.72 18.437862,-33.894825,365.76 18.434385,-33.896255,304.8 18.43063,-33.897217,213.36 18.427773,-33.898956,121.92 18.426876,-33.900505,60.96 18.428669,-33.898315,91.44 18.432713,-33.890167,182.88 18.434372,-33.886074,213.36 18.434715,-33.881695,243.84 18.432873,-33.877167,304.8 18.428837,-33.873459,335.28 18.423557,-33.872387,365.76 18.41785,-33.873093,426.72 18.413372,-33.875038,457.2 18.41217,-33.87825,518.16 18.41526,-33.880859,548.64 18.419588,-33.880692,548.64 18.423063,-33.878265,579.12 18.4231,-33.874619,579.12 18.418694,-33.872944,579.12 18.413479,-33.874191,579.12 18.408602,-33.876205,579.12 18.403587,-33.878578,579.12 18.398952,-33.880997,609.6 18.394085,-33.883896,640.08 18.389656,-33.887054,640.08 18.385227,-33.890488,640.08 18.380911,-33.894058,640.08 18.375362,-33.899002,640.08 18.370743,-33.903763,640.08 18.366909,-33.908604,640.08 18.363819,-33.913445,640.08 18.360958,-33.918564,640.08 18.358154,-33.923813,640.08 18.352158,-33.936539,640.08 18.352318,-33.941982,701.04 18.356417,-33.940521,731.52 18.359276,-33.93631,762 18.361349,-33.931686,792.48 18.363031,-33.927292,822.96 18.364277,-33.92308,853.44 18.361759,-33.920612,883.92 18.359356,-33.924011,883.92 18.358841,-33.929272,883.92 18.358383,-33.934628,883.92 18.356697,-33.94455,883.92 18.35367,-33.962723,883.92 18.350029,-33.985229,853.44 18.3494,-33.994072,853.44 18.349743,-34.000263,853.44 18.350531,-34.005981,853.44 18.351427,-34.013901,822.96 18.352089,-34.029778,792.48 18.354206,-34.042442,762 18.358828,-34.046127,762 18.364376,-34.049515,762 18.369026,-34.054405,762 18.367481,-34.05962,762 18.364105,-34.06488,762 18.364208,-34.070526,762 18.367138,-34.07568,731.52 18.370878,-34.080826,731.52 18.374634,-34.085548,731.52 18.378296,-34.089924,731.52 18.385334,-34.097561,731.52 18.389626,-34.101562,731.52 18.394032,-34.105427,731.52 18.40044,-34.110592,731.52 18.40933,-34.117218,701.04 18.414824,-34.120743,670.56 18.420261,-34.123947,640.08 18.425642,-34.126648,609.6 18.4359,-34.131638,579.12 18.442009,-34.13324,548.64 18.44795,-34.132553,548.64 18.453369,-34.129448,548.64 18.45776,-34.125458,548.64 18.461781,-34.120743,518.16 18.463869,-34.114838,518.16 18.463533,-34.108475,518.16 18.461123,-34.103119,518.16 18.458347,-34.097607,548.64 18.455029,-34.089924,518.16 18.453163,-34.084259,548.64 18.451767,-34.078335,548.64 18.45068,-34.072746,548.64 18.447533,-34.057243,579.12 18.446045,-34.045422,579.12 18.44593,-34.039509,579.12 18.446388,-34.033455,548.64 18.447727,-34.027725,548.64 18.449688,-34.022003,548.64 18.452042,-34.016144,518.16 18.457535,-34.001221,518.16 18.463926,-33.986343,487.68 18.467102,-33.980946,487.68 18.47065,-33.976151,487.68 18.474655,-33.970798,487.68 18.481525,-33.960297,457.2 18.483881,-33.954987,457.2 18.484385,-33.948486,457.2 18.483353,-33.94212,426.72 18.481693,-33.935978,396.24 18.479576,-33.929783,396.24 18.475641,-33.923813,365.76 18.470936,-33.919357,365.76 18.465775,-33.914749,365.76 18.457088,-33.907021,335.28 18.447132,-33.898968,274.32 18.442122,-33.897903,274.32 18.437233,-33.897942,213.36 18.43276,-33.89859,152.4 18.429621,-33.899734,91.44 18.427505,-33.900738,60.96 18.428822,-33.898174,91.44 18.430742,-33.895065,152.4 18.433399,-33.888866,213.36 18.434544,-33.883884,243.84 18.432816,-33.878448,274.32 18.428307,-33.87397,335.28 18.42267,-33.87149,396.24 18.416674,-33.870758,426.72 18.411255,-33.871689,487.68 18.406563,-33.873455,518.16 18.401987,-33.875885,579.12 18.397408,-33.87867,609.6 18.393116,-33.88179,640.08 18.388538,-33.8857,640.08 18.384533,-33.889469,670.56 18.381136,-33.893143,701.04 18.377436,-33.8974,731.52 18.374073,-33.901474,731.52 18.369196,-33.908157,731.52 18.366114,-33.912872,731.52 18.363367,-33.917679,731.52 18.3605,-33.923409,731.52 18.357986,-33.929031,731.52 18.352547,-33.941795,701.04 18.344364,-33.963676,731.52 18.33663,-33.98822,731.52 18.333607,-34.004082,731.52 18.330402,-34.023914,670.56 18.330002,-34.03569,640.08 18.331642,-34.041092,640.08 18.332863,-34.046352,640.08 18.332371,-34.054779,670.56 18.33153,-34.059998,701.04 18.335552,-34.060272,762 18.338535,-34.056198,792.48 18.338985,-34.051426,792.48 18.338013,-34.045841,762 18.336926,-34.040531,731.52 18.334108,-34.027496,670.56 18.331947,-34.0126,609.6 18.332539,-34.006897,609.6 18.333664,-34.001431,640.08 18.337584,-33.987854,670.56 18.347561,-33.962402,670.56 18.356585,-33.940155,640.08 18.365593,-33.920799,609.6 18.369757,-33.913651,579.12 18.3734,-33.90834,579.12 18.37738,-33.903534,579.12 18.381639,-33.899231,579.12 18.386421,-33.895103,579.12 18.391674,-33.891449,579.12 18.397783,-33.888245,548.64 18.40416,-33.885746,548.64 18.411312,-33.883839,548.64 18.418179,-33.882858,518.16 18.424759,-33.882858,487.68 18.430799,-33.883713,457.2 18.435843,-33.885773,396.24 18.439262,-33.888977,365.76 18.440723,-33.89259,304.8 18.439293,-33.895802,274.32 18.436031,-33.897385,213.36 18.433285,-33.898129,182.88 18.429173,-33.899734,91.44 18.428108,-33.899277,60.96 18.428364,-33.898922,60.96 18.431976,-33.892914,152.4 18.433208,-33.890533,182.88 18.434544,-33.887238,213.36 18.43483,-33.886257,213.36 18.435339,-33.882477,243.84 18.435226,-33.881607,243.84 18.433571,-33.877739,274.32 18.432941,-33.876949,274.32 18.429062,-33.874054,304.8 18.428307,-33.873688,304.8 18.4235,-33.871593,365.76 18.422222,-33.871216,365.76 18.417402,-33.870346,365.76 18.415947,-33.870293,396.24 18.4109,-33.871353,396.24 18.410004,-33.871857,426.72 18.407879,-33.875225,457.2 18.407879,-33.875877,487.68 18.409653,-33.878624,518.16 18.410397,-33.878948,548.64 18.413647,-33.879089,548.64 18.414516,-33.878857,579.12 18.417906,-33.87767,609.6 18.418808,-33.877319,609.6 18.421783,-33.87611,640.08 18.422356,-33.875645,640.08 18.42144,-33.873131,640.08 18.420582,-33.872757,640.08 18.415888,-33.87204,609.6 18.414402,-33.872059,609.6 18.409386,-33.87291,579.12 18.408209,-33.87323,579.12 18.402958,-33.875134,579.12 18.401539,-33.875748,579.12 18.396606,-33.878113,579.12 18.395372,-33.878769,579.12 18.390553,-33.881653,579.12 18.389376,-33.882431,579.12 18.385162,-33.885372,579.12 18.384163,-33.886139,579.12 18.379898,-33.88961,579.12 18.378782,-33.890533,579.12 18.375195,-33.893784,579.12 18.374298,-33.894608,579.12 18.370598,-33.898361,609.6 18.369884,-33.899105,609.6 18.366674,-33.90271,640.08 18.365936,-33.90353,640.08 18.363018,-33.907112,640.08 18.361588,-33.908978,640.08 18.358938,-33.912918,640.08 18.358267,-33.913971,640.08 18.355865,-33.918007,670.56 18.355179,-33.91917,670.56 18.352947,-33.92308,670.56 18.352325,-33.924225,670.56 18.349857,-33.92918,701.04 18.3494,-33.930298,701.04 18.347841,-33.934113,731.52 18.347454,-33.935043,731.52 18.347626,-33.939514,792.48 18.348177,-33.940201,792.48 18.352032,-33.941654,822.96 18.352774,-33.941528,853.44 18.356037,-33.939468,853.44 18.356667,-33.938538,883.92 18.358267,-33.93544,914.4 18.358555,-33.934628,914.4 18.359612,-33.931412,944.88 18.359756,-33.930622,944.88 18.3601,-33.927036,975.36 18.359892,-33.926285,975.36 18.356472,-33.924225,1036.32 18.355522,-33.924339,1036.32 18.352325,-33.926743,1005.84 18.351707,-33.927704,1005.84 18.350201,-33.932064,975.36 18.349915,-33.933563,944.88 18.349342,-33.938492,914.4 18.349241,-33.939606,914.4 18.349056,-33.945332,883.92 18.349056,-33.946217,883.92 18.349056,-33.951477,883.92 18.349056,-33.952736,883.92 18.348026,-33.97401,914.4 18.347841,-33.977692,914.4 18.347855,-33.99007,883.92 18.347952,-33.99147,883.92 18.34837,-33.996353,883.92 18.348513,-33.99765,883.92 18.349241,-34.00351,853.44 18.349686,-34.007107,853.44 18.352203,-34.024101,792.48 18.352718,-34.028896,792.48 18.354549,-34.045002,762 18.355352,-34.049652,762 18.356417,-34.05455,762 18.356781,-34.055893,762 18.358322,-34.060547,762 18.358715,-34.0616,762 18.361013,-34.06636,762 18.361462,-34.067139,762 18.364321,-34.071716,731.52 18.365135,-34.072933,731.52 18.367964,-34.076843,731.52 18.368805,-34.077942,731.52 18.372002,-34.082291,731.52 18.372574,-34.083035,731.52 18.382481,-34.0952,701.04 18.385059,-34.098038,701.04 18.388767,-34.101749,701.04 18.389711,-34.102615,701.04 18.394032,-34.106266,670.56 18.395262,-34.107285,670.56 18.399696,-34.110733,640.08 18.401012,-34.11171,640.08 18.40559,-34.114876,609.6 18.407021,-34.115807,609.6 18.411598,-34.11874,609.6 18.412914,-34.119534,609.6 18.417549,-34.122326,609.6 18.418634,-34.12294,609.6 18.430967,-34.129852,579.12 18.432026,-34.130379,579.12 18.437302,-34.132324,548.64 18.438835,-34.132751,548.64 18.4445,-34.133591,548.64 18.446102,-34.13345,548.64 18.451202,-34.131912,548.64 18.45266,-34.131271,518.16 18.45726,-34.128609,487.68 18.458176,-34.128006,487.68 18.46258,-34.124634,487.68 18.463533,-34.123856,487.68 18.467274,-34.120182,457.2 18.468075,-34.119297,457.2 18.471279,-34.115387,457.2 18.472023,-34.11441,457.2 18.474632,-34.110672,457.2 18.475304,-34.109482,457.2 18.477173,-34.105381,487.68 18.477602,-34.104172,487.68 18.478718,-34.099792,487.68 18.478891,-34.098679,487.68 18.47929,-34.09444,487.68 18.479347,-34.093414,487.68 18.479565,-34.088928,487.68 18.479576,-34.08783,487.68 18.479958,-34.081329,518.16 18.480349,-34.076981,518.16 18.482086,-34.061966,518.16 18.482479,-34.057892,518.16 18.484039,-34.043186,518.16 18.484497,-34.038849,518.16 18.485584,-34.023682,518.16 18.485674,-34.019531,518.16 18.487072,-34.003895,487.68 18.487299,-34.000717,457.2 18.487701,-33.983273,457.2 18.487644,-33.981133,457.2 18.487188,-33.968719,426.72 18.48674,-33.963959,426.72 18.486156,-33.95953,426.72 18.485985,-33.958321,426.72 18.483994,-33.943542,365.76 18.483263,-33.940018,365.76 18.481522,-33.934998,335.28 18.481121,-33.933929,335.28 18.479118,-33.929226,335.28 18.478432,-33.927876,335.28 18.475742,-33.9235,335.28 18.475136,-33.922668,335.28 18.471508,-33.918797,304.8 18.470249,-33.917728,304.8 18.465775,-33.914062,304.8 18.464813,-33.913212,304.8 18.460787,-33.909439,304.8 18.458176,-33.906742,304.8 18.454456,-33.902969,304.8 18.450794,-33.89962,304.8 18.446274,-33.896591,274.32 18.444868,-33.89621,274.32 18.440048,-33.896576,213.36 18.439375,-33.896713,213.36 18.435003,-33.897766,152.4 18.434217,-33.897949,152.4 18.430595,-33.898968,91.44 18.430023,-33.899155,60.96 18.426991,-33.900272,30.48 18.426991,-33.900597,30.48 18.427492,-33.899597,60.96 18.427883,-33.899002,60.96 18.42968,-33.896454,91.44 18.430014,-33.895844,121.92 18.431797,-33.893009,152.4 18.432144,-33.892365,152.4 18.434217,-33.888519,213.36 18.434486,-33.887886,213.36 18.435339,-33.884033,243.84 18.43523,-33.883141,243.84 18.433657,-33.87941,274.32 18.432873,-33.878494,274.32 18.428892,-33.875885,304.8 18.427883,-33.875519,335.28 18.423214,-33.874901,365.76 18.421829,-33.874878,365.76 18.416405,-33.875458,396.24 18.41526,-33.87569,396.24 18.410225,-33.876808,426.72 18.408882,-33.877213,426.72 18.403988,-33.878578,457.2 18.402828,-33.878906,457.2 18.397728,-33.880737,487.68 18.396721,-33.881138,487.68 18.392403,-33.883209,518.16 18.391342,-33.883793,518.16 18.387394,-33.886074,548.64 18.386124,-33.886871,548.64 18.382015,-33.889751,579.12 18.381191,-33.890305,579.12 18.37738,-33.893101,579.12 18.376204,-33.894012,579.12 18.372345,-33.897106,609.6 18.370878,-33.898407,609.6 18.366966,-33.901852,640.08 18.365993,-33.902737,640.08 18.362583,-33.906052,670.56 18.361931,-33.906788,670.56 18.358841,-33.910465,670.56 18.358322,-33.911087,670.56 18.355293,-33.915073,701.04 18.354607,-33.915958,701.04 18.347511,-33.924431,701.04 18.346943,-33.925415,670.56 18.344479,-33.929783,701.04 18.343918,-33.930908,701.04 18.34173,-33.935074,701.04 18.341217,-33.936161,701.04 18.338299,-33.9431,701.04 18.33807,-33.943935,701.04 18.338144,-33.949219,701.04 18.33848,-33.95018,701.04 18.342762,-33.953854,701.04 18.343964,-33.954178,701.04 18.349915,-33.953934,670.56 18.350924,-33.953201,670.56 18.353502,-33.949127,670.56 18.354006,-33.947983,640.08 18.355911,-33.943176,640.08 18.356417,-33.941895,609.6 18.358267,-33.937042,609.6 18.358828,-33.935577,609.6 18.363815,-33.924042,609.6 18.364334,-33.923035,609.6 18.366619,-33.91864,609.6 18.367235,-33.917633,609.6 18.369757,-33.913559,579.12 18.370457,-33.91256,579.12 18.373177,-33.908752,579.12 18.374062,-33.907627,579.12 18.37738,-33.903809,579.12 18.378181,-33.902924,579.12 18.381977,-33.899414,579.12 18.383045,-33.898457,548.64 18.387108,-33.89529,548.64 18.388199,-33.894516,548.64 18.392773,-33.891472,548.64 18.39386,-33.89082,548.64 18.398895,-33.888306,518.16 18.400137,-33.887741,518.16 18.405247,-33.885887,518.16 18.406416,-33.885544,518.16 18.411942,-33.884258,518.16 18.413486,-33.884026,518.16 18.41898,-33.883465,487.68 18.420582,-33.883419,487.68 18.426132,-33.883652,457.2 18.427492,-33.883804,457.2 18.432999,-33.885048,426.72 18.434143,-33.885422,426.72 18.43832,-33.887516,365.76 18.439095,-33.888107,365.76 18.441582,-33.891193,335.28 18.441925,-33.891983,304.8 18.441525,-33.895195,274.32 18.441225,-33.89566,274.32 18.438534,-33.897125,243.84 18.43792,-33.897293,213.36 18.434258,-33.898174,152.4 18.433041,-33.898407,152.4 18.428879,-33.899014,60.96 18.428164,-33.899323,60.96 18.426764,-33.900558,30.48 18.426991,-33.900806,0 18.426931,-33.90033,30.48 18.427322,-33.899963,30.48 18.428822,-33.89785,60.96 18.429285,-33.897125,91.44 18.430799,-33.894333,121.92 18.431135,-33.893692,121.92 18.43277,-33.8904,152.4 18.433153,-33.889618,182.88 18.43433,-33.885773,213.36 18.434315,-33.884769,213.36 18.432941,-33.881092,243.84 18.432257,-33.880188,243.84 18.428612,-33.877029,274.32 18.42762,-33.876484,274.32 18.422615,-33.875107,304.8 18.421438,-33.875015,335.28 18.415947,-33.875458,365.76 18.414974,-33.875645,365.76 18.409779,-33.876892,396.24 18.408657,-33.877213,396.24 18.403334,-33.879181,426.72 18.402328,-33.879555,426.72 18.397671,-33.881882,457.2 18.396719,-33.882431,457.2 18.392601,-33.884956,487.68 18.391685,-33.885559,487.68 18.387974,-33.888153,487.68 18.387077,-33.88884,487.68 18.383377,-33.891769,518.16 18.382538,-33.892456,518.16 18.379211,-33.895428,518.16 18.378277,-33.896301,518.16 18.374748,-33.899807,548.64 18.374004,-33.900597,518.16 18.370823,-33.904221,548.64 18.369925,-33.905319,548.64 18.367348,-33.908707,548.64 18.366508,-33.909767,548.64 18.36404,-33.913422,548.64 18.363247,-33.914562,548.64 18.360901,-33.918503,579.12 18.360214,-33.919636,579.12 18.358154,-33.923447,579.12 18.357582,-33.924572,579.12 18.355637,-33.928387,609.6 18.355183,-33.929398,609.6 18.353291,-33.93351,609.6 18.351988,-33.936539,640.08 18.346481,-33.950825,701.04 18.345566,-33.953758,701.04 18.349571,-33.958508,762 18.350475,-33.958008,731.52 18.352718,-33.953945,731.52 18.353119,-33.953014,731.52 18.354721,-33.94836,731.52 18.355072,-33.947479,731.52 18.356724,-33.942772,701.04 18.35709,-33.941711,701.04 18.362503,-33.926899,701.04 18.364449,-33.922291,701.04 18.366394,-33.918228,670.56 18.366898,-33.917267,670.56 18.369255,-33.912979,670.56 18.369757,-33.912048,670.56 18.372503,-33.9077,670.56 18.373121,-33.906738,670.56 18.3771,-33.900421,670.56 18.378754,-33.897476,701.04 18.383617,-33.89175,670.56 18.384705,-33.891148,670.56 18.390049,-33.88916,640.08 18.390999,-33.888866,640.08 18.39735,-33.887051,609.6 18.398792,-33.886688,609.6 18.404453,-33.885406,579.12 18.40591,-33.885086,579.12 18.411629,-33.884125,548.64 18.413311,-33.883896,518.16 18.418915,-33.883209,487.68 18.420525,-33.883045,487.68 18.425961,-33.882858,487.68 18.427603,-33.882935,457.2 18.432816,-33.884171,457.2 18.433937,-33.884628,457.2 18.43832,-33.887051,396.24 18.439487,-33.887833,396.24 18.442783,-33.890495,335.28 18.443466,-33.89122,335.28 18.444157,-33.894779,304.8 18.443466,-33.895615,304.8 18.439865,-33.897152,274.32 18.438982,-33.897308,243.84 18.435802,-33.897804,213.36 18.43433,-33.898041,182.88 18.430424,-33.898689,121.92 18.428478,-33.8992,91.44 18.426931,-33.90065,30.48 18.426933,-33.90097,30.48 18.42766,-33.899551,60.96 18.427963,-33.899105,60.96 18.429678,-33.896622,91.44 18.430023,-33.895988,91.44 18.431528,-33.893143,121.92 18.431864,-33.892456,121.92 18.433601,-33.888657,182.88 18.433882,-33.887741,213.36 18.434498,-33.884216,243.84 18.434429,-33.883278,243.84 18.433208,-33.879684,274.32 18.432816,-33.878906,274.32 18.430138,-33.87569,304.8 18.42923,-33.874969,304.8 18.425081,-33.873184,335.28 18.423786,-33.872944,335.28 18.419266,-33.873085,365.76 18.418407,-33.873222,365.76 18.413601,-33.874435,396.24 18.412228,-33.874901,426.72 18.408434,-33.876846,457.2 18.407764,-33.877552,457.2 18.407707,-33.880814,487.68 18.408852,-33.881927,518.16 18.412189,-33.883072,548.64 18.413254,-33.883118,548.64 18.416862,-33.882534,579.12 18.417721,-33.88221,609.6 18.420238,-33.880344,609.6 18.420639,-33.879555,640.08 18.41938,-33.876575,640.08 18.418634,-33.876022,640.08 18.41423,-33.875038,609.6 18.413086,-33.875107,609.6 18.408222,-33.876251,609.6 18.406963,-33.876621,609.6 18.402386,-33.878532,609.6 18.401012,-33.879181,609.6 18.396664,-33.881512,609.6 18.395576,-33.882114,609.6 18.391113,-33.884903,609.6 18.389912,-33.8857,609.6 18.38625,-33.888351,609.6 18.384933,-33.889332,609.6 18.381023,-33.892593,609.6 18.379959,-33.893555,609.6 18.376652,-33.896805,609.6 18.375643,-33.897812,609.6 18.372112,-33.901657,609.6 18.371429,-33.902412,609.6 18.367851,-33.906647,609.6 18.36701,-33.907654,609.6 18.364277,-33.911442,640.08 18.363535,-33.912552,640.08 18.361073,-33.916378,640.08 18.360558,-33.917309,640.08 18.358322,-33.921341,640.08 18.357811,-33.922291,640.08 18.355463,-33.926834,640.08 18.355127,-33.927567,640.08 18.353054,-33.932327,640.08 18.352547,-33.933556,640.08 18.350945,-33.937511,640.08 18.350531,-33.938644,640.08 18.350195,-33.94368,701.04 18.350979,-33.944412,701.04 18.354286,-33.944321,762 18.354836,-33.943844,792.48 18.356152,-33.941189,792.48 18.356417,-33.940338,792.48 18.35741,-33.936813,822.96 18.357651,-33.936081,853.44 18.358715,-33.932785,883.92 18.359013,-33.932064,883.92 18.361416,-33.929832,944.88 18.362103,-33.929691,975.36 18.364964,-33.930996,1005.84 18.365385,-33.931595,1005.84 18.365879,-33.935139,1005.84 18.365765,-33.936069,1005.84 18.364769,-33.93988,1005.84 18.364391,-33.941006,975.36 18.362806,-33.945602,975.36 18.362446,-33.946636,975.36 18.360901,-33.950966,975.36 18.359724,-33.954346,975.36 18.353577,-33.972752,914.4 18.352146,-33.977547,883.92 18.349228,-33.989792,822.96 18.349113,-33.99128,822.96 18.348827,-33.996075,822.96 18.348793,-33.997284,822.96 18.349073,-34.002502,792.48 18.349241,-34.003693,792.48 18.349857,-34.008503,762 18.349972,-34.00967,762 18.350811,-34.014633,762 18.351002,-34.015675,762 18.351974,-34.020515,762 18.352261,-34.021725,762 18.355865,-34.03825,731.52 18.356953,-34.042675,731.52 18.361349,-34.059677,701.04 18.361702,-34.060688,701.04 18.36348,-34.065536,670.56 18.363876,-34.066555,670.56 18.365765,-34.071117,670.56 18.366337,-34.072327,670.56 18.36886,-34.077026,640.08 18.369427,-34.078007,640.08 18.372402,-34.082523,640.08 18.373177,-34.083527,640.08 18.376179,-34.087551,640.08 18.37698,-34.088669,640.08 18.380182,-34.092819,609.6 18.380928,-34.093788,609.6 18.386965,-34.10051,609.6 18.387806,-34.101288,609.6 18.392029,-34.104542,609.6 18.393059,-34.105331,609.6 18.397522,-34.108452,609.6 18.398569,-34.109116,609.6 18.402716,-34.111679,609.6 18.40395,-34.112457,609.6 18.408108,-34.114876,609.6 18.409275,-34.11557,609.6 18.413982,-34.118088,640.08 18.414917,-34.118599,640.08 18.430595,-34.12698,640.08 18.435226,-34.129349,640.08 18.440609,-34.130936,640.08 18.441868,-34.131031,640.08 18.447502,-34.129898,640.08 18.448963,-34.129261,640.08 18.453276,-34.126648,609.6 18.454285,-34.125957,609.6 18.458691,-34.122791,609.6 18.459778,-34.121861,609.6 18.463308,-34.118271,579.12 18.464127,-34.117298,579.12 18.466784,-34.11351,579.12 18.467331,-34.112549,579.12 18.469082,-34.108063,579.12 18.469307,-34.10701,579.12 18.469849,-34.102867,579.12 18.469963,-34.101517,579.12 18.470249,-34.097279,579.12 18.470316,-34.096298,579.12 18.470707,-34.089832,609.6 18.470821,-34.086758,609.6 18.470936,-34.078053,609.6 18.470821,-34.077217,609.6 18.470535,-34.073025,609.6 18.470993,-34.069767,640.08 18.471851,-34.065624,609.6 18.472195,-34.06432,609.6 18.473343,-34.059814,579.12 18.473623,-34.058762,579.12 18.476257,-34.046165,548.64 18.477116,-34.041279,518.16 18.480406,-34.02475,487.68 18.481134,-34.021088,487.68 18.48461,-34.003235,457.2 18.485298,-33.999519,457.2 18.487873,-33.98267,426.72 18.487972,-33.981491,396.24 18.488216,-33.976894,396.24 18.488253,-33.975449,396.24 18.488028,-33.970825,396.24 18.487917,-33.969727,396.24 18.487186,-33.964607,396.24 18.487015,-33.963535,396.24 18.486179,-33.95874,396.24 18.485985,-33.957577,396.24 18.484898,-33.953014,396.24 18.484497,-33.95171,396.24 18.483124,-33.947147,365.76 18.48238,-33.943657,365.76 18.47826,-33.928341,365.76 18.477688,-33.927319,335.28 18.474632,-33.922943,335.28 18.473791,-33.922028,335.28 18.469849,-33.918053,335.28 18.46899,-33.917217,335.28 18.464642,-33.913303,304.8 18.463669,-33.912468,304.8 18.456583,-33.906189,304.8 18.453598,-33.903576,304.8 18.446661,-33.898453,304.8 18.445644,-33.897942,274.32 18.441582,-33.896873,274.32 18.440216,-33.896988,243.84 18.436516,-33.897491,213.36 18.435459,-33.897617,213.36 18.432312,-33.898132,152.4 18.431358,-33.898361,121.92 18.42794,-33.899551,60.96 18.427334,-33.89999,60.96 18.427147,-33.901039,0 18.426987,-33.900696,30.48 18.427996,-33.899002,60.96 18.428389,-33.898499,60.96 18.430138,-33.895802,91.44 18.430424,-33.89529,121.92 18.432198,-33.892216,152.4 18.432598,-33.891518,152.4 18.434258,-33.888073,213.36 18.43461,-33.887009,213.36 18.434555,-33.883301,243.84 18.434315,-33.88258,243.84 18.431416,-33.879181,274.32 18.430538,-33.878532,304.8 18.426247,-33.876575,335.28 18.425159,-33.876343,335.28 18.420811,-33.876064,396.24 18.420067,-33.87611,396.24 18.415833,-33.876617,426.72 18.415049,-33.876801,426.72 18.411348,-33.878586,457.2 18.411083,-33.879181,487.68 18.413029,-33.881462,518.16 18.413887,-33.88179,518.16 18.417122,-33.882156,548.64 18.417795,-33.882111,548.64 18.420639,-33.881462,579.12 18.421383,-33.881138,579.12 18.423679,-33.879776,609.6 18.423958,-33.879368,609.6 18.422184,-33.877834,609.6 18.42127,-33.877808,579.12 18.416748,-33.878811,579.12 18.415718,-33.879181,579.12 18.410854,-33.881184,579.12 18.409481,-33.881744,579.12 18.404961,-33.883652,579.12 18.403816,-33.884117,579.12 18.39728,-33.887146,609.6 18.395977,-33.887794,609.6 18.391562,-33.890213,609.6 18.390272,-33.890945,609.6 18.386013,-33.893555,640.08 18.385048,-33.894173,640.08 18.3811,-33.897011,609.6 18.379898,-33.897896,609.6 18.376316,-33.90097,609.6 18.375435,-33.901806,609.6 18.371943,-33.905319,609.6 18.371143,-33.906181,609.6 18.368019,-33.909805,609.6 18.367348,-33.910629,609.6 18.364449,-33.914516,640.08 18.363647,-33.915634,640.08 18.361181,-33.919098,640.08 18.360386,-33.920197,640.08 18.357761,-33.924042,640.08 18.357145,-33.925049,640.08 18.35495,-33.929317,640.08 18.354454,-33.93045,640.08 18.352489,-33.934906,609.6 18.352213,-33.935669,609.6 18.351803,-33.942028,609.6 18.352268,-33.943085,609.6 18.355122,-33.947056,609.6 18.35638,-33.948078,609.6 18.361073,-33.949615,609.6 18.36219,-33.949448,640.08 18.36462,-33.946499,670.56 18.36462,-33.945518,670.56 18.364208,-33.941711,670.56 18.364096,-33.94075,701.04 18.365778,-33.937225,792.48 18.366394,-33.937363,792.48 18.368916,-33.939697,792.48 18.369421,-33.940292,792.48 18.371487,-33.943516,792.48 18.37183,-33.944633,792.48 18.372002,-33.948639,792.48 18.371773,-33.949802,792.48 18.369827,-33.953991,762 18.366898,-33.95842,762 18.357983,-33.974663,731.52 18.35495,-33.980015,731.52 18.348885,-33.995609,701.04 18.348625,-33.998611,701.04 18.349171,-34.007946,701.04 18.349411,-34.009323,670.56 18.350195,-34.014359,670.56 18.350475,-34.015869,670.56 18.352432,-34.027451,640.08 18.353165,-34.03125,640.08 18.356585,-34.04924,609.6 18.357525,-34.052776,609.6 18.35907,-34.057804,609.6 18.359356,-34.058735,609.6 18.361015,-34.063202,609.6 18.361574,-34.064484,609.6 18.363535,-34.068741,640.08 18.364208,-34.070068,640.08 18.366674,-34.074326,609.6 18.367252,-34.075214,609.6 18.370285,-34.079498,609.6 18.371046,-34.080505,609.6 18.374241,-34.084396,609.6 18.375137,-34.085449,609.6 18.378811,-34.089737,609.6 18.379555,-34.090576,609.6 18.388311,-34.100281,609.6 18.389397,-34.101376,609.6 18.392773,-34.104542,609.6 18.393745,-34.105381,609.6 18.397808,-34.108639,609.6 18.398838,-34.109428,609.6 18.403244,-34.112549,609.6 18.404285,-34.113235,609.6 18.408995,-34.116348,609.6 18.410284,-34.117172,609.6 18.414631,-34.119484,640.08 18.415777,-34.120056,640.08 18.420467,-34.122372,640.08 18.421555,-34.122883,640.08 18.429794,-34.127537,609.6 18.430824,-34.128189,609.6 18.440952,-34.132893,579.12 18.442268,-34.133125,579.12 18.448175,-34.132919,609.6 18.449364,-34.132614,609.6 18.454227,-34.13052,609.6 18.455257,-34.129913,609.6 18.459606,-34.126656,579.12 18.460636,-34.125862,579.12 18.46471,-34.122345,579.12 18.465786,-34.121346,579.12 18.469276,-34.117764,548.64 18.47002,-34.116879,548.64 18.473007,-34.112823,548.64 18.473679,-34.111771,548.64 18.4758,-34.10738,518.16 18.476202,-34.106186,518.16 18.47723,-34.101749,518.16 18.477379,-34.100693,518.16 18.477827,-34.096069,518.16 18.477882,-34.095062,518.16 18.47822,-34.090485,518.16 18.478275,-34.089203,518.16 18.479507,-34.075699,518.16 18.479677,-34.0746,548.64 18.48175,-34.059387,518.16 18.482208,-34.054779,518.16 18.483488,-34.039032,518.16 18.483768,-34.035461,518.16 18.484554,-34.018932,487.68 18.484777,-34.01564,487.68 18.485506,-33.997284,457.2 18.485641,-33.993374,426.72 18.486403,-33.97522,426.72 18.486403,-33.971603,396.24 18.485899,-33.962082,426.72 18.485756,-33.96088,426.72 18.485069,-33.949894,396.24 18.484268,-33.945053,396.24 18.483067,-33.940212,396.24 18.482647,-33.938919,396.24 18.481007,-33.934162,365.76 18.480574,-33.933014,365.76 18.47805,-33.928391,335.28 18.477322,-33.927338,335.28 18.473175,-33.922668,335.28 18.472309,-33.92173,335.28 18.467846,-33.917866,335.28 18.467009,-33.91713,335.28 18.462811,-33.913586,335.28 18.461895,-33.912792,335.28 18.455406,-33.906097,335.28 18.454565,-33.905182,335.28 18.45108,-33.901386,335.28 18.448563,-33.899105,335.28 18.444672,-33.897526,304.8 18.443579,-33.897446,304.8 18.439823,-33.897583,243.84 18.438589,-33.897675,243.84 18.434778,-33.898087,182.88 18.433657,-33.898224,152.4 18.429846,-33.898865,91.44 18.428837,-33.899139,60.96 18.426874,-33.900375,60.96 18.426931,-33.900696,60.96 18.427849,-33.89957,60.96 18.428135,-33.899059,60.96 18.429453,-33.896988,91.44 18.429909,-33.896358,91.44 18.431625,-33.893753,152.4 18.432026,-33.893147,152.4 18.434105,-33.889023,213.36 18.434443,-33.888153,243.84 18.434891,-33.885086,274.32 18.434778,-33.884354,274.32 18.433041,-33.88092,304.8 18.432199,-33.880005,304.8 18.428949,-33.877396,335.28 18.427883,-33.876755,335.28 18.423792,-33.875015,365.76 18.422838,-33.874786,365.76 18.418293,-33.874481,426.72 18.417263,-33.874527,457.2 18.413759,-33.875107,487.68 18.412638,-33.875427,487.68 18.40905,-33.876755,548.64 18.408451,-33.877132,548.64 18.407593,-33.879601,609.6 18.407986,-33.880096,609.6 18.411026,-33.880997,640.08 18.411999,-33.880905,640.08 18.415552,-33.880417,670.56 18.416336,-33.88028,670.56 18.419781,-33.879696,670.56 18.420597,-33.87973,701.04 18.422615,-33.881149,701.04 18.422642,-33.881649,701.04 18.420261,-33.883438,670.56 18.419308,-33.883667,640.08 18.414745,-33.884304,640.08 18.41383,-33.884396,640.08 18.408794,-33.884907,640.08 18.407421,-33.885094,640.08 18.399181,-33.886631,640.08 18.397636,-33.887005,640.08 18.392851,-33.888657,640.08 18.391562,-33.889206,640.08 18.387108,-33.891518,640.08 18.386068,-33.892136,640.08 18.382145,-33.894791,640.08 18.381042,-33.895615,640.08 18.377266,-33.898735,640.08 18.376652,-33.899277,640.08 18.372896,-33.902847,640.08 18.371887,-33.9039,640.08 18.36886,-33.907333,609.6 18.367964,-33.908386,609.6 18.364824,-33.912552,609.6 18.364162,-33.91349,609.6 18.361702,-33.9174,609.6 18.36113,-33.918331,579.12 18.358555,-33.922989,579.12 18.357986,-33.924042,579.12 18.355911,-33.928436,579.12 18.35535,-33.929737,579.12 18.353725,-33.933517,579.12 18.353176,-33.93486,579.12 18.351746,-33.939514,579.12 18.351707,-33.940521,609.6 18.353445,-33.943771,640.08 18.354399,-33.944275,670.56 18.358267,-33.943863,701.04 18.359108,-33.943176,701.04 18.361013,-33.93988,731.52 18.361301,-33.939049,731.52 18.36219,-33.935669,762 18.362413,-33.934753,792.48 18.363304,-33.931366,822.96 18.363647,-33.930485,822.96 18.365879,-33.928204,914.4 18.366623,-33.928017,914.4 18.369421,-33.928757,975.36 18.369942,-33.929272,975.36 18.370914,-33.932392,975.36 18.370823,-33.933289,975.36 18.369827,-33.937046,975.36 18.369534,-33.938049,975.36 18.368132,-33.942123,975.36 18.367825,-33.94305,975.36 18.366226,-33.947617,975.36 18.365891,-33.948624,975.36 18.360558,-33.962837,944.88 18.359388,-33.966202,944.88 18.354721,-33.980946,914.4 18.354454,-33.981949,914.4 18.352381,-33.990875,883.92 18.352146,-33.992165,853.44 18.351652,-33.997101,853.44 18.351574,-33.99831,853.44 18.351652,-34.003189,822.96 18.351688,-34.004456,822.96 18.351974,-34.009342,792.48 18.352045,-34.010422,792.48 18.352381,-34.015137,822.96 18.352547,-34.01651,822.96 18.354263,-34.030991,822.96 18.354679,-34.034546,822.96 18.35692,-34.051987,792.48 18.357639,-34.055428,792.48 18.360733,-34.071671,792.48 18.361588,-34.076099,792.48 18.362974,-34.087143,792.48 18.363018,-34.088108,792.48 18.363255,-34.092773,792.48 18.363312,-34.094193,792.48 18.363422,-34.09845,792.48 18.363476,-34.101982,792.48 18.364735,-34.11795,792.48 18.365192,-34.121674,792.48 18.367739,-34.136902,822.96 18.367964,-34.137817,792.48 18.369255,-34.142715,792.48 18.369541,-34.143833,792.48 18.370972,-34.148441,792.48 18.371315,-34.149509,792.48 18.37429,-34.157799,792.48 18.375475,-34.160934,792.48 18.381615,-34.176186,822.96 18.382986,-34.17952,822.96 18.389656,-34.194672,822.96 18.391171,-34.197926,822.96 18.398624,-34.21344,792.48 18.400555,-34.217339,792.48 18.408434,-34.232666,792.48 18.410282,-34.236004,792.48 18.418467,-34.249649,792.48 18.420982,-34.253647,792.48 18.429901,-34.268188,762 18.431919,-34.271393,762 18.441673,-34.286224,731.52 18.443813,-34.289402,731.52 18.452625,-34.301273,731.52 18.453541,-34.302387,731.52 18.456806,-34.306046,701.04 18.457928,-34.307236,701.04 18.461403,-34.310806,701.04 18.462353,-34.311699,701.04 18.466673,-34.31575,670.56 18.467846,-34.316772,640.08 18.47168,-34.320126,640.08 18.472939,-34.321198,609.6 18.477402,-34.324921,609.6 18.479462,-34.326458,579.12 18.484552,-34.330124,579.12 18.485584,-34.330833,579.12 18.490162,-34.333767,548.64 18.491764,-34.334789,548.64 18.50305,-34.342438,518.16 18.506134,-34.344727,518.16 18.510075,-34.348614,518.16 18.510761,-34.34964,518.16 18.512306,-34.353737,548.64 18.512421,-34.354713,548.64 18.511734,-34.359089,548.64 18.511347,-34.359924,548.64 18.508488,-34.363403,548.64 18.507479,-34.364227,548.64 18.502865,-34.366817,548.64 18.501873,-34.367203,548.64 18.497053,-34.36853,548.64 18.49577,-34.368679,548.64 18.490677,-34.36882,548.64 18.489361,-34.368771,548.64 18.484385,-34.368347,548.64 18.482647,-34.368073,548.64 18.477322,-34.367065,548.64 18.4762,-34.366817,548.64 18.471212,-34.365417,548.64 18.469791,-34.36491,548.64 18.465157,-34.362907,548.64 18.463783,-34.362164,548.64 18.45789,-34.360065,579.12 18.456745,-34.360161,609.6 18.455715,-34.364349,609.6 18.457088,-34.365143,609.6 18.462696,-34.366444,579.12 18.463726,-34.366585,579.12 18.46998,-34.367386,548.64 18.471279,-34.367607,579.12 18.476601,-34.368538,579.12 18.482094,-34.369423,579.12 18.494249,-34.371094,548.64 18.495655,-34.371147,548.64 18.501144,-34.370773,548.64 18.502121,-34.370586,548.64 18.507271,-34.368355,548.64 18.508244,-34.367516,548.64 18.510618,-34.363358,579.12 18.510876,-34.362301,579.12 18.510532,-34.357971,579.12 18.510225,-34.356949,579.12 18.508759,-34.352898,579.12 18.508263,-34.351685,579.12 18.506414,-34.347244,548.64 18.506012,-34.346333,548.64 18.504181,-34.342285,548.64 18.503611,-34.341019,548.64 18.497334,-34.32692,579.12 18.496056,-34.323711,579.12 18.490494,-34.309387,609.6 18.488903,-34.305321,609.6 18.483639,-34.290424,609.6 18.482254,-34.285767,609.6 18.476429,-34.269382,609.6 18.475922,-34.268234,640.08 18.472195,-34.259003,640.08 18.470879,-34.255791,640.08 18.464823,-34.241867,670.56 18.464094,-34.239853,701.04 18.464012,-34.235588,670.56 18.462639,-34.232189,670.56 18.458601,-34.223145,670.56 18.458153,-34.222137,670.56 18.454004,-34.214264,640.08 18.453426,-34.213242,640.08 18.450754,-34.209137,640.08 18.45005,-34.208027,640.08 18.447334,-34.203918,609.6 18.446789,-34.202999,609.6 18.441055,-34.193619,609.6 18.440323,-34.192806,579.12 18.437805,-34.187485,609.6 18.437805,-34.186157,579.12 18.43832,-34.181355,579.12 18.438549,-34.180191,579.12 18.439693,-34.175907,579.12 18.440104,-34.174622,548.64 18.441753,-34.169716,548.64 18.442122,-34.168579,548.64 18.443642,-34.164036,548.64 18.445091,-34.16011,548.64 18.451818,-34.143311,518.16 18.452883,-34.141113,518.16 18.456631,-34.133636,518.16 18.458519,-34.129868,518.16 18.466167,-34.115707,518.16 18.468243,-34.111221,518.16 18.469923,-34.106781,518.16 18.470249,-34.105751,518.16 18.471508,-34.101189,487.68 18.47168,-34.100445,487.68 18.472837,-34.095703,487.68 18.473118,-34.094696,518.16 18.473969,-34.090389,518.16 18.474239,-34.088974,518.16 18.475342,-34.081871,487.68 18.475473,-34.08078,487.68 18.477211,-34.068054,518.16 18.477859,-34.063389,518.16 18.480181,-34.046036,518.16 18.480629,-34.042877,518.16 18.482037,-34.027637,548.64 18.482424,-34.023056,548.64 18.484272,-34.007217,548.64 18.484833,-34.002777,518.16 18.486235,-33.986618,518.16 18.486557,-33.981785,518.16 18.486958,-33.964046,487.68 18.486908,-33.95961,457.2 18.486235,-33.953018,426.72 18.48601,-33.951874,426.72 18.485001,-33.947342,396.24 18.484665,-33.946152,365.76 18.483467,-33.941887,365.76 18.483208,-33.940842,335.28 18.481522,-33.936302,335.28 18.480949,-33.935093,335.28 18.479004,-33.931229,335.28 18.478374,-33.930019,335.28 18.475864,-33.925964,304.8 18.475193,-33.925003,304.8 18.471773,-33.921021,304.8 18.470932,-33.920197,304.8 18.467176,-33.916443,335.28 18.46653,-33.915771,335.28 18.462868,-33.912281,304.8 18.461781,-33.911209,304.8 18.452053,-33.901993,304.8 18.449295,-33.899597,274.32 18.445316,-33.897263,274.32 18.444475,-33.896896,274.32 18.440496,-33.896484,243.84 18.439655,-33.896622,243.84 18.436235,-33.8974,182.88 18.435507,-33.897583,182.88 18.431976,-33.898315,121.92 18.431751,-33.898361,121.92 18.427044,-33.90033,60.96 18.426931,-33.90065,60.96 18.427849,-33.899246,60.96 18.429117,-33.897491,91.44 18.433056,-33.891239,213.36 18.433434,-33.890396,243.84 18.434429,-33.887283,274.32 18.434498,-33.886322,274.32 18.433685,-33.883186,304.8 18.432985,-33.882202,335.28 18.429733,-33.879822,365.76 18.428612,-33.879318,365.76 18.424353,-33.878036,365.76 18.423288,-33.877808,396.24 18.41835,-33.877041,426.72 18.417034,-33.876949,426.72 18.412357,-33.876938,487.68 18.411083,-33.877041,487.68 18.40662,-33.877785,518.16 18.405247,-33.878113,518.16 18.400978,-33.879593,518.16 18.399914,-33.880051,548.64 18.395519,-33.882069,548.64 18.394604,-33.88258,548.64 18.390272,-33.884949,579.12 18.389225,-33.885654,579.12 18.385677,-33.887981,609.6 18.384892,-33.888565,609.6 18.380814,-33.891518,640.08 18.380014,-33.892136,640.08 18.376408,-33.895103,670.56 18.375549,-33.895847,670.56 18.372223,-33.898819,670.56 18.371494,-33.899506,670.56 18.368626,-33.902645,701.04 18.367796,-33.903625,701.04 18.365192,-33.906879,731.52 18.364677,-33.907627,731.52 18.362135,-33.911316,731.52 18.361473,-33.912422,731.52 18.359356,-33.916145,731.52 18.358883,-33.917038,731.52 18.35692,-33.920975,731.52 18.356361,-33.922073,731.52 18.353062,-33.929134,762 18.351746,-33.932064,762 18.346539,-33.94482,731.52 18.345823,-33.947113,762 18.346481,-33.951618,792.48 18.347504,-33.952194,792.48 18.351036,-33.950363,792.48 18.351427,-33.949493,792.48 18.353004,-33.945332,762 18.353291,-33.944401,762 18.354511,-33.939972,762 18.354778,-33.939003,731.52 18.356024,-33.934662,762 18.356323,-33.933647,762 18.360386,-33.922012,731.52 18.360846,-33.920883,731.52 18.362583,-33.917084,731.52 18.362961,-33.916286,731.52 18.364964,-33.912655,731.52 18.36561,-33.911591,701.04 18.368076,-33.907974,701.04 18.36874,-33.907162,701.04 18.371775,-33.903671,701.04 18.372517,-33.902832,701.04 18.375698,-33.899826,670.56 18.376707,-33.899139,670.56 18.381416,-33.896393,640.08 18.382874,-33.89566,640.08 18.387413,-33.893463,609.6 18.388647,-33.892868,609.6 18.393745,-33.890682,609.6 18.394947,-33.890217,609.6 18.40004,-33.888401,579.12 18.401596,-33.887878,579.12 18.406919,-33.886551,548.64 18.408279,-33.886257,548.64 18.413372,-33.885372,518.16 18.415159,-33.885086,518.16 18.420092,-33.884399,487.68 18.42127,-33.884308,487.68 18.426371,-33.884171,457.2 18.427322,-33.884216,457.2 18.432199,-33.884949,426.72 18.43317,-33.885235,396.24 18.436852,-33.8871,365.76 18.437469,-33.887558,365.76 18.439693,-33.889935,335.28 18.440048,-33.890488,335.28 18.44072,-33.89296,274.32 18.440607,-33.893646,274.32 18.439522,-33.895615,243.84 18.439039,-33.896027,243.84 18.436741,-33.897308,213.36 18.436235,-33.897491,182.88 18.433285,-33.898689,152.4 18.432648,-33.898911,121.92 18.430574,-33.899506,91.44 18.430138,-33.89957,91.44 18.42802,-33.899853,60.96 18.427603,-33.899918,60.96 18.427134,-33.901085,0 18.426987,-33.900879,60.96 18.427677,-33.898827,91.44 18.428307,-33.89785,91.44 18.430126,-33.895386,121.92 18.430653,-33.894638,121.92 18.432198,-33.891891,182.88 18.432713,-33.891006,182.88 18.435114,-33.886185,213.36 18.435287,-33.885372,243.84 18.434217,-33.882065,274.32 18.433342,-33.881229,274.32 18.429846,-33.878998,304.8 18.428724,-33.878448,304.8 18.424576,-33.876984,335.28 18.423512,-33.876709,335.28 18.418293,-33.875832,365.76 18.41729,-33.875748,396.24 18.412743,-33.87569,396.24 18.411427,-33.875786,426.72 18.406864,-33.876801,457.2 18.405687,-33.877213,457.2 18.401596,-33.87886,457.2 18.400475,-33.879364,487.68 18.396158,-33.881607,518.16 18.395205,-33.882156,518.16 18.391571,-33.884396,548.64 18.390541,-33.885094,548.64 18.386965,-33.887604,548.64 18.3859,-33.888336,579.12 18.38237,-33.890991,579.12 18.381584,-33.891678,579.12 18.37801,-33.89473,609.6 18.377045,-33.895615,609.6 18.373375,-33.899105,609.6 18.372459,-33.900085,609.6 18.369598,-33.903202,640.08 18.368748,-33.904175,640.08 18.366058,-33.907654,640.08 18.365421,-33.908512,640.08 18.363031,-33.912003,670.56 18.362331,-33.913025,670.56 18.360228,-33.916626,670.56 18.359756,-33.917496,670.56 18.357706,-33.921158,670.56 18.357124,-33.922291,701.04 18.354959,-33.926559,670.56 18.353462,-33.929646,670.56 18.348625,-33.940567,701.04 18.348141,-33.941841,701.04 18.346495,-33.946426,701.04 18.346252,-33.947102,701.04 18.343973,-33.955215,731.52 18.345095,-33.95723,762 18.349298,-33.955811,731.52 18.349857,-33.954876,731.52 18.35186,-33.950455,701.04 18.352203,-33.949524,701.04 18.353838,-33.94487,701.04 18.354321,-33.943565,701.04 18.357929,-33.933975,670.56 18.358938,-33.931458,670.56 18.36462,-33.919033,640.08 18.365273,-33.91777,640.08 18.367424,-33.913773,640.08 18.368168,-33.912514,640.08 18.370598,-33.908661,640.08 18.371429,-33.907486,640.08 18.374405,-33.903667,640.08 18.375137,-33.902847,640.08 18.378696,-33.899292,609.6 18.379841,-33.898361,609.6 18.383846,-33.895336,609.6 18.384892,-33.894608,609.6 18.389488,-33.891907,609.6 18.390484,-33.891331,609.6 18.395597,-33.888885,579.12 18.396774,-33.888382,579.12 18.402615,-33.886585,579.12 18.403893,-33.886276,579.12 18.409105,-33.885223,548.64 18.41062,-33.884949,548.64 18.416449,-33.884216,548.64 18.418064,-33.884117,548.64 18.423792,-33.884033,518.16 18.425446,-33.884117,487.68 18.43063,-33.884537,457.2 18.432032,-33.884766,457.2 18.436684,-33.886185,426.72 18.437977,-33.886772,426.72 18.441238,-33.889145,396.24 18.441786,-33.889755,365.76 18.443298,-33.892776,335.28 18.443298,-33.893417,335.28 18.441113,-33.895569,274.32 18.440384,-33.895889,274.32 18.437176,-33.896873,213.36 18.43646,-33.897034,213.36 18.432257,-33.898178,152.4 18.431396,-33.898361,121.92 18.427603,-33.899689,60.96 18.427391,-33.89999,60.96 18.427162,-33.901062,60.96 18.427044,-33.900558,60.96 18.428879,-33.897896,60.96 18.429285,-33.897308,91.44 18.431751,-33.893326,182.88 18.43248,-33.891953,213.36 18.433882,-33.888794,243.84 18.434086,-33.888027,243.84 18.433914,-33.884674,274.32 18.433546,-33.883896,304.8 18.43111,-33.880905,335.28 18.430252,-33.880161,335.28 18.42659,-33.87788,365.76 18.425446,-33.877365,396.24 18.420372,-33.875748,396.24 18.419195,-33.875519,426.72 18.414095,-33.875107,426.72 18.412857,-33.875134,426.72 18.407705,-33.87561,457.2 18.406563,-33.875877,457.2 18.401527,-33.877415,487.68 18.40044,-33.877739,487.68 18.395542,-33.879776,487.68 18.394533,-33.880234,518.16 18.390141,-33.882488,518.16 18.389151,-33.883026,518.16 18.384762,-33.885605,518.16 18.383789,-33.886211,518.16 18.37944,-33.889099,518.16 18.378639,-33.889702,518.16 18.374691,-33.892868,518.16 18.37385,-33.893555,518.16 18.370375,-33.896805,518.16 18.369534,-33.897629,518.16 18.366282,-33.901337,548.64 18.365536,-33.902225,548.64 18.362864,-33.90596,548.64 18.362274,-33.906879,548.64 18.359928,-33.910557,579.12 18.359356,-33.911583,579.12 18.357239,-33.915539,579.12 18.356585,-33.916763,609.6 18.354734,-33.920746,609.6 18.354321,-33.921684,609.6 18.352547,-33.92564,609.6 18.352045,-33.926834,609.6 18.346367,-33.94175,640.08 18.345205,-33.945328,670.56 18.34322,-33.95348,670.56 18.343693,-33.95462,670.56 18.350029,-33.954456,670.56 18.35083,-33.953571,640.08 18.353176,-33.949196,609.6 18.353725,-33.947891,609.6 18.355637,-33.943424,609.6 18.356136,-33.942123,609.6 18.358212,-33.93742,579.12 18.360397,-33.932693,548.64 18.368467,-33.916763,548.64 18.370171,-33.913631,548.64 18.37553,-33.905045,548.64 18.376465,-33.903809,548.64 18.379726,-33.900177,548.64 18.380585,-33.899338,548.64 18.384762,-33.895893,518.16 18.385677,-33.895245,518.16 18.390083,-33.892357,518.16 18.391506,-33.891541,518.16 18.396492,-33.889053,518.16 18.397751,-33.888493,518.16 18.402901,-33.886631,518.16 18.404062,-33.886322,518.16 18.408966,-33.885002,518.16 18.410568,-33.884674,518.16 18.41589,-33.88393,518.16 18.417234,-33.88385,518.16 18.422585,-33.883743,487.68 18.424187,-33.883839,487.68 18.429165,-33.884441,487.68 18.430519,-33.884766,487.68 18.435562,-33.886459,457.2 18.436571,-33.886917,426.72 18.440216,-33.889114,426.72 18.440832,-33.889709,426.72 18.44257,-33.892136,426.72 18.442783,-33.892776,426.72 18.442064,-33.894928,365.76 18.441561,-33.895386,335.28 18.439711,-33.896759,304.8 18.43915,-33.897034,274.32 18.435917,-33.897991,213.36 18.435287,-33.898129,213.36 18.430996,-33.899105,121.92 18.429173,-33.899643,91.44 18.427155,-33.90097,60.96 18.427044,-33.901199,60.96 18.427492,-33.899918,60.96 18.42794,-33.899414,91.44 18.429901,-33.8974,121.92 18.430407,-33.896805,121.92 18.43214,-33.894451,152.4 18.432655,-33.893753,152.4 18.434666,-33.890213,213.36 18.434887,-33.889702,213.36 18.436146,-33.886444,243.84 18.436317,-33.885468,243.84 18.435675,-33.882111,274.32 18.435059,-33.881104,274.32 18.432026,-33.878437,304.8 18.43091,-33.877808,304.8 18.426533,-33.876251,335.28 18.425274,-33.875969,335.28 18.420372,-33.87529,365.76 18.418972,-33.875198,365.76 18.413759,-33.87529,396.24 18.412628,-33.875366,396.24 18.407135,-33.87611,396.24 18.406023,-33.876389,426.72 18.40107,-33.877834,426.72 18.399801,-33.878311,426.72 18.395205,-33.88028,457.2 18.39426,-33.880718,457.2 18.389454,-33.883186,457.2 18.388653,-33.883606,457.2 18.383732,-33.88649,457.2 18.382706,-33.887146,457.2 18.378639,-33.890076,457.2 18.377724,-33.890774,457.2 18.374241,-33.893921,457.2 18.373289,-33.894836,487.68 18.370094,-33.898178,487.68 18.369198,-33.899155,487.68 18.366169,-33.902618,518.16 18.365553,-33.903442,518.16 18.362638,-33.907242,518.16 18.362045,-33.908138,518.16 18.359585,-33.911724,548.64 18.358995,-33.912689,548.64 18.356667,-33.916752,548.64 18.356192,-33.917587,548.64 18.353445,-33.922485,548.64 18.35182,-33.925415,579.12 18.347952,-33.933426,579.12 18.347561,-33.934341,579.12 18.345823,-33.938507,579.12 18.345375,-33.939606,609.6 18.343678,-33.944683,609.6 18.343187,-33.946106,609.6 18.34156,-33.956646,640.08 18.344309,-33.958374,670.56 18.349686,-33.955669,640.08 18.350487,-33.954411,640.08 18.352549,-33.949814,640.08 18.353004,-33.948593,609.6 18.354607,-33.944077,609.6 18.355015,-33.943039,609.6 18.356642,-33.938416,609.6 18.358547,-33.933334,579.12 18.36348,-33.92189,548.64 18.364563,-33.919682,548.64 18.367653,-33.913818,548.64 18.36834,-33.912605,548.64 18.3708,-33.908463,518.16 18.371607,-33.907196,518.16 18.374519,-33.902924,518.16 18.37525,-33.901886,518.16 18.378445,-33.897903,487.68 18.37923,-33.896988,487.68 18.382874,-33.893242,518.16 18.383846,-33.892403,518.16 18.388422,-33.889343,518.16 18.389454,-33.888771,518.16 18.394701,-33.886322,518.16 18.396103,-33.885818,518.16 18.401356,-33.884163,487.68 18.402557,-33.883884,487.68 18.408377,-33.88266,487.68 18.409723,-33.882431,487.68 18.415318,-33.881977,487.68 18.416674,-33.881927,457.2 18.422615,-33.882202,457.2 18.424015,-33.882347,457.2 18.429062,-33.883255,487.68 18.43008,-33.883511,487.68 18.43523,-33.885094,487.68 18.436432,-33.885605,487.68 18.439693,-33.887981,457.2 18.440216,-33.88884,457.2 18.43998,-33.892544,396.24 18.439543,-33.893188,396.24 18.437132,-33.895294,365.76 18.436628,-33.895523,335.28 18.433489,-33.896484,274.32 18.43277,-33.896687,243.84 18.429901,-33.897491,182.88 18.429337,-33.897758,182.88 18.427563,-33.899292,121.92 18.427391,-33.89957,91.44 18.426987,-33.900799,0 18.427219,-33.900829,0 18.430138,-33.895615,121.92 18.430939,-33.894077,121.92 18.433096,-33.889252,182.88 18.433399,-33.888538,182.88 18.43461,-33.885086,243.84 18.434778,-33.884079,243.84 18.434486,-33.880627,274.32 18.4342,-33.879787,274.32 18.43214,-33.876202,304.8 18.431396,-33.87532,304.8 18.427603,-33.873001,335.28 18.426647,-33.872757,335.28 18.422413,-33.872433,365.76 18.421494,-33.872452,396.24 18.416805,-33.873409,426.72 18.416176,-33.873596,426.72 18.412806,-33.87561,457.2 18.412399,-33.876251,487.68 18.412514,-33.879044,518.16 18.413031,-33.879684,518.16 18.416004,-33.881046,548.64 18.417034,-33.881092,548.64 18.420372,-33.880417,548.64 18.421326,-33.879959,579.12 18.4235,-33.877415,579.12 18.423624,-33.876663,579.12 18.422356,-33.873875,579.12 18.421606,-33.873459,579.12 18.417458,-33.873093,579.12 18.416674,-33.87323,579.12 18.412582,-33.874557,579.12 18.411629,-33.874924,579.12 18.407707,-33.876621,579.12 18.406563,-33.877132,579.12 18.402615,-33.879089,579.12 18.401484,-33.879684,579.12 18.397896,-33.881607,609.6 18.396832,-33.882202,609.6 18.393299,-33.884445,640.08 18.392258,-33.885139,640.08 18.388653,-33.88784,640.08 18.387794,-33.888447,640.08 18.384361,-33.891193,640.08 18.383389,-33.891983,640.08 18.38007,-33.894825,640.08 18.37923,-33.895569,640.08 18.374233,-33.900131,640.08 18.373604,-33.900738,640.08 18.369869,-33.90477,640.08 18.369196,-33.905548,640.08 18.366337,-33.909489,640.08 18.365665,-33.910492,640.08 18.363132,-33.914608,640.08 18.362675,-33.915401,640.08 18.3605,-33.919449,640.08 18.359928,-33.920567,640.08 18.356417,-33.927109,640.08 18.355072,-33.929764,640.08 18.35182,-33.937454,640.08 18.351259,-33.939468,670.56 18.353119,-33.942215,701.04 18.354343,-33.941986,731.52 18.357201,-33.939697,731.52 18.357697,-33.939003,731.52 18.359756,-33.935326,762 18.3601,-33.934578,762 18.361645,-33.930855,792.48 18.362022,-33.929901,792.48 18.363304,-33.926479,822.96 18.36359,-33.92569,822.96 18.364151,-33.922302,853.44 18.363819,-33.921684,883.92 18.360786,-33.920895,883.92 18.360157,-33.921452,883.92 18.359241,-33.924992,883.92 18.359108,-33.926102,883.92 18.358727,-33.930576,883.92 18.358658,-33.931458,883.92 18.358267,-33.935669,883.92 18.358097,-33.936768,883.92 18.356472,-33.946014,883.92 18.355808,-33.950081,883.92 18.353004,-33.966793,883.92 18.352032,-33.972939,883.92 18.349571,-33.989883,853.44 18.349522,-33.990967,853.44 18.349411,-33.995407,883.92 18.349411,-33.99678,853.44 18.349857,-34.001335,853.44 18.350082,-34.002823,853.44 18.350658,-34.007015,853.44 18.350811,-34.00827,853.44 18.351765,-34.018524,792.48 18.35186,-34.020889,792.48 18.352203,-34.034622,762 18.352547,-34.038998,762 18.355015,-34.043289,762 18.355808,-34.044025,762 18.359928,-34.046818,762 18.360956,-34.047409,762 18.36533,-34.050156,762 18.366451,-34.051006,762 18.369198,-34.05566,792.48 18.369083,-34.056778,762 18.36668,-34.060596,762 18.365665,-34.061874,762 18.363873,-34.065857,762 18.363703,-34.067047,762 18.364735,-34.071724,762 18.365273,-34.072815,762 18.367767,-34.076611,731.52 18.368683,-34.077915,731.52 18.371607,-34.081787,731.52 18.372335,-34.082748,731.52 18.375263,-34.086388,731.52 18.376179,-34.08741,731.52 18.381248,-34.09346,731.52 18.382706,-34.095062,731.52 18.386349,-34.098495,731.52 18.386993,-34.09914,731.52 18.390484,-34.102352,731.52 18.391399,-34.103191,731.52 18.394718,-34.105984,731.52 18.395748,-34.106869,731.52 18.40147,-34.111385,731.52 18.402328,-34.112083,731.52 18.410511,-34.117996,701.04 18.411484,-34.118649,701.04 18.415833,-34.121338,670.56 18.416862,-34.121952,670.56 18.421211,-34.12442,640.08 18.422335,-34.125,640.08 18.426647,-34.127167,609.6 18.431168,-34.129494,579.12 18.43689,-34.132008,548.64 18.438263,-34.132473,548.64 18.443298,-34.133312,548.64 18.44442,-34.133286,548.64 18.44924,-34.132004,548.64 18.450474,-34.131409,548.64 18.454227,-34.12875,548.64 18.455126,-34.127975,548.64 18.458769,-34.124405,548.64 18.459549,-34.123581,548.64 18.462357,-34.119644,518.16 18.462811,-34.118649,518.16 18.464012,-34.113293,518.16 18.464037,-34.112183,518.16 18.463097,-34.107056,518.16 18.462639,-34.105984,518.16 18.460562,-34.101929,518.16 18.460007,-34.100864,548.64 18.45789,-34.096581,518.16 18.457312,-34.095337,518.16 18.454678,-34.088928,518.16 18.454227,-34.087784,518.16 18.452827,-34.083023,548.64 18.452547,-34.08197,548.64 18.451595,-34.07745,548.64 18.451313,-34.076065,548.64 18.450474,-34.071671,548.64 18.449821,-34.068092,548.64 18.446774,-34.05249,579.12 18.446325,-34.048874,579.12 18.445988,-34.044395,579.12 18.445932,-34.043106,579.12 18.44593,-34.038345,548.64 18.445988,-34.037319,548.64 18.446606,-34.032349,548.64 18.446846,-34.031223,548.64 18.448063,-34.026627,548.64 18.448511,-34.025345,548.64 18.450136,-34.020859,548.64 18.450697,-34.019485,518.16 18.452435,-34.015091,518.16 18.452883,-34.013809,518.16 18.45933,-33.996597,487.68 18.46129,-33.991974,487.68 18.464527,-33.985275,487.68 18.465214,-33.984016,487.68 18.467846,-33.979923,487.68 18.468634,-33.978836,487.68 18.471493,-33.975037,487.68 18.472166,-33.974167,487.68 18.475193,-33.970001,487.68 18.477434,-33.966705,487.68 18.482031,-33.959381,457.2 18.482647,-33.958145,457.2 18.484217,-33.953522,457.2 18.484385,-33.952148,457.2 18.484325,-33.94743,426.72 18.484097,-33.94603,426.72 18.48304,-33.940887,426.72 18.482704,-33.939514,426.72 18.481236,-33.934486,396.24 18.480835,-33.933182,396.24 18.478949,-33.928391,396.24 18.478317,-33.927319,365.76 18.474745,-33.922943,365.76 18.473854,-33.922058,365.76 18.469734,-33.918285,365.76 18.468801,-33.917404,365.76 18.464928,-33.914005,365.76 18.46384,-33.913071,365.76 18.453484,-33.903717,335.28 18.450909,-33.901527,304.8 18.44593,-33.898457,274.32 18.444923,-33.898178,274.32 18.441055,-33.897858,274.32 18.440151,-33.89785,243.84 18.436375,-33.898037,213.36 18.435339,-33.898132,182.88 18.432087,-33.898773,152.4 18.431282,-33.899059,121.92 18.42905,-33.90004,91.44 18.428249,-33.90041,60.96 18.427505,-33.90041,60.96 18.427792,-33.899712,91.44 18.429222,-33.897572,91.44 18.429621,-33.896942,121.92 18.431135,-33.894287,152.4 18.431568,-33.893475,182.88 18.433743,-33.887794,213.36 18.434029,-33.886864,243.84 18.434555,-33.882843,243.84 18.434315,-33.881603,274.32 18.431969,-33.877274,304.8 18.43119,-33.876434,304.8 18.427162,-33.873272,335.28 18.426146,-33.872726,335.28 18.421381,-33.87117,396.24 18.420036,-33.870941,396.24 18.415604,-33.870804,457.2 18.414598,-33.870941,457.2 18.410339,-33.871967,487.68 18.409443,-33.872269,518.16 18.405762,-33.873829,548.64 18.404678,-33.874374,548.64 18.401184,-33.876343,579.12 18.399982,-33.877041,579.12 18.39632,-33.879414,609.6 18.395576,-33.879929,609.6 18.392067,-33.882614,640.08 18.391001,-33.883484,640.08 18.387966,-33.886166,670.56 18.386965,-33.8871,670.56 18.383827,-33.890213,701.04 18.383099,-33.890991,701.04 18.380352,-33.894058,701.04 18.379623,-33.894882,701.04 18.376808,-33.898129,731.52 18.37595,-33.899105,731.52 18.373009,-33.902847,731.52 18.371214,-33.905273,731.52 18.36858,-33.909027,731.52 18.367825,-33.910187,731.52 18.365479,-33.91391,731.52 18.364937,-33.914841,731.52 18.362732,-33.918892,731.52 18.362078,-33.920197,731.52 18.360004,-33.924454,731.52 18.359388,-33.925781,731.52 18.35741,-33.930252,731.52 18.35709,-33.931,731.52 18.351091,-33.945465,701.04 18.349628,-33.949104,701.04 18.342684,-33.968857,731.52 18.340759,-33.97443,731.52 18.336067,-33.99086,731.52 18.335609,-33.993423,731.52 18.332987,-34.007721,731.52 18.332348,-34.012276,731.52 18.329679,-34.028687,640.08 18.32943,-34.031826,640.08 18.330345,-34.036762,640.08 18.330688,-34.03788,640.08 18.331923,-34.042099,640.08 18.332201,-34.043289,640.08 18.333492,-34.050308,670.56 18.333435,-34.051334,670.56 18.331947,-34.055943,670.56 18.331585,-34.057022,701.04 18.332233,-34.060783,731.52 18.333035,-34.061062,731.52 18.336411,-34.059525,762 18.336966,-34.058807,762 18.338757,-34.055569,792.48 18.339041,-34.054504,792.48 18.338873,-34.050385,792.48 18.338585,-34.049099,792.48 18.337807,-34.045029,762 18.337639,-34.044022,762 18.336742,-34.03949,731.52 18.336462,-34.038345,731.52 18.33321,-34.023285,640.08 18.33252,-34.019073,640.08 18.332005,-34.011436,609.6 18.332119,-34.010319,609.6 18.332691,-34.005943,609.6 18.33292,-34.00478,609.6 18.333893,-34.000496,640.08 18.334108,-33.999435,640.08 18.339489,-33.982773,670.56 18.341503,-33.977592,670.56 18.349073,-33.958511,670.56 18.351002,-33.953758,640.08 18.358042,-33.936722,640.08 18.359528,-33.933323,609.6 18.36731,-33.917683,609.6 18.367882,-33.916656,609.6 18.370514,-33.912468,579.12 18.371103,-33.911545,579.12 18.37413,-33.907379,579.12 18.374859,-33.906509,579.12 18.378124,-33.902737,579.12 18.378983,-33.901852,579.12 18.382587,-33.898361,579.12 18.383434,-33.897583,579.12 18.387508,-33.894264,579.12 18.388647,-33.893463,579.12 18.392851,-33.890762,579.12 18.394028,-33.890121,579.12 18.398952,-33.887749,548.64 18.40053,-33.8871,548.64 18.405743,-33.885269,548.64 18.406919,-33.884903,548.64 18.412582,-33.883575,548.64 18.413773,-33.883373,548.64 18.419533,-33.882797,518.16 18.420696,-33.882767,518.16 18.425961,-33.882954,487.68 18.427322,-33.883118,457.2 18.43214,-33.884117,426.72 18.433153,-33.884445,426.72 18.436684,-33.886322,396.24 18.437525,-33.886963,396.24 18.439711,-33.889664,335.28 18.440159,-33.890579,335.28 18.440664,-33.893555,304.8 18.440609,-33.893986,304.8 18.438835,-33.896175,274.32 18.438198,-33.89653,274.32 18.435452,-33.897537,213.36 18.434772,-33.897758,213.36 18.432198,-33.898407,152.4 18.431639,-33.898544,152.4 18.42802,-33.900551,60.96 18.427773,-33.90065,60.96
        </coordinates>
      </LineString>
    </Placemark>
  </Document>
</kml>