<?xml version="1.0" encoding="UTF-8"?>
<kml xmlns="http://www.opengis.net/kml/2.2">
  <Document>
    <name>-/ZTHOT - Optimised</name>
    <description><![CDATA[Optimised flight path with 473 points (decimated from 2363 original points). Source format: Standard KML]]></description>
    
    <Style id="flightPath">
      <LineStyle>
        <color>ff0000ff</color>
        <width>3</width>
      </LineStyle>
    </Style>
    
    <Placemark>
      <name>Flight Path</name>
      <description><![CDATA[<div style="width:220px; text-align:center;">
<div style="width:210px; text-align:center;">
<div style=" background: #000; color: #fff; font-size: 14px; text-align:left; border: 1px solid #000; padding: 2px 6px; text-shadow: 0 1px 0 #000; box-shadow: 0 1px 3px rgba(0,0,0,0.6); background: -webkit-gradient(linear, left top, left bottom, color-stop(0%,#808080), color-stop(2%,#303030), color-stop(100%,#0c0c0c));"><span style="font-size: 14px; font-weight: bold;"><a href="javascript:void(0);" style="color: #fff; cursor: pointer;text-decoration: none;">-</a></span> / ZTHOT<br/>Cape Town Helicopters</div>

<div style="border-top: 1px solid #005c90; color: #fff; padding-bottom: 5px; box-shadow: 0 0 1px #9BE3F6 inset, 0 1px 0 #9BE3F6 inset, 0 -1px 3px rgba(0,0,0,0.4); background:rgba(43,114,173,1); background: -webkit-gradient(linear, left top, left bottom, color-stop(0%,rgba(92,184,229,1)), color-stop(100%,rgba(43,114,173,1)));">
<a style="text-decoration: none; color: rgb(255, 255, 255); font-size: 12px; width:77px; display: inline-block;" title=" Airport" href="javascript:void(0);/departures"><h3 style="padding: 0px; margin: 10px 0px 0px; font-size: 16px; ">?</h3></a>
<span style="background: url(https://www.flightradar24.com/static/images/userUI_sprite.png?14) no-repeat scroll 0 -464px rgba(0, 0, 0, 0); border: medium none; display: inline-block; height: 16px; width: 45px;"></span>
<a style="text-decoration: none; color: rgb(255, 255, 255); font-size: 12px; width:77px; display: inline-block;" title="Cape Town Airport" href="https://www.flightradar24.com/airport/cpt/arrivals"><h3 style="padding: 0px; margin: 10px 0px 0px; font-size: 16px;">CPT</h3>Cape Town</a>
<div style=" margin-top:10px;">
<div style="display: inline-block; font-size: 12px; padding: 0 5px;">
<div>
<span style="color: #c1eaff;" title="Actual Time of Departure">ATD </span>
<span title="2025-04-30 14:00">14:00</span> <span title="Coordinated Universal Time">UTC</span>
</div>
</div>
<div style="display: inline-block; font-size: 12px; padding: 0 5px;">
<div>
<span style="color: #c1eaff;" title="Estimated Time of Arrival">ETA </span>
<span title="2025-04-30 14:18">14:18</span> <span title="Coordinated Universal Time">UTC</span>
</div>
</div>
</div>
<br style="clear: both;"/>
</div>

<div style="display: block;">
<table style="border-collapse: collapse; width: 100%;">
<tr style="border-right: 1px solid #dadada; ">
<td style="background: none repeat scroll 0 0 #dadada; padding: 0; width: 31px;">
<span style="background: url(https://www.flightradar24.com/static/images/userUI_sprite.png?14) no-repeat scroll -208px -464px rgba(0, 0, 0, 0); height: 26px; margin: 8px 0 0 4px; width: 23px; display: block;"></span>
</td>
<td colspan="2" style="border-bottom: 1px solid #dadada; border-left: 1px solid #dadada; color: #666; line-height: 1.1em; padding: 3px 6px; vertical-align: top; font-size: 14px;">
Aircraft<span style="float: right; font-size: 12px;">(AS50)</span><br>
<span style="color: #333; font-size: 16px; font-weight: bold; line-height: 1.3em;">Airbus Helicopters H125</span>
</td>
</tr>
<tr style="border-right: 1px solid #dadada; ">
<td style="background: none repeat scroll 0 0 #dadada; padding: 0; width: 31px;">
<td colspan="2" style="border-bottom: 1px solid #dadada; border-left: 1px solid #dadada; color: #666; line-height: 1.1em; padding: 3px 6px; vertical-align: top; font-size: 14px;">
Registration<br>
<span style="color: #333; font-size: 16px; font-weight: bold; line-height: 1.3em;"><a href="https://www.flightradar24.com/reg/zt-hot" style="text-decoration: none; color: #333;">ZT-HOT</a></span>
</td>
</tr>
</table>
</div>

</div>
</div>]]></description>
      <styleUrl>#flightPath</styleUrl>
      <LineString>
        <extrude>1</extrude>
        <tessellate>1</tessellate>
        <altitudeMode>absolute</altitudeMode>
        <coordinates>
          18.435675,-33.902435,182.88 18.441238,-33.903343,243.84 18.444475,-33.904907,274.32 18.447762,-33.906834,304.8 18.451195,-33.909302,304.8 18.45451,-33.911774,304.8 18.463955,-33.918472,304.8 18.479004,-33.92894,304.8 18.48444,-33.933231,304.8 18.497143,-33.942493,304.8 18.507614,-33.949661,304.8 18.513165,-33.951244,304.8 18.519001,-33.951942,304.8 18.525023,-33.95256,304.8 18.533993,-33.953571,304.8 18.554478,-33.955902,304.8 18.5739,-33.957962,304.8 18.580402,-33.958191,274.32 18.587074,-33.958054,274.32 18.601799,-33.957855,274.32 18.617903,-33.958145,274.32 18.624237,-33.958603,274.32 18.645144,-33.960342,304.8 18.656559,-33.961861,304.8 18.665657,-33.962742,304.8 18.672123,-33.962559,304.8 18.679104,-33.962093,304.8 18.688889,-33.961533,274.32 18.701992,-33.961395,304.8 18.718929,-33.961674,304.8 18.740713,-33.961487,396.24 18.760471,-33.960976,457.2 18.781471,-33.959763,518.16 18.795757,-33.959656,518.16 18.80254,-33.960571,487.68 18.808937,-33.961811,487.68 18.815002,-33.963116,457.2 18.829079,-33.966515,335.28 18.837318,-33.967258,274.32 18.84301,-33.968903,213.36 18.845757,-33.971054,182.88 18.849176,-33.971512,182.88 18.846598,-33.970367,152.4 18.84613,-33.971962,152.4 18.87042,-33.954803,426.72 18.876865,-33.949265,457.2 18.882008,-33.946217,457.2 18.964176,-33.982807,518.16 18.959484,-33.978012,518.16 18.947067,-33.980247,365.76 18.950958,-33.963627,640.08 18.947605,-33.960846,640.08 18.94289,-33.958553,640.08 18.939196,-33.961304,579.12 18.946539,-33.967987,548.64 18.953882,-33.973526,548.64 18.964062,-33.975872,640.08 18.968983,-33.977875,670.56 18.969633,-33.97998,670.56 18.962173,-33.975361,670.56 18.951473,-33.97047,579.12 18.9505,-33.972984,518.16 18.955536,-33.975594,487.68 18.961281,-33.975952,518.16 18.954275,-33.97847,457.2 18.956684,-33.976868,457.2 18.959881,-33.9776,487.68 18.950014,-33.978241,396.24 18.939365,-33.97467,518.16 18.926125,-33.963257,609.6 18.912571,-33.953064,579.12 18.897858,-33.942539,579.12 18.891327,-33.939377,579.12 18.884264,-33.938095,548.64 18.877762,-33.938095,579.12 18.871653,-33.938599,579.12 18.865543,-33.939377,579.12 18.859266,-33.940567,579.12 18.853716,-33.942261,579.12 18.847675,-33.944263,609.6 18.839928,-33.947021,579.12 18.819237,-33.954132,579.12 18.805454,-33.958282,548.64 18.798616,-33.959656,518.16 18.792286,-33.960648,457.2 18.785276,-33.961533,426.72 18.778494,-33.962173,426.72 18.771973,-33.96265,396.24 18.765209,-33.96286,396.24 18.758202,-33.962814,365.76 18.751308,-33.962494,365.76 18.740215,-33.961952,365.76 18.71664,-33.960091,304.8 18.695255,-33.958054,335.28 18.671036,-33.955948,274.32 18.647404,-33.953945,274.32 18.638699,-33.953796,274.32 18.632309,-33.954025,274.32 18.625807,-33.954529,274.32 18.6129,-33.955574,274.32 18.592623,-33.95787,274.32 18.586121,-33.957642,274.32 18.579786,-33.957092,274.32 18.573004,-33.956314,274.32 18.566837,-33.955482,274.32 18.544464,-33.951664,274.32 18.530388,-33.948265,243.84 18.514709,-33.944046,274.32 18.503895,-33.940491,274.32 18.497837,-33.938095,243.84 18.490963,-33.935093,243.84 18.484665,-33.931458,274.32 18.478779,-33.927612,274.32 18.47323,-33.923767,274.32 18.46314,-33.916489,274.32 18.458118,-33.91214,274.32 18.453369,-33.907299,274.32 18.44902,-33.902412,274.32 18.445072,-33.897339,243.84 18.44072,-33.892456,243.84 18.437119,-33.893612,182.88 18.434555,-33.895386,152.4 18.431583,-33.8974,60.96 18.427734,-33.900272,30.48 18.428192,-33.901295,60.96 18.431511,-33.900921,91.44 18.435402,-33.89999,182.88 18.438759,-33.897858,274.32 18.441181,-33.89394,365.76 18.442064,-33.889618,426.72 18.440777,-33.884537,487.68 18.43775,-33.879868,518.16 18.432941,-33.87611,548.64 18.426538,-33.873459,579.12 18.420467,-33.872154,609.6 18.414207,-33.872223,640.08 18.407536,-33.873177,670.56 18.401127,-33.874668,701.04 18.394924,-33.876617,701.04 18.388767,-33.878857,701.04 18.383503,-33.881371,701.04 18.378181,-33.884537,701.04 18.373625,-33.887924,701.04 18.369589,-33.891907,701.04 18.365778,-33.896484,701.04 18.362503,-33.901016,701.04 18.359556,-33.905685,701.04 18.35701,-33.909908,731.52 18.348026,-33.92485,731.52 18.340834,-33.93869,731.52 18.336697,-33.94836,731.52 18.333778,-33.967957,701.04 18.350716,-33.960648,670.56 18.354206,-33.951199,640.08 18.363075,-33.928017,609.6 18.369083,-33.916004,579.12 18.372917,-33.910141,579.12 18.377493,-33.904358,579.12 18.382473,-33.899338,609.6 18.388311,-33.894745,579.12 18.395061,-33.891472,548.64 18.402214,-33.889423,487.68 18.409836,-33.888153,457.2 18.417206,-33.887142,365.76 18.42766,-33.886047,274.32 18.431282,-33.889004,213.36 18.430595,-33.892776,152.4 18.428782,-33.896347,91.44 18.427563,-33.899387,30.48 18.426876,-33.901051,0 18.42865,-33.900875,60.96 18.431683,-33.900551,91.44 18.435675,-33.899643,152.4 18.439262,-33.897583,213.36 18.441868,-33.89352,274.32 18.442064,-33.889526,335.28 18.440437,-33.885605,365.76 18.436718,-33.881836,426.72 18.43248,-33.879227,457.2 18.427505,-33.877506,487.68 18.422279,-33.876526,518.16 18.416805,-33.876251,548.64 18.411484,-33.876575,579.12 18.406528,-33.877029,609.6 18.401356,-33.87788,640.08 18.396271,-33.878952,701.04 18.391226,-33.880188,731.52 18.386536,-33.881744,762 18.3815,-33.884258,731.52 18.37682,-33.887238,762 18.37228,-33.890945,731.52 18.368299,-33.894653,731.52 18.364769,-33.898407,731.52 18.361685,-33.90271,762 18.358938,-33.907013,731.52 18.35638,-33.911583,731.52 18.354263,-33.91605,731.52 18.352375,-33.920662,731.52 18.350643,-33.925461,731.52 18.347168,-33.93576,731.52 18.340816,-33.958416,762 18.334522,-33.982807,762 18.330803,-34.004642,762 18.33046,-34.009853,762 18.330015,-34.022964,762 18.330296,-34.040039,762 18.331081,-34.050934,762 18.335667,-34.054962,762 18.343187,-34.05455,762 18.348177,-34.049744,792.48 18.349073,-34.043427,762 18.347223,-34.037109,731.52 18.344086,-34.031158,731.52 18.340244,-34.025169,701.04 18.335152,-34.017025,670.56 18.331472,-34.007721,640.08 18.330856,-34.0009,609.6 18.335173,-33.983917,609.6 18.345337,-33.965584,609.6 18.357651,-33.941803,609.6 18.369484,-33.919403,609.6 18.375034,-33.911118,609.6 18.379841,-33.905392,609.6 18.38534,-33.899963,579.12 18.390884,-33.895245,579.12 18.39695,-33.89138,579.12 18.404285,-33.888565,548.64 18.411629,-33.886871,487.68 18.418694,-33.885792,426.72 18.426304,-33.885235,365.76 18.433321,-33.88591,274.32 18.438721,-33.888958,243.84 18.44128,-33.893234,182.88 18.439579,-33.896778,121.92 18.435339,-33.898407,91.44 18.429846,-33.899734,60.96 18.427219,-33.900738,30.48 18.439878,-33.902939,213.36 18.440552,-33.903122,243.84 18.443127,-33.904182,274.32 18.443859,-33.904541,274.32 18.44627,-33.905869,304.8 18.447132,-33.906414,304.8 18.449764,-33.90823,304.8 18.450394,-33.908695,304.8 18.453163,-33.910812,304.8 18.453836,-33.91127,304.8 18.458519,-33.914703,304.8 18.461628,-33.916855,304.8 18.47311,-33.924709,304.8 18.475697,-33.926468,304.8 18.482838,-33.931927,304.8 18.483543,-33.93251,304.8 18.49102,-33.938164,304.8 18.494511,-33.940586,304.8 18.505629,-33.948578,304.8 18.506527,-33.949104,304.8 18.510532,-33.950687,304.8 18.511791,-33.951012,304.8 18.516655,-33.95171,304.8 18.517736,-33.951828,304.8 18.522669,-33.952332,304.8 18.523693,-33.952457,304.8 18.529003,-33.953018,304.8 18.530102,-33.953156,304.8 18.546379,-33.954941,304.8 18.549967,-33.955353,304.8 18.567455,-33.957458,304.8 18.572502,-33.957855,304.8 18.577656,-33.958099,274.32 18.579197,-33.958183,274.32 18.584461,-33.958134,274.32 18.586065,-33.958099,274.32 18.595314,-33.958008,274.32 18.59642,-33.957951,274.32 18.615246,-33.957996,274.32 18.616388,-33.958054,274.32 18.621712,-33.958416,274.32 18.623199,-33.958508,274.32 18.634872,-33.95953,304.8 18.640156,-33.959885,304.8 18.654112,-33.961487,304.8 18.655401,-33.961716,304.8 18.66308,-33.962677,304.8 18.664455,-33.962696,304.8 18.669807,-33.962677,304.8 18.670979,-33.962605,304.8 18.676477,-33.962265,304.8 18.677902,-33.962185,304.8 18.683338,-33.961765,304.8 18.684549,-33.961716,304.8 18.69936,-33.961395,304.8 18.700413,-33.961395,304.8 18.711548,-33.961533,304.8 18.715265,-33.961578,304.8 18.732204,-33.961533,335.28 18.737068,-33.961533,365.76 18.752989,-33.961304,426.72 18.756809,-33.961113,457.2 18.773861,-33.960136,518.16 18.77758,-33.959949,518.16 18.793291,-33.959564,518.16 18.794518,-33.959579,518.16 18.800018,-33.960159,518.16 18.801138,-33.960342,487.68 18.80619,-33.961254,487.68 18.807697,-33.961578,487.68 18.812599,-33.962605,457.2 18.813686,-33.962837,457.2 18.823448,-33.965103,396.24 18.824444,-33.965397,365.76 18.835499,-33.967163,274.32 18.83646,-33.967213,274.32 18.841496,-33.968189,243.84 18.842226,-33.968491,243.84 18.844986,-33.970284,213.36 18.845364,-33.970642,182.88 18.848019,-33.97266,182.88 18.848934,-33.972149,182.88 18.847504,-33.970379,182.88 18.847101,-33.970322,182.88 18.845924,-33.971237,152.4 18.846016,-33.971588,152.4 18.846205,-33.972748,0 18.865936,-33.958786,396.24 18.875072,-33.950592,457.2 18.876024,-33.94986,457.2 18.880173,-33.947067,457.2 18.880959,-33.946701,457.2 18.964348,-33.986439,487.68 18.96386,-33.983963,487.68 18.963524,-33.979614,548.64 18.961674,-33.978699,518.16 18.95216,-33.97834,426.72 18.949928,-33.979176,396.24 18.952089,-33.965195,609.6 18.951696,-33.964417,609.6 18.949184,-33.961998,640.08 18.948502,-33.961487,640.08 18.944836,-33.959114,640.08 18.94396,-33.95874,640.08 18.939926,-33.959656,609.6 18.939457,-33.960369,609.6 18.939981,-33.96373,579.12 18.944378,-33.966702,548.64 18.95113,-33.971123,548.64 18.952618,-33.972332,548.64 18.96089,-33.975723,579.12 18.962517,-33.975594,609.6 18.967335,-33.97728,670.56 18.967953,-33.977592,670.56 18.969841,-33.978153,0 18.970053,-33.978252,0 18.964577,-33.982529,640.08 18.961887,-33.976757,640.08 18.955879,-33.97308,609.6 18.953648,-33.971775,609.6 18.947773,-33.97197,518.16 18.949173,-33.972519,518.16 18.95319,-33.975266,487.68 18.954449,-33.975544,487.68 18.959427,-33.976059,518.16 18.960171,-33.976105,518.16 18.958454,-33.978573,487.68 18.956293,-33.978653,457.2 18.953247,-33.976711,426.72 18.95525,-33.976944,457.2 18.95927,-33.97636,0 18.959827,-33.97657,487.68 18.954105,-33.975872,457.2 18.951988,-33.976803,426.72 18.94553,-33.981262,365.76 18.942204,-33.977547,426.72 18.930677,-33.966614,609.6 18.928602,-33.965057,609.6 18.919914,-33.958649,579.12 18.915991,-33.955673,579.12 18.902538,-33.945694,579.12 18.898951,-33.943268,579.12 18.893967,-33.940399,579.12 18.892673,-33.939835,579.12 18.886986,-33.938442,579.12 18.885553,-33.938232,579.12 18.880285,-33.938004,548.64 18.879164,-33.938049,548.64 18.873951,-33.93837,579.12 18.872852,-33.938492,579.12 18.867674,-33.939056,579.12 18.866552,-33.93924,579.12 18.861465,-33.940121,579.12 18.860611,-33.940247,579.12 18.855743,-33.941608,579.12 18.854782,-33.941895,579.12 18.850021,-33.94347,579.12 18.848671,-33.943909,609.6 18.844242,-33.945381,609.6 18.843178,-33.945786,609.6 18.827372,-33.951324,609.6 18.823814,-33.952595,579.12 18.80809,-33.957642,548.64 18.806744,-33.958008,548.64 18.801643,-33.959106,518.16 18.800125,-33.959393,518.16 18.794806,-33.960297,487.68 18.793545,-33.960464,457.2 18.78788,-33.961208,426.72 18.786621,-33.961346,426.72 18.7813,-33.961952,426.72 18.779951,-33.962036,426.72 18.774626,-33.962494,426.72 18.773113,-33.962585,396.24 18.768139,-33.962791,396.24 18.766722,-33.962814,396.24 18.761173,-33.96286,396.24 18.759556,-33.962837,396.24 18.754177,-33.96265,365.76 18.752934,-33.962585,365.76 18.747215,-33.962311,365.76 18.745766,-33.962231,335.28 18.725693,-33.960938,304.8 18.721712,-33.960571,304.8 18.704056,-33.958832,304.8 18.700132,-33.958466,304.8 18.680878,-33.956783,304.8 18.675301,-33.956314,274.32 18.656673,-33.954739,274.32 18.652782,-33.954319,274.32 18.641165,-33.953796,274.32 18.639931,-33.953796,274.32 18.634775,-33.953934,274.32 18.633327,-33.953991,274.32 18.628328,-33.9543,274.32 18.627319,-33.954365,274.32 18.621994,-33.954803,274.32 18.616837,-33.955215,274.32 18.598824,-33.957344,274.32 18.593632,-33.957825,274.32 18.588696,-33.957764,274.32 18.587551,-33.957718,274.32 18.58242,-33.957367,274.32 18.58102,-33.95723,274.32 18.575808,-33.956635,274.32 18.57439,-33.956459,274.32 18.569584,-33.955853,304.8 18.568129,-33.955673,304.8 18.55361,-33.95343,274.32 18.548622,-33.952469,274.32 18.534279,-33.949337,243.84 18.531647,-33.948639,243.84 18.52536,-33.94693,274.32 18.520203,-33.945564,274.32 18.50687,-33.941608,274.32 18.50544,-33.941097,274.32 18.500175,-33.939049,243.84 18.498903,-33.938553,243.84 18.49369,-33.936356,243.84 18.492107,-33.93565,243.84 18.487015,-33.932903,274.32 18.485899,-33.932236,274.32 18.481178,-33.929226,274.32 18.479919,-33.928387,274.32 18.475304,-33.925278,274.32 18.474184,-33.9245,274.32 18.46756,-33.919823,274.32 18.464317,-33.917404,274.32 18.459949,-33.913818,274.32 18.459034,-33.912979,274.32 18.455294,-33.909256,274.32 18.454397,-33.90834,274.32 18.45068,-33.904415,274.32 18.449936,-33.90353,274.32 18.446606,-33.899368,274.32 18.445652,-33.898132,243.84 18.443186,-33.894287,243.84 18.441786,-33.892868,243.84 18.438309,-33.892914,213.36 18.437691,-33.893242,213.36 18.435802,-33.894497,182.88 18.43523,-33.894962,152.4 18.432827,-33.896545,91.44 18.432255,-33.896919,91.44 18.429678,-33.898865,60.96 18.42794,-33.900101,30.48 18.426891,-33.900993,0 18.427448,-33.901154,30.48 18.429966,-33.901203,91.44 18.430799,-33.901062,91.44 18.433825,-33.900421,152.4 18.43461,-33.900238,152.4 18.437462,-33.898968,213.36 18.438091,-33.898502,243.84 18.440384,-33.89566,304.8 18.440777,-33.894882,335.28 18.441954,-33.891449,396.24 18.442064,-33.890579,396.24 18.441561,-33.886551,457.2 18.441238,-33.885654,457.2 18.439095,-33.88147,487.68 18.438435,-33.880627,518.16 18.434834,-33.877304,548.64 18.433857,-33.876667,548.64 18.429005,-33.874283,579.12 18.427849,-33.873875,579.12 18.423063,-33.872589,609.6 18.421955,-33.872387,609.6 18.416561,-33.872086,640.08 18.415375,-33.872154,640.08 18.410053,-33.872757,640.08 18.408937,-33.872955,670.56 18.403837,-33.873962,670.56 18.402548,-33.874283,701.04 18.397448,-33.875793,701.04 18.396381,-33.876114,701.04 18.391171,-33.87788,701.04 18.390083,-33.8783,701.04 18.385563,-33.880299,731.52 18.384779,-33.880692,731.52 18.380184,-33.883232,701.04 18.379211,-33.883839,701.04 18.375362,-33.886551,701.04 18.374466,-33.887283,701.04 18.371103,-33.890305,701.04 18.37015,-33.891312,701.04 18.367138,-33.89473,701.04 18.366562,-33.895477,701.04 18.36376,-33.899185,701.04 18.363199,-33.900055,701.04 18.360901,-33.903534,701.04 18.360285,-33.904495,701.04 18.357983,-33.908279,701.04 18.357481,-33.909119,731.52 18.351345,-33.919033,731.52 18.349466,-33.922119,731.52 18.344479,-33.931366,762 18.342419,-33.935326,731.52 18.337612,-33.946125,731.52 18.336983,-33.947708,731.52 18.33149,-33.963257,701.04 18.332033,-33.965881,701.04 18.338814,-33.969307,731.52 18.346495,-33.966476,701.04 18.352261,-33.956738,670.56 18.352776,-33.955341,670.56 18.359356,-33.937466,609.6 18.361517,-33.931915,609.6 18.367458,-33.918777,579.12 18.368225,-33.917355,579.12 18.371214,-33.912598,579.12 18.372,-33.911453,579.12 18.375418,-33.906784,579.12 18.376371,-33.90564,609.6 18.380295,-33.901428,579.12 18.381191,-33.900513,579.12 18.385735,-33.8965,609.6 18.387133,-33.895523,609.6 18.392403,-33.892548,579.12 18.393805,-33.891953,548.64 18.399525,-33.890076,518.16 18.400898,-33.889751,518.16 18.407032,-33.888565,457.2 18.408279,-33.888401,457.2 18.414459,-33.88747,396.24 18.415489,-33.887329,396.24 18.424759,-33.886074,304.8 18.426035,-33.885956,274.32 18.430407,-33.887421,243.84 18.430939,-33.888168,213.36 18.431225,-33.891285,182.88 18.430996,-33.891937,152.4 18.429451,-33.894962,121.92 18.429285,-33.89534,121.92 18.42794,-33.898224,60.96 18.427734,-33.898827,60.96 18.426876,-33.900551,30.48 18.426933,-33.900806,0 18.427828,-33.900925,60.96 18.428164,-33.900925,60.96 18.430182,-33.900742,91.44 18.430767,-33.900642,91.44 18.433882,-33.900192,121.92 18.434666,-33.899963,152.4 18.437973,-33.898544,182.88 18.438814,-33.897949,213.36 18.441124,-33.89529,243.84 18.441616,-33.894379,274.32 18.442234,-33.891037,304.8 18.442211,-33.890263,304.8 18.441225,-33.887009,335.28 18.440777,-33.886185,365.76 18.43832,-33.883278,396.24 18.437519,-33.882534,396.24 18.434143,-33.880112,457.2 18.433456,-33.879742,457.2 18.429508,-33.878067,487.68 18.428331,-33.877716,487.68 18.424644,-33.8769,518.16 18.4235,-33.876717,518.16 18.419027,-33.876297,548.64 18.417906,-33.876251,548.64 18.413773,-33.876389,579.12 18.412582,-33.87648,579.12 18.408394,-33.876808,609.6 18.407249,-33.876949,609.6 18.403164,-33.877579,640.08 18.402214,-33.877739,640.08 18.398232,-33.878494,670.56 18.397167,-33.878769,670.56 18.393187,-33.879684,701.04 18.39229,-33.879913,731.52 18.388309,-33.881092,731.52 18.387451,-33.881416,731.52 18.383331,-33.883278,731.52 18.382425,-33.883759,731.52 18.378725,-33.88591,762 18.377895,-33.886444,762 18.37413,-33.889343,762 18.373232,-33.890076,731.52 18.369884,-33.893101,731.52 18.369028,-33.893921,731.52 18.366051,-33.896919,762 18.365553,-33.897491,762 18.362961,-33.900875,731.52 18.362389,-33.901669,762 18.3601,-33.905159,731.52 18.35947,-33.906136,731.52 18.357353,-33.909721,731.52 18.35681,-33.910767,731.52 18.355179,-33.914097,731.52 18.354607,-33.915215,731.52 18.353109,-33.918732,731.52 18.352661,-33.919823,731.52 18.351204,-33.923767,731.52 18.350924,-33.924591,731.52 18.349686,-33.928341,731.52 18.348713,-33.931087,731.52 18.343449,-33.948917,731.52 18.342133,-33.953571,762 18.336742,-33.972702,762 18.335552,-33.977688,762 18.331661,-33.99831,762 18.331032,-34.002544,762 18.330576,-34.007675,762 18.330574,-34.008644,762 18.330116,-34.015907,762 18.330072,-34.019852,762 18.329945,-34.032898,762 18.330116,-34.035877,762 18.330408,-34.048691,762 18.330574,-34.04961,762 18.333323,-34.05368,762 18.334579,-34.054497,762 18.340273,-34.05542,762 18.341675,-34.055103,762 18.34671,-34.051983,792.48 18.347504,-34.050888,792.48 18.349131,-34.046173,792.48 18.349186,-34.044937,762 18.348232,-34.039719,762 18.34774,-34.0383,762 18.345318,-34.033401,731.52 18.344707,-34.032291,731.52 18.34201,-34.027817,731.52 18.341114,-34.026489,701.04 18.338032,-34.021729,701.04 18.337269,-34.020561,670.56 18.332233,-34.010506,640.08 18.331865,-34.009232,640.08 18.330917,-34.003616,609.6 18.33086,-34.002129,609.6 18.332691,-33.990349,609.6 18.333771,-33.987167,609.6 18.340187,-33.974522,609.6 18.341846,-33.971684,609.6 18.353222,-33.950272,609.6 18.355183,-33.946426,609.6 18.364906,-33.928062,609.6 18.366898,-33.924133,609.6 18.373457,-33.913239,609.6 18.374233,-33.912189,609.6 18.377895,-33.907532,609.6 18.378811,-33.906509,609.6 18.383041,-33.902115,579.12 18.384075,-33.901108,579.12 18.388647,-33.897034,579.12 18.38974,-33.896126,579.12 18.394253,-33.892868,579.12 18.395765,-33.891998,579.12 18.40147,-33.889469,548.64 18.402828,-33.889023,548.64 18.408602,-33.887512,518.16 18.410053,-33.887188,518.16 18.415489,-33.886211,457.2 18.41729,-33.885956,457.2 18.423386,-33.885372,396.24 18.424801,-33.885269,365.76 18.430882,-33.885422,304.8 18.432198,-33.885654,304.8 18.436909,-33.887512,243.84 18.43792,-33.888306,243.84 18.44072,-33.891449,213.36 18.441168,-33.892502,182.88 18.440723,-33.89571,152.4 18.440216,-33.896347,121.92 18.437004,-33.897896,121.92 18.436146,-33.898129,121.92 18.432928,-33.899094,91.44 18.432255,-33.899246,91.44 18.427677,-33.900455,30.48 18.427448,-33.900597,30.48
        </coordinates>
      </LineString>
    </Placemark>
  </Document>
</kml>