<?xml version="1.0" encoding="UTF-8"?>
<kml xmlns="http://www.opengis.net/kml/2.2">
  <Document>
    <name>-/ZTHOT - Optimised</name>
    <description><![CDATA[Optimised flight path with 422 points (decimated from 2109 original points). Source format: Standard KML]]></description>
    
    <Style id="flightPath">
      <LineStyle>
        <color>ff0000ff</color>
        <width>3</width>
      </LineStyle>
    </Style>
    
    <Placemark>
      <name>Flight Path</name>
      <description><![CDATA[<div style="width:220px; text-align:center;">
<div style="width:210px; text-align:center;">
<div style=" background: #000; color: #fff; font-size: 14px; text-align:left; border: 1px solid #000; padding: 2px 6px; text-shadow: 0 1px 0 #000; box-shadow: 0 1px 3px rgba(0,0,0,0.6); background: -webkit-gradient(linear, left top, left bottom, color-stop(0%,#808080), color-stop(2%,#303030), color-stop(100%,#0c0c0c));"><span style="font-size: 14px; font-weight: bold;"><a href="javascript:void(0);" style="color: #fff; cursor: pointer;text-decoration: none;">-</a></span> / ZTHOT<br/>Cape Town Helicopters</div>

<div style="border-top: 1px solid #005c90; color: #fff; padding-bottom: 5px; box-shadow: 0 0 1px #9BE3F6 inset, 0 1px 0 #9BE3F6 inset, 0 -1px 3px rgba(0,0,0,0.4); background:rgba(43,114,173,1); background: -webkit-gradient(linear, left top, left bottom, color-stop(0%,rgba(92,184,229,1)), color-stop(100%,rgba(43,114,173,1)));">
<a style="text-decoration: none; color: rgb(255, 255, 255); font-size: 12px; width:77px; display: inline-block;" title=" Airport" href="javascript:void(0);/departures"><h3 style="padding: 0px; margin: 10px 0px 0px; font-size: 16px; ">?</h3></a>
<span style="background: url(https://www.flightradar24.com/static/images/userUI_sprite.png?14) no-repeat scroll 0 -464px rgba(0, 0, 0, 0); border: medium none; display: inline-block; height: 16px; width: 45px;"></span>
<a style="text-decoration: none; color: rgb(255, 255, 255); font-size: 12px; width:77px; display: inline-block;" title=" Airport" href="javascript:void(0);/arrivals"><h3 style="padding: 0px; margin: 10px 0px 0px; font-size: 16px;">?</h3></a>
<div style=" margin-top:10px;">
<div style="display: inline-block; font-size: 12px; padding: 0 5px;">
<div>
<span style="color: #c1eaff;" title="Actual Time of Departure">ATD </span>
<span title="2025-10-19 07:54">07:54</span> <span title="Coordinated Universal Time">UTC</span>
</div>
</div>
<div style="display: inline-block; font-size: 12px; padding: 0 5px;">
<div>
<span style="color: #c1eaff;" title="Estimated Time of Arrival">ETA </span>
<span title="2025-10-19 08:39">08:39</span> <span title="Coordinated Universal Time">UTC</span>
</div>
</div>
</div>
<br style="clear: both;"/>
</div>

<div style="display: block;">
<table style="border-collapse: collapse; width: 100%;">
<tr style="border-right: 1px solid #dadada; ">
<td style="background: none repeat scroll 0 0 #dadada; padding: 0; width: 31px;">
<span style="background: url(https://www.flightradar24.com/static/images/userUI_sprite.png?14) no-repeat scroll -208px -464px rgba(0, 0, 0, 0); height: 26px; margin: 8px 0 0 4px; width: 23px; display: block;"></span>
</td>
<td colspan="2" style="border-bottom: 1px solid #dadada; border-left: 1px solid #dadada; color: #666; line-height: 1.1em; padding: 3px 6px; vertical-align: top; font-size: 14px;">
Aircraft<span style="float: right; font-size: 12px;">(AS50)</span><br>
<span style="color: #333; font-size: 16px; font-weight: bold; line-height: 1.3em;">Airbus Helicopters H125</span>
</td>
</tr>
<tr style="border-right: 1px solid #dadada; ">
<td style="background: none repeat scroll 0 0 #dadada; padding: 0; width: 31px;">
<td colspan="2" style="border-bottom: 1px solid #dadada; border-left: 1px solid #dadada; color: #666; line-height: 1.1em; padding: 3px 6px; vertical-align: top; font-size: 14px;">
Registration<br>
<span style="color: #333; font-size: 16px; font-weight: bold; line-height: 1.3em;"><a href="https://www.flightradar24.com/reg/zt-hot" style="text-decoration: none; color: #333;">ZT-HOT</a></span>
</td>
</tr>
</table>
</div>

</div>
</div>]]></description>
      <styleUrl>#flightPath</styleUrl>
      <LineString>
        <extrude>1</extrude>
        <tessellate>1</tessellate>
        <altitudeMode>absolute</altitudeMode>
        <coordinates>
          18.433685,-33.900131,60.96 18.436775,-33.896267,91.44 18.437637,-33.891724,152.4 18.437233,-33.886398,182.88 18.435003,-33.881149,243.84 18.430195,-33.879787,304.8 18.428707,-33.881927,365.76 18.431225,-33.88258,365.76 18.433546,-33.878448,396.24 18.430126,-33.873413,396.24 18.423063,-33.871124,426.72 18.415888,-33.871262,487.68 18.41011,-33.872105,518.16 18.404732,-33.873737,518.16 18.399696,-33.87611,548.64 18.394814,-33.878906,548.64 18.390049,-33.882111,548.64 18.385395,-33.88559,579.12 18.379784,-33.889751,579.12 18.368973,-33.898499,640.08 18.36516,-33.902115,640.08 18.36153,-33.906136,670.56 18.358042,-33.910538,670.56 18.354492,-33.915539,670.56 18.352325,-33.920151,701.04 18.350487,-33.925735,701.04 18.348942,-33.931973,731.52 18.346996,-33.93956,731.52 18.344707,-33.945518,731.52 18.342361,-33.950314,731.52 18.339729,-33.955296,762 18.332033,-33.967255,792.48 18.321419,-33.981319,822.96 18.316841,-33.989277,822.96 18.313929,-33.994537,822.96 18.308144,-34.004456,822.96 18.305397,-34.009949,822.96 18.302879,-34.015114,822.96 18.300701,-34.020676,822.96 18.29916,-34.026333,792.48 18.298346,-34.031479,822.96 18.298531,-34.036762,822.96 18.300421,-34.041733,822.96 18.30311,-34.046127,792.48 18.306137,-34.050476,762 18.309402,-34.055058,762 18.313984,-34.061508,731.52 18.321495,-34.072083,701.04 18.323683,-34.07666,731.52 18.327381,-34.079224,731.52 18.330633,-34.076843,762 18.329315,-34.072979,762 18.323078,-34.073818,701.04 18.321877,-34.078568,670.56 18.323626,-34.082886,640.08 18.325882,-34.086899,609.6 18.328571,-34.091274,609.6 18.330969,-34.095291,579.12 18.335117,-34.103256,579.12 18.33704,-34.107613,548.64 18.339209,-34.112091,548.64 18.341114,-34.116394,548.64 18.342964,-34.121246,548.64 18.344366,-34.125641,548.64 18.345966,-34.130798,548.64 18.347448,-34.135345,518.16 18.349171,-34.140621,548.64 18.350601,-34.145321,548.64 18.351116,-34.150444,548.64 18.349571,-34.15519,548.64 18.348738,-34.160065,548.64 18.349342,-34.164875,548.64 18.351091,-34.16922,548.64 18.353165,-34.173065,548.64 18.355808,-34.176605,548.64 18.358547,-34.180115,518.16 18.36191,-34.18428,518.16 18.364937,-34.188309,518.16 18.367424,-34.192013,518.16 18.369701,-34.195999,518.16 18.371658,-34.199928,518.16 18.373661,-34.203976,518.16 18.375092,-34.208122,518.16 18.376293,-34.212498,518.16 18.377493,-34.216599,518.16 18.379383,-34.222786,487.68 18.380413,-34.226929,487.68 18.381386,-34.230698,487.68 18.382416,-34.235447,487.68 18.382313,-34.240219,518.16 18.380239,-34.245026,518.16 18.378525,-34.250156,518.16 18.378296,-34.255558,518.16 18.379286,-34.259995,518.16 18.380756,-34.264263,518.16 18.382702,-34.267941,518.16 18.385059,-34.272079,487.68 18.400307,-34.289566,548.64 18.402843,-34.292938,548.64 18.404903,-34.297127,548.64 18.407021,-34.301643,548.64 18.413311,-34.318771,518.16 18.416977,-34.322826,518.16 18.420296,-34.325386,518.16 18.424129,-34.327667,518.16 18.427734,-34.329483,548.64 18.431625,-34.33102,548.64 18.435955,-34.332596,548.64 18.440266,-34.333813,548.64 18.445072,-34.334835,518.16 18.449856,-34.335571,548.64 18.45462,-34.336029,548.64 18.45961,-34.336624,548.64 18.464542,-34.337082,518.16 18.469082,-34.337677,518.16 18.474197,-34.338375,518.16 18.478947,-34.339211,518.16 18.483768,-34.340332,518.16 18.48842,-34.341705,518.16 18.492456,-34.343307,518.16 18.496717,-34.345322,518.16 18.500347,-34.3475,518.16 18.50378,-34.350384,518.16 18.506021,-34.354248,518.16 18.505461,-34.358917,518.16 18.500528,-34.362625,548.64 18.492508,-34.363697,548.64 18.484217,-34.364365,548.64 18.477001,-34.364861,579.12 18.468704,-34.364723,579.12 18.46384,-34.369705,579.12 18.468075,-34.37096,548.64 18.472727,-34.370453,548.64 18.477659,-34.37059,548.64 18.482534,-34.371323,548.64 18.487473,-34.371613,548.64 18.492451,-34.371284,548.64 18.497501,-34.369812,548.64 18.502041,-34.367157,548.64 18.504696,-34.362534,548.64 18.504452,-34.3564,548.64 18.502995,-34.350357,548.64 18.500233,-34.343636,548.64 18.497772,-34.336792,548.64 18.495539,-34.330536,548.64 18.493423,-34.323757,548.64 18.49205,-34.317753,548.64 18.490944,-34.310989,548.64 18.489878,-34.304077,548.64 18.488674,-34.297874,548.64 18.487579,-34.291122,518.16 18.486122,-34.277893,548.64 18.483295,-34.254906,548.64 18.481525,-34.242508,548.64 18.478546,-34.227627,518.16 18.476658,-34.220642,518.16 18.474688,-34.213669,518.16 18.468971,-34.194763,518.16 18.469362,-34.188263,548.64 18.470936,-34.182518,548.64 18.465664,-34.179977,579.12 18.462696,-34.183216,579.12 18.464935,-34.184692,548.64 18.467045,-34.180374,548.64 18.466072,-34.17437,548.64 18.465664,-34.168076,548.64 18.465551,-34.161758,548.64 18.465729,-34.155563,548.64 18.466448,-34.144318,548.64 18.467617,-34.138432,548.64 18.469307,-34.132965,548.64 18.471222,-34.127213,548.64 18.473063,-34.121429,548.64 18.474712,-34.115574,548.64 18.475922,-34.109573,548.64 18.476425,-34.103622,548.64 18.476482,-34.097122,548.64 18.476143,-34.09132,548.64 18.475685,-34.085175,579.12 18.475685,-34.07568,579.12 18.475914,-34.069675,548.64 18.476202,-34.061783,548.64 18.475857,-34.055801,548.64 18.475342,-34.049332,518.16 18.475023,-34.042969,487.68 18.475056,-34.036575,457.2 18.47517,-34.027683,426.72 18.475304,-34.015457,396.24 18.476257,-33.99321,335.28 18.477491,-33.982132,304.8 18.478432,-33.976196,304.8 18.479677,-33.970367,274.32 18.481236,-33.964607,243.84 18.48278,-33.958927,243.84 18.483936,-33.952881,243.84 18.483982,-33.946404,243.84 18.482609,-33.940586,213.36 18.479845,-33.934708,213.36 18.475342,-33.928852,213.36 18.470261,-33.923904,213.36 18.464823,-33.918823,182.88 18.460058,-33.9142,182.88 18.455143,-33.908463,213.36 18.451706,-33.90271,213.36 18.448566,-33.897812,213.36 18.444252,-33.893463,182.88 18.438835,-33.891891,152.4 18.433825,-33.893234,91.44 18.430126,-33.895935,30.48 18.428192,-33.898457,0 18.427322,-33.899918,0 18.433685,-33.900131,60.96 18.434891,-33.899277,60.96 18.436775,-33.896267,91.44 18.437021,-33.895432,121.92 18.437637,-33.891724,152.4 18.437637,-33.890625,152.4 18.437233,-33.886398,182.88 18.436947,-33.885235,182.88 18.435003,-33.881149,243.84 18.4342,-33.88044,243.84 18.430195,-33.879787,304.8 18.429565,-33.880112,304.8 18.428707,-33.881927,365.76 18.428993,-33.882393,365.76 18.431225,-33.88258,365.76 18.431969,-33.88216,396.24 18.433546,-33.878448,396.24 18.433376,-33.877396,396.24 18.430126,-33.873413,396.24 18.429005,-33.872772,396.24 18.423063,-33.871124,426.72 18.421551,-33.871033,457.2 18.415888,-33.871262,487.68 18.414516,-33.871407,487.68 18.41011,-33.872105,518.16 18.408794,-33.872433,518.16 18.404732,-33.873737,518.16 18.403587,-33.874249,518.16 18.399696,-33.87611,548.64 18.398792,-33.876617,548.64 18.394814,-33.878906,548.64 18.393574,-33.879696,548.64 18.390049,-33.882111,548.64 18.389225,-33.882721,579.12 18.385395,-33.88559,579.12 18.384647,-33.88612,579.12 18.379784,-33.889751,579.12 18.378868,-33.8904,579.12 18.368973,-33.898499,640.08 18.368244,-33.899139,640.08 18.36516,-33.902115,640.08 18.364601,-33.902664,670.56 18.36153,-33.906136,670.56 18.360672,-33.907112,670.56 18.358042,-33.910538,670.56 18.357258,-33.911545,670.56 18.354492,-33.915539,670.56 18.354034,-33.916378,670.56 18.352325,-33.920151,701.04 18.351917,-33.921219,701.04 18.350487,-33.925735,701.04 18.35025,-33.926697,731.52 18.348942,-33.931973,731.52 18.348598,-33.933414,731.52 18.346996,-33.93956,731.52 18.346607,-33.940796,731.52 18.344707,-33.945518,731.52 18.344307,-33.946404,731.52 18.342361,-33.950314,731.52 18.341904,-33.951199,731.52 18.339729,-33.955296,762 18.339209,-33.956177,762 18.332033,-33.967255,792.48 18.330296,-33.969543,792.48 18.321419,-33.981319,822.96 18.319422,-33.984695,822.96 18.316841,-33.989277,822.96 18.316326,-33.990257,822.96 18.313929,-33.994537,822.96 18.313368,-33.99559,822.96 18.308144,-34.004456,822.96 18.307652,-34.005386,822.96 18.305397,-34.009949,822.96 18.304768,-34.011204,822.96 18.302879,-34.015114,822.96 18.302439,-34.016098,822.96 18.300701,-34.020676,822.96 18.300308,-34.021866,822.96 18.29916,-34.026333,792.48 18.298964,-34.027359,792.48 18.298346,-34.031479,822.96 18.29829,-34.032486,822.96 18.298531,-34.036762,822.96 18.298794,-34.037888,822.96 18.300421,-34.041733,822.96 18.301048,-34.042767,792.48 18.30311,-34.046127,792.48 18.303783,-34.047043,792.48 18.306137,-34.050476,762 18.306713,-34.051285,762 18.309402,-34.055058,762 18.310146,-34.056126,762 18.313984,-34.061508,731.52 18.316498,-34.064835,731.52 18.321495,-34.072083,701.04 18.321877,-34.072933,701.04 18.323683,-34.07666,731.52 18.324242,-34.07753,701.04 18.327381,-34.079224,731.52 18.32811,-34.079086,762 18.330633,-34.076843,762 18.33086,-34.075912,762 18.329315,-34.072979,762 18.328342,-34.072559,731.52 18.323078,-34.073818,701.04 18.322336,-34.074783,701.04 18.321877,-34.078568,670.56 18.322105,-34.079403,670.56 18.323626,-34.082886,640.08 18.324051,-34.083687,640.08 18.325882,-34.086899,609.6 18.326429,-34.08783,609.6 18.328571,-34.091274,609.6 18.329086,-34.092113,609.6 18.330969,-34.095291,579.12 18.331432,-34.096161,579.12 18.335117,-34.103256,579.12 18.335495,-34.104031,579.12 18.33704,-34.107613,548.64 18.337416,-34.108475,548.64 18.339209,-34.112091,548.64 18.339615,-34.113014,548.64 18.341114,-34.116394,548.64 18.34145,-34.117218,548.64 18.342964,-34.121246,548.64 18.343277,-34.122139,548.64 18.344366,-34.125641,548.64 18.344765,-34.126793,548.64 18.345966,-34.130798,548.64 18.346195,-34.131634,548.64 18.347448,-34.135345,518.16 18.347841,-34.136444,548.64 18.349171,-34.140621,548.64 18.349466,-34.141663,548.64 18.350601,-34.145321,548.64 18.350924,-34.146515,548.64 18.351116,-34.150444,548.64 18.350868,-34.151459,579.12 18.349571,-34.15519,548.64 18.349241,-34.156448,548.64 18.348738,-34.160065,548.64 18.34877,-34.161102,548.64 18.349342,-34.164875,548.64 18.349571,-34.165573,548.64 18.351091,-34.16922,548.64 18.351402,-34.169949,548.64 18.353165,-34.173065,548.64 18.353634,-34.173717,548.64 18.355808,-34.176605,548.64 18.356323,-34.177258,548.64 18.358547,-34.180115,518.16 18.359241,-34.180935,518.16 18.36191,-34.18428,518.16 18.362471,-34.185013,518.16 18.364937,-34.188309,518.16 18.365479,-34.189034,518.16 18.367424,-34.192013,518.16 18.367907,-34.192841,518.16 18.369701,-34.195999,518.16 18.370228,-34.196949,518.16 18.371658,-34.199928,518.16 18.372112,-34.20076,518.16 18.373661,-34.203976,518.16 18.374073,-34.20488,518.16 18.375092,-34.208122,518.16 18.375362,-34.209137,518.16 18.376293,-34.212498,518.16 18.376465,-34.213242,518.16 18.377493,-34.216599,518.16 18.377781,-34.217476,518.16 18.379383,-34.222786,487.68 18.379511,-34.223465,487.68 18.380413,-34.226929,487.68 18.380642,-34.227673,487.68 18.381386,-34.230698,487.68 18.381639,-34.231659,487.68 18.382416,-34.235447,487.68 18.382587,-34.236519,487.68 18.382313,-34.240219,518.16 18.382032,-34.241135,518.16 18.380239,-34.245026,518.16 18.379898,-34.245689,518.16 18.378525,-34.250156,518.16 18.378296,-34.251228,518.16 18.378296,-34.255558,518.16 18.378468,-34.256393,518.16 18.379286,-34.259995,518.16 18.379398,-34.26059,518.16 18.380756,-34.264263,518.16 18.381136,-34.265121,518.16 18.382702,-34.267941,518.16 18.383102,-34.268639,518.16 18.385059,-34.272079,487.68 18.395149,-34.287048,518.16 18.400307,-34.289566,548.64 18.400841,-34.290054,548.64 18.402843,-34.292938,548.64 18.403502,-34.294144,548.64 18.404903,-34.297127,548.64 18.40535,-34.29808,548.64 18.407021,-34.301643,548.64 18.407368,-34.302567,548.64 18.413311,-34.318771,518.16 18.413815,-34.319366,518.16 18.416977,-34.322826,518.16 18.417492,-34.323292,518.16 18.420296,-34.325386,518.16 18.420877,-34.325775,518.16 18.424129,-34.327667,518.16 18.424988,-34.328178,518.16 18.427734,-34.329483,548.64 18.428556,-34.329803,548.64 18.431625,-34.33102,548.64 18.43248,-34.33136,548.64 18.435955,-34.332596,548.64 18.436947,-34.332882,548.64 18.440266,-34.333813,548.64 18.441296,-34.334045,548.64 18.445072,-34.334835,518.16 18.446045,-34.335022,518.16 18.449856,-34.335571,548.64 18.450809,-34.335663,548.64 18.45462,-34.336029,548.64 18.455687,-34.336166,548.64 18.45961,-34.336624,548.64 18.460636,-34.336746,548.64 18.464542,-34.337082,518.16 18.465326,-34.337173,518.16 18.469082,-34.337677,518.16 18.470261,-34.337814,518.16 18.474197,-34.338375,518.16 18.475136,-34.338501,518.16 18.478947,-34.339211,518.16 18.480068,-34.339417,518.16 18.483768,-34.340332,518.16 18.48461,-34.340561,518.16 18.48842,-34.341705,518.16 18.489149,-34.34198,518.16 18.492456,-34.343307,518.16 18.493185,-34.343674,518.16 18.496717,-34.345322,518.16 18.497429,-34.34573,518.16 18.500347,-34.3475,518.16 18.501263,-34.348148,518.16 18.50378,-34.350384,518.16 18.504353,-34.351082,518.16 18.506021,-34.354248,518.16 18.506189,-34.354889,518.16 18.505461,-34.358917,518.16 18.504925,-34.359695,518.16 18.500528,-34.362625,548.64 18.498846,-34.363083,548.64 18.492508,-34.363697,548.64 18.490719,-34.36377,548.64 18.484217,-34.364365,548.64 18.482838,-34.364491,548.64 18.477001,-34.364861,579.12 18.475304,-34.364868,579.12 18.468704,-34.364723,579.12 18.466759,-34.365093,579.12 18.46384,-34.369705,579.12 18.464487,-34.370361,579.12 18.468075,-34.37096,548.64 18.468819,-34.370914,548.64 18.472727,-34.370453,548.64 18.473846,-34.370407,548.64 18.477659,-34.37059,548.64 18.478661,-34.370728,548.64 18.482534,-34.371323,548.64 18.483582,-34.371471,548.64 18.487473,-34.371613,548.64 18.488588,-34.371597,548.64 18.492451,-34.371284,548.64 18.49341,-34.371094,548.64 18.497501,-34.369812,548.64 18.498343,-34.369446,548.64 18.502041,-34.367157,548.64 18.50275,-34.366489,548.64 18.504696,-34.362534,548.64 18.504787,-34.361481,548.64 18.504452,-34.3564,548.64 18.504227,-34.355255,548.64 18.502995,-34.350357,548.64 18.502546,-34.349213,548.64 18.500233,-34.343636,548.64 18.499775,-34.342472,548.64 18.497772,-34.336792,548.64 18.497314,-34.335579,548.64 18.495539,-34.330536,548.64 18.495083,-34.32925,548.64 18.493423,-34.323757,548.64 18.49313,-34.322617,548.64 18.49205,-34.317753,548.64 18.491783,-34.316299,548.64 18.490944,-34.310989,548.64 18.490734,-34.309837,548.64 18.489878,-34.304077,548.64 18.489655,-34.302841,548.64 18.488674,-34.297874,548.64 18.488388,-34.296337,518.16 18.487579,-34.291122,518.16 18.487411,-34.289658,518.16 18.486122,-34.277893,548.64 18.485619,-34.272583,548.64 18.483295,-34.254906,548.64 18.482872,-34.252258,548.64 18.481525,-34.242508,548.64 18.480663,-34.237309,548.64 18.478546,-34.227627,518.16 18.47826,-34.226463,518.16 18.476658,-34.220642,518.16 18.476313,-34.219437,518.16 18.474688,-34.213669,518.16 18.473511,-34.209702,518.16 18.468971,-34.194763,518.16 18.468761,-34.193504,518.16 18.469362,-34.188263,548.64 18.469868,-34.187256,548.64 18.470936,-34.182518,548.64 18.470428,-34.181534,548.64 18.465664,-34.179977,579.12 18.464542,-34.180481,579.12 18.462696,-34.183216,579.12 18.462692,-34.183868,579.12 18.464935,-34.184692,548.64 18.465944,-34.184097,548.64 18.467045,-34.180374,548.64 18.466896,-34.17897,548.64 18.466072,-34.17437,548.64 18.465958,-34.173019,548.64 18.465664,-34.168076,548.64 18.465607,-34.166702,548.64 18.465551,-34.161758,548.64 18.465607,-34.16066,548.64 18.465729,-34.155563,548.64 18.465775,-34.15416,548.64 18.466448,-34.144318,548.64 18.46656,-34.143356,548.64 18.467617,-34.138432,548.64 18.467903,-34.13736,548.64 18.469307,-34.132965,548.64 18.46962,-34.131962,548.64 18.471222,-34.127213,548.64 18.471565,-34.12619,548.64 18.473063,-34.121429,548.64 18.473339,-34.120556,548.64 18.474712,-34.115574,548.64 18.474968,-34.114609,548.64 18.475922,-34.109573,548.64 18.476089,-34.108383,518.16 18.476425,-34.103622,548.64 18.476486,-34.102448,548.64 18.476482,-34.097122,548.64 18.476429,-34.096115,548.64 18.476143,-34.09132,548.64 18.476028,-34.090111,548.64 18.475685,-34.085175,579.12 18.475641,-34.084213,579.12 18.475685,-34.07568,579.12 18.475754,-34.074463,548.64 18.475914,-34.069675,548.64 18.475971,-34.068184,548.64 18.476202,-34.061783,548.64 18.476143,-34.060551,548.64 18.475857,-34.055801,548.64 18.475754,-34.05455,518.16 18.475342,-34.049332,518.16 18.475248,-34.047913,518.16 18.475023,-34.042969,487.68 18.475023,-34.041687,487.68 18.475056,-34.036575,457.2 18.475056,-34.035271,457.2 18.47517,-34.027683,426.72 18.475227,-34.026848,426.72 18.475304,-34.015457,396.24 18.475416,-34.01152,396.24 18.476257,-33.99321,335.28 18.476706,-33.987991,335.28 18.477491,-33.982132,304.8 18.477659,-33.981033,304.8 18.478432,-33.976196,304.8 18.478611,-33.975037,304.8 18.479677,-33.970367,274.32 18.479919,-33.969353,274.32 18.481236,-33.964607,243.84 18.481525,-33.96373,274.32 18.48278,-33.958927,243.84 18.483067,-33.957809,243.84 18.483936,-33.952881,243.84 18.484039,-33.951618,243.84 18.483982,-33.946404,243.84 18.483824,-33.945236,243.84 18.482609,-33.940586,213.36 18.482086,-33.939194,213.36 18.479845,-33.934708,213.36 18.478949,-33.93338,213.36 18.475342,-33.928852,213.36 18.474426,-33.927921,213.36 18.470261,-33.923904,213.36 18.469048,-33.922756,213.36 18.464823,-33.918823,182.88 18.46384,-33.917915,182.88 18.460058,-33.9142,182.88 18.458096,-33.91214,213.36 18.455143,-33.908463,213.36 18.454229,-33.907104,213.36 18.451706,-33.90271,213.36 18.451258,-33.901932,213.36 18.448566,-33.897812,213.36 18.447895,-33.896942,213.36 18.444252,-33.893463,182.88 18.443243,-33.892868,182.88 18.438835,-33.891891,152.4 18.437519,-33.892033,152.4 18.433825,-33.893234,91.44 18.43317,-33.893566,91.44 18.430126,-33.895935,30.48 18.429117,-33.897125,0 18.428192,-33.898457,0 18.428053,-33.898727,0 18.427322,-33.899918,0 18.427155,-33.900146,0
        </coordinates>
      </LineString>
    </Placemark>
  </Document>
</kml>