<?xml version="1.0" encoding="UTF-8"?>
<kml xmlns="http://www.opengis.net/kml/2.2">
  <Document>
    <name>-/ZTHOT - Optimised</name>
    <description><![CDATA[Optimised flight path with 307 points (decimated from 1531 original points). Source format: Standard KML]]></description>
    
    <Style id="flightPath">
      <LineStyle>
        <color>ff0000ff</color>
        <width>3</width>
      </LineStyle>
    </Style>
    
    <Placemark>
      <name>Flight Path</name>
      <description><![CDATA[<div style="width:220px; text-align:center;">
<div style="width:210px; text-align:center;">
<div style=" background: #000; color: #fff; font-size: 14px; text-align:left; border: 1px solid #000; padding: 2px 6px; text-shadow: 0 1px 0 #000; box-shadow: 0 1px 3px rgba(0,0,0,0.6); background: -webkit-gradient(linear, left top, left bottom, color-stop(0%,#808080), color-stop(2%,#303030), color-stop(100%,#0c0c0c));"><span style="font-size: 14px; font-weight: bold;"><a href="javascript:void(0);" style="color: #fff; cursor: pointer;text-decoration: none;">-</a></span> / ZTHOT<br/>Cape Town Helicopters</div>

<div style="border-top: 1px solid #005c90; color: #fff; padding-bottom: 5px; box-shadow: 0 0 1px #9BE3F6 inset, 0 1px 0 #9BE3F6 inset, 0 -1px 3px rgba(0,0,0,0.4); background:rgba(43,114,173,1); background: -webkit-gradient(linear, left top, left bottom, color-stop(0%,rgba(92,184,229,1)), color-stop(100%,rgba(43,114,173,1)));">
<a style="text-decoration: none; color: rgb(255, 255, 255); font-size: 12px; width:77px; display: inline-block;" title=" Airport" href="javascript:void(0);/departures"><h3 style="padding: 0px; margin: 10px 0px 0px; font-size: 16px; ">?</h3></a>
<span style="background: url(https://www.flightradar24.com/static/images/userUI_sprite.png?14) no-repeat scroll 0 -464px rgba(0, 0, 0, 0); border: medium none; display: inline-block; height: 16px; width: 45px;"></span>
<a style="text-decoration: none; color: rgb(255, 255, 255); font-size: 12px; width:77px; display: inline-block;" title="Cape Town Airport" href="https://www.flightradar24.com/airport/cpt/arrivals"><h3 style="padding: 0px; margin: 10px 0px 0px; font-size: 16px;">CPT</h3>Cape Town</a>
<div style=" margin-top:10px;">
<div style="display: inline-block; font-size: 12px; padding: 0 5px;">
<div>
<span style="color: #c1eaff;" title="Actual Time of Departure">ATD </span>
<span title="2025-09-18 13:34">13:34</span> <span title="Coordinated Universal Time">UTC</span>
</div>
</div>
<div style="display: inline-block; font-size: 12px; padding: 0 5px;">
<div>
<span style="color: #c1eaff;" title="Estimated Time of Arrival">ETA </span>
<span title="2025-09-18 13:45">13:45</span> <span title="Coordinated Universal Time">UTC</span>
</div>
</div>
</div>
<br style="clear: both;"/>
</div>

<div style="display: block;">
<table style="border-collapse: collapse; width: 100%;">
<tr style="border-right: 1px solid #dadada; ">
<td style="background: none repeat scroll 0 0 #dadada; padding: 0; width: 31px;">
<span style="background: url(https://www.flightradar24.com/static/images/userUI_sprite.png?14) no-repeat scroll -208px -464px rgba(0, 0, 0, 0); height: 26px; margin: 8px 0 0 4px; width: 23px; display: block;"></span>
</td>
<td colspan="2" style="border-bottom: 1px solid #dadada; border-left: 1px solid #dadada; color: #666; line-height: 1.1em; padding: 3px 6px; vertical-align: top; font-size: 14px;">
Aircraft<span style="float: right; font-size: 12px;">(AS50)</span><br>
<span style="color: #333; font-size: 16px; font-weight: bold; line-height: 1.3em;">Airbus Helicopters H125</span>
</td>
</tr>
<tr style="border-right: 1px solid #dadada; ">
<td style="background: none repeat scroll 0 0 #dadada; padding: 0; width: 31px;">
<td colspan="2" style="border-bottom: 1px solid #dadada; border-left: 1px solid #dadada; color: #666; line-height: 1.1em; padding: 3px 6px; vertical-align: top; font-size: 14px;">
Registration<br>
<span style="color: #333; font-size: 16px; font-weight: bold; line-height: 1.3em;"><a href="https://www.flightradar24.com/reg/zt-hot" style="text-decoration: none; color: #333;">ZT-HOT</a></span>
</td>
</tr>
</table>
</div>

</div>
</div>]]></description>
      <styleUrl>#flightPath</styleUrl>
      <LineString>
        <extrude>1</extrude>
        <tessellate>1</tessellate>
        <altitudeMode>absolute</altitudeMode>
        <coordinates>
          18.432426,-33.902039,60.96 18.437077,-33.901566,91.44 18.441113,-33.899368,152.4 18.443584,-33.895523,182.88 18.443871,-33.890728,213.36 18.442268,-33.885933,243.84 18.438927,-33.881882,304.8 18.434723,-33.879044,365.76 18.429453,-33.876892,396.24 18.423786,-33.87569,426.72 18.417721,-33.874992,426.72 18.410683,-33.874668,457.2 18.404102,-33.875271,487.68 18.397671,-33.876389,487.68 18.391562,-33.878174,518.16 18.385733,-33.880646,518.16 18.380699,-33.883419,548.64 18.375643,-33.886734,548.64 18.370457,-33.89045,579.12 18.365879,-33.894592,548.64 18.361645,-33.8992,548.64 18.357929,-33.904083,548.64 18.354792,-33.908707,579.12 18.351746,-33.913723,579.12 18.348961,-33.918869,579.12 18.345165,-33.926388,609.6 18.339882,-33.933929,670.56 18.336582,-33.939838,670.56 18.339993,-33.943771,670.56 18.346159,-33.945786,670.56 18.352718,-33.94389,640.08 18.357525,-33.939095,609.6 18.360788,-33.933792,579.12 18.363928,-33.928253,548.64 18.370399,-33.918053,548.64 18.374859,-33.912048,548.64 18.379097,-33.907345,518.16 18.383266,-33.903214,518.16 18.387909,-33.899246,518.16 18.39323,-33.895569,518.16 18.399353,-33.892681,518.16 18.405575,-33.890579,518.16 18.412628,-33.88868,487.68 18.42127,-33.88623,487.68 18.428535,-33.885139,487.68 18.430767,-33.886585,457.2 18.432367,-33.888611,396.24 18.434275,-33.890991,304.8 18.435802,-33.893147,243.84 18.433882,-33.894562,152.4 18.429901,-33.894104,91.44 18.427505,-33.895802,30.48 18.427334,-33.897339,30.48 18.427219,-33.8992,0 18.427351,-33.90057,0 18.431225,-33.90176,30.48 18.43586,-33.902084,121.92 18.439579,-33.900829,182.88 18.442289,-33.897675,213.36 18.443466,-33.893372,243.84 18.442841,-33.888493,274.32 18.43998,-33.883976,304.8 18.435284,-33.880463,335.28 18.430182,-33.877762,365.76 18.424301,-33.875504,396.24 18.417963,-33.873825,457.2 18.411255,-33.873131,457.2 18.405239,-33.87323,487.68 18.398064,-33.87442,518.16 18.391954,-33.87648,548.64 18.386307,-33.878948,548.64 18.381304,-33.881836,579.12 18.375835,-33.885746,579.12 18.371046,-33.889984,609.6 18.366623,-33.894638,609.6 18.362846,-33.899338,609.6 18.359612,-33.903854,609.6 18.356209,-33.908978,609.6 18.353062,-33.914188,640.08 18.350258,-33.919357,640.08 18.347855,-33.924339,670.56 18.345598,-33.929947,701.04 18.343412,-33.936218,701.04 18.342419,-33.942635,792.48 18.345623,-33.945797,853.44 18.349915,-33.946125,914.4 18.354063,-33.943405,944.88 18.356094,-33.939655,1005.84 18.355856,-33.935349,1036.32 18.350945,-33.933601,1036.32 18.345623,-33.939095,975.36 18.343563,-33.944588,975.36 18.34156,-33.950127,975.36 18.336124,-33.964375,975.36 18.327774,-33.983597,944.88 18.323683,-33.994492,914.4 18.322792,-33.999985,914.4 18.322792,-34.005478,914.4 18.323233,-34.011063,914.4 18.324074,-34.016556,914.4 18.325531,-34.021088,944.88 18.327942,-34.025265,944.88 18.330856,-34.029831,944.88 18.334948,-34.036194,914.4 18.34465,-34.051285,944.88 18.351116,-34.060505,975.36 18.354399,-34.064667,975.36 18.365721,-34.079224,944.88 18.379286,-34.094284,883.92 18.385845,-34.100281,822.96 18.391001,-34.104309,792.48 18.396149,-34.107845,762 18.4021,-34.111431,701.04 18.408165,-34.11483,640.08 18.419643,-34.121063,579.12 18.426189,-34.123302,548.64 18.432705,-34.124817,548.64 18.43998,-34.125957,518.16 18.447109,-34.12674,487.68 18.454227,-34.126469,487.68 18.461266,-34.124886,487.68 18.467789,-34.122231,487.68 18.473846,-34.118774,487.68 18.478611,-34.114334,487.68 18.480892,-34.108219,487.68 18.481358,-34.102112,487.68 18.481358,-34.095932,518.16 18.481121,-34.089878,518.16 18.481022,-34.073822,548.64 18.481583,-34.067642,548.64 18.482592,-34.061417,518.16 18.484217,-34.046494,518.16 18.484554,-34.040348,518.16 18.484383,-34.023682,518.16 18.484329,-34.000854,487.68 18.484669,-33.976383,365.76 18.48489,-33.958969,304.8 18.484329,-33.95192,304.8 18.483376,-33.945007,274.32 18.481636,-33.938023,274.32 18.479004,-33.931595,243.84 18.474655,-33.926014,243.84 18.469048,-33.921593,243.84 18.46344,-33.9174,243.84 18.454004,-33.90921,213.36 18.450529,-33.903534,274.32 18.447838,-33.898224,274.32 18.443018,-33.892227,274.32 18.437977,-33.891891,243.84 18.433285,-33.892963,152.4 18.428535,-33.895382,60.96 18.427603,-33.897263,30.48 18.427391,-33.899014,0 18.427334,-33.900505,0 18.43618,-33.901794,91.44 18.437077,-33.901566,91.44 18.440384,-33.899963,152.4 18.441113,-33.899368,152.4 18.443241,-33.896358,182.88 18.443584,-33.895523,182.88 18.443972,-33.891861,213.36 18.443871,-33.890728,213.36 18.442783,-33.886955,243.84 18.442268,-33.885933,243.84 18.439636,-33.882488,304.8 18.438927,-33.881882,304.8 18.435516,-33.879463,335.28 18.434723,-33.879044,365.76 18.430424,-33.877228,365.76 18.429453,-33.876892,396.24 18.424702,-33.875832,396.24 18.423786,-33.87569,426.72 18.418972,-33.875107,426.72 18.417721,-33.874992,426.72 18.412413,-33.874649,457.2 18.410683,-33.874668,457.2 18.405519,-33.875107,457.2 18.404102,-33.875271,487.68 18.399073,-33.876068,487.68 18.397671,-33.876389,487.68 18.392715,-33.877785,518.16 18.391562,-33.878174,518.16 18.386936,-33.880112,518.16 18.385733,-33.880646,518.16 18.381729,-33.882812,548.64 18.380699,-33.883419,548.64 18.376652,-33.886002,548.64 18.375643,-33.886734,548.64 18.371662,-33.889526,548.64 18.370457,-33.89045,579.12 18.366623,-33.893799,548.64 18.365879,-33.894592,548.64 18.36256,-33.898129,548.64 18.361645,-33.8992,548.64 18.35877,-33.902939,548.64 18.357929,-33.904083,548.64 18.355463,-33.907654,579.12 18.354792,-33.908707,579.12 18.352213,-33.912872,579.12 18.351746,-33.913723,579.12 18.349457,-33.917915,579.12 18.348961,-33.918869,579.12 18.346888,-33.922989,579.12 18.345165,-33.926388,609.6 18.340702,-33.933369,640.08 18.339882,-33.933929,670.56 18.336407,-33.93869,670.56 18.336582,-33.939838,670.56 18.339041,-33.94313,670.56 18.339993,-33.943771,670.56 18.344534,-33.945557,670.56 18.346159,-33.945786,670.56 18.351316,-33.944641,640.08 18.352718,-33.94389,640.08 18.356667,-33.940258,609.6 18.357525,-33.939095,609.6 18.36006,-33.93512,579.12 18.360788,-33.933792,579.12 18.363361,-33.92918,548.64 18.363928,-33.928253,548.64 18.369757,-33.919052,548.64 18.370399,-33.918053,548.64 18.374073,-33.91301,548.64 18.374859,-33.912048,548.64 18.378067,-33.908417,518.16 18.379097,-33.907345,518.16 18.3822,-33.904221,548.64 18.383266,-33.903214,518.16 18.386993,-33.89999,518.16 18.387909,-33.899246,518.16 18.392258,-33.896126,518.16 18.39323,-33.895569,518.16 18.398209,-33.893147,518.16 18.399353,-33.892681,518.16 18.404217,-33.891006,518.16 18.405575,-33.890579,518.16 18.411236,-33.889023,487.68 18.412628,-33.88868,487.68 18.417606,-33.887283,457.2 18.42127,-33.88623,487.68 18.427883,-33.884995,487.68 18.428535,-33.885139,487.68 18.430349,-33.886139,457.2 18.430767,-33.886585,457.2 18.432087,-33.888199,396.24 18.432367,-33.888611,396.24 18.433971,-33.890587,335.28 18.434275,-33.890991,304.8 18.435631,-33.892776,243.84 18.435802,-33.893147,243.84 18.43461,-33.894516,182.88 18.433882,-33.894562,152.4 18.430767,-33.894127,121.92 18.429901,-33.894104,91.44 18.427603,-33.895569,60.96 18.427505,-33.895802,30.48 18.427334,-33.897106,30.48 18.427334,-33.897339,30.48 18.427219,-33.898827,0 18.427219,-33.8992,0 18.427277,-33.900364,0 18.427351,-33.90057,0 18.429565,-33.901249,30.48 18.431225,-33.90176,30.48 18.435114,-33.902115,91.44 18.43586,-33.902084,121.92 18.438721,-33.901295,152.4 18.439579,-33.900829,182.88 18.441925,-33.898407,213.36 18.442289,-33.897675,213.36 18.443298,-33.894314,243.84 18.443466,-33.893372,243.84 18.443184,-33.889423,274.32 18.442841,-33.888493,274.32 18.44072,-33.884903,304.8 18.43998,-33.883976,304.8 18.436489,-33.881229,335.28 18.435284,-33.880463,335.28 18.431248,-33.87822,365.76 18.430182,-33.877762,365.76 18.425417,-33.875885,396.24 18.424301,-33.875504,396.24 18.419252,-33.8741,426.72 18.417963,-33.873825,457.2 18.4128,-33.873177,457.2 18.411255,-33.873131,457.2 18.406506,-33.873131,487.68 18.405239,-33.87323,487.68 18.39941,-33.874062,518.16 18.398064,-33.87442,518.16 18.393402,-33.875969,548.64 18.391954,-33.87648,548.64 18.387302,-33.878448,548.64 18.386307,-33.878948,548.64 18.382032,-33.881332,579.12 18.381304,-33.881836,579.12 18.376932,-33.884949,579.12 18.375835,-33.885746,579.12 18.372231,-33.888866,609.6 18.371046,-33.889984,609.6 18.367596,-33.893566,609.6 18.366623,-33.894638,609.6 18.363705,-33.898174,609.6 18.362846,-33.899338,609.6 18.36006,-33.903214,609.6 18.359612,-33.903854,609.6 18.356752,-33.908066,609.6 18.356209,-33.908978,609.6 18.353615,-33.913239,640.08 18.353062,-33.914188,640.08 18.350716,-33.918427,640.08 18.350258,-33.919357,640.08 18.348232,-33.923401,670.56 18.347855,-33.924339,670.56 18.345991,-33.928848,701.04 18.345598,-33.929947,701.04 18.343792,-33.935093,701.04 18.343412,-33.936218,701.04 18.342178,-33.941666,762 18.342419,-33.942635,792.48 18.344707,-33.945332,853.44 18.345623,-33.945797,853.44 18.349073,-33.946289,914.4 18.349915,-33.946125,914.4 18.353334,-33.944183,944.88 18.354063,-33.943405,944.88 18.355801,-33.940384,975.36 18.356094,-33.939655,1005.84 18.356249,-33.936172,1036.32 18.355856,-33.935349,1036.32 18.351988,-33.933472,1036.32 18.350945,-33.933601,1036.32 18.346424,-33.93742,1005.84 18.345623,-33.939095,975.36 18.343964,-33.943565,975.36 18.343563,-33.944588,975.36 18.342068,-33.948853,975.36 18.34156,-33.950127,975.36 18.337898,-33.959812,975.36 18.336124,-33.964375,975.36 18.329344,-33.980438,944.88 18.327774,-33.983597,944.88 18.323961,-33.993484,914.4 18.323683,-33.994492,914.4 18.322897,-33.998932,914.4 18.322792,-33.999985,914.4 18.322735,-34.004501,914.4 18.322792,-34.005478,914.4 18.323122,-34.009781,914.4 18.323233,-34.011063,914.4 18.323851,-34.015549,914.4 18.324074,-34.016556,914.4 18.325195,-34.020264,944.88 18.325531,-34.021088,944.88 18.327427,-34.024517,944.88 18.327942,-34.025265,944.88 18.330116,-34.028709,944.88 18.330856,-34.029831,944.88 18.333149,-34.033318,914.4 18.334948,-34.036194,914.4 18.342684,-34.047913,944.88 18.34465,-34.051285,944.88 18.35043,-34.05962,975.36 18.351116,-34.060505,975.36 18.353634,-34.063717,975.36 18.354399,-34.064667,975.36 18.363703,-34.076569,975.36 18.365721,-34.079224,944.88 18.376007,-34.090809,883.92 18.379286,-34.094284,883.92 18.384499,-34.099182,822.96 18.385845,-34.100281,822.96 18.389824,-34.103439,792.48 18.391001,-34.104309,792.48 18.395119,-34.107147,762 18.396149,-34.107845,762 18.401035,-34.110809,701.04 18.4021,-34.111431,701.04 18.407032,-34.114243,670.56 18.408165,-34.11483,640.08 18.418354,-34.120468,579.12 18.419643,-34.121063,579.12 18.424576,-34.122849,548.64 18.426189,-34.123302,548.64 18.431583,-34.124588,548.64 18.432705,-34.124817,548.64 18.438646,-34.125778,518.16 18.43998,-34.125957,518.16 18.445759,-34.126656,487.68 18.447109,-34.12674,487.68 18.452827,-34.126602,487.68 18.454227,-34.126469,487.68 18.459778,-34.125351,487.68 18.461266,-34.124886,487.68 18.466301,-34.122929,487.68 18.467789,-34.122231,487.68 18.472366,-34.119717,487.68 18.473846,-34.118774,487.68 18.477688,-34.115528,487.68 18.478611,-34.114334,487.68 18.480606,-34.109711,487.68 18.480892,-34.108219,487.68 18.481302,-34.103302,487.68 18.481358,-34.102112,487.68 18.481358,-34.097076,487.68 18.481358,-34.095932,518.16 18.481178,-34.091087,518.16 18.481121,-34.089878,518.16 18.480797,-34.076614,548.64 18.481022,-34.073822,548.64 18.48147,-34.069199,548.64 18.481583,-34.067642,548.64 18.48238,-34.062832,518.16 18.482592,-34.061417,518.16 18.484039,-34.048958,518.16 18.484217,-34.046494,518.16 18.484497,-34.041458,518.16 18.484554,-34.040348,518.16 18.484554,-34.029175,518.16 18.484383,-34.023682,518.16 18.484161,-34.004883,487.68 18.484329,-34.000854,487.68 18.48444,-33.980526,365.76 18.484669,-33.976383,365.76 18.484955,-33.959995,304.8 18.48489,-33.958969,304.8 18.484497,-33.953201,304.8 18.484329,-33.95192,304.8 18.483639,-33.946499,274.32 18.483376,-33.945007,274.32 18.482031,-33.93956,274.32 18.481636,-33.938023,274.32 18.479691,-33.933044,243.84 18.479004,-33.931595,243.84 18.475571,-33.926991,243.84 18.474655,-33.926014,243.84 18.470091,-33.922348,243.84 18.469048,-33.921593,243.84 18.464542,-33.918228,243.84 18.46344,-33.9174,243.84 18.4552,-33.910419,213.36 18.454004,-33.90921,213.36 18.45109,-33.904633,274.32 18.450529,-33.903534,274.32 18.448288,-33.899094,274.32 18.447838,-33.898224,274.32 18.444042,-33.892914,243.84 18.443018,-33.892227,274.32 18.438778,-33.89175,243.84 18.437977,-33.891891,243.84 18.434258,-33.892635,182.88 18.433285,-33.892963,152.4 18.430481,-33.894032,121.92 18.428535,-33.895382,60.96 18.42766,-33.897034,30.48 18.427603,-33.897263,30.48 18.427391,-33.898735,0 18.427391,-33.899014,0 18.427322,-33.900238,0 18.427334,-33.900505,0
        </coordinates>
      </LineString>
    </Placemark>
  </Document>
</kml>