<?xml version="1.0" encoding="UTF-8"?>
<kml xmlns="http://www.opengis.net/kml/2.2">
  <Document>
    <name>-/ZTHOT - Optimised</name>
    <description><![CDATA[Optimised flight path with 581 points (decimated from 2905 original points). Source format: Standard KML]]></description>
    
    <Style id="flightPath">
      <LineStyle>
        <color>ff0000ff</color>
        <width>3</width>
      </LineStyle>
    </Style>
    
    <Placemark>
      <name>Flight Path</name>
      <description><![CDATA[<div style="width:220px; text-align:center;">
<div style="width:210px; text-align:center;">
<div style=" background: #000; color: #fff; font-size: 14px; text-align:left; border: 1px solid #000; padding: 2px 6px; text-shadow: 0 1px 0 #000; box-shadow: 0 1px 3px rgba(0,0,0,0.6); background: -webkit-gradient(linear, left top, left bottom, color-stop(0%,#808080), color-stop(2%,#303030), color-stop(100%,#0c0c0c));"><span style="font-size: 14px; font-weight: bold;"><a href="javascript:void(0);" style="color: #fff; cursor: pointer;text-decoration: none;">-</a></span> / ZTHOT<br/>Cape Town Helicopters</div>

<div style="border-top: 1px solid #005c90; color: #fff; padding-bottom: 5px; box-shadow: 0 0 1px #9BE3F6 inset, 0 1px 0 #9BE3F6 inset, 0 -1px 3px rgba(0,0,0,0.4); background:rgba(43,114,173,1); background: -webkit-gradient(linear, left top, left bottom, color-stop(0%,rgba(92,184,229,1)), color-stop(100%,rgba(43,114,173,1)));">
<a style="text-decoration: none; color: rgb(255, 255, 255); font-size: 12px; width:77px; display: inline-block;" title=" Airport" href="javascript:void(0);/departures"><h3 style="padding: 0px; margin: 10px 0px 0px; font-size: 16px; ">?</h3></a>
<span style="background: url(https://www.flightradar24.com/static/images/userUI_sprite.png?14) no-repeat scroll 0 -464px rgba(0, 0, 0, 0); border: medium none; display: inline-block; height: 16px; width: 45px;"></span>
<a style="text-decoration: none; color: rgb(255, 255, 255); font-size: 12px; width:77px; display: inline-block;" title=" Airport" href="javascript:void(0);/arrivals"><h3 style="padding: 0px; margin: 10px 0px 0px; font-size: 16px;">?</h3></a>
<div style=" margin-top:10px;">
<div style="display: inline-block; font-size: 12px; padding: 0 5px;">
<div>
<span style="color: #c1eaff;" title="Actual Time of Departure">ATD </span>
<span title="2025-07-13 08:25">08:25</span> <span title="Coordinated Universal Time">UTC</span>
</div>
</div>
<div style="display: inline-block; font-size: 12px; padding: 0 5px;">
<div>
<span style="color: #c1eaff;" title="Estimated Time of Arrival">ETA </span>
<span title="2025-07-13 09:07">09:07</span> <span title="Coordinated Universal Time">UTC</span>
</div>
</div>
</div>
<br style="clear: both;"/>
</div>

<div style="display: block;">
<table style="border-collapse: collapse; width: 100%;">
<tr style="border-right: 1px solid #dadada; ">
<td style="background: none repeat scroll 0 0 #dadada; padding: 0; width: 31px;">
<span style="background: url(https://www.flightradar24.com/static/images/userUI_sprite.png?14) no-repeat scroll -208px -464px rgba(0, 0, 0, 0); height: 26px; margin: 8px 0 0 4px; width: 23px; display: block;"></span>
</td>
<td colspan="2" style="border-bottom: 1px solid #dadada; border-left: 1px solid #dadada; color: #666; line-height: 1.1em; padding: 3px 6px; vertical-align: top; font-size: 14px;">
Aircraft<span style="float: right; font-size: 12px;">(AS50)</span><br>
<span style="color: #333; font-size: 16px; font-weight: bold; line-height: 1.3em;">Airbus Helicopters H125</span>
</td>
</tr>
<tr style="border-right: 1px solid #dadada; ">
<td style="background: none repeat scroll 0 0 #dadada; padding: 0; width: 31px;">
<td colspan="2" style="border-bottom: 1px solid #dadada; border-left: 1px solid #dadada; color: #666; line-height: 1.1em; padding: 3px 6px; vertical-align: top; font-size: 14px;">
Registration<br>
<span style="color: #333; font-size: 16px; font-weight: bold; line-height: 1.3em;"><a href="https://www.flightradar24.com/reg/zt-hot" style="text-decoration: none; color: #333;">ZT-HOT</a></span>
</td>
</tr>
</table>
</div>

</div>
</div>]]></description>
      <styleUrl>#flightPath</styleUrl>
      <LineString>
        <extrude>1</extrude>
        <tessellate>1</tessellate>
        <altitudeMode>absolute</altitudeMode>
        <coordinates>
          18.431471,-33.896484,60.96 18.435059,-33.891907,121.92 18.437412,-33.888702,182.88 18.438927,-33.885452,243.84 18.437977,-33.88179,274.32 18.434486,-33.878998,335.28 18.430126,-33.877396,396.24 18.426533,-33.876667,457.2 18.42247,-33.87611,518.16 18.418407,-33.873363,548.64 18.419195,-33.869019,548.64 18.423904,-33.866318,579.12 18.429279,-33.867264,609.6 18.430014,-33.871857,579.12 18.424353,-33.873093,579.12 18.418186,-33.87291,579.12 18.41247,-33.872772,609.6 18.404062,-33.872269,609.6 18.395485,-33.872635,670.56 18.390484,-33.875271,670.56 18.385391,-33.878067,701.04 18.380352,-33.881104,701.04 18.375778,-33.884491,701.04 18.368805,-33.889572,701.04 18.36256,-33.892078,701.04 18.357239,-33.890076,701.04 18.352032,-33.888493,762 18.347336,-33.891998,822.96 18.345879,-33.896896,822.96 18.345263,-33.902618,822.96 18.344366,-33.908066,822.96 18.342459,-33.924591,762 18.340759,-33.931507,762 18.339153,-33.937134,731.52 18.336069,-33.945557,731.52 18.330803,-33.959812,701.04 18.32172,-33.974899,731.52 18.313593,-33.98584,762 18.306305,-33.996689,731.52 18.307629,-34.002361,731.52 18.313929,-34.004974,731.52 18.321215,-34.007355,701.04 18.322784,-34.014038,670.56 18.318918,-34.020676,640.08 18.315353,-34.02787,640.08 18.314041,-34.033539,640.08 18.314322,-34.040543,609.6 18.317291,-34.050522,579.12 18.320732,-34.058174,579.12 18.323793,-34.063705,548.64 18.327606,-34.069016,548.64 18.332405,-34.074375,548.64 18.337326,-34.081497,548.64 18.340244,-34.08662,548.64 18.342476,-34.092113,579.12 18.344141,-34.097763,579.12 18.344982,-34.103256,609.6 18.345051,-34.108963,609.6 18.344925,-34.115158,579.12 18.344702,-34.120514,579.12 18.343525,-34.130997,609.6 18.341389,-34.147465,640.08 18.341503,-34.152771,640.08 18.342291,-34.158325,640.08 18.3433,-34.164368,640.08 18.344702,-34.169907,640.08 18.34672,-34.175217,640.08 18.350143,-34.181122,640.08 18.353951,-34.186752,640.08 18.358883,-34.192154,670.56 18.364277,-34.196716,701.04 18.369701,-34.203278,762 18.372448,-34.208496,762 18.374977,-34.214359,701.04 18.380871,-34.225716,640.08 18.384647,-34.234329,579.12 18.385845,-34.241226,518.16 18.386879,-34.247643,518.16 18.389824,-34.256836,518.16 18.410053,-34.30439,304.8 18.433434,-34.326782,457.2 18.439095,-34.329849,518.16 18.444868,-34.332413,548.64 18.451252,-34.336605,609.6 18.455349,-34.340652,640.08 18.459162,-34.34491,670.56 18.469362,-34.352875,701.04 18.475742,-34.356205,701.04 18.487579,-34.362305,731.52 18.494699,-34.365143,731.52 18.501949,-34.365608,762 18.506973,-34.361115,731.52 18.509552,-34.355164,701.04 18.512936,-34.349129,640.08 18.52009,-34.3461,579.12 18.528843,-34.34708,548.64 18.535448,-34.350815,487.68 18.537859,-34.356766,457.2 18.535538,-34.362579,396.24 18.531357,-34.367294,335.28 18.525808,-34.371643,304.8 18.519115,-34.373287,274.32 18.512188,-34.372879,274.32 18.507311,-34.369125,243.84 18.506245,-34.3629,243.84 18.504696,-34.35746,243.84 18.501034,-34.350945,243.84 18.498285,-34.346329,274.32 18.494699,-34.341248,274.32 18.491249,-34.336838,274.32 18.48646,-34.328979,304.8 18.484497,-34.323669,335.28 18.483696,-34.317844,335.28 18.48381,-34.312164,396.24 18.484726,-34.306252,396.24 18.485813,-34.300526,426.72 18.488646,-34.284714,426.72 18.491503,-34.271393,426.72 18.492279,-34.265472,426.72 18.492682,-34.259674,457.2 18.492908,-34.25174,487.68 18.492289,-34.246536,518.16 18.490831,-34.24086,548.64 18.488701,-34.235321,548.64 18.486271,-34.229908,548.64 18.483713,-34.224884,548.64 18.480434,-34.219387,548.64 18.4762,-34.21217,548.64 18.468914,-34.201263,518.16 18.463646,-34.193665,518.16 18.461037,-34.188198,518.16 18.458691,-34.182564,518.16 18.456806,-34.177231,518.16 18.455715,-34.171391,518.16 18.455315,-34.165012,518.16 18.455519,-34.159241,518.16 18.456059,-34.153236,548.64 18.457087,-34.14743,579.12 18.458748,-34.141785,579.12 18.460636,-34.136013,609.6 18.462749,-34.128342,609.6 18.462749,-34.122528,609.6 18.461796,-34.116943,609.6 18.459663,-34.111897,609.6 18.456573,-34.107197,640.08 18.452969,-34.102959,609.6 18.448963,-34.098957,640.08 18.444027,-34.092682,640.08 18.440895,-34.087456,640.08 18.438148,-34.082802,670.56 18.432083,-34.071815,701.04 18.427603,-34.061691,670.56 18.425922,-34.05574,701.04 18.424587,-34.050217,701.04 18.422527,-34.041138,731.52 18.418634,-34.03624,762 18.415833,-34.031387,762 18.415777,-34.024887,792.48 18.418694,-34.019211,792.48 18.422241,-34.01395,792.48 18.425697,-34.009186,792.48 18.432032,-34.000992,792.48 18.439936,-33.992249,762 18.447247,-33.98914,731.52 18.454285,-33.986298,670.56 18.46487,-33.981689,579.12 18.471718,-33.977829,487.68 18.477266,-33.972244,396.24 18.480663,-33.965675,335.28 18.482723,-33.959347,335.28 18.483994,-33.952927,304.8 18.484154,-33.94743,335.28 18.483467,-33.941608,335.28 18.481979,-33.936302,335.28 18.479633,-33.930809,335.28 18.476486,-33.92564,304.8 18.472277,-33.921249,274.32 18.467274,-33.916798,243.84 18.462296,-33.912048,213.36 18.449688,-33.900467,182.88 18.444614,-33.897339,121.92 18.438869,-33.896942,60.96 18.434944,-33.897991,30.48 18.429453,-33.899734,0 18.427828,-33.900616,0 18.427334,-33.899853,0 18.428593,-33.898457,0 18.430126,-33.897034,30.48 18.432312,-33.893753,91.44 18.433825,-33.889984,152.4 18.433056,-33.886539,182.88 18.429846,-33.885361,243.84 18.426146,-33.884491,304.8 18.422184,-33.883465,365.76 18.417091,-33.883186,396.24 18.41275,-33.883621,426.72 18.408321,-33.883713,457.2 18.400475,-33.884171,548.64 18.395765,-33.884995,579.12 18.391171,-33.886024,609.6 18.386629,-33.887878,609.6 18.38209,-33.89035,609.6 18.3771,-33.893509,640.08 18.372784,-33.896484,640.08 18.368748,-33.899414,640.08 18.365021,-33.903065,640.08 18.361759,-33.907299,670.56 18.358669,-33.911537,640.08 18.356472,-33.916534,640.08 18.355465,-33.92136,640.08 18.354607,-33.928204,609.6 18.353895,-33.936951,640.08 18.35638,-33.940723,670.56 18.362331,-33.938957,701.04 18.367403,-33.94075,701.04 18.366955,-33.945511,670.56 18.364391,-33.950314,640.08 18.358154,-33.961121,670.56 18.349241,-33.972702,701.04 18.339043,-33.98225,792.48 18.329567,-33.992706,883.92 18.324131,-33.999573,883.92 18.319988,-34.005341,883.92 18.31049,-34.018421,853.44 18.309277,-34.026489,853.44 18.312149,-34.032246,792.48 18.314724,-34.038715,792.48 18.317965,-34.047043,792.48 18.322952,-34.054688,792.48 18.328114,-34.059387,762 18.334108,-34.063156,762 18.340721,-34.06636,762 18.347561,-34.069061,762 18.355183,-34.071945,731.52 18.365891,-34.077438,731.52 18.371258,-34.081917,731.52 18.376293,-34.08662,731.52 18.384108,-34.094055,731.52 18.399467,-34.108128,731.52 18.405071,-34.111496,731.52 18.411573,-34.114517,731.52 18.418121,-34.117485,731.52 18.424988,-34.120136,731.52 18.43915,-34.125641,701.04 18.446999,-34.126328,731.52 18.453501,-34.123169,731.52 18.456402,-34.11795,701.04 18.455143,-34.112736,701.04 18.452168,-34.107895,701.04 18.449078,-34.102959,701.04 18.441954,-34.090576,701.04 18.436432,-34.082569,701.04 18.431511,-34.075447,701.04 18.428993,-34.069954,701.04 18.42766,-34.064529,701.04 18.426476,-34.058781,731.52 18.425331,-34.052731,731.52 18.424988,-34.047096,762 18.425045,-34.041229,792.48 18.424185,-34.032898,822.96 18.422279,-34.027313,822.96 18.41795,-34.023819,822.96 18.412628,-34.021912,792.48 18.412525,-34.016739,792.48 18.416506,-34.012207,792.48 18.421612,-34.007854,792.48 18.426483,-34.003555,792.48 18.43276,-33.997238,822.96 18.439991,-33.991425,792.48 18.446941,-33.988266,792.48 18.4552,-33.985554,731.52 18.466587,-33.981365,670.56 18.473007,-33.976913,609.6 18.479004,-33.971077,518.16 18.482815,-33.965103,487.68 18.484211,-33.958321,457.2 18.484554,-33.952129,426.72 18.483982,-33.945938,426.72 18.482895,-33.939793,396.24 18.481134,-33.934158,396.24 18.478088,-33.928947,335.28 18.474083,-33.923733,274.32 18.469419,-33.918961,243.84 18.464487,-33.914612,213.36 18.45804,-33.908386,213.36 18.454456,-33.903389,182.88 18.451653,-33.898361,152.4 18.445759,-33.895893,91.44 18.440664,-33.897125,30.48 18.43758,-33.897858,30.48 18.428108,-33.900375,0 18.433769,-33.893738,91.44 18.434217,-33.893143,121.92 18.436031,-33.890633,152.4 18.436489,-33.89003,152.4 18.438141,-33.887421,213.36 18.438478,-33.886826,213.36 18.43895,-33.883976,274.32 18.438778,-33.883232,274.32 18.436775,-33.880627,304.8 18.436123,-33.880096,304.8 18.432537,-33.878082,365.76 18.431808,-33.877808,365.76 18.428724,-33.877075,426.72 18.427906,-33.876854,426.72 18.424856,-33.87648,487.68 18.424128,-33.876389,487.68 18.420124,-33.875458,518.16 18.419323,-33.874851,518.16 18.418131,-33.871445,548.64 18.41835,-33.870525,548.64 18.420639,-33.867638,579.12 18.421555,-33.867081,579.12 18.426247,-33.866241,609.6 18.427267,-33.866409,609.6 18.430767,-33.869175,609.6 18.430882,-33.870197,609.6 18.427715,-33.872818,579.12 18.42659,-33.87299,579.12 18.421726,-33.873039,579.12 18.420639,-33.87299,579.12 18.415777,-33.872818,579.12 18.414688,-33.872807,609.6 18.410172,-33.872681,609.6 18.406677,-33.872574,609.6 18.401764,-33.871811,640.08 18.398569,-33.871765,640.08 18.393459,-33.873596,670.56 18.392403,-33.874146,670.56 18.388367,-33.876434,701.04 18.387245,-33.877075,701.04 18.383209,-33.879318,701.04 18.382301,-33.879833,701.04 18.378389,-33.882385,701.04 18.377325,-33.883163,701.04 18.373737,-33.886276,701.04 18.372952,-33.886963,701.04 18.366337,-33.890682,701.04 18.364964,-33.891193,701.04 18.359985,-33.892033,701.04 18.358955,-33.891426,701.04 18.355463,-33.889023,731.52 18.354263,-33.888634,731.52 18.349018,-33.889801,792.48 18.348232,-33.890579,792.48 18.346596,-33.893799,822.96 18.346367,-33.894684,822.96 18.34568,-33.898872,822.96 18.345566,-33.900364,822.96 18.344925,-33.90477,822.96 18.344765,-33.905716,822.96 18.343735,-33.91349,792.48 18.343468,-33.917084,792.48 18.341675,-33.927933,762 18.341282,-33.929306,762 18.340273,-33.933792,762 18.339882,-33.935028,731.52 18.338242,-33.939468,731.52 18.337751,-33.940842,731.52 18.334179,-33.95134,701.04 18.333035,-33.954739,701.04 18.326765,-33.967896,701.04 18.325424,-33.970146,701.04 18.317699,-33.980061,731.52 18.31477,-33.984055,731.52 18.312378,-33.987698,762 18.310453,-33.990463,731.52 18.305969,-33.998917,731.52 18.306082,-33.999893,731.52 18.309893,-34.003738,731.52 18.311014,-34.004196,731.52 18.316898,-34.005665,701.04 18.318043,-34.005989,701.04 18.323593,-34.010647,670.56 18.323626,-34.011703,670.56 18.32159,-34.01614,640.08 18.321104,-34.017059,640.08 18.317236,-34.023514,640.08 18.31662,-34.024658,640.08 18.31477,-34.029968,640.08 18.314489,-34.030975,640.08 18.313873,-34.034912,640.08 18.313808,-34.037319,640.08 18.315273,-34.044388,609.6 18.315554,-34.045486,609.6 18.318693,-34.054138,579.12 18.319366,-34.055603,579.12 18.322001,-34.060501,548.64 18.322674,-34.061646,548.64 18.32542,-34.066269,548.64 18.326054,-34.067112,548.64 18.329201,-34.070839,548.64 18.330128,-34.071854,548.64 18.333883,-34.076294,548.64 18.334579,-34.077263,548.64 18.338528,-34.0835,548.64 18.339214,-34.084618,548.64 18.341274,-34.088902,548.64 18.341675,-34.089924,548.64 18.343245,-34.094421,579.12 18.343637,-34.095749,579.12 18.344534,-34.09996,579.12 18.344707,-34.101097,579.12 18.34515,-34.105499,609.6 18.345165,-34.106499,609.6 18.344982,-34.111359,579.12 18.344925,-34.112366,579.12 18.344879,-34.117298,579.12 18.34487,-34.118271,579.12 18.343973,-34.127655,579.12 18.343805,-34.128708,609.6 18.342705,-34.136478,609.6 18.342178,-34.139694,609.6 18.341331,-34.149605,640.08 18.341331,-34.150677,640.08 18.341789,-34.155098,640.08 18.341961,-34.156261,640.08 18.342705,-34.160778,640.08 18.342909,-34.161896,640.08 18.343748,-34.166428,640.08 18.344078,-34.167759,640.08 18.34543,-34.172241,640.08 18.345852,-34.173252,640.08 18.348122,-34.177826,640.08 18.348738,-34.178879,640.08 18.351631,-34.183449,640.08 18.352261,-34.184425,640.08 18.355633,-34.188812,640.08 18.356697,-34.189957,640.08 18.361404,-34.194443,701.04 18.362274,-34.195133,701.04 18.366058,-34.19838,731.52 18.368357,-34.201172,762 18.370823,-34.205338,762 18.371326,-34.206299,762 18.373457,-34.210831,762 18.37396,-34.212021,731.52 18.376204,-34.21701,670.56 18.378109,-34.22081,670.56 18.382313,-34.228271,609.6 18.383995,-34.232025,579.12 18.385277,-34.237076,548.64 18.385506,-34.238567,518.16 18.386124,-34.24379,518.16 18.386349,-34.245255,518.16 18.388535,-34.253174,518.16 18.388939,-34.25444,518.16 18.390665,-34.259125,518.16 18.391056,-34.26012,518.16 18.425388,-34.320171,396.24 18.427996,-34.322479,426.72 18.435402,-34.327991,487.68 18.436718,-34.32869,487.68 18.441353,-34.330879,548.64 18.442457,-34.33136,548.64 18.447109,-34.333603,579.12 18.449306,-34.335022,579.12 18.45294,-34.338135,609.6 18.453655,-34.33884,640.08 18.456974,-34.342472,640.08 18.457832,-34.343449,640.08 18.461403,-34.347198,670.56 18.46447,-34.349873,670.56 18.471966,-34.354202,701.04 18.472837,-34.35466,701.04 18.478317,-34.357601,701.04 18.47962,-34.358276,701.04 18.490606,-34.363541,731.52 18.491953,-34.36409,731.52 18.497501,-34.365921,762 18.499294,-34.366058,762 18.504339,-34.364273,762 18.505497,-34.363186,762 18.508263,-34.358734,731.52 18.508713,-34.357635,731.52 18.510393,-34.352829,670.56 18.511009,-34.351593,670.56 18.515396,-34.347404,609.6 18.517176,-34.346695,579.12 18.523693,-34.3461,548.64 18.525467,-34.346287,548.64 18.531582,-34.348206,518.16 18.533152,-34.349075,518.16 18.537083,-34.353085,457.2 18.537579,-34.354294,457.2 18.537369,-34.359367,426.72 18.536911,-34.360394,426.72 18.533936,-34.364491,365.76 18.533262,-34.365189,365.76 18.529358,-34.36919,335.28 18.528498,-34.369904,335.28 18.52323,-34.372604,274.32 18.52194,-34.372925,274.32 18.516167,-34.373383,274.32 18.514654,-34.373337,274.32 18.509674,-34.371704,243.84 18.508768,-34.371048,243.84 18.506584,-34.366489,243.84 18.50647,-34.365376,243.84 18.505909,-34.360703,243.84 18.505497,-34.359417,243.84 18.503555,-34.355118,243.84 18.50235,-34.353039,243.84 18.499832,-34.348846,274.32 18.499432,-34.348103,274.32 18.496857,-34.344334,274.32 18.496056,-34.343216,274.32 18.493481,-34.339676,274.32 18.492682,-34.338638,274.32 18.488617,-34.332741,304.8 18.487524,-34.330994,304.8 18.485527,-34.327015,304.8 18.485113,-34.325867,304.8 18.484097,-34.321335,335.28 18.483936,-34.320328,335.28 18.483639,-34.315472,365.76 18.483639,-34.314445,365.76 18.484049,-34.309891,396.24 18.484272,-34.308472,396.24 18.485226,-34.303848,396.24 18.48547,-34.302715,396.24 18.48646,-34.296066,426.72 18.487019,-34.292542,426.72 18.489374,-34.282013,426.72 18.490158,-34.278488,426.72 18.491821,-34.268871,426.72 18.491953,-34.268005,426.72 18.492512,-34.263062,426.72 18.492569,-34.261963,426.72 18.493023,-34.25523,457.2 18.493017,-34.253723,487.68 18.492737,-34.249695,518.16 18.492565,-34.248528,518.16 18.491879,-34.244339,548.64 18.491478,-34.243034,548.64 18.490105,-34.238705,548.64 18.48959,-34.237541,548.64 18.487816,-34.233212,548.64 18.487244,-34.232002,548.64 18.485241,-34.227814,548.64 18.484665,-34.226669,548.64 18.482424,-34.222595,548.64 18.48175,-34.221436,548.64 18.479059,-34.217148,548.64 18.4785,-34.216232,548.64 18.47168,-34.205093,518.16 18.470306,-34.20314,518.16 18.467503,-34.199463,518.16 18.466702,-34.198437,518.16 18.462469,-34.19133,518.16 18.462067,-34.190475,518.16 18.460064,-34.186054,518.16 18.459606,-34.184982,518.16 18.457928,-34.180435,518.16 18.457592,-34.17952,518.16 18.45623,-34.174789,518.16 18.456001,-34.173439,518.16 18.455406,-34.1689,518.16 18.455372,-34.167759,518.16 18.455349,-34.162766,518.16 18.455372,-34.161613,518.16 18.455715,-34.156681,518.16 18.455797,-34.15567,548.64 18.456358,-34.150909,548.64 18.456573,-34.149792,548.64 18.457718,-34.145042,579.12 18.458061,-34.143925,579.12 18.45961,-34.139282,609.6 18.459946,-34.138275,609.6 18.461494,-34.133778,609.6 18.461895,-34.132706,609.6 18.462868,-34.126095,609.6 18.462868,-34.12484,609.6 18.462524,-34.12051,609.6 18.462296,-34.119205,609.6 18.461067,-34.114838,609.6 18.460693,-34.113899,640.08 18.458433,-34.109848,609.6 18.457872,-34.109024,640.08 18.455294,-34.105545,640.08 18.454628,-34.10482,640.08 18.451426,-34.101379,640.08 18.450508,-34.100491,640.08 18.447361,-34.097324,640.08 18.44656,-34.096394,640.08 18.442905,-34.090851,640.08 18.442211,-34.089691,640.08 18.439936,-34.085724,640.08 18.439262,-34.084579,640.08 18.436947,-34.080708,670.56 18.435402,-34.077866,670.56 18.429285,-34.066132,701.04 18.428331,-34.063934,701.04 18.426933,-34.059387,670.56 18.426594,-34.058167,670.56 18.425362,-34.053543,701.04 18.425102,-34.052448,701.04 18.424128,-34.047775,701.04 18.423904,-34.046539,701.04 18.421158,-34.039124,731.52 18.420238,-34.038067,762 18.417263,-34.034435,762 18.416729,-34.033539,762 18.415272,-34.028091,792.48 18.415375,-34.026848,792.48 18.416634,-34.022797,792.48 18.417492,-34.021259,792.48 18.419981,-34.017197,792.48 18.420753,-34.016045,792.48 18.423569,-34.012024,792.48 18.424244,-34.011066,792.48 18.427162,-34.007248,792.48 18.428078,-34.006084,792.48 18.436661,-33.994678,762 18.437691,-33.993748,762 18.442682,-33.990967,762 18.444307,-33.99028,731.52 18.450026,-33.988037,701.04 18.451313,-33.987534,701.04 18.457144,-33.985153,640.08 18.458656,-33.984512,640.08 18.46785,-33.980164,518.16 18.469194,-33.979431,518.16 18.474072,-33.975861,457.2 18.47508,-33.974899,426.72 18.478832,-33.969681,396.24 18.47962,-33.968124,365.76 18.481525,-33.963226,335.28 18.481922,-33.961952,335.28 18.48341,-33.956646,335.28 18.483639,-33.955528,304.8 18.484097,-33.950592,335.28 18.484154,-33.94957,335.28 18.483936,-33.94487,335.28 18.483768,-33.943863,335.28 18.483009,-33.939468,335.28 18.482704,-33.938416,335.28 18.481178,-33.934299,335.28 18.480549,-33.932858,335.28 18.478661,-33.928902,335.28 18.478031,-33.927784,335.28 18.474913,-33.923859,304.8 18.474026,-33.922894,304.8 18.470484,-33.919601,274.32 18.469334,-33.918659,243.84 18.465103,-33.914841,213.36 18.464184,-33.91391,213.36 18.455887,-33.906277,213.36 18.453426,-33.903809,213.36 18.447895,-33.899231,182.88 18.446718,-33.898499,152.4 18.442154,-33.896687,121.92 18.441168,-33.896622,91.44 18.436317,-33.897663,60.96 18.435917,-33.897758,30.48 18.43071,-33.899105,0 18.430481,-33.8992,0 18.428782,-33.900146,0 18.428364,-33.900364,0 18.427267,-33.900604,0 18.427219,-33.900364,0 18.427849,-33.899246,0 18.428078,-33.898968,0 18.429165,-33.897991,0 18.429565,-33.897572,30.48 18.430653,-33.8965,30.48 18.430996,-33.896034,60.96 18.433041,-33.892319,121.92 18.433399,-33.891472,121.92 18.433994,-33.888382,182.88 18.433825,-33.887741,182.88 18.431976,-33.885864,213.36 18.431339,-33.8857,213.36 18.428478,-33.885002,274.32 18.427715,-33.884811,274.32 18.424416,-33.884071,335.28 18.423679,-33.88385,335.28 18.419495,-33.883045,396.24 18.418804,-33.883026,396.24 18.415489,-33.883373,426.72 18.414574,-33.883465,426.72 18.411083,-33.883652,457.2 18.41011,-33.883652,457.2 18.404617,-33.883793,518.16 18.4021,-33.883976,518.16 18.398569,-33.884491,548.64 18.39756,-33.884674,579.12 18.393915,-33.885406,579.12 18.392944,-33.885605,609.6 18.389151,-33.886734,609.6 18.388311,-33.887054,609.6 18.384779,-33.88884,609.6 18.383789,-33.889378,609.6 18.379784,-33.891705,609.6 18.37895,-33.892227,609.6 18.375378,-33.894684,640.08 18.374689,-33.895203,640.08 18.371103,-33.897675,640.08 18.37043,-33.898132,640.08 18.367067,-33.900879,640.08 18.366222,-33.901714,640.08 18.363592,-33.904907,670.56 18.363018,-33.905579,670.56 18.360453,-33.909027,640.08 18.359837,-33.909805,640.08 18.357639,-33.913353,640.08 18.357182,-33.914375,640.08 18.355968,-33.918594,640.08 18.355808,-33.919403,640.08 18.355072,-33.924088,609.6 18.354959,-33.925369,609.6 18.354399,-33.930679,609.6 18.354378,-33.931507,609.6 18.353951,-33.938553,640.08 18.354399,-33.939606,640.08 18.358828,-33.940247,670.56 18.359779,-33.939789,670.56 18.364712,-33.939011,701.04 18.365721,-33.939285,701.04 18.367767,-33.942635,670.56 18.367653,-33.943703,670.56 18.365993,-33.947521,670.56 18.365553,-33.948349,640.08 18.363144,-33.952332,640.08 18.362503,-33.953388,640.08 18.354063,-33.967255,701.04 18.352547,-33.969074,701.04 18.345795,-33.975918,731.52 18.344028,-33.977463,762 18.335781,-33.985832,822.96 18.33395,-33.987789,853.44 18.326036,-33.997101,883.92 18.325481,-33.997845,883.92 18.32262,-34.001568,883.92 18.322048,-34.002407,883.92 18.317528,-34.008968,883.92 18.315443,-34.011749,883.92 18.308487,-34.022701,853.44 18.308491,-34.023788,853.44 18.310375,-34.028709,822.96 18.310947,-34.029778,822.96 18.313293,-34.034901,792.48 18.313751,-34.036156,792.48 18.315582,-34.040905,792.48 18.316956,-34.044479,792.48 18.320431,-34.051666,792.48 18.321215,-34.052719,792.48 18.324852,-34.056545,762 18.325924,-34.057526,792.48 18.330576,-34.06105,762 18.331718,-34.061806,762 18.336983,-34.064602,762 18.338255,-34.065216,762 18.343748,-34.067642,762 18.345037,-34.068146,762 18.350773,-34.070232,762 18.352158,-34.070755,762 18.362045,-34.075027,731.52 18.36359,-34.075867,731.52 18.367907,-34.078995,731.52 18.369085,-34.080002,731.52 18.373457,-34.083939,731.52 18.374466,-34.084854,731.52 18.378277,-34.088516,731.52 18.379383,-34.089554,731.52 18.390945,-34.100693,731.52 18.395061,-34.104401,731.52 18.401651,-34.109573,731.52 18.40266,-34.110168,731.52 18.407764,-34.112782,731.52 18.408995,-34.113327,731.52 18.414095,-34.115616,731.52 18.415552,-34.116302,731.52 18.420765,-34.118591,731.52 18.421955,-34.119064,731.52 18.427734,-34.121113,731.52 18.431919,-34.122711,731.52 18.44244,-34.126373,701.04 18.443691,-34.126465,701.04 18.449968,-34.125458,731.52 18.45109,-34.124908,731.52 18.455181,-34.121155,731.52 18.455742,-34.120102,731.52 18.456345,-34.115807,701.04 18.456078,-34.114746,701.04 18.453999,-34.110779,701.04 18.453312,-34.109711,701.04 18.450966,-34.105938,701.04 18.450249,-34.104721,701.04 18.447876,-34.101006,701.04 18.445372,-34.096802,701.04 18.438492,-34.085407,701.04 18.437637,-34.084259,701.04 18.435001,-34.080612,701.04 18.434217,-34.079498,701.04 18.430407,-34.073273,701.04 18.429909,-34.072281,701.04 18.428389,-34.067963,701.04 18.428053,-34.066635,701.04 18.427155,-34.062057,701.04 18.426931,-34.060913,701.04 18.426035,-34.056519,731.52 18.425755,-34.055237,731.52 18.425137,-34.050568,731.52 18.425081,-34.049377,762 18.424969,-34.044754,762 18.424988,-34.043697,792.48 18.425081,-34.039215,792.48 18.424633,-34.034729,792.48 18.423443,-34.030476,822.96 18.423157,-34.029499,822.96 18.421101,-34.025436,822.96 18.420296,-34.024704,822.96 18.41589,-34.023449,792.48 18.414768,-34.023102,792.48 18.411713,-34.020237,792.48 18.411684,-34.018982,792.48 18.41383,-34.014927,792.48 18.414688,-34.01395,792.48 18.418522,-34.01046,792.48 18.419476,-34.009689,792.48 18.423399,-34.006256,792.48 18.424358,-34.005432,792.48 18.430239,-33.999847,762 18.431078,-33.999023,792.48 18.436516,-33.993759,792.48 18.437576,-33.992954,792.48 18.442905,-33.989914,792.48 18.443972,-33.989456,792.48 18.450304,-33.986984,762 18.451818,-33.986526,762 18.458405,-33.984715,731.52 18.460394,-33.9841,731.52 18.469252,-33.979797,640.08 18.470592,-33.978851,609.6 18.475697,-33.974487,579.12 18.476772,-33.97345,548.64 18.480778,-33.968887,487.68 18.481636,-33.967537,487.68 18.483524,-33.962231,457.2 18.483753,-33.961067,457.2 18.484497,-33.95562,457.2 18.484552,-33.954483,457.2 18.484385,-33.949768,426.72 18.484272,-33.948532,426.72 18.483582,-33.943565,426.72 18.483353,-33.942261,396.24 18.482323,-33.937557,396.24 18.482037,-33.936489,396.24 18.480148,-33.932114,365.76 18.479565,-33.931137,365.76 18.47665,-33.926971,304.8 18.4758,-33.925827,304.8 18.472054,-33.921524,243.84 18.471212,-33.920654,243.84 18.467344,-33.91713,243.84 18.466473,-33.916378,243.84 18.462299,-33.912689,213.36 18.461403,-33.911911,213.36 18.456583,-33.906418,213.36 18.45591,-33.905502,182.88 18.45322,-33.901382,182.88 18.452715,-33.900421,152.4 18.449192,-33.896175,121.92 18.44799,-33.895847,121.92 18.443699,-33.896358,91.44 18.442234,-33.896713,60.96 18.439655,-33.897354,30.48 18.438606,-33.897617,30.48 18.43405,-33.89859,30.48 18.429678,-33.899643,0
        </coordinates>
      </LineString>
    </Placemark>
  </Document>
</kml>