<?xml version="1.0" encoding="UTF-8"?>
<kml xmlns="http://www.opengis.net/kml/2.2">
  <Document>
    <name>-/ZTHOT - Optimised</name>
    <description><![CDATA[Optimised flight path with 991 points (decimated from 4953 original points). Source format: Standard KML]]></description>
    
    <Style id="flightPath">
      <LineStyle>
        <color>ff0000ff</color>
        <width>3</width>
      </LineStyle>
    </Style>
    
    <Placemark>
      <name>Flight Path</name>
      <description><![CDATA[<div style="width:220px; text-align:center;">
<div style="width:210px; text-align:center;">
<div style=" background: #000; color: #fff; font-size: 14px; text-align:left; border: 1px solid #000; padding: 2px 6px; text-shadow: 0 1px 0 #000; box-shadow: 0 1px 3px rgba(0,0,0,0.6); background: -webkit-gradient(linear, left top, left bottom, color-stop(0%,#808080), color-stop(2%,#303030), color-stop(100%,#0c0c0c));"><span style="font-size: 14px; font-weight: bold;"><a href="javascript:void(0);" style="color: #fff; cursor: pointer;text-decoration: none;">-</a></span> / ZTHOT<br/>Cape Town Helicopters</div>

<div style="border-top: 1px solid #005c90; color: #fff; padding-bottom: 5px; box-shadow: 0 0 1px #9BE3F6 inset, 0 1px 0 #9BE3F6 inset, 0 -1px 3px rgba(0,0,0,0.4); background:rgba(43,114,173,1); background: -webkit-gradient(linear, left top, left bottom, color-stop(0%,rgba(92,184,229,1)), color-stop(100%,rgba(43,114,173,1)));">
<a style="text-decoration: none; color: rgb(255, 255, 255); font-size: 12px; width:77px; display: inline-block;" title=" Airport" href="javascript:void(0);/departures"><h3 style="padding: 0px; margin: 10px 0px 0px; font-size: 16px; ">?</h3></a>
<span style="background: url(https://www.flightradar24.com/static/images/userUI_sprite.png?14) no-repeat scroll 0 -464px rgba(0, 0, 0, 0); border: medium none; display: inline-block; height: 16px; width: 45px;"></span>
<a style="text-decoration: none; color: rgb(255, 255, 255); font-size: 12px; width:77px; display: inline-block;" title=" Airport" href="javascript:void(0);/arrivals"><h3 style="padding: 0px; margin: 10px 0px 0px; font-size: 16px;">?</h3></a>
<div style=" margin-top:10px;">
<div style="display: inline-block; font-size: 12px; padding: 0 5px;">
<div>
<span style="color: #c1eaff;" title="Actual Time of Departure">ATD </span>
<span title="2025-12-07 07:13">07:13</span> <span title="Coordinated Universal Time">UTC</span>
</div>
</div>
<div style="display: inline-block; font-size: 12px; padding: 0 5px;">
<div>
<span style="color: #c1eaff;" title="Estimated Time of Arrival">ETA </span>
<span title="2025-12-07 07:24">07:24</span> <span title="Coordinated Universal Time">UTC</span>
</div>
</div>
</div>
<br style="clear: both;"/>
</div>

<div style="display: block;">
<table style="border-collapse: collapse; width: 100%;">
<tr style="border-right: 1px solid #dadada; ">
<td style="background: none repeat scroll 0 0 #dadada; padding: 0; width: 31px;">
<span style="background: url(https://www.flightradar24.com/static/images/userUI_sprite.png?14) no-repeat scroll -208px -464px rgba(0, 0, 0, 0); height: 26px; margin: 8px 0 0 4px; width: 23px; display: block;"></span>
</td>
<td colspan="2" style="border-bottom: 1px solid #dadada; border-left: 1px solid #dadada; color: #666; line-height: 1.1em; padding: 3px 6px; vertical-align: top; font-size: 14px;">
Aircraft<span style="float: right; font-size: 12px;">(AS50)</span><br>
<span style="color: #333; font-size: 16px; font-weight: bold; line-height: 1.3em;">Airbus Helicopters H125</span>
</td>
</tr>
<tr style="border-right: 1px solid #dadada; ">
<td style="background: none repeat scroll 0 0 #dadada; padding: 0; width: 31px;">
<td colspan="2" style="border-bottom: 1px solid #dadada; border-left: 1px solid #dadada; color: #666; line-height: 1.1em; padding: 3px 6px; vertical-align: top; font-size: 14px;">
Registration<br>
<span style="color: #333; font-size: 16px; font-weight: bold; line-height: 1.3em;"><a href="https://www.flightradar24.com/reg/zt-hot" style="text-decoration: none; color: #333;">ZT-HOT</a></span>
</td>
</tr>
</table>
</div>

</div>
</div>]]></description>
      <styleUrl>#flightPath</styleUrl>
      <LineString>
        <extrude>1</extrude>
        <tessellate>1</tessellate>
        <altitudeMode>absolute</altitudeMode>
        <coordinates>
          18.427044,-33.900558,60.96 18.429005,-33.898178,91.44 18.430799,-33.895248,121.92 18.432484,-33.891983,182.88 18.434105,-33.888702,243.84 18.434772,-33.885094,274.32 18.432999,-33.881557,335.28 18.428764,-33.878765,365.76 18.42396,-33.877625,396.24 18.419083,-33.877441,457.2 18.413927,-33.877945,487.68 18.40877,-33.878906,518.16 18.403187,-33.88044,579.12 18.398399,-33.882156,609.6 18.393688,-33.884304,640.08 18.389151,-33.886688,670.56 18.384443,-33.889435,701.04 18.380014,-33.892365,731.52 18.375811,-33.895615,762 18.371719,-33.899094,792.48 18.367739,-33.902756,822.96 18.364105,-33.906464,853.44 18.360733,-33.910355,883.92 18.357426,-33.914841,914.4 18.354734,-33.919373,944.88 18.352604,-33.92429,944.88 18.350773,-33.929737,975.36 18.347683,-33.941608,944.88 18.343861,-33.95192,944.88 18.341045,-33.957111,944.88 18.341789,-33.96563,975.36 18.350201,-33.96172,883.92 18.354321,-33.95525,853.44 18.356697,-33.94986,822.96 18.35877,-33.944366,822.96 18.360676,-33.939835,792.48 18.363031,-33.934525,762 18.364712,-33.929306,731.52 18.366955,-33.923401,701.04 18.370262,-33.918411,670.56 18.374466,-33.913788,640.08 18.378811,-33.909115,640.08 18.382931,-33.904694,640.08 18.387337,-33.900318,609.6 18.392796,-33.89653,579.12 18.39924,-33.893692,548.64 18.405704,-33.891426,518.16 18.412342,-33.88961,518.16 18.418808,-33.888119,487.68 18.424856,-33.8871,457.2 18.430424,-33.887375,426.72 18.435516,-33.889378,396.24 18.438982,-33.891998,335.28 18.441124,-33.894779,304.8 18.44101,-33.897896,243.84 18.437412,-33.899872,182.88 18.433489,-33.90065,121.92 18.430424,-33.901016,91.44 18.427435,-33.901062,60.96 18.427492,-33.899872,60.96 18.429451,-33.897243,91.44 18.431396,-33.894218,152.4 18.433434,-33.890991,182.88 18.435562,-33.887238,243.84 18.435507,-33.882889,274.32 18.432541,-33.879322,335.28 18.428053,-33.877533,396.24 18.422951,-33.876801,457.2 18.418179,-33.876808,487.68 18.413372,-33.877228,548.64 18.408657,-33.877945,579.12 18.403473,-33.879089,640.08 18.398176,-33.88092,670.56 18.393244,-33.883301,701.04 18.388367,-33.886074,731.52 18.383331,-33.889332,762 18.378725,-33.892822,792.48 18.374519,-33.896358,822.96 18.36977,-33.900364,853.44 18.364769,-33.904953,853.44 18.360846,-33.909119,883.92 18.357468,-33.913445,914.4 18.354679,-33.918182,914.4 18.352261,-33.923779,914.4 18.350698,-33.929077,914.4 18.345966,-33.946404,914.4 18.3433,-33.952332,914.4 18.339712,-33.957458,914.4 18.338413,-33.970936,914.4 18.345165,-33.972565,914.4 18.350475,-33.970093,914.4 18.353748,-33.965305,914.4 18.355637,-33.960556,914.4 18.357145,-33.955307,883.92 18.358383,-33.950081,822.96 18.359756,-33.944962,792.48 18.361574,-33.938232,731.52 18.362732,-33.932529,701.04 18.364489,-33.927155,670.56 18.36731,-33.921871,640.08 18.370934,-33.916855,640.08 18.375378,-33.912003,640.08 18.379498,-33.907578,640.08 18.38377,-33.903122,609.6 18.388309,-33.8992,609.6 18.393467,-33.895844,579.12 18.39941,-33.893196,548.64 18.40535,-33.891129,518.16 18.41177,-33.889332,487.68 18.41795,-33.88784,457.2 18.424015,-33.886772,426.72 18.429958,-33.887009,426.72 18.434772,-33.888912,396.24 18.437862,-33.89138,335.28 18.439878,-33.894241,304.8 18.439693,-33.89743,243.84 18.436546,-33.898689,182.88 18.432705,-33.899094,121.92 18.42968,-33.899525,91.44 18.426987,-33.90033,60.96 18.427048,-33.90041,60.96 18.428331,-33.898361,91.44 18.430069,-33.895203,121.92 18.43214,-33.891613,152.4 18.434143,-33.888119,213.36 18.435001,-33.884026,243.84 18.432713,-33.880161,304.8 18.428221,-33.878128,335.28 18.422298,-33.877552,396.24 18.417795,-33.877762,457.2 18.413141,-33.878265,487.68 18.408566,-33.879135,548.64 18.403587,-33.88044,579.12 18.399124,-33.881977,640.08 18.394375,-33.884071,640.08 18.389431,-33.886642,670.56 18.384666,-33.889526,701.04 18.380239,-33.892593,731.52 18.376259,-33.895706,762 18.37228,-33.899048,792.48 18.368412,-33.902618,822.96 18.364769,-33.906281,853.44 18.36153,-33.91,853.44 18.358498,-33.914188,883.92 18.355694,-33.918751,914.4 18.353405,-33.9235,914.4 18.351574,-33.929783,914.4 18.350418,-33.936859,914.4 18.349285,-33.943611,914.4 18.347454,-33.948963,914.4 18.344366,-33.954575,914.4 18.339558,-33.965397,944.88 18.347912,-33.970333,914.4 18.352716,-33.966797,944.88 18.354734,-33.961716,914.4 18.356552,-33.955853,853.44 18.358154,-33.950043,822.96 18.361816,-33.936302,731.52 18.365536,-33.925316,701.04 18.368568,-33.919777,670.56 18.372231,-33.914886,640.08 18.376122,-33.910091,640.08 18.379847,-33.90564,609.6 18.385448,-33.89957,609.6 18.390497,-33.89566,609.6 18.396034,-33.892963,579.12 18.402672,-33.890915,548.64 18.409218,-33.889435,518.16 18.415375,-33.88826,487.68 18.42211,-33.887192,457.2 18.428192,-33.887005,426.72 18.432941,-33.888401,396.24 18.436293,-33.890808,335.28 18.438721,-33.893288,274.32 18.439579,-33.896034,243.84 18.437233,-33.898315,182.88 18.433769,-33.898727,121.92 18.428612,-33.899643,60.96 18.426861,-33.900707,0 18.428221,-33.89859,91.44 18.430014,-33.895935,121.92 18.43214,-33.892776,152.4 18.434372,-33.889236,213.36 18.435802,-33.885326,274.32 18.434385,-33.881424,304.8 18.430687,-33.878677,365.76 18.425922,-33.87735,396.24 18.421211,-33.877228,457.2 18.416506,-33.877853,518.16 18.411827,-33.87867,548.64 18.407705,-33.879547,609.6 18.402901,-33.880814,640.08 18.398232,-33.882477,670.56 18.393299,-33.884674,701.04 18.388538,-33.887142,731.52 18.384018,-33.889984,762 18.379555,-33.893009,792.48 18.375206,-33.896313,822.96 18.370991,-33.900009,853.44 18.36731,-33.903717,883.92 18.363762,-33.907719,914.4 18.36062,-33.911682,914.4 18.357525,-33.916378,944.88 18.355015,-33.921524,944.88 18.353054,-33.926788,944.88 18.350643,-33.935211,944.88 18.34734,-33.947056,944.88 18.344879,-33.952782,944.88 18.34013,-33.96088,944.88 18.328838,-33.980209,975.36 18.320766,-33.993164,975.36 18.317011,-33.998199,975.36 18.312807,-34.00296,975.36 18.307915,-34.007526,975.36 18.303335,-34.011887,975.36 18.298794,-34.016602,944.88 18.295038,-34.021317,944.88 18.292751,-34.027126,944.88 18.296047,-34.031891,944.88 18.302364,-34.032013,944.88 18.307686,-34.028942,944.88 18.312035,-34.025032,944.88 18.315331,-34.020584,944.88 18.318558,-34.015766,914.4 18.321819,-34.011112,914.4 18.325253,-34.005989,914.4 18.328726,-34.000946,914.4 18.332119,-33.996307,914.4 18.336353,-33.991653,914.4 18.34033,-33.987625,914.4 18.344421,-33.98262,914.4 18.347454,-33.977734,914.4 18.34997,-33.97261,914.4 18.352268,-33.967529,883.92 18.354721,-33.961113,853.44 18.356472,-33.955399,822.96 18.357706,-33.949997,822.96 18.359331,-33.944092,792.48 18.363144,-33.931961,762 18.365593,-33.926525,731.52 18.368467,-33.921432,701.04 18.37183,-33.91647,670.56 18.375549,-33.911583,670.56 18.379269,-33.907162,670.56 18.383154,-33.90303,670.56 18.387623,-33.898872,640.08 18.392601,-33.895615,609.6 18.398344,-33.893097,579.12 18.404173,-33.891312,548.64 18.410507,-33.889709,518.16 18.416977,-33.88826,457.2 18.422928,-33.887238,426.72 18.428612,-33.887283,396.24 18.433743,-33.889053,365.76 18.437061,-33.891518,335.28 18.439487,-33.894608,274.32 18.439522,-33.897709,243.84 18.436604,-33.899246,182.88 18.433041,-33.899185,121.92 18.430014,-33.899414,91.44 18.426973,-33.900948,0 18.428078,-33.898968,60.96 18.429966,-33.896313,121.92 18.431919,-33.893143,152.4 18.433937,-33.889938,213.36 18.43523,-33.88649,274.32 18.434372,-33.882999,304.8 18.431339,-33.879974,365.76 18.426933,-33.879879,426.72 18.425697,-33.882568,487.68 18.428478,-33.884769,518.16 18.432255,-33.883327,548.64 18.431358,-33.879959,579.12 18.427267,-33.878769,640.08 18.422335,-33.878311,640.08 18.417009,-33.878265,670.56 18.410912,-33.878716,670.56 18.404846,-33.879646,670.56 18.398838,-33.881371,640.08 18.392887,-33.884026,670.56 18.387909,-33.887051,670.56 18.383102,-33.890217,701.04 18.378557,-33.893372,731.52 18.374748,-33.8965,762 18.37071,-33.900192,792.48 18.367123,-33.9039,822.96 18.363535,-33.907837,853.44 18.359985,-33.911957,853.44 18.356781,-33.916237,883.92 18.353895,-33.920837,914.4 18.349689,-33.92395,944.88 18.344196,-33.924088,944.88 18.339958,-33.921265,975.36 18.34053,-33.917076,975.36 18.346046,-33.917542,975.36 18.347897,-33.922668,975.36 18.347626,-33.928387,944.88 18.347168,-33.93425,944.88 18.34671,-33.940353,944.88 18.344982,-33.949402,944.88 18.342964,-33.955215,914.4 18.338928,-33.97023,914.4 18.338013,-33.976524,914.4 18.337784,-33.982529,944.88 18.338585,-33.987698,914.4 18.340759,-33.993328,944.88 18.343468,-33.998474,944.88 18.346159,-34.003876,944.88 18.348345,-34.00914,914.4 18.349514,-34.014744,914.4 18.349915,-34.020748,914.4 18.349628,-34.026474,914.4 18.349857,-34.031734,944.88 18.35339,-34.036469,944.88 18.356037,-34.041138,944.88 18.352547,-34.046024,944.88 18.347797,-34.05003,914.4 18.343861,-34.054733,914.4 18.343693,-34.060501,914.4 18.344593,-34.066044,914.4 18.344021,-34.072189,853.44 18.342571,-34.078217,792.48 18.342684,-34.084259,762 18.34515,-34.089844,731.52 18.349802,-34.094513,701.04 18.355179,-34.097511,670.56 18.361349,-34.100052,670.56 18.367178,-34.10202,670.56 18.373177,-34.104034,640.08 18.385048,-34.108265,640.08 18.390541,-34.110546,640.08 18.395823,-34.113007,640.08 18.401426,-34.115524,640.08 18.406792,-34.117718,640.08 18.413141,-34.120422,640.08 18.418186,-34.122849,640.08 18.423904,-34.125092,640.08 18.430252,-34.126701,640.08 18.436571,-34.127472,640.08 18.443241,-34.127354,640.08 18.450108,-34.125816,640.08 18.45647,-34.123032,640.08 18.46241,-34.119579,609.6 18.467674,-34.115295,609.6 18.471437,-34.109756,579.12 18.473511,-34.103424,579.12 18.474072,-34.097168,548.64 18.474014,-34.09108,548.64 18.474083,-34.084572,518.16 18.474255,-34.066135,487.68 18.47477,-34.044815,487.68 18.475584,-34.02475,487.68 18.475742,-34.012417,518.16 18.475685,-34.006641,518.16 18.475685,-34.000824,518.16 18.476032,-33.994812,518.16 18.476715,-33.986065,487.68 18.478275,-33.974716,487.68 18.479677,-33.967163,457.2 18.480797,-33.961075,457.2 18.481695,-33.954666,426.72 18.481693,-33.948452,396.24 18.480461,-33.941666,365.76 18.478275,-33.935715,335.28 18.474655,-33.92955,335.28 18.470478,-33.924572,335.28 18.465786,-33.919964,335.28 18.461348,-33.915665,335.28 18.457031,-33.91127,304.8 18.454113,-33.907066,304.8 18.451939,-33.902367,274.32 18.448792,-33.898636,274.32 18.4445,-33.896545,243.84 18.440327,-33.896622,182.88 18.433489,-33.898636,121.92 18.427563,-33.900738,60.96 18.427492,-33.899826,91.44 18.429909,-33.897339,152.4 18.432083,-33.894592,213.36 18.434086,-33.89138,243.84 18.435675,-33.887558,304.8 18.435402,-33.883278,335.28 18.433376,-33.879227,396.24 18.430519,-33.875473,457.2 18.425961,-33.872757,487.68 18.421097,-33.871174,548.64 18.416,-33.870667,579.12 18.4109,-33.871078,640.08 18.40559,-33.872246,670.56 18.400841,-33.873642,701.04 18.395262,-33.875656,701.04 18.390026,-33.878345,701.04 18.384876,-33.881603,701.04 18.379959,-33.885086,701.04 18.375475,-33.888519,731.52 18.371201,-33.892403,762 18.367367,-33.896641,762 18.363815,-33.90097,792.48 18.360285,-33.905548,792.48 18.357296,-33.910233,792.48 18.354778,-33.915215,762 18.35146,-33.919964,731.52 18.346653,-33.92308,762 18.34116,-33.923126,762 18.337023,-33.920197,792.48 18.338255,-33.916443,792.48 18.342762,-33.9174,792.48 18.34425,-33.921963,762 18.343334,-33.927273,762 18.338127,-33.943192,792.48 18.338984,-33.953018,762 18.34734,-33.955574,701.04 18.352829,-33.952332,670.56 18.355072,-33.946518,670.56 18.356724,-33.940819,670.56 18.358042,-33.935211,670.56 18.360157,-33.929878,640.08 18.363367,-33.924545,640.08 18.366955,-33.919693,640.08 18.371046,-33.914795,640.08 18.375206,-33.910091,640.08 18.379511,-33.906006,609.6 18.384304,-33.901669,609.6 18.389053,-33.897617,579.12 18.394028,-33.893967,548.64 18.399582,-33.89045,548.64 18.405247,-33.88747,518.16 18.411573,-33.885086,487.68 18.418131,-33.883759,426.72 18.424801,-33.883621,396.24 18.43063,-33.884903,365.76 18.436146,-33.887375,335.28 18.440777,-33.890259,274.32 18.444195,-33.893326,243.84 18.444614,-33.897243,213.36 18.440832,-33.899185,182.88 18.436718,-33.899105,152.4 18.432827,-33.899059,121.92 18.427219,-33.900688,60.96 18.428478,-33.898827,91.44 18.430742,-33.896164,152.4 18.43276,-33.893234,213.36 18.434666,-33.889938,274.32 18.435974,-33.886024,304.8 18.435287,-33.881603,335.28 18.432484,-33.876995,396.24 18.428724,-33.873413,426.72 18.424416,-33.871174,518.16 18.419924,-33.870255,548.64 18.414974,-33.87085,579.12 18.408852,-33.872711,609.6 18.403931,-33.874435,640.08 18.398624,-33.876709,640.08 18.393805,-33.879501,640.08 18.388996,-33.882626,670.56 18.384418,-33.885792,670.56 18.379955,-33.889236,701.04 18.375263,-33.893379,731.52 18.371429,-33.897198,731.52 18.367023,-33.901806,762 18.363247,-33.906181,792.48 18.360271,-33.910744,792.48 18.357651,-33.915756,792.48 18.355522,-33.920475,792.48 18.353054,-33.925598,792.48 18.348999,-33.934441,762 18.346939,-33.939934,792.48 18.344757,-33.946381,792.48 18.341619,-33.959198,792.48 18.354321,-33.962559,701.04 18.356895,-33.954086,670.56 18.357239,-33.948032,670.56 18.357594,-33.942078,640.08 18.358669,-33.936302,640.08 18.360615,-33.930576,640.08 18.363087,-33.925186,640.08 18.365946,-33.920197,640.08 18.369589,-33.915115,640.08 18.3734,-33.910583,609.6 18.377548,-33.906189,609.6 18.382015,-33.901852,609.6 18.386909,-33.897491,579.12 18.392235,-33.893463,548.64 18.398609,-33.889702,518.16 18.405127,-33.886963,487.68 18.412399,-33.884861,457.2 18.418865,-33.883606,426.72 18.425274,-33.883141,396.24 18.431583,-33.884125,365.76 18.436741,-33.886276,335.28 18.441168,-33.889481,304.8 18.443127,-33.893566,274.32 18.441296,-33.897385,213.36 18.436775,-33.898457,182.88 18.430138,-33.899292,121.92 18.427099,-33.900787,60.96 18.428164,-33.899185,60.96 18.42865,-33.89864,60.96 18.430023,-33.896641,91.44 18.430462,-33.895844,121.92 18.43174,-33.893333,152.4 18.432144,-33.892593,182.88 18.433489,-33.889984,213.36 18.433857,-33.889286,213.36 18.434772,-33.886539,274.32 18.434834,-33.885773,274.32 18.433914,-33.882812,304.8 18.433434,-33.882111,304.8 18.430574,-33.879639,335.28 18.429678,-33.879181,365.76 18.425922,-33.877945,396.24 18.424856,-33.877762,396.24 18.420933,-33.877441,426.72 18.420067,-33.877415,457.2 18.416,-33.87767,487.68 18.414768,-33.877808,487.68 18.410732,-33.878494,518.16 18.409595,-33.878716,518.16 18.405304,-33.879787,548.64 18.404217,-33.880112,548.64 18.400211,-33.881462,579.12 18.399298,-33.88179,609.6 18.395653,-33.883392,609.6 18.394661,-33.883839,609.6 18.390945,-33.885727,640.08 18.390141,-33.886166,670.56 18.386349,-33.88829,670.56 18.385284,-33.888931,701.04 18.381844,-33.891098,731.52 18.381023,-33.891678,731.52 18.37738,-33.89436,762 18.376808,-33.894825,762 18.3734,-33.897629,792.48 18.372503,-33.898453,792.48 18.369484,-33.901108,822.96 18.36858,-33.901932,822.96 18.365498,-33.904953,853.44 18.364769,-33.905731,853.44 18.362103,-33.908791,883.92 18.361237,-33.90976,883.92 18.358784,-33.912888,914.4 18.357986,-33.913925,914.4 18.355694,-33.917587,914.4 18.355236,-33.918381,914.4 18.353502,-33.922119,944.88 18.353062,-33.923126,944.88 18.351402,-33.927597,975.36 18.351002,-33.928852,975.36 18.349628,-33.93388,944.88 18.348457,-33.938828,944.88 18.344822,-33.949757,944.88 18.344421,-33.950733,944.88 18.34219,-33.955063,944.88 18.341675,-33.956039,944.88 18.339096,-33.965057,975.36 18.34013,-33.965397,975.36 18.347168,-33.964325,883.92 18.348738,-33.963181,883.92 18.353004,-33.957623,853.44 18.353691,-33.956413,853.44 18.355743,-33.95224,822.96 18.356192,-33.95105,822.96 18.357929,-33.946609,792.48 18.358435,-33.945374,762 18.359756,-33.941887,822.96 18.360172,-33.940887,792.48 18.362045,-33.936768,762 18.362583,-33.935577,762 18.364105,-33.931229,731.52 18.364431,-33.930267,731.52 18.365993,-33.92564,701.04 18.366394,-33.924591,701.04 18.368912,-33.920147,670.56 18.369598,-33.919266,670.56 18.372896,-33.915527,640.08 18.37368,-33.914658,640.08 18.3771,-33.91095,640.08 18.378124,-33.909908,640.08 18.381361,-33.906418,640.08 18.382072,-33.905624,640.08 18.385506,-33.902084,609.6 18.386307,-33.901249,609.6 18.390369,-33.898037,609.6 18.391394,-33.897354,609.6 18.396551,-33.894791,579.12 18.398037,-33.894173,548.64 18.403276,-33.892227,548.64 18.404446,-33.8918,548.64 18.409939,-33.890217,518.16 18.411198,-33.889889,518.16 18.416405,-33.888634,487.68 18.417721,-33.888351,487.68 18.422413,-33.887421,457.2 18.4235,-33.887238,457.2 18.428331,-33.887054,426.72 18.429451,-33.887188,426.72 18.433628,-33.888401,396.24 18.434443,-33.888794,396.24 18.437862,-33.891006,365.76 18.438478,-33.891495,365.76 18.440439,-33.8936,335.28 18.440781,-33.894077,304.8 18.441505,-33.896667,274.32 18.441353,-33.897243,243.84 18.439064,-33.899338,213.36 18.43832,-33.89957,182.88 18.435003,-33.900375,152.4 18.43433,-33.900513,152.4 18.431396,-33.900921,91.44 18.430799,-33.90097,91.44 18.428164,-33.901199,60.96 18.427773,-33.901199,60.96 18.427048,-33.900688,60.96 18.427277,-33.900177,60.96 18.428707,-33.89827,91.44 18.42905,-33.897758,91.44 18.430519,-33.895523,121.92 18.430996,-33.894779,121.92 18.432655,-33.892265,182.88 18.432999,-33.891659,182.88 18.434778,-33.88884,213.36 18.435287,-33.887936,213.36 18.4359,-33.884399,274.32 18.435732,-33.883621,274.32 18.433971,-33.880627,304.8 18.433399,-33.88002,335.28 18.429901,-33.878036,365.76 18.428707,-33.877693,365.76 18.425102,-33.876995,426.72 18.423904,-33.876846,426.72 18.420124,-33.876762,487.68 18.419308,-33.876755,487.68 18.415089,-33.877041,518.16 18.41423,-33.877132,548.64 18.410568,-33.877598,579.12 18.409424,-33.877785,579.12 18.405407,-33.878586,609.6 18.404398,-33.87886,609.6 18.400362,-33.880051,640.08 18.399296,-33.880486,670.56 18.395233,-33.882256,670.56 18.39414,-33.882843,670.56 18.390255,-33.884956,701.04 18.389151,-33.885635,701.04 18.385334,-33.887981,731.52 18.38419,-33.888725,731.52 18.380407,-33.891495,762 18.379498,-33.892216,792.48 18.376064,-33.895058,792.48 18.375307,-33.89566,822.96 18.371607,-33.898773,822.96 18.370823,-33.899506,822.96 18.366562,-33.903259,853.44 18.36561,-33.904175,853.44 18.362526,-33.907242,883.92 18.361702,-33.908138,883.92 18.358828,-33.911545,883.92 18.35821,-33.912323,914.4 18.355808,-33.916145,914.4 18.355293,-33.91703,914.4 18.353233,-33.92131,914.4 18.352776,-33.922382,914.4 18.351259,-33.927109,914.4 18.350924,-33.928253,914.4 18.348738,-33.937134,914.4 18.347168,-33.942818,914.4 18.344421,-33.950089,914.4 18.343861,-33.951279,914.4 18.341331,-33.955387,914.4 18.340473,-33.956551,914.4 18.339321,-33.95787,914.4 18.337269,-33.969959,914.4 18.342133,-33.972473,914.4 18.343748,-33.972656,914.4 18.34857,-33.97142,914.4 18.349457,-33.97089,914.4 18.352716,-33.9673,914.4 18.353176,-33.966423,914.4 18.354847,-33.962677,914.4 18.355295,-33.961487,914.4 18.356585,-33.957321,883.92 18.356865,-33.956268,883.92 18.357811,-33.952457,853.44 18.358154,-33.951057,853.44 18.359163,-33.946884,822.96 18.359413,-33.945984,792.48 18.361073,-33.940353,762 18.361359,-33.93914,762 18.362246,-33.934845,731.52 18.362471,-33.933792,731.52 18.363705,-33.92918,701.04 18.364105,-33.928154,670.56 18.366108,-33.923874,640.08 18.36668,-33.922943,670.56 18.369421,-33.918777,640.08 18.370113,-33.917866,640.08 18.373289,-33.9142,640.08 18.37429,-33.91312,640.08 18.377895,-33.909256,609.6 18.378468,-33.908649,609.6 18.381977,-33.904999,640.08 18.382759,-33.904133,640.08 18.386536,-33.900597,609.6 18.387413,-33.899918,609.6 18.391449,-33.897034,579.12 18.392458,-33.896439,579.12 18.39695,-33.894173,579.12 18.398119,-33.893692,548.64 18.402716,-33.891998,518.16 18.403893,-33.891586,518.16 18.409195,-33.89003,487.68 18.410397,-33.889702,487.68 18.415546,-33.888401,457.2 18.416748,-33.888073,457.2 18.421783,-33.887096,457.2 18.422756,-33.886909,457.2 18.42766,-33.886688,426.72 18.428707,-33.886818,426.72 18.433096,-33.888016,396.24 18.433825,-33.888382,396.24 18.436718,-33.890354,365.76 18.437233,-33.89082,365.76 18.439262,-33.893143,304.8 18.439655,-33.893784,304.8 18.440266,-33.896313,274.32 18.440159,-33.896713,243.84 18.438034,-33.898407,213.36 18.437347,-33.898594,182.88 18.43433,-33.898911,152.4 18.433376,-33.899002,121.92 18.430742,-33.899323,91.44 18.430252,-33.899433,91.44 18.427435,-33.900055,60.96 18.427212,-33.900146,60.96 18.426918,-33.901028,0 18.426973,-33.900764,0 18.427715,-33.899323,60.96 18.42802,-33.898781,60.96 18.429398,-33.896393,91.44 18.42979,-33.895798,121.92 18.43119,-33.893234,152.4 18.431683,-33.892448,152.4 18.433285,-33.88961,182.88 18.433685,-33.888912,213.36 18.434946,-33.885864,243.84 18.435059,-33.884949,243.84 18.433937,-33.88147,274.32 18.433399,-33.880814,304.8 18.430138,-33.878716,335.28 18.429337,-33.878391,335.28 18.424873,-33.877647,365.76 18.423386,-33.877598,396.24 18.419552,-33.877647,426.72 18.418524,-33.877716,457.2 18.414824,-33.878082,487.68 18.413982,-33.878174,487.68 18.410168,-33.878765,518.16 18.40933,-33.878952,548.64 18.405575,-33.879868,579.12 18.404566,-33.880142,579.12 18.400898,-33.881279,609.6 18.399857,-33.881699,609.6 18.396149,-33.883232,640.08 18.395176,-33.883698,640.08 18.391171,-33.8857,670.56 18.390385,-33.886093,670.56 18.386765,-33.888214,670.56 18.385675,-33.888885,670.56 18.38209,-33.89122,701.04 18.381081,-33.891953,701.04 18.377829,-33.89447,731.52 18.37682,-33.895248,731.52 18.373737,-33.897812,762 18.372952,-33.898453,792.48 18.369869,-33.901245,792.48 18.369141,-33.901932,822.96 18.366226,-33.90477,822.96 18.36544,-33.905594,822.96 18.362675,-33.908649,853.44 18.36216,-33.90921,853.44 18.359699,-33.912422,883.92 18.359051,-33.913376,883.92 18.35692,-33.916626,883.92 18.356361,-33.917633,914.4 18.354286,-33.921387,914.4 18.353806,-33.922478,914.4 18.352261,-33.926712,914.4 18.351765,-33.928848,914.4 18.350698,-33.934937,914.4 18.350531,-33.936264,914.4 18.3498,-33.941097,914.4 18.349522,-33.942535,914.4 18.34837,-33.946682,914.4 18.347841,-33.947983,914.4 18.346024,-33.951992,914.4 18.344982,-33.953705,944.88 18.342123,-33.957779,944.88 18.339558,-33.962696,914.4 18.343748,-33.970047,914.4 18.346596,-33.970516,914.4 18.350979,-33.968765,944.88 18.351974,-33.967819,944.88 18.354063,-33.963913,914.4 18.354435,-33.962791,914.4 18.355801,-33.958374,883.92 18.356152,-33.957111,853.44 18.357481,-33.952652,853.44 18.357874,-33.951279,822.96 18.359699,-33.944309,792.48 18.360508,-33.940979,762 18.36462,-33.927505,701.04 18.364964,-33.926525,701.04 18.36729,-33.921844,670.56 18.367825,-33.920895,670.56 18.370766,-33.916809,640.08 18.371429,-33.915913,640.08 18.374634,-33.911861,640.08 18.375206,-33.911163,640.08 18.378277,-33.907471,640.08 18.379173,-33.906418,609.6 18.38377,-33.901291,640.08 18.384533,-33.900455,640.08 18.388309,-33.897152,609.6 18.389225,-33.896454,609.6 18.393692,-33.893967,579.12 18.395037,-33.893372,579.12 18.400211,-33.891567,548.64 18.40147,-33.891193,548.64 18.406277,-33.890076,518.16 18.407993,-33.889656,518.16 18.412971,-33.888725,487.68 18.41423,-33.888493,487.68 18.419308,-33.887604,487.68 18.420822,-33.887375,457.2 18.425642,-33.886871,457.2 18.426931,-33.886871,426.72 18.431135,-33.88765,396.24 18.432198,-33.888073,396.24 18.435059,-33.889801,365.76 18.435574,-33.890263,365.76 18.437748,-33.89217,304.8 18.438253,-33.892731,304.8 18.439543,-33.894882,243.84 18.439655,-33.895569,243.84 18.438534,-33.897675,213.36 18.438198,-33.897903,213.36 18.435226,-33.898636,152.4 18.434429,-33.898689,152.4 18.431854,-33.899014,121.92 18.42979,-33.899368,91.44 18.427044,-33.900284,60.96 18.426819,-33.900505,0 18.427603,-33.899506,60.96 18.427883,-33.899094,60.96 18.42923,-33.897079,91.44 18.429623,-33.8965,121.92 18.431396,-33.893986,152.4 18.43174,-33.893379,152.4 18.433489,-33.890762,182.88 18.433937,-33.89003,213.36 18.435507,-33.886963,243.84 18.435688,-33.886307,243.84 18.435345,-33.883045,304.8 18.434834,-33.882111,304.8 18.432257,-33.879501,335.28 18.431454,-33.879089,335.28 18.427828,-33.877716,396.24 18.426931,-33.877487,396.24 18.422895,-33.877167,426.72 18.42211,-33.877167,457.2 18.41835,-33.877506,487.68 18.417402,-33.87767,487.68 18.413715,-33.878345,548.64 18.412806,-33.878494,548.64 18.409163,-33.879227,579.12 18.408279,-33.879414,609.6 18.404846,-33.880234,640.08 18.403816,-33.880531,640.08 18.400211,-33.881744,670.56 18.398905,-33.882202,670.56 18.395037,-33.88385,701.04 18.394196,-33.884262,701.04 18.39044,-33.886093,731.52 18.389601,-33.886551,731.52 18.385845,-33.888794,762 18.384991,-33.889332,762 18.381416,-33.891724,792.48 18.380413,-33.892448,792.48 18.376932,-33.894928,822.96 18.375978,-33.895706,822.96 18.372896,-33.898315,822.96 18.372116,-33.899014,853.44 18.368797,-33.90218,883.92 18.368019,-33.902985,883.92 18.365192,-33.906044,883.92 18.364601,-33.906784,883.92 18.361816,-33.910141,914.4 18.361349,-33.910721,914.4 18.358841,-33.914284,944.88 18.358097,-33.915401,944.88 18.355865,-33.91959,944.88 18.355408,-33.920567,944.88 18.353783,-33.924728,944.88 18.353405,-33.925781,944.88 18.352032,-33.930202,944.88 18.351933,-33.930496,944.88 18.347952,-33.945328,944.88 18.347616,-33.946335,944.88 18.345852,-33.950687,944.88 18.345318,-33.951874,944.88 18.343187,-33.955902,944.88 18.342516,-33.957047,944.88 18.332748,-33.972797,944.88 18.330288,-33.977501,975.36 18.323479,-33.98914,975.36 18.321362,-33.992306,975.36 18.318729,-33.995983,975.36 18.317871,-33.997101,975.36 18.314434,-34.001312,975.36 18.313593,-34.002136,975.36 18.30995,-34.005615,975.36 18.308887,-34.006641,975.36 18.305168,-34.010086,975.36 18.304119,-34.011108,975.36 18.300591,-34.014648,944.88 18.299847,-34.015488,944.88 18.296471,-34.019352,944.88 18.295612,-34.02042,944.88 18.293152,-34.024704,944.88 18.292797,-34.026077,944.88 18.294142,-34.030472,944.88 18.295208,-34.031387,944.88 18.300083,-34.032532,944.88 18.301317,-34.032349,944.88 18.305626,-34.03043,944.88 18.306599,-34.029732,944.88 18.310318,-34.026752,944.88 18.311291,-34.025822,944.88 18.314096,-34.022461,944.88 18.314713,-34.021591,944.88 18.317181,-34.017792,944.88 18.317928,-34.016605,914.4 18.32056,-34.012974,914.4 18.321159,-34.012024,914.4 18.323906,-34.00795,914.4 18.32468,-34.006874,914.4 18.327269,-34.003006,914.4 18.328054,-34.001862,914.4 18.330633,-33.998291,914.4 18.33149,-33.997147,914.4 18.334465,-33.993561,914.4 18.335438,-33.992584,914.4 18.338699,-33.989277,914.4 18.339558,-33.988441,914.4 18.342991,-33.984577,914.4 18.34362,-33.983784,914.4 18.346214,-33.979935,914.4 18.346882,-33.978806,914.4 18.348961,-33.974762,914.4 18.349522,-33.973526,914.4 18.351402,-33.969448,914.4 18.351803,-33.968472,883.92 18.354034,-33.963161,883.92 18.354399,-33.962082,853.44 18.355808,-33.957809,822.96 18.356152,-33.956459,822.96 18.357239,-33.951942,822.96 18.357468,-33.950966,822.96 18.358658,-33.946243,822.96 18.358898,-33.945518,822.96 18.360329,-33.940678,792.48 18.361702,-33.936302,762 18.364506,-33.928669,731.52 18.365078,-33.927505,731.52 18.36729,-33.923401,701.04 18.367851,-33.92244,701.04 18.370543,-33.918274,701.04 18.371046,-33.917587,701.04 18.373947,-33.913631,670.56 18.374634,-33.912746,670.56 18.377666,-33.908978,670.56 18.378525,-33.907951,640.08 18.381615,-33.904552,670.56 18.382359,-33.903809,670.56 18.385735,-33.900505,640.08 18.386684,-33.899689,640.08 18.390369,-33.896965,640.08 18.391562,-33.89621,609.6 18.396263,-33.893894,579.12 18.39711,-33.893555,579.12 18.401875,-33.891998,548.64 18.403015,-33.891659,548.64 18.407986,-33.890305,518.16 18.409424,-33.889984,518.16 18.41432,-33.888794,487.68 18.41544,-33.888565,487.68 18.420525,-33.887562,426.72 18.421829,-33.887375,426.72 18.426483,-33.887054,426.72 18.427677,-33.887142,396.24 18.431976,-33.888199,365.76 18.43276,-33.888565,365.76 18.435955,-33.890533,335.28 18.436661,-33.891098,335.28 18.438721,-33.893333,304.8 18.439039,-33.893875,304.8 18.439936,-33.896255,243.84 18.439878,-33.896896,243.84 18.438034,-33.898922,182.88 18.437244,-33.899139,182.88 18.43433,-33.899231,152.4 18.433628,-33.8992,121.92 18.431303,-33.899231,91.44 18.430742,-33.899323,91.44 18.427155,-33.90033,60.96 18.427099,-33.900742,60.96 18.427435,-33.899826,60.96 18.427773,-33.899414,60.96 18.429279,-33.897339,91.44 18.429623,-33.896824,91.44 18.43111,-33.894497,152.4 18.431528,-33.893784,152.4 18.433113,-33.891285,213.36 18.433489,-33.890671,213.36 18.43483,-33.88826,243.84 18.435116,-33.887329,274.32 18.435003,-33.884445,274.32 18.434658,-33.883606,304.8 18.432873,-33.881012,335.28 18.432032,-33.880325,365.76 18.428822,-33.879414,396.24 18.428053,-33.879501,396.24 18.425642,-33.881378,457.2 18.425585,-33.881973,457.2 18.426987,-33.884216,487.68 18.427849,-33.884628,518.16 18.431135,-33.884399,548.64 18.431751,-33.883942,548.64 18.432426,-33.881138,579.12 18.431911,-33.88044,579.12 18.428879,-33.879044,609.6 18.428135,-33.878902,609.6 18.424473,-33.878437,640.08 18.423231,-33.878357,640.08 18.419083,-33.87822,670.56 18.417835,-33.87825,670.56 18.413258,-33.878483,670.56 18.412245,-33.878586,670.56 18.407593,-33.879181,670.56 18.406162,-33.879414,670.56 18.401127,-33.880627,670.56 18.399969,-33.880966,640.08 18.395462,-33.882721,640.08 18.393974,-33.883465,670.56 18.389969,-33.885746,670.56 18.38887,-33.886414,670.56 18.384779,-33.889114,701.04 18.383938,-33.889664,701.04 18.380241,-33.89217,731.52 18.379511,-33.892685,731.52 18.376316,-33.895157,762 18.375418,-33.895889,762 18.372391,-33.898636,792.48 18.371372,-33.899525,792.48 18.368568,-33.902367,822.96 18.367796,-33.903214,822.96 18.364792,-33.906368,822.96 18.364105,-33.907162,853.44 18.36153,-33.910141,853.44 18.360786,-33.911026,853.44 18.358212,-33.914284,883.92 18.357353,-33.915493,883.92 18.35495,-33.91917,914.4 18.354549,-33.919868,914.4 18.351631,-33.92308,914.4 18.350756,-33.923538,944.88 18.346539,-33.924431,944.88 18.345165,-33.924339,944.88 18.341217,-33.922661,975.36 18.34053,-33.922012,975.36 18.339432,-33.918411,944.88 18.339825,-33.917725,975.36 18.344078,-33.916519,975.36 18.345222,-33.916935,975.36 18.347729,-33.920563,975.36 18.347841,-33.921616,975.36 18.347841,-33.926147,944.88 18.347729,-33.927109,975.36 18.34734,-33.932064,944.88 18.347281,-33.933197,944.88 18.346888,-33.938049,944.88 18.346825,-33.939281,944.88 18.34568,-33.946823,944.88 18.345337,-33.948128,944.88 18.343849,-33.952736,914.4 18.343412,-33.954025,914.4 18.340244,-33.964607,914.4 18.339544,-33.967484,914.4 18.338255,-33.974442,914.4 18.338184,-33.975452,914.4 18.337784,-33.980015,944.88 18.337784,-33.981457,944.88 18.338127,-33.985649,944.88 18.338312,-33.98671,944.88 18.339672,-33.99091,914.4 18.340302,-33.992397,944.88 18.342348,-33.99646,944.88 18.342964,-33.997559,944.88 18.34515,-34.00177,944.88 18.345623,-34.002777,944.88 18.347454,-34.006924,914.4 18.347969,-34.008224,914.4 18.349285,-34.01265,914.4 18.3494,-34.013718,914.4 18.349802,-34.018204,914.4 18.349915,-34.019489,914.4 18.349802,-34.024017,914.4 18.349743,-34.025265,914.4 18.349571,-34.029732,944.88 18.349689,-34.030792,944.88 18.351631,-34.03476,944.88 18.352493,-34.035645,944.88 18.355522,-34.038948,944.88 18.35598,-34.040161,944.88 18.354492,-34.044209,944.88 18.353634,-34.045094,944.88 18.349802,-34.048233,914.4 18.348738,-34.049103,914.4 18.345165,-34.052681,914.4 18.344479,-34.053616,914.4 18.343245,-34.058167,914.4 18.343468,-34.059448,914.4 18.344309,-34.063889,914.4 18.344421,-34.064713,914.4 18.344477,-34.069519,853.44 18.344254,-34.070938,853.44 18.343163,-34.075588,792.48 18.342819,-34.076935,792.48 18.342361,-34.082012,762 18.342459,-34.083069,762 18.343964,-34.087875,731.52 18.344536,-34.088902,731.52 18.34774,-34.092857,701.04 18.348827,-34.093788,701.04 18.353004,-34.096394,670.56 18.354174,-34.097031,701.04 18.358784,-34.099094,670.56 18.359985,-34.09956,670.56 18.364937,-34.101242,670.56 18.366051,-34.101608,670.56 18.370972,-34.103287,640.08 18.372112,-34.103668,640.08 18.380299,-34.106449,640.08 18.383657,-34.107742,640.08 18.388254,-34.109573,640.08 18.389431,-34.110077,640.08 18.393517,-34.111897,640.08 18.394547,-34.112408,640.08 18.399239,-34.114552,640.08 18.40044,-34.115063,640.08 18.404566,-34.116806,640.08 18.40559,-34.117252,640.08 18.411013,-34.119461,640.08 18.411964,-34.119919,640.08 18.416225,-34.121933,640.08 18.417263,-34.122417,640.08 18.421555,-34.124233,640.08 18.422642,-34.124653,640.08 18.427563,-34.126141,640.08 18.428782,-34.126373,640.08 18.433769,-34.127197,640.08 18.435173,-34.127354,640.08 18.440384,-34.127563,640.08 18.441868,-34.127491,640.08 18.447502,-34.126556,640.08 18.448734,-34.126236,640.08 18.453827,-34.124374,640.08 18.455126,-34.123764,640.08 18.459946,-34.121109,640.08 18.461012,-34.120468,609.6 18.465664,-34.117218,609.6 18.46653,-34.116413,609.6 18.470203,-34.112045,579.12 18.470877,-34.110809,579.12 18.472939,-34.105846,579.12 18.47323,-34.104721,579.12 18.473959,-34.099731,579.12 18.474026,-34.098396,548.64 18.474072,-34.09346,548.64 18.474026,-34.092251,548.64 18.474026,-34.087273,548.64 18.474026,-34.085735,518.16 18.474127,-34.074463,518.16 18.474197,-34.070698,518.16 18.474483,-34.053566,487.68 18.474598,-34.048866,487.68 18.475416,-34.032944,487.68 18.475513,-34.028103,487.68 18.475685,-34.014744,487.68 18.475685,-34.013626,487.68 18.475754,-34.008865,487.68 18.475685,-34.007526,518.16 18.475641,-34.003006,518.16 18.475641,-34.001816,518.16 18.475922,-33.997238,518.16 18.475971,-33.99612,518.16 18.476425,-33.988632,487.68 18.476543,-33.987461,487.68 18.477917,-33.977127,487.68 18.47805,-33.976089,487.68 18.479176,-33.969913,487.68 18.479462,-33.968376,487.68 18.480349,-33.963547,457.2 18.480574,-33.962402,457.2 18.481415,-33.957047,426.72 18.481579,-33.955807,426.72 18.481808,-33.950825,396.24 18.48175,-33.949585,396.24 18.481121,-33.944309,365.76 18.480778,-33.942867,365.76 18.479233,-33.938023,335.28 18.478836,-33.936951,335.28 18.476257,-33.931961,335.28 18.475641,-33.930954,335.28 18.472366,-33.926666,335.28 18.471279,-33.925457,335.28 18.467793,-33.921844,335.28 18.466953,-33.921066,335.28 18.462917,-33.917175,335.28 18.462021,-33.916306,304.8 18.458576,-33.912838,335.28 18.457815,-33.912048,335.28 18.454958,-33.908661,304.8 18.454399,-33.907719,304.8 18.452854,-33.904133,304.8 18.452396,-33.903156,304.8 18.450136,-33.900009,274.32 18.449478,-33.899292,274.32 18.446493,-33.897217,243.84 18.445415,-33.896824,243.84 18.441729,-33.896439,213.36 18.440781,-33.896545,213.36 18.437302,-33.897446,152.4 18.436403,-33.89772,152.4 18.429966,-33.899899,91.44 18.427883,-33.900604,60.96 18.426931,-33.900742,60.96 18.427267,-33.900101,60.96 18.429005,-33.898315,121.92 18.429451,-33.89785,121.92 18.431282,-33.89566,182.88 18.431683,-33.895149,182.88 18.433266,-33.892776,243.84 18.433743,-33.891983,243.84 18.435173,-33.889145,274.32 18.435452,-33.888474,304.8 18.435787,-33.88504,335.28 18.435688,-33.884258,335.28 18.43433,-33.880875,365.76 18.433937,-33.880234,365.76 18.431864,-33.876984,426.72 18.431168,-33.876156,426.72 18.427883,-33.873642,487.68 18.426991,-33.873222,487.68 18.422871,-33.871593,518.16 18.422012,-33.871361,518.16 18.418007,-33.870708,579.12 18.416977,-33.870663,579.12 18.413031,-33.870804,609.6 18.411741,-33.870941,609.6 18.407818,-33.871674,670.56 18.406677,-33.871922,670.56 18.402557,-33.873131,701.04 18.401585,-33.873409,701.04 18.397615,-33.874741,701.04 18.396378,-33.875225,701.04 18.392143,-33.877182,701.04 18.391056,-33.877739,701.04 18.387051,-33.880161,701.04 18.385849,-33.880951,701.04 18.381729,-33.883793,701.04 18.380871,-33.884441,701.04 18.377323,-33.887096,731.52 18.37635,-33.887886,731.52 18.373089,-33.890541,762 18.372059,-33.891472,762 18.368969,-33.894779,762 18.368244,-33.895569,762 18.365217,-33.899277,792.48 18.364431,-33.900192,792.48 18.361742,-33.90358,792.48 18.360901,-33.904648,792.48 18.358326,-33.908463,792.48 18.357697,-33.909534,792.48 18.355751,-33.913166,792.48 18.355295,-33.914108,792.48 18.352997,-33.918182,762 18.352318,-33.919033,762 18.348598,-33.922245,731.52 18.347672,-33.922714,731.52 18.343163,-33.923454,762 18.342133,-33.923313,762 18.338367,-33.921799,762 18.337555,-33.921032,762 18.33691,-33.917725,792.48 18.337526,-33.916901,792.48 18.341002,-33.916397,792.48 18.341843,-33.916763,792.48 18.344078,-33.919868,762 18.34425,-33.921078,762 18.343918,-33.924774,762 18.343678,-33.92606,762 18.339993,-33.937042,792.48 18.339558,-33.938351,792.48 18.337383,-33.950733,762 18.337919,-33.951782,762 18.342247,-33.955017,731.52 18.343132,-33.955307,731.52 18.351204,-33.954025,701.04 18.352146,-33.953247,670.56 18.354399,-33.948944,670.56 18.354778,-33.947567,670.56 18.356081,-33.94313,670.56 18.356438,-33.941841,670.56 18.357468,-33.93779,670.56 18.357761,-33.936539,670.56 18.359241,-33.931831,640.08 18.359724,-33.930817,640.08 18.362078,-33.926514,640.08 18.362694,-33.925507,640.08 18.365498,-33.921616,640.08 18.366222,-33.920662,640.08 18.369308,-33.916855,640.08 18.370205,-33.91571,640.08 18.373432,-33.912003,640.08 18.374353,-33.91095,640.08 18.377781,-33.907627,609.6 18.378614,-33.906784,609.6 18.382416,-33.903343,609.6 18.383331,-33.902504,609.6 18.386879,-33.899433,609.6 18.387974,-33.898499,609.6 18.391914,-33.895477,579.12 18.393059,-33.894638,548.64 18.39739,-33.891769,548.64 18.398344,-33.89122,548.64 18.402941,-33.888565,518.16 18.403931,-33.888073,518.16 18.409163,-33.885864,487.68 18.410339,-33.885422,487.68 18.415604,-33.884117,457.2 18.416805,-33.88393,457.2 18.42207,-33.883511,426.72 18.423399,-33.88353,396.24 18.428249,-33.884163,365.76 18.429623,-33.884583,365.76 18.433937,-33.886276,335.28 18.434891,-33.886734,335.28 18.438778,-33.888958,304.8 18.439693,-33.889519,304.8 18.442905,-33.891907,274.32 18.443691,-33.892685,243.84 18.445072,-33.895569,243.84 18.444958,-33.896591,213.36 18.442612,-33.898781,213.36 18.441673,-33.899048,213.36 18.438377,-33.8992,182.88 18.437469,-33.899139,182.88 18.434315,-33.899059,152.4 18.433514,-33.899059,121.92 18.428444,-33.899734,91.44 18.427448,-33.900364,60.96 18.427603,-33.899734,91.44 18.42794,-33.899368,91.44 18.429846,-33.897308,121.92 18.430349,-33.896713,152.4 18.432032,-33.894287,182.88 18.432426,-33.893707,182.88 18.433937,-33.891266,243.84 18.434385,-33.890533,243.84 18.435574,-33.887703,304.8 18.435802,-33.886772,304.8 18.435843,-33.883163,335.28 18.435631,-33.882442,335.28 18.433914,-33.879044,365.76 18.432985,-33.87767,365.76 18.430407,-33.874741,426.72 18.42968,-33.874153,426.72 18.426533,-33.872105,457.2 18.42556,-33.871639,487.68 18.422012,-33.870476,518.16 18.42099,-33.870346,548.64 18.416842,-33.870438,548.64 18.415661,-33.870663,579.12 18.411541,-33.871872,579.12 18.409836,-33.872406,609.6 18.405933,-33.873737,609.6 18.404846,-33.874107,640.08 18.400955,-33.87569,640.08 18.399639,-33.876251,640.08 18.39571,-33.878311,640.08 18.394701,-33.878906,640.08 18.390665,-33.881516,640.08 18.38974,-33.882114,670.56 18.386307,-33.884537,670.56 18.385395,-33.885132,670.56 18.381639,-33.887833,701.04 18.380756,-33.888493,701.04 18.377325,-33.891495,701.04 18.376236,-33.892498,701.04 18.372917,-33.89566,731.52 18.372059,-33.8965,731.52 18.369255,-33.899433,762 18.36858,-33.900146,762 18.364906,-33.904228,792.48 18.364048,-33.905205,792.48 18.361517,-33.908707,792.48 18.360901,-33.909767,792.48 18.358658,-33.913696,792.48 18.358212,-33.914516,792.48 18.35638,-33.918518,792.48 18.35598,-33.919498,792.48 18.353977,-33.923733,792.48 18.353558,-33.924591,792.48 18.349857,-33.932346,762 18.349457,-33.933277,762 18.347729,-33.93782,792.48 18.347282,-33.939003,792.48 18.345823,-33.943085,792.48 18.34543,-33.944229,792.48 18.343678,-33.949711,792.48 18.342533,-33.953339,792.48 18.348402,-33.9646,731.52 18.351765,-33.964142,731.52 18.356752,-33.956451,670.56 18.356838,-33.955154,670.56 18.357124,-33.950592,670.56 18.357182,-33.949383,670.56 18.35741,-33.94445,640.08 18.357468,-33.943333,640.08 18.358154,-33.938492,640.08 18.358383,-33.93742,640.08 18.359724,-33.932922,640.08 18.3601,-33.931973,640.08 18.362045,-33.927319,640.08 18.362617,-33.926201,640.08 18.364824,-33.921982,640.08 18.365421,-33.921078,640.08 18.368187,-33.916946,640.08 18.368912,-33.916004,640.08 18.371887,-33.912323,609.6 18.372671,-33.911407,609.6 18.376007,-33.90781,609.6 18.376764,-33.907013,609.6 18.380184,-33.903622,609.6 18.381191,-33.902618,609.6 18.384947,-33.899231,579.12 18.385849,-33.898407,579.12 18.390255,-33.894917,548.64 18.391281,-33.89415,548.64 18.396103,-33.891037,518.16 18.397503,-33.890259,518.16 18.402603,-33.887924,487.68 18.403893,-33.887421,487.68 18.409424,-33.885605,457.2 18.4109,-33.885223,457.2 18.416393,-33.883987,426.72 18.417625,-33.883804,426.72 18.422756,-33.883186,396.24 18.424129,-33.883141,396.24 18.429108,-33.88356,396.24 18.430519,-33.88385,365.76 18.434946,-33.885361,365.76 18.4359,-33.885818,335.28 18.439522,-33.888119,335.28 18.440271,-33.888702,304.8 18.44285,-33.891724,274.32 18.44313,-33.892776,274.32 18.442289,-33.896301,243.84 18.441896,-33.896851,213.36 18.439007,-33.898224,213.36 18.437805,-33.898361,182.88 18.4342,-33.898735,152.4 18.433096,-33.898865,121.92 18.427547,-33.900055,60.96 18.427212,-33.900558,60.96
        </coordinates>
      </LineString>
    </Placemark>
  </Document>
</kml>