<?xml version="1.0" encoding="UTF-8"?>
<kml xmlns="http://www.opengis.net/kml/2.2">
  <Document>
    <name>-/ZTHOT - Optimised</name>
    <description><![CDATA[Optimised flight path with 504 points (decimated from 2519 original points). Source format: Standard KML]]></description>
    
    <Style id="flightPath">
      <LineStyle>
        <color>ff0000ff</color>
        <width>3</width>
      </LineStyle>
    </Style>
    
    <Placemark>
      <name>Flight Path</name>
      <description><![CDATA[<div style="width:220px; text-align:center;">
<div style="width:210px; text-align:center;">
<div style=" background: #000; color: #fff; font-size: 14px; text-align:left; border: 1px solid #000; padding: 2px 6px; text-shadow: 0 1px 0 #000; box-shadow: 0 1px 3px rgba(0,0,0,0.6); background: -webkit-gradient(linear, left top, left bottom, color-stop(0%,#808080), color-stop(2%,#303030), color-stop(100%,#0c0c0c));"><span style="font-size: 14px; font-weight: bold;"><a href="javascript:void(0);" style="color: #fff; cursor: pointer;text-decoration: none;">-</a></span> / ZTHOT<br/>Cape Town Helicopters</div>

<div style="border-top: 1px solid #005c90; color: #fff; padding-bottom: 5px; box-shadow: 0 0 1px #9BE3F6 inset, 0 1px 0 #9BE3F6 inset, 0 -1px 3px rgba(0,0,0,0.4); background:rgba(43,114,173,1); background: -webkit-gradient(linear, left top, left bottom, color-stop(0%,rgba(92,184,229,1)), color-stop(100%,rgba(43,114,173,1)));">
<a style="text-decoration: none; color: rgb(255, 255, 255); font-size: 12px; width:77px; display: inline-block;" title=" Airport" href="javascript:void(0);/departures"><h3 style="padding: 0px; margin: 10px 0px 0px; font-size: 16px; ">?</h3></a>
<span style="background: url(https://www.flightradar24.com/static/images/userUI_sprite.png?14) no-repeat scroll 0 -464px rgba(0, 0, 0, 0); border: medium none; display: inline-block; height: 16px; width: 45px;"></span>
<a style="text-decoration: none; color: rgb(255, 255, 255); font-size: 12px; width:77px; display: inline-block;" title=" Airport" href="javascript:void(0);/arrivals"><h3 style="padding: 0px; margin: 10px 0px 0px; font-size: 16px;">?</h3></a>
<div style=" margin-top:10px;">
<div style="display: inline-block; font-size: 12px; padding: 0 5px;">
<div>
<span style="color: #c1eaff;" title="Actual Time of Departure">ATD </span>
<span title="2025-09-07 08:20">08:20</span> <span title="Coordinated Universal Time">UTC</span>
</div>
</div>
<div style="display: inline-block; font-size: 12px; padding: 0 5px;">
<div>
<span style="color: #c1eaff;" title="Estimated Time of Arrival">ETA </span>
<span title="2025-09-07 09:03">09:03</span> <span title="Coordinated Universal Time">UTC</span>
</div>
</div>
</div>
<br style="clear: both;"/>
</div>

<div style="display: block;">
<table style="border-collapse: collapse; width: 100%;">
<tr style="border-right: 1px solid #dadada; ">
<td style="background: none repeat scroll 0 0 #dadada; padding: 0; width: 31px;">
<span style="background: url(https://www.flightradar24.com/static/images/userUI_sprite.png?14) no-repeat scroll -208px -464px rgba(0, 0, 0, 0); height: 26px; margin: 8px 0 0 4px; width: 23px; display: block;"></span>
</td>
<td colspan="2" style="border-bottom: 1px solid #dadada; border-left: 1px solid #dadada; color: #666; line-height: 1.1em; padding: 3px 6px; vertical-align: top; font-size: 14px;">
Aircraft<span style="float: right; font-size: 12px;">(AS50)</span><br>
<span style="color: #333; font-size: 16px; font-weight: bold; line-height: 1.3em;">Airbus Helicopters H125</span>
</td>
</tr>
<tr style="border-right: 1px solid #dadada; ">
<td style="background: none repeat scroll 0 0 #dadada; padding: 0; width: 31px;">
<td colspan="2" style="border-bottom: 1px solid #dadada; border-left: 1px solid #dadada; color: #666; line-height: 1.1em; padding: 3px 6px; vertical-align: top; font-size: 14px;">
Registration<br>
<span style="color: #333; font-size: 16px; font-weight: bold; line-height: 1.3em;"><a href="https://www.flightradar24.com/reg/zt-hot" style="text-decoration: none; color: #333;">ZT-HOT</a></span>
</td>
</tr>
</table>
</div>

</div>
</div>]]></description>
      <styleUrl>#flightPath</styleUrl>
      <LineString>
        <extrude>1</extrude>
        <tessellate>1</tessellate>
        <altitudeMode>absolute</altitudeMode>
        <coordinates>
          18.430239,-33.895248,60.96 18.436403,-33.884125,182.88 18.432985,-33.870438,304.8 18.432648,-33.872452,304.8 18.418186,-33.873047,365.76 18.395863,-33.876949,426.72 18.387222,-33.881138,457.2 18.3822,-33.884216,487.68 18.377266,-33.88784,518.16 18.372112,-33.892273,548.64 18.368053,-33.896358,579.12 18.364391,-33.90097,609.6 18.361244,-33.905624,609.6 18.358154,-33.910492,609.6 18.349859,-33.924133,640.08 18.347336,-33.92926,670.56 18.345991,-33.936951,762 18.350658,-33.939468,792.48 18.355072,-33.936905,792.48 18.357145,-33.932785,822.96 18.36113,-33.933044,822.96 18.361073,-33.937279,762 18.358603,-33.941574,731.52 18.355576,-33.946289,701.04 18.346367,-33.959812,701.04 18.332762,-33.977463,762 18.321945,-33.994675,762 18.318443,-34.001801,762 18.316498,-34.007668,762 18.315125,-34.01302,731.52 18.313408,-34.020657,731.52 18.312471,-34.027084,701.04 18.312639,-34.032806,701.04 18.313761,-34.041962,670.56 18.316154,-34.05003,670.56 18.318693,-34.056061,670.56 18.321362,-34.060783,670.56 18.324566,-34.06525,670.56 18.328222,-34.06929,670.56 18.332539,-34.071716,701.04 18.334923,-34.070652,731.52 18.334837,-34.068832,731.52 18.33321,-34.070343,670.56 18.333267,-34.075241,609.6 18.333893,-34.080612,640.08 18.334293,-34.085548,640.08 18.335838,-34.094906,640.08 18.338242,-34.108871,670.56 18.342018,-34.124653,670.56 18.346327,-34.144043,670.56 18.348427,-34.15654,640.08 18.348009,-34.162582,609.6 18.346775,-34.167892,579.12 18.348598,-34.175163,487.68 18.350588,-34.179749,487.68 18.35392,-34.188148,487.68 18.356152,-34.192108,609.6 18.358154,-34.194763,731.52 18.36216,-34.201557,701.04 18.363934,-34.206211,701.04 18.366114,-34.211151,670.56 18.36977,-34.226044,487.68 18.370766,-34.231201,457.2 18.373489,-34.248108,457.2 18.375378,-34.259655,518.16 18.376808,-34.264217,518.16 18.378502,-34.268005,548.64 18.380968,-34.271622,548.64 18.409218,-34.289749,640.08 18.424816,-34.29792,640.08 18.439543,-34.305817,609.6 18.454456,-34.31356,579.12 18.471157,-34.322342,609.6 18.477859,-34.326458,579.12 18.484497,-34.331203,579.12 18.498173,-34.340748,579.12 18.512018,-34.351685,579.12 18.514036,-34.35585,609.6 18.511963,-34.360977,609.6 18.507328,-34.367096,640.08 18.502153,-34.371872,640.08 18.493858,-34.373474,640.08 18.485355,-34.372868,640.08 18.477459,-34.370773,640.08 18.469963,-34.367004,640.08 18.462524,-34.366013,640.08 18.465729,-34.37273,609.6 18.471565,-34.372311,609.6 18.478031,-34.370308,579.12 18.484211,-34.368122,579.12 18.492344,-34.365738,579.12 18.500233,-34.361881,548.64 18.50333,-34.356216,548.64 18.502865,-34.349266,548.64 18.499575,-34.342529,518.16 18.496548,-34.335526,518.16 18.493423,-34.325851,518.16 18.491936,-34.319382,518.16 18.490791,-34.31226,518.16 18.489935,-34.305588,518.16 18.489374,-34.298813,518.16 18.487244,-34.276691,487.68 18.484154,-34.250996,457.2 18.48304,-34.235367,457.2 18.480206,-34.2253,426.72 18.476772,-34.21841,426.72 18.472939,-34.212124,396.24 18.466015,-34.197601,396.24 18.464642,-34.191269,487.68 18.463669,-34.185776,579.12 18.459835,-34.182285,640.08 18.458233,-34.182564,640.08 18.458096,-34.17778,579.12 18.456573,-34.170692,579.12 18.456059,-34.163479,548.64 18.45686,-34.154911,518.16 18.458208,-34.148209,518.16 18.46035,-34.141552,518.16 18.463085,-34.135254,518.16 18.466187,-34.129074,518.16 18.471268,-34.119278,518.16 18.47826,-34.104309,548.64 18.479788,-34.097717,548.64 18.480377,-34.090763,548.64 18.480835,-34.084293,548.64 18.482479,-34.073822,579.12 18.484161,-34.06723,579.12 18.486099,-34.055382,579.12 18.486786,-34.048492,579.12 18.488253,-34.028549,579.12 18.488846,-34.004177,548.64 18.492165,-33.978107,426.72 18.493824,-33.962929,396.24 18.492737,-33.955948,396.24 18.490606,-33.949265,396.24 18.488308,-33.942856,396.24 18.485674,-33.936768,396.24 18.482151,-33.930576,396.24 18.478031,-33.924942,365.76 18.473063,-33.919464,365.76 18.467289,-33.913788,365.76 18.462124,-33.908978,365.76 18.453669,-33.90184,396.24 18.445372,-33.896393,335.28 18.435974,-33.897617,213.36 18.427505,-33.900223,0 18.427792,-33.899433,30.48 18.430014,-33.896484,60.96 18.433056,-33.892498,91.44 18.435631,-33.887188,152.4 18.436012,-33.88266,213.36 18.433399,-33.878067,243.84 18.428764,-33.87434,274.32 18.422642,-33.871826,304.8 18.416,-33.870804,365.76 18.409386,-33.871216,396.24 18.400978,-33.873184,457.2 18.395372,-33.87529,457.2 18.389683,-33.8783,487.68 18.384762,-33.881557,518.16 18.380356,-33.884907,548.64 18.376007,-33.888634,579.12 18.371832,-33.892593,609.6 18.368111,-33.896641,640.08 18.364601,-33.90097,670.56 18.361181,-33.905823,701.04 18.358097,-33.910606,701.04 18.355352,-33.91539,731.52 18.352547,-33.920662,731.52 18.349915,-33.926201,731.52 18.34774,-33.93132,731.52 18.342419,-33.944729,762 18.339443,-33.955902,792.48 18.346943,-33.959335,762 18.35146,-33.954597,731.52 18.353502,-33.948669,731.52 18.355911,-33.942398,701.04 18.360788,-33.931412,670.56 18.364824,-33.92363,640.08 18.368187,-33.918091,640.08 18.373121,-33.9104,609.6 18.382702,-33.89706,609.6 18.387413,-33.892502,609.6 18.393467,-33.888748,579.12 18.400497,-33.885838,579.12 18.407425,-33.884079,548.64 18.414516,-33.882675,518.16 18.422241,-33.88216,518.16 18.430252,-33.884117,487.68 18.436068,-33.887192,457.2 18.441055,-33.890854,426.72 18.445072,-33.895058,365.76 18.444532,-33.898956,335.28 18.439711,-33.900192,274.32 18.435688,-33.900177,182.88 18.431969,-33.89999,91.44 18.427963,-33.900364,30.48 18.427677,-33.899338,30.48 18.429958,-33.895569,91.44 18.432598,-33.891426,152.4 18.436203,-33.885838,213.36 18.441868,-33.88649,243.84 18.444843,-33.890495,243.84 18.447475,-33.895802,274.32 18.44952,-33.900375,274.32 18.453388,-33.906601,274.32 18.456528,-33.9104,274.32 18.460114,-33.914474,274.32 18.466112,-33.921844,304.8 18.470484,-33.925919,304.8 18.475571,-33.931694,274.32 18.478331,-33.935623,274.32 18.480516,-33.939743,304.8 18.481922,-33.944218,274.32 18.482704,-33.948898,274.32 18.483009,-33.953339,304.8 18.483124,-33.95874,304.8 18.482985,-33.964325,365.76 18.482985,-33.977234,396.24 18.482723,-33.99086,457.2 18.482143,-34.005936,518.16 18.480909,-34.021774,579.12 18.479462,-34.035969,579.12 18.47822,-34.052582,579.12 18.476658,-34.06916,579.12 18.475248,-34.084808,579.12 18.473511,-34.097374,579.12 18.472366,-34.101936,579.12 18.470652,-34.107239,579.12 18.468075,-34.112736,548.64 18.464317,-34.1185,548.64 18.460562,-34.123444,548.64 18.450529,-34.137177,579.12 18.444614,-34.146671,548.64 18.44313,-34.152328,518.16 18.443018,-34.156769,548.64 18.444588,-34.16153,548.64 18.446381,-34.1651,548.64 18.448792,-34.169174,548.64 18.451258,-34.172974,548.64 18.45892,-34.184193,579.12 18.461952,-34.189499,579.12 18.466072,-34.196762,487.68 18.469362,-34.203232,426.72 18.472595,-34.210495,304.8 18.473568,-34.213474,274.32 18.47452,-34.216827,243.84 18.476482,-34.225616,152.4 18.476593,-34.228363,91.44 18.47637,-34.231155,60.96 18.475971,-34.232841,30.48 18.475513,-34.234238,30.48 18.430239,-33.895248,60.96 18.431696,-33.893051,91.44 18.436403,-33.884125,182.88 18.435917,-33.880859,213.36 18.432985,-33.870438,304.8 18.434723,-33.869568,304.8 18.432648,-33.872452,304.8 18.430239,-33.872681,335.28 18.418186,-33.873047,365.76 18.411964,-33.873413,396.24 18.395863,-33.876949,426.72 18.393412,-33.877991,457.2 18.387222,-33.881138,457.2 18.386078,-33.881744,487.68 18.3822,-33.884216,487.68 18.381081,-33.884995,487.68 18.377266,-33.88784,518.16 18.376316,-33.888611,518.16 18.372112,-33.892273,548.64 18.371201,-33.893101,548.64 18.368053,-33.896358,579.12 18.367123,-33.8974,579.12 18.364391,-33.90097,609.6 18.363873,-33.901703,609.6 18.361244,-33.905624,609.6 18.360729,-33.906509,609.6 18.358154,-33.910492,609.6 18.355463,-33.914474,609.6 18.349859,-33.924133,640.08 18.349228,-33.925407,670.56 18.347336,-33.92926,670.56 18.346939,-33.930111,701.04 18.345991,-33.936951,762 18.346607,-33.93782,762 18.350658,-33.939468,792.48 18.351746,-33.939327,792.48 18.355072,-33.936905,792.48 18.355579,-33.935928,822.96 18.357145,-33.932785,822.96 18.357929,-33.932327,822.96 18.36113,-33.933044,822.96 18.361517,-33.933655,792.48 18.361073,-33.937279,762 18.360676,-33.938049,762 18.358603,-33.941574,731.52 18.35804,-33.942402,731.52 18.355576,-33.946289,701.04 18.354778,-33.947475,701.04 18.346367,-33.959812,701.04 18.344193,-33.962418,701.04 18.332762,-33.977463,762 18.329399,-33.982269,762 18.321945,-33.994675,762 18.321018,-33.996353,762 18.318443,-34.001801,762 18.3181,-34.002686,762 18.316498,-34.007668,762 18.316212,-34.00869,762 18.315125,-34.01302,731.52 18.314825,-34.014404,731.52 18.313408,-34.020657,731.52 18.313236,-34.021725,731.52 18.312471,-34.027084,701.04 18.312416,-34.028458,701.04 18.312639,-34.032806,701.04 18.312893,-34.035877,701.04 18.313761,-34.041962,670.56 18.314096,-34.043518,670.56 18.316154,-34.05003,670.56 18.316843,-34.051804,670.56 18.318693,-34.056061,670.56 18.319302,-34.057198,670.56 18.321362,-34.060783,670.56 18.321888,-34.061691,670.56 18.324566,-34.06525,670.56 18.325195,-34.066044,670.56 18.328222,-34.06929,670.56 18.329119,-34.070068,670.56 18.332539,-34.071716,701.04 18.333092,-34.071674,701.04 18.334923,-34.070652,731.52 18.335173,-34.070297,731.52 18.334837,-34.068832,731.52 18.334522,-34.068745,701.04 18.33321,-34.070343,670.56 18.333155,-34.071213,640.08 18.333267,-34.075241,609.6 18.33338,-34.076202,609.6 18.333893,-34.080612,640.08 18.33395,-34.081638,640.08 18.334293,-34.085548,640.08 18.334694,-34.088619,640.08 18.335838,-34.094906,640.08 18.336014,-34.095978,640.08 18.338242,-34.108871,670.56 18.338873,-34.111816,670.56 18.342018,-34.124653,670.56 18.342762,-34.128052,670.56 18.346327,-34.144043,670.56 18.34734,-34.14872,640.08 18.348427,-34.15654,640.08 18.34837,-34.157612,609.6 18.348009,-34.162582,609.6 18.347784,-34.163681,609.6 18.346775,-34.167892,579.12 18.34671,-34.170368,518.16 18.348598,-34.175163,487.68 18.349056,-34.17614,487.68 18.350588,-34.179749,487.68 18.351036,-34.180801,487.68 18.35392,-34.188148,487.68 18.354721,-34.189919,487.68 18.356152,-34.192108,609.6 18.356529,-34.192657,640.08 18.358154,-34.194763,731.52 18.358555,-34.19532,731.52 18.36216,-34.201557,701.04 18.362446,-34.202255,701.04 18.363934,-34.206211,701.04 18.364334,-34.207142,701.04 18.366114,-34.211151,670.56 18.366507,-34.212021,670.56 18.36977,-34.226044,487.68 18.370037,-34.227356,487.68 18.370766,-34.231201,457.2 18.371439,-34.235046,457.2 18.373489,-34.248108,457.2 18.373947,-34.25174,457.2 18.375378,-34.259655,518.16 18.375587,-34.260361,518.16 18.376808,-34.264217,518.16 18.377037,-34.264729,518.16 18.378502,-34.268005,548.64 18.378925,-34.26878,548.64 18.380968,-34.271622,548.64 18.3815,-34.272224,548.64 18.409218,-34.289749,640.08 18.412571,-34.291496,640.08 18.424816,-34.29792,640.08 18.427435,-34.299362,640.08 18.439543,-34.305817,609.6 18.442783,-34.307556,609.6 18.454456,-34.31356,579.12 18.457479,-34.315109,579.12 18.471157,-34.322342,609.6 18.474295,-34.324127,579.12 18.477859,-34.326458,579.12 18.478779,-34.327103,579.12 18.484497,-34.331203,579.12 18.487019,-34.332962,579.12 18.498173,-34.340748,579.12 18.501492,-34.343216,579.12 18.512018,-34.351685,579.12 18.512592,-34.352341,609.6 18.514036,-34.35585,609.6 18.513981,-34.35672,609.6 18.511963,-34.360977,609.6 18.511333,-34.361931,609.6 18.507328,-34.367096,640.08 18.506638,-34.367935,640.08 18.502153,-34.371872,640.08 18.500473,-34.372513,640.08 18.493858,-34.373474,640.08 18.492393,-34.37352,640.08 18.485355,-34.372868,640.08 18.484154,-34.372589,640.08 18.477459,-34.370773,640.08 18.475977,-34.370224,640.08 18.469963,-34.367004,640.08 18.468578,-34.36615,640.08 18.462524,-34.366013,640.08 18.461609,-34.366772,640.08 18.465729,-34.37273,609.6 18.467009,-34.372787,609.6 18.471565,-34.372311,609.6 18.472881,-34.371983,579.12 18.478031,-34.370308,579.12 18.47934,-34.369858,579.12 18.484211,-34.368122,579.12 18.48517,-34.367798,579.12 18.492344,-34.365738,579.12 18.49341,-34.365463,579.12 18.500233,-34.361881,548.64 18.500864,-34.361206,548.64 18.50333,-34.356216,548.64 18.503555,-34.355026,548.64 18.502865,-34.349266,548.64 18.502293,-34.347965,548.64 18.499575,-34.342529,518.16 18.499014,-34.341339,518.16 18.496548,-34.335526,518.16 18.49617,-34.334511,518.16 18.493423,-34.325851,518.16 18.493073,-34.324585,518.16 18.491936,-34.319382,518.16 18.49165,-34.317753,518.16 18.490791,-34.31226,518.16 18.490606,-34.311035,518.16 18.489935,-34.305588,518.16 18.489819,-34.30402,518.16 18.489374,-34.298813,518.16 18.488869,-34.294235,518.16 18.487244,-34.276691,487.68 18.486795,-34.272217,487.68 18.484154,-34.250996,457.2 18.483824,-34.246857,457.2 18.48304,-34.235367,457.2 18.482609,-34.231537,457.2 18.480206,-34.2253,426.72 18.479576,-34.223995,426.72 18.476772,-34.21841,426.72 18.476086,-34.21706,426.72 18.472939,-34.212124,396.24 18.471886,-34.210602,396.24 18.466015,-34.197601,396.24 18.4655,-34.196342,396.24 18.464642,-34.191269,487.68 18.46447,-34.189964,518.16 18.463669,-34.185776,579.12 18.462805,-34.18396,609.6 18.459835,-34.182285,640.08 18.459148,-34.182377,670.56 18.458233,-34.182564,640.08 18.458321,-34.181992,640.08 18.458096,-34.17778,579.12 18.45776,-34.176361,579.12 18.456573,-34.170692,579.12 18.456402,-34.169296,548.64 18.456059,-34.163479,548.64 18.45619,-34.160568,548.64 18.45686,-34.154911,518.16 18.457088,-34.153515,518.16 18.458208,-34.148209,518.16 18.458601,-34.146835,518.16 18.46035,-34.141552,518.16 18.460842,-34.140335,518.16 18.463085,-34.135254,518.16 18.463701,-34.133926,518.16 18.466187,-34.129074,518.16 18.466816,-34.127865,518.16 18.471268,-34.119278,518.16 18.473118,-34.115616,518.16 18.47826,-34.104309,548.64 18.478718,-34.102913,548.64 18.479788,-34.097717,548.64 18.480013,-34.096207,548.64 18.480377,-34.090763,548.64 18.480434,-34.089554,548.64 18.480835,-34.084293,548.64 18.480949,-34.08308,548.64 18.482479,-34.073822,579.12 18.48278,-34.072655,579.12 18.484161,-34.06723,579.12 18.484442,-34.065948,579.12 18.486099,-34.055382,579.12 18.486214,-34.053894,579.12 18.486786,-34.048492,579.12 18.4869,-34.047329,579.12 18.488253,-34.028549,579.12 18.488388,-34.023216,579.12 18.488846,-34.004177,548.64 18.489206,-34.000031,518.16 18.492165,-33.978107,426.72 18.49313,-33.972931,426.72 18.493824,-33.962929,396.24 18.493746,-33.961487,396.24 18.492737,-33.955948,396.24 18.492336,-33.954456,396.24 18.490606,-33.949265,396.24 18.490215,-33.948029,396.24 18.488308,-33.942856,396.24 18.487917,-33.941803,396.24 18.485674,-33.936768,396.24 18.485012,-33.935558,396.24 18.482151,-33.930576,396.24 18.481407,-33.929459,396.24 18.478031,-33.924942,365.76 18.476986,-33.923721,365.76 18.473063,-33.919464,365.76 18.471966,-33.918331,365.76 18.467289,-33.913788,365.76 18.466225,-33.912735,365.76 18.462124,-33.908978,365.76 18.460979,-33.907997,365.76 18.453669,-33.90184,396.24 18.449707,-33.898594,365.76 18.445372,-33.896393,335.28 18.44442,-33.89621,335.28 18.435974,-33.897617,213.36 18.4342,-33.898129,182.88 18.427505,-33.900223,0 18.427408,-33.900524,0 18.427792,-33.899433,30.48 18.427963,-33.8992,30.48 18.430014,-33.896484,60.96 18.43063,-33.895752,60.96 18.433056,-33.892498,91.44 18.433514,-33.89175,91.44 18.435631,-33.887188,152.4 18.435955,-33.886185,152.4 18.436012,-33.88266,213.36 18.435619,-33.881607,213.36 18.433399,-33.878067,243.84 18.432648,-33.877258,243.84 18.428764,-33.87434,274.32 18.427212,-33.87355,274.32 18.422642,-33.871826,304.8 18.421497,-33.871548,335.28 18.416,-33.870804,365.76 18.414803,-33.870804,365.76 18.409386,-33.871216,396.24 18.407993,-33.871456,396.24 18.400978,-33.873184,457.2 18.399914,-33.87355,457.2 18.395372,-33.87529,457.2 18.393972,-33.875931,487.68 18.389683,-33.8783,487.68 18.38876,-33.878906,518.16 18.384762,-33.881557,518.16 18.384075,-33.882023,548.64 18.380356,-33.884907,548.64 18.379454,-33.885681,548.64 18.376007,-33.888634,579.12 18.375027,-33.889526,579.12 18.371832,-33.892593,609.6 18.371143,-33.893288,609.6 18.368111,-33.896641,640.08 18.367403,-33.897446,640.08 18.364601,-33.90097,670.56 18.363991,-33.90176,670.56 18.361181,-33.905823,701.04 18.360615,-33.906696,701.04 18.358097,-33.910606,701.04 18.357582,-33.911491,731.52 18.355352,-33.91539,731.52 18.354721,-33.916519,731.52 18.352547,-33.920662,731.52 18.352045,-33.921616,731.52 18.349915,-33.926201,731.52 18.349522,-33.927109,731.52 18.34774,-33.93132,731.52 18.347225,-33.932625,731.52 18.342419,-33.944729,762 18.341103,-33.948406,762 18.339443,-33.955902,792.48 18.340073,-33.957298,792.48 18.346943,-33.959335,762 18.348289,-33.95874,762 18.35146,-33.954597,731.52 18.35186,-33.953526,731.52 18.353502,-33.948669,731.52 18.353863,-33.947613,701.04 18.355911,-33.942398,701.04 18.356472,-33.941071,701.04 18.360788,-33.931412,670.56 18.361404,-33.93013,670.56 18.364824,-33.92363,640.08 18.36561,-33.922302,640.08 18.368187,-33.918091,640.08 18.368855,-33.916985,640.08 18.373121,-33.9104,609.6 18.373775,-33.909489,609.6 18.382702,-33.89706,609.6 18.38349,-33.896164,609.6 18.387413,-33.892502,609.6 18.388647,-33.891586,579.12 18.393467,-33.888748,579.12 18.394547,-33.888214,579.12 18.400497,-33.885838,579.12 18.401875,-33.885406,579.12 18.407425,-33.884079,548.64 18.40877,-33.883804,548.64 18.414516,-33.882675,518.16 18.416233,-33.882393,518.16 18.422241,-33.88216,518.16 18.423843,-33.882347,518.16 18.430252,-33.884117,487.68 18.431683,-33.884769,487.68 18.436068,-33.887192,457.2 18.437176,-33.887936,457.2 18.441055,-33.890854,426.72 18.442122,-33.891815,426.72 18.445072,-33.895058,365.76 18.445484,-33.896027,365.76 18.444532,-33.898956,335.28 18.443802,-33.899368,335.28 18.439711,-33.900192,274.32 18.439007,-33.900223,274.32 18.435688,-33.900177,182.88 18.434778,-33.900101,182.88 18.431969,-33.89999,91.44 18.431282,-33.899944,91.44 18.427963,-33.900364,30.48 18.427715,-33.900467,30.48 18.427677,-33.899338,30.48 18.428135,-33.898457,30.48 18.429958,-33.895569,91.44 18.430574,-33.894699,121.92 18.432598,-33.891426,152.4 18.433096,-33.890579,182.88 18.436203,-33.885838,213.36 18.437021,-33.885452,243.84 18.441868,-33.88649,243.84 18.442497,-33.887096,243.84 18.444843,-33.890495,243.84 18.445261,-33.891312,243.84 18.447475,-33.895802,274.32 18.448048,-33.89706,274.32 18.44952,-33.900375,274.32 18.450977,-33.903168,274.32 18.453388,-33.906601,274.32 18.453884,-33.907253,274.32 18.456528,-33.9104,274.32 18.457146,-33.911118,274.32 18.460114,-33.914474,274.32 18.460787,-33.915161,274.32 18.466112,-33.921844,304.8 18.467789,-33.923641,304.8 18.470484,-33.925919,304.8 18.471394,-33.926712,274.32 18.475571,-33.931694,274.32 18.476315,-33.932671,274.32 18.478331,-33.935623,274.32 18.478724,-33.93631,304.8 18.480516,-33.939743,304.8 18.481022,-33.941071,274.32 18.481922,-33.944218,274.32 18.482151,-33.945381,274.32 18.482704,-33.948898,274.32 18.482759,-33.949722,304.8 18.483009,-33.953339,304.8 18.483124,-33.954643,304.8 18.483124,-33.95874,304.8 18.483124,-33.959812,335.28 18.482985,-33.964325,365.76 18.482927,-33.965469,365.76 18.482985,-33.977234,396.24 18.482927,-33.979797,396.24 18.482723,-33.99086,457.2 18.482647,-33.994492,457.2 18.482143,-34.005936,518.16 18.481976,-34.00882,548.64 18.480909,-34.021774,579.12 18.480663,-34.024612,579.12 18.479462,-34.035969,579.12 18.479061,-34.039883,548.64 18.47822,-34.052582,579.12 18.477974,-34.055614,579.12 18.476658,-34.06916,579.12 18.476313,-34.072998,609.6 18.475248,-34.084808,579.12 18.474941,-34.088062,579.12 18.473511,-34.097374,579.12 18.473339,-34.098209,579.12 18.472366,-34.101936,579.12 18.472137,-34.102772,579.12 18.470652,-34.107239,579.12 18.470316,-34.108063,579.12 18.468075,-34.112736,548.64 18.467617,-34.113571,548.64 18.464317,-34.1185,548.64 18.463554,-34.119484,548.64 18.460562,-34.123444,548.64 18.459549,-34.12484,548.64 18.450529,-34.137177,579.12 18.448063,-34.140747,579.12 18.444614,-34.146671,548.64 18.444042,-34.148254,548.64 18.44313,-34.152328,518.16 18.443069,-34.153191,548.64 18.443018,-34.156769,548.64 18.443298,-34.157959,548.64 18.444588,-34.16153,548.64 18.444923,-34.162216,548.64 18.446381,-34.1651,548.64 18.446999,-34.166245,548.64 18.448792,-34.169174,548.64 18.449249,-34.169949,548.64 18.451258,-34.172974,548.64 18.452883,-34.175491,548.64 18.45892,-34.184193,579.12 18.46035,-34.18652,579.12 18.461952,-34.189499,579.12 18.462238,-34.19006,579.12 18.466072,-34.196762,487.68 18.467159,-34.198811,487.68 18.469362,-34.203232,426.72 18.470261,-34.205063,396.24 18.472595,-34.210495,304.8 18.472782,-34.211105,304.8 18.473568,-34.213474,274.32 18.473736,-34.214127,274.32 18.47452,-34.216827,243.84 18.475023,-34.21875,213.36 18.476482,-34.225616,152.4 18.476482,-34.226028,152.4 18.476593,-34.228363,91.44 18.476593,-34.228912,91.44 18.47637,-34.231155,60.96 18.476315,-34.231537,60.96 18.475971,-34.232841,30.48 18.475914,-34.23312,30.48 18.475513,-34.234238,30.48 18.475416,-34.234634,30.48
        </coordinates>
      </LineString>
    </Placemark>
  </Document>
</kml>