<?xml version="1.0" encoding="UTF-8"?>
<kml xmlns="http://www.opengis.net/kml/2.2">
  <Document>
    <name>-/ZTHOT - Optimised</name>
    <description><![CDATA[Optimised flight path with 1495 points (decimated from 7475 original points). Source format: Standard KML]]></description>
    
    <Style id="flightPath">
      <LineStyle>
        <color>ff0000ff</color>
        <width>3</width>
      </LineStyle>
    </Style>
    
    <Placemark>
      <name>Flight Path</name>
      <description><![CDATA[<div style="width:220px; text-align:center;">
<div style="width:210px; text-align:center;">
<div style=" background: #000; color: #fff; font-size: 14px; text-align:left; border: 1px solid #000; padding: 2px 6px; text-shadow: 0 1px 0 #000; box-shadow: 0 1px 3px rgba(0,0,0,0.6); background: -webkit-gradient(linear, left top, left bottom, color-stop(0%,#808080), color-stop(2%,#303030), color-stop(100%,#0c0c0c));"><span style="font-size: 14px; font-weight: bold;"><a href="javascript:void(0);" style="color: #fff; cursor: pointer;text-decoration: none;">-</a></span> / ZTHOT<br/>Cape Town Helicopters</div>

<div style="border-top: 1px solid #005c90; color: #fff; padding-bottom: 5px; box-shadow: 0 0 1px #9BE3F6 inset, 0 1px 0 #9BE3F6 inset, 0 -1px 3px rgba(0,0,0,0.4); background:rgba(43,114,173,1); background: -webkit-gradient(linear, left top, left bottom, color-stop(0%,rgba(92,184,229,1)), color-stop(100%,rgba(43,114,173,1)));">
<a style="text-decoration: none; color: rgb(255, 255, 255); font-size: 12px; width:77px; display: inline-block;" title=" Airport" href="javascript:void(0);/departures"><h3 style="padding: 0px; margin: 10px 0px 0px; font-size: 16px; ">?</h3></a>
<span style="background: url(https://www.flightradar24.com/static/images/userUI_sprite.png?14) no-repeat scroll 0 -464px rgba(0, 0, 0, 0); border: medium none; display: inline-block; height: 16px; width: 45px;"></span>
<a style="text-decoration: none; color: rgb(255, 255, 255); font-size: 12px; width:77px; display: inline-block;" title="Cape Town Airport" href="https://www.flightradar24.com/airport/cpt/arrivals"><h3 style="padding: 0px; margin: 10px 0px 0px; font-size: 16px;">CPT</h3>Cape Town</a>
<div style=" margin-top:10px;">
<div style="display: inline-block; font-size: 12px; padding: 0 5px;">
<div>
<span style="color: #c1eaff;" title="Actual Time of Departure">ATD </span>
<span title="2025-02-19 14:57">14:57</span> <span title="Coordinated Universal Time">UTC</span>
</div>
</div>
<div style="display: inline-block; font-size: 12px; padding: 0 5px;">
<div>
<span style="color: #c1eaff;" title="Estimated Time of Arrival">ETA </span>
<span title="2025-02-19 15:13">15:13</span> <span title="Coordinated Universal Time">UTC</span>
</div>
</div>
</div>
<br style="clear: both;"/>
</div>

<div style="display: block;">
<table style="border-collapse: collapse; width: 100%;">
<tr style="border-right: 1px solid #dadada; ">
<td style="background: none repeat scroll 0 0 #dadada; padding: 0; width: 31px;">
<span style="background: url(https://www.flightradar24.com/static/images/userUI_sprite.png?14) no-repeat scroll -208px -464px rgba(0, 0, 0, 0); height: 26px; margin: 8px 0 0 4px; width: 23px; display: block;"></span>
</td>
<td colspan="2" style="border-bottom: 1px solid #dadada; border-left: 1px solid #dadada; color: #666; line-height: 1.1em; padding: 3px 6px; vertical-align: top; font-size: 14px;">
Aircraft<span style="float: right; font-size: 12px;">(AS50)</span><br>
<span style="color: #333; font-size: 16px; font-weight: bold; line-height: 1.3em;">Airbus Helicopters H125</span>
</td>
</tr>
<tr style="border-right: 1px solid #dadada; ">
<td style="background: none repeat scroll 0 0 #dadada; padding: 0; width: 31px;">
<td colspan="2" style="border-bottom: 1px solid #dadada; border-left: 1px solid #dadada; color: #666; line-height: 1.1em; padding: 3px 6px; vertical-align: top; font-size: 14px;">
Registration<br>
<span style="color: #333; font-size: 16px; font-weight: bold; line-height: 1.3em;"><a href="https://www.flightradar24.com/reg/zt-hot" style="text-decoration: none; color: #333;">ZT-HOT</a></span>
</td>
</tr>
</table>
</div>

</div>
</div>]]></description>
      <styleUrl>#flightPath</styleUrl>
      <LineString>
        <extrude>1</extrude>
        <tessellate>1</tessellate>
        <altitudeMode>absolute</altitudeMode>
        <coordinates>
          18.427048,-33.901154,60.96 18.433153,-33.902115,121.92 18.43689,-33.901852,213.36 18.439465,-33.899338,243.84 18.440159,-33.894928,304.8 18.439579,-33.8904,335.28 18.437077,-33.885635,365.76 18.431911,-33.881744,396.24 18.425697,-33.879272,396.24 18.419027,-33.877441,426.72 18.413372,-33.878998,518.16 18.413031,-33.882339,579.12 18.41526,-33.884441,670.56 18.417625,-33.886322,731.52 18.417683,-33.889435,762 18.411684,-33.890533,731.52 18.404503,-33.890121,731.52 18.397007,-33.889843,701.04 18.38876,-33.890488,670.56 18.380928,-33.892078,701.04 18.373089,-33.89566,670.56 18.367348,-33.900009,701.04 18.36256,-33.904507,731.52 18.358042,-33.909164,762 18.35392,-33.913818,762 18.350716,-33.919033,792.48 18.348402,-33.924408,822.96 18.346272,-33.930313,853.44 18.345852,-33.93523,914.4 18.348942,-33.937046,1005.84 18.351484,-33.93576,1036.32 18.353405,-33.933697,1097.28 18.355352,-33.93132,1127.76 18.358435,-33.927933,1188.72 18.363031,-33.928116,1219.2 18.365936,-33.932205,1219.2 18.365593,-33.937698,1188.72 18.364208,-33.943268,1188.72 18.362526,-33.949585,1127.76 18.358269,-33.966515,1097.28 18.353405,-33.989094,1036.32 18.352045,-34.000626,1005.84 18.349298,-34.01001,944.88 18.346439,-34.016235,944.88 18.346327,-34.025391,944.88 18.347448,-34.031479,914.4 18.348906,-34.038391,883.92 18.350418,-34.044708,883.92 18.35524,-34.060638,853.44 18.357651,-34.066681,853.44 18.360397,-34.072861,822.96 18.363422,-34.078995,822.96 18.366966,-34.084431,822.96 18.367907,-34.091446,853.44 18.36516,-34.096436,883.92 18.35947,-34.100399,883.92 18.358435,-34.105591,883.92 18.363199,-34.109573,853.44 18.369198,-34.11269,822.96 18.375034,-34.116039,792.48 18.382416,-34.120975,792.48 18.387751,-34.124771,792.48 18.401642,-34.134567,731.52 18.406639,-34.137543,701.04 18.411884,-34.140339,701.04 18.416786,-34.142578,670.56 18.427849,-34.147835,640.08 18.432816,-34.150864,609.6 18.437233,-34.154587,609.6 18.44101,-34.158962,609.6 18.444195,-34.163361,609.6 18.44739,-34.168121,609.6 18.449913,-34.172745,609.6 18.452625,-34.177628,609.6 18.457603,-34.184937,579.12 18.461403,-34.189407,579.12 18.461908,-34.192429,701.04 18.459217,-34.191971,701.04 18.455854,-34.190094,701.04 18.451538,-34.192383,701.04 18.452682,-34.196621,640.08 18.456863,-34.200668,640.08 18.460058,-34.204559,640.08 18.460979,-34.209888,640.08 18.459492,-34.215427,670.56 18.456696,-34.220398,670.56 18.454456,-34.226883,670.56 18.457031,-34.232025,640.08 18.460178,-34.236656,670.56 18.463198,-34.241135,670.56 18.466473,-34.246342,670.56 18.470539,-34.253952,670.56 18.474255,-34.260677,640.08 18.478374,-34.268963,609.6 18.480238,-34.27446,609.6 18.481918,-34.281006,609.6 18.48278,-34.286888,579.12 18.483238,-34.292568,609.6 18.484039,-34.302807,609.6 18.486786,-34.317101,609.6 18.488674,-34.322964,579.12 18.491953,-34.33168,579.12 18.495258,-34.338318,579.12 18.498344,-34.343494,579.12 18.503094,-34.352665,609.6 18.50462,-34.358505,640.08 18.50481,-34.364445,640.08 18.499775,-34.369236,640.08 18.492121,-34.370316,640.08 18.484104,-34.369583,609.6 18.4762,-34.368446,640.08 18.464012,-34.366585,640.08 18.455715,-34.366489,792.48 18.456802,-34.368866,853.44 18.461208,-34.370029,853.44 18.466616,-34.370956,853.44 18.472502,-34.371414,853.44 18.482494,-34.372635,731.52 18.493652,-34.374359,640.08 18.503551,-34.374779,670.56 18.508415,-34.371937,670.56 18.511906,-34.368355,701.04 18.511734,-34.36491,762 18.507982,-34.363861,731.52 18.504009,-34.364723,731.52 18.500641,-34.362122,670.56 18.500347,-34.356762,640.08 18.499575,-34.351318,640.08 18.498005,-34.345825,640.08 18.495819,-34.340469,670.56 18.493538,-34.335163,670.56 18.490047,-34.325291,670.56 18.488533,-34.319778,670.56 18.483524,-34.302807,670.56 18.481979,-34.294754,670.56 18.481121,-34.28875,670.56 18.478163,-34.27002,640.08 18.476257,-34.26445,670.56 18.473969,-34.259281,670.56 18.471336,-34.254299,670.56 18.468304,-34.249737,670.56 18.462469,-34.239761,670.56 18.456751,-34.230057,609.6 18.456806,-34.226028,640.08 18.458488,-34.228867,609.6 18.461515,-34.229782,609.6 18.465216,-34.233215,548.64 18.466072,-34.239265,579.12 18.46785,-34.244156,609.6 18.468243,-34.247498,701.04 18.470261,-34.244614,579.12 18.470091,-34.239532,487.68 18.473455,-34.236237,365.76 18.47805,-34.240036,213.36 18.479397,-34.245941,213.36 18.482031,-34.242874,152.4 18.477882,-34.238892,91.44 18.475304,-34.233261,60.96 18.476818,-34.228729,152.4 18.476315,-34.229534,152.4 18.477573,-34.231956,121.92 18.475922,-34.233261,60.96 18.475056,-34.235123,60.96 18.479172,-34.236511,121.92 18.48122,-34.236355,121.92 18.477116,-34.2374,60.96 18.475864,-34.232437,60.96 18.476715,-34.227486,121.92 18.476143,-34.222271,182.88 18.474968,-34.216507,243.84 18.472824,-34.202766,335.28 18.469963,-34.184845,487.68 18.46756,-34.169716,609.6 18.467176,-34.16423,640.08 18.466702,-34.147602,670.56 18.467009,-34.127335,640.08 18.467737,-34.121292,609.6 18.468746,-34.115341,609.6 18.47002,-34.109291,579.12 18.473511,-34.088806,579.12 18.474127,-34.082703,579.12 18.474745,-34.071945,579.12 18.474541,-34.057384,579.12 18.473797,-34.034668,609.6 18.474026,-34.021072,609.6 18.474712,-34.014977,609.6 18.475628,-34.006317,609.6 18.479233,-33.983086,518.16 18.483124,-33.960415,426.72 18.483467,-33.953434,426.72 18.484325,-33.938442,396.24 18.481638,-33.931732,365.76 18.477098,-33.925598,335.28 18.471909,-33.920429,335.28 18.466167,-33.91539,304.8 18.460226,-33.9104,304.8 18.447933,-33.89962,243.84 18.443184,-33.894917,243.84 18.435516,-33.887005,243.84 18.431797,-33.888027,182.88 18.432941,-33.892216,60.96 18.433685,-33.896267,60.96 18.428276,-33.899002,60.96 18.427292,-33.900597,0 18.430069,-33.901154,91.44 18.433743,-33.901203,152.4 18.43729,-33.899712,213.36 18.439991,-33.896667,243.84 18.441181,-33.89217,304.8 18.440495,-33.887283,335.28 18.43792,-33.882858,365.76 18.433153,-33.879547,426.72 18.427828,-33.877625,457.2 18.421719,-33.876526,487.68 18.415833,-33.876343,548.64 18.409105,-33.876938,579.12 18.402901,-33.878113,609.6 18.396778,-33.879974,609.6 18.390385,-33.882523,640.08 18.384499,-33.885773,640.08 18.37923,-33.889069,640.08 18.373625,-33.892868,670.56 18.368467,-33.896667,670.56 18.363592,-33.900879,701.04 18.359299,-33.9053,701.04 18.355463,-33.910309,731.52 18.352268,-33.915436,731.52 18.349628,-33.920521,762 18.347054,-33.925549,762 18.344534,-33.931046,762 18.341503,-33.938675,762 18.335266,-33.954689,762 18.324299,-33.981995,701.04 18.318245,-33.991699,701.04 18.316784,-33.998497,670.56 18.320599,-34.002365,670.56 18.326225,-34.00087,640.08 18.329624,-33.996277,640.08 18.338985,-33.981224,640.08 18.34672,-33.963455,609.6 18.354721,-33.94445,609.6 18.360846,-33.932602,609.6 18.368748,-33.918457,609.6 18.372059,-33.913956,609.6 18.375811,-33.909576,609.6 18.379841,-33.905533,609.6 18.384132,-33.901901,609.6 18.388983,-33.898224,609.6 18.39426,-33.895149,548.64 18.400137,-33.892868,487.68 18.406105,-33.891239,426.72 18.412285,-33.889797,396.24 18.425789,-33.88612,274.32 18.430126,-33.886734,243.84 18.430855,-33.890121,213.36 18.42934,-33.893372,152.4 18.427603,-33.896667,91.44 18.427212,-33.898956,60.96 18.427534,-33.900661,0 18.429737,-33.900642,91.44 18.433153,-33.900238,121.92 18.436947,-33.899105,182.88 18.440607,-33.896576,213.36 18.442383,-33.892403,274.32 18.441925,-33.887608,304.8 18.439465,-33.883045,335.28 18.435562,-33.87973,365.76 18.430126,-33.876846,426.72 18.424297,-33.875473,457.2 18.41835,-33.875366,518.16 18.412413,-33.875885,548.64 18.406219,-33.876949,579.12 18.400082,-33.878494,609.6 18.393631,-33.880764,609.6 18.386936,-33.883976,609.6 18.381472,-33.8871,609.6 18.375549,-33.891148,640.08 18.370598,-33.895294,640.08 18.365833,-33.900009,640.08 18.361797,-33.90477,670.56 18.35821,-33.909714,701.04 18.354778,-33.914886,731.52 18.351517,-33.92038,731.52 18.34857,-33.925827,731.52 18.34568,-33.931648,731.52 18.338928,-33.946777,731.52 18.338425,-33.952789,701.04 18.348312,-33.95916,640.08 18.353691,-33.955715,640.08 18.355694,-33.950268,640.08 18.357353,-33.944916,609.6 18.361685,-33.933655,579.12 18.367458,-33.920792,609.6 18.370543,-33.916031,609.6 18.373793,-33.911682,609.6 18.377493,-33.907196,609.6 18.381865,-33.902985,609.6 18.386936,-33.898827,609.6 18.392143,-33.89566,579.12 18.398624,-33.893372,548.64 18.405071,-33.891861,487.68 18.41177,-33.89045,426.72 18.422728,-33.88765,335.28 18.428879,-33.887238,274.32 18.431225,-33.889984,243.84 18.430424,-33.893147,182.88 18.428764,-33.895523,121.92 18.427322,-33.89859,91.44 18.427267,-33.900375,60.96 18.433153,-33.900146,152.4 18.436628,-33.898407,213.36 18.439262,-33.895294,243.84 18.441639,-33.891705,304.8 18.443985,-33.887936,335.28 18.447727,-33.88298,365.76 18.451763,-33.883392,365.76 18.451426,-33.886459,396.24 18.44656,-33.886909,426.72 18.442064,-33.884583,457.2 18.437805,-33.88221,487.68 18.432705,-33.88028,548.64 18.426931,-33.878677,548.64 18.420868,-33.877693,579.12 18.414375,-33.877441,609.6 18.408154,-33.87767,640.08 18.401426,-33.878494,640.08 18.395094,-33.87973,640.08 18.388653,-33.881744,670.56 18.383377,-33.884903,701.04 18.378239,-33.888634,731.52 18.373432,-33.892311,731.52 18.365778,-33.898636,731.52 18.361462,-33.903122,762 18.357296,-33.907906,762 18.35367,-33.912415,792.48 18.348541,-33.91917,822.96 18.342705,-33.92783,853.44 18.341843,-33.933151,853.44 18.344086,-33.937775,914.4 18.350082,-33.939468,914.4 18.353783,-33.93631,914.4 18.3521,-33.932144,914.4 18.345566,-33.933136,914.4 18.343048,-33.938164,914.4 18.341789,-33.944496,914.4 18.340946,-33.949997,914.4 18.340187,-33.95697,944.88 18.338814,-33.974056,914.4 18.33807,-33.991001,914.4 18.338425,-34.000946,914.4 18.34013,-34.022842,883.92 18.339729,-34.031593,914.4 18.338985,-34.037415,914.4 18.337807,-34.043381,914.4 18.336237,-34.049149,914.4 18.334108,-34.054916,914.4 18.331604,-34.060177,914.4 18.331032,-34.068047,883.92 18.334724,-34.071396,914.4 18.340273,-34.071259,914.4 18.3433,-34.067596,914.4 18.340588,-34.064133,883.92 18.33498,-34.065205,853.44 18.331661,-34.069908,822.96 18.330631,-34.075771,792.48 18.330969,-34.08197,762 18.332348,-34.087643,701.04 18.33534,-34.093323,670.56 18.3395,-34.098118,609.6 18.345509,-34.102306,609.6 18.351372,-34.105362,609.6 18.356895,-34.108128,609.6 18.362675,-34.11092,609.6 18.381136,-34.119141,609.6 18.40004,-34.126606,640.08 18.410912,-34.130192,609.6 18.432713,-34.13657,609.6 18.439823,-34.139648,609.6 18.444614,-34.143459,609.6 18.447876,-34.148441,579.12 18.450529,-34.154068,579.12 18.452911,-34.159473,548.64 18.457947,-34.169437,518.16 18.461067,-34.174805,518.16 18.469082,-34.188446,518.16 18.474998,-34.1996,487.68 18.477379,-34.205246,487.68 18.480461,-34.213211,487.68 18.486786,-34.230976,487.68 18.48793,-34.236191,487.68 18.488445,-34.241451,487.68 18.488365,-34.246765,518.16 18.487988,-34.252205,518.16 18.487356,-34.257431,518.16 18.486515,-34.262695,518.16 18.485001,-34.270706,518.16 18.482437,-34.280743,487.68 18.47822,-34.294281,487.68 18.473511,-34.309513,487.68 18.473566,-34.315292,457.2 18.475304,-34.320831,457.2 18.477917,-34.32571,457.2 18.481407,-34.329948,487.68 18.485813,-34.33353,487.68 18.490999,-34.336853,487.68 18.498631,-34.341724,487.68 18.504507,-34.3461,487.68 18.508432,-34.350037,487.68 18.510729,-34.354019,487.68 18.510647,-34.358765,487.68 18.507982,-34.3629,487.68 18.50193,-34.366196,518.16 18.496113,-34.368122,487.68 18.490271,-34.369812,487.68 18.481583,-34.372284,487.68 18.474884,-34.372635,457.2 18.47105,-34.369843,457.2 18.472895,-34.367706,457.2 18.47637,-34.367661,457.2 18.480034,-34.368027,487.68 18.484385,-34.368988,487.68 18.488846,-34.370171,487.68 18.494642,-34.370636,487.68 18.499432,-34.369473,487.68 18.503555,-34.367386,487.68 18.50675,-34.364273,487.68 18.508432,-34.359924,487.68 18.508936,-34.355072,487.68 18.507591,-34.349945,518.16 18.504467,-34.344986,518.16 18.500519,-34.340794,548.64 18.494911,-34.332973,548.64 18.49184,-34.327286,548.64 18.48971,-34.321518,518.16 18.488646,-34.316025,518.16 18.488045,-34.310116,518.16 18.487637,-34.304077,518.16 18.487692,-34.295929,518.16 18.487972,-34.289749,518.16 18.489075,-34.272457,518.16 18.490326,-34.258163,457.2 18.491503,-34.245758,487.68 18.490734,-34.240055,457.2 18.489246,-34.233585,457.2 18.487469,-34.227585,457.2 18.484783,-34.221714,487.68 18.481808,-34.216454,457.2 18.479004,-34.210693,487.68 18.472054,-34.195724,487.68 18.463211,-34.176277,457.2 18.460226,-34.167114,457.2 18.460178,-34.161198,487.68 18.46146,-34.155487,487.68 18.463554,-34.149746,487.68 18.465958,-34.144157,457.2 18.469276,-34.136337,457.2 18.476761,-34.119278,457.2 18.477827,-34.113281,457.2 18.478317,-34.107521,457.2 18.477827,-34.101837,457.2 18.475857,-34.095928,487.68 18.473053,-34.090298,487.68 18.469677,-34.085129,487.68 18.4655,-34.080055,487.68 18.46118,-34.075104,457.2 18.454857,-34.066181,457.2 18.451881,-34.060596,457.2 18.449364,-34.05529,487.68 18.447557,-34.049835,518.16 18.446548,-34.043976,518.16 18.446548,-34.038254,518.16 18.447361,-34.032387,487.68 18.44799,-34.026615,518.16 18.450809,-34.007904,487.68 18.453108,-33.99733,487.68 18.456059,-33.992584,518.16 18.460522,-33.98793,487.68 18.465042,-33.983879,457.2 18.469963,-33.980061,426.72 18.476086,-33.974243,396.24 18.479397,-33.969452,365.76 18.48147,-33.964005,365.76 18.482534,-33.958237,365.76 18.48278,-33.952362,365.76 18.482265,-33.946079,365.76 18.481064,-33.940025,365.76 18.479116,-33.933975,365.76 18.476032,-33.927521,335.28 18.47208,-33.921452,335.28 18.467793,-33.915802,335.28 18.463554,-33.910419,335.28 18.453884,-33.896545,304.8 18.448048,-33.891567,243.84 18.442841,-33.890354,213.36 18.436235,-33.891495,182.88 18.431639,-33.89328,152.4 18.428249,-33.89566,121.92 18.427277,-33.897758,91.44 18.427219,-33.899387,60.96 18.428078,-33.900688,60.96 18.433434,-33.900787,152.4 18.437189,-33.899414,182.88 18.440384,-33.895935,243.84 18.441582,-33.891472,304.8 18.440952,-33.886864,335.28 18.438206,-33.882812,396.24 18.433266,-33.88028,426.72 18.428135,-33.87923,457.2 18.422167,-33.878311,487.68 18.416519,-33.877598,518.16 18.410284,-33.877304,548.64 18.404388,-33.877552,548.64 18.39838,-33.878483,579.12 18.39201,-33.880737,609.6 18.386965,-33.883301,640.08 18.38192,-33.886597,670.56 18.377213,-33.890259,701.04 18.372448,-33.89447,701.04 18.368168,-33.898407,701.04 18.363703,-33.903488,670.56 18.359699,-33.908745,670.56 18.356609,-33.914143,670.56 18.35392,-33.919777,670.56 18.351484,-33.924774,731.52 18.343735,-33.940166,853.44 18.340988,-33.946869,822.96 18.335678,-33.960114,792.48 18.327326,-33.9879,792.48 18.325308,-33.999298,762 18.325308,-34.005524,792.48 18.325596,-34.011066,762 18.326317,-34.016785,762 18.327494,-34.022827,762 18.328445,-34.030746,762 18.327999,-34.036343,762 18.327829,-34.041779,762 18.327942,-34.052307,762 18.328951,-34.05954,762 18.332119,-34.064972,762 18.337669,-34.067905,762 18.344534,-34.067413,792.48 18.349285,-34.063808,762 18.352318,-34.05827,762 18.353233,-34.051891,762 18.352261,-34.04612,731.52 18.35014,-34.040726,731.52 18.347511,-34.034805,701.04 18.343449,-34.025265,701.04 18.338367,-34.011887,670.56 18.336983,-34.006084,670.56 18.336582,-33.999798,670.56 18.350082,-33.961258,609.6 18.358099,-33.942398,640.08 18.366674,-33.924088,670.56 18.369827,-33.918892,640.08 18.373289,-33.913788,640.08 18.377094,-33.908928,640.08 18.381271,-33.904133,640.08 18.385845,-33.899551,609.6 18.391226,-33.895706,579.12 18.39739,-33.892914,518.16 18.404102,-33.890865,457.2 18.410788,-33.889206,396.24 18.417606,-33.887749,335.28 18.424644,-33.886398,274.32 18.42934,-33.887192,243.84 18.429846,-33.890762,182.88 18.428669,-33.894196,152.4 18.427603,-33.896988,91.44 18.427219,-33.899899,60.96 18.429565,-33.901062,91.44 18.433096,-33.901474,152.4 18.435974,-33.90004,213.36 18.437077,-33.896393,243.84 18.437132,-33.891861,304.8 18.436012,-33.887009,365.76 18.432985,-33.882706,396.24 18.428782,-33.879456,426.72 18.423231,-33.877258,457.2 18.417515,-33.876526,487.68 18.411404,-33.876709,518.16 18.405519,-33.877487,548.64 18.399521,-33.878998,579.12 18.393747,-33.881287,609.6 18.388702,-33.884125,640.08 18.383732,-33.887608,640.08 18.37895,-33.891312,640.08 18.37413,-33.895523,640.08 18.369884,-33.899757,640.08 18.365993,-33.904041,670.56 18.361797,-33.909073,670.56 18.357182,-33.914795,670.56 18.352203,-33.921871,640.08 18.349285,-33.926804,670.56 18.346775,-33.932007,701.04 18.34465,-33.937279,731.52 18.342068,-33.944733,731.52 18.339937,-33.951965,731.52 18.336517,-33.97023,731.52 18.351002,-33.971077,670.56 18.354792,-33.958008,640.08 18.355865,-33.951942,609.6 18.359667,-33.934113,609.6 18.361702,-33.928715,609.6 18.364677,-33.923409,609.6 18.368019,-33.918549,579.12 18.372055,-33.913513,579.12 18.376204,-33.908844,579.12 18.380911,-33.903809,579.12 18.385677,-33.899338,579.12 18.390888,-33.895248,548.64 18.396719,-33.891312,548.64 18.402615,-33.888027,518.16 18.409195,-33.885189,518.16 18.415661,-33.883373,487.68 18.422279,-33.882523,457.2 18.428501,-33.882751,457.2 18.432648,-33.885498,426.72 18.431471,-33.88916,335.28 18.427883,-33.891678,274.32 18.426035,-33.894516,182.88 18.426483,-33.897766,91.44 18.427044,-33.900146,60.96 18.431471,-33.901016,121.92 18.434891,-33.900558,182.88 18.437691,-33.898083,213.36 18.438549,-33.893986,274.32 18.437691,-33.889191,335.28 18.435631,-33.884396,365.76 18.431696,-33.879822,396.24 18.425922,-33.877304,426.72 18.419495,-33.876297,487.68 18.413647,-33.876526,518.16 18.407307,-33.877506,548.64 18.40147,-33.878765,579.12 18.395765,-33.880325,609.6 18.39072,-33.882339,670.56 18.385788,-33.884628,670.56 18.380241,-33.88747,670.56 18.374691,-33.890915,670.56 18.369713,-33.894547,670.56 18.365105,-33.898773,670.56 18.360901,-33.903389,640.08 18.35681,-33.90802,640.08 18.352158,-33.913788,640.08 18.34877,-33.918751,640.08 18.347054,-33.923267,670.56 18.346424,-33.928154,670.56 18.345598,-33.933517,701.04 18.342459,-33.94313,701.04 18.339825,-33.949493,701.04 18.340187,-33.958229,762 18.346138,-33.957577,792.48 18.350601,-33.95306,762 18.353277,-33.947113,701.04 18.355295,-33.941483,670.56 18.357525,-33.93565,640.08 18.361126,-33.927887,670.56 18.36701,-33.916489,670.56 18.370934,-33.911728,670.56 18.375263,-33.907162,670.56 18.383675,-33.897896,640.08 18.390312,-33.8918,579.12 18.39599,-33.88765,548.64 18.4021,-33.884163,518.16 18.408051,-33.881279,518.16 18.41415,-33.879318,487.68 18.420597,-33.87941,457.2 18.426304,-33.881649,426.72 18.430767,-33.884724,365.76 18.433601,-33.888428,335.28 18.43483,-33.89217,243.84 18.432655,-33.895756,182.88 18.428249,-33.897663,121.92 18.426991,-33.900551,91.44 18.430014,-33.901611,121.92 18.433685,-33.901108,182.88 18.437119,-33.90004,243.84 18.439768,-33.897263,274.32 18.440496,-33.893143,335.28 18.439095,-33.888336,365.76 18.435955,-33.883438,396.24 18.431358,-33.880051,457.2 18.425755,-33.877808,518.16 18.420204,-33.876389,579.12 18.414402,-33.87569,640.08 18.40868,-33.875645,701.04 18.402729,-33.876762,701.04 18.39695,-33.878624,701.04 18.391285,-33.880997,701.04 18.385735,-33.884117,701.04 18.381042,-33.887703,701.04 18.376987,-33.891907,701.04 18.373032,-33.896175,701.04 18.366449,-33.903076,792.48 18.359871,-33.910839,853.44 18.356752,-33.914932,883.92 18.351688,-33.922245,914.4 18.349571,-33.927036,914.4 18.347855,-33.932438,914.4 18.345991,-33.938324,914.4 18.341171,-33.954254,853.44 18.330969,-33.982361,883.92 18.324018,-34.003281,853.44 18.323193,-34.00869,853.44 18.323906,-34.014359,853.44 18.325979,-34.019165,822.96 18.328783,-34.023834,792.48 18.331923,-34.028595,762 18.337841,-34.037834,731.52 18.343506,-34.048073,792.48 18.346024,-34.053474,944.88 18.348345,-34.053955,1036.32 18.3498,-34.049751,1036.32 18.34997,-34.044296,1036.32 18.347969,-34.038715,1005.84 18.343792,-34.032711,975.36 18.338703,-34.02681,944.88 18.333828,-34.021545,914.4 18.328686,-34.01181,853.44 18.328915,-34.005386,822.96 18.330072,-33.998566,792.48 18.335957,-33.980667,762 18.344421,-33.963676,731.52 18.348141,-33.954739,701.04 18.350258,-33.948128,701.04 18.353291,-33.938259,670.56 18.35741,-33.929504,609.6 18.360956,-33.924179,609.6 18.364677,-33.919312,579.12 18.368397,-33.914703,579.12 18.37286,-33.909908,548.64 18.377209,-33.905483,548.64 18.382072,-33.901062,548.64 18.386879,-33.896965,548.64 18.401371,-33.884811,548.64 18.406849,-33.881279,518.16 18.41275,-33.879227,518.16 18.418751,-33.879368,487.68 18.424185,-33.881104,487.68 18.42934,-33.883484,426.72 18.433285,-33.886444,365.76 18.434946,-33.890076,304.8 18.434834,-33.893738,213.36 18.432541,-33.89608,182.88 18.428078,-33.895988,121.92 18.427677,-33.898872,91.44 18.426991,-33.900505,91.44 18.429005,-33.90152,60.96 18.431396,-33.901947,91.44 18.434498,-33.902115,152.4 18.43523,-33.902084,182.88 18.438091,-33.901203,243.84 18.438606,-33.900738,243.84 18.439991,-33.897858,274.32 18.440094,-33.896873,274.32 18.440037,-33.893101,304.8 18.439922,-33.89217,335.28 18.438835,-33.888306,365.76 18.438377,-33.887421,365.76 18.435284,-33.883987,365.76 18.434143,-33.883141,396.24 18.429565,-33.880646,396.24 18.428108,-33.880096,396.24 18.422985,-33.878391,426.72 18.421494,-33.877945,426.72 18.416462,-33.877552,487.68 18.41526,-33.877926,487.68 18.412413,-33.8806,548.64 18.41247,-33.881195,579.12 18.41387,-33.883255,609.6 18.414375,-33.883713,640.08 18.416168,-33.885178,701.04 18.416748,-33.885559,701.04 18.418354,-33.887283,762 18.418411,-33.888153,762 18.415665,-33.890396,762 18.414516,-33.890587,731.52 18.408852,-33.8904,731.52 18.407536,-33.890308,731.52 18.401413,-33.889935,701.04 18.400383,-33.889889,701.04 18.393173,-33.89003,701.04 18.391743,-33.890167,701.04 18.385675,-33.890945,670.56 18.384132,-33.891239,670.56 18.377661,-33.893326,670.56 18.376064,-33.894032,670.56 18.370914,-33.897198,701.04 18.369827,-33.897991,701.04 18.365421,-33.90176,701.04 18.364544,-33.902618,701.04 18.360901,-33.906181,731.52 18.359947,-33.90715,731.52 18.356192,-33.911224,762 18.355579,-33.911907,762 18.352432,-33.915913,792.48 18.351974,-33.916752,792.48 18.349747,-33.921066,792.48 18.349186,-33.922348,822.96 18.347393,-33.927155,822.96 18.347113,-33.927979,853.44 18.345598,-33.93251,883.92 18.345509,-33.933464,883.92 18.346775,-33.93631,944.88 18.347569,-33.936768,975.36 18.35014,-33.936722,1005.84 18.350698,-33.936401,1036.32 18.352213,-33.935028,1066.8 18.352547,-33.934673,1066.8 18.354092,-33.932903,1097.28 18.354567,-33.932327,1097.28 18.356209,-33.930202,1158.24 18.356697,-33.929535,1158.24 18.360117,-33.927429,1219.2 18.361015,-33.927456,1219.2 18.364735,-33.929504,1219.2 18.36525,-33.930298,1219.2 18.366058,-33.934433,1219.2 18.365993,-33.935463,1219.2 18.365049,-33.940018,1188.72 18.364769,-33.941071,1188.72 18.363592,-33.945786,1158.24 18.363255,-33.946838,1158.24 18.361797,-33.95224,1127.76 18.360508,-33.957184,1127.76 18.356249,-33.97554,1066.8 18.355064,-33.980804,1066.8 18.352436,-33.996277,1005.84 18.352261,-33.99789,1005.84 18.35182,-34.003372,975.36 18.350924,-34.007401,975.36 18.347729,-34.012527,944.88 18.347168,-34.013901,944.88 18.345991,-34.021591,944.88 18.346046,-34.022827,944.88 18.34671,-34.02787,944.88 18.346939,-34.029034,914.4 18.348083,-34.034389,914.4 18.348345,-34.035645,914.4 18.349466,-34.040863,883.92 18.349743,-34.042068,883.92 18.352947,-34.05352,883.92 18.353277,-34.05455,883.92 18.356209,-34.06311,853.44 18.356752,-34.064484,853.44 18.358727,-34.06916,822.96 18.359184,-34.070278,822.96 18.36153,-34.075214,822.96 18.362217,-34.076656,822.96 18.364906,-34.081219,822.96 18.365593,-34.082245,822.96 18.367964,-34.087875,822.96 18.368019,-34.08902,853.44 18.367138,-34.093647,853.44 18.366566,-34.094627,853.44 18.362904,-34.098351,883.92 18.361816,-34.098957,883.92 18.357925,-34.102585,914.4 18.357811,-34.103611,914.4 18.360157,-34.107567,883.92 18.361073,-34.108265,853.44 18.365665,-34.110901,822.96 18.36701,-34.111588,822.96 18.371439,-34.113922,822.96 18.372728,-34.1147,822.96 18.379511,-34.118958,792.48 18.38047,-34.119625,792.48 18.384386,-34.122391,792.48 18.385391,-34.12307,762 18.389969,-34.126423,792.48 18.393917,-34.129307,762 18.403612,-34.135757,731.52 18.404617,-34.136383,731.52 18.408714,-34.138733,701.04 18.409939,-34.139362,701.04 18.41387,-34.141251,701.04 18.414917,-34.141739,670.56 18.41914,-34.143677,670.56 18.42099,-34.144592,670.56 18.429909,-34.148998,640.08 18.430799,-34.14949,640.08 18.434601,-34.152164,609.6 18.435402,-34.152863,609.6 18.438759,-34.156265,609.6 18.43943,-34.156998,609.6 18.442211,-34.160591,609.6 18.443018,-34.161713,609.6 18.44553,-34.165245,579.12 18.4461,-34.166107,579.12 18.448399,-34.169952,609.6 18.448904,-34.170868,609.6 18.450909,-34.174511,609.6 18.451483,-34.175629,579.12 18.455574,-34.182175,609.6 18.456173,-34.183029,609.6 18.459034,-34.186752,579.12 18.459833,-34.187714,579.12 18.462469,-34.190918,609.6 18.46258,-34.191605,670.56 18.460787,-34.19252,701.04 18.460293,-34.192432,701.04 18.458376,-34.191147,701.04 18.457705,-34.190689,701.04 18.453444,-34.190369,701.04 18.452547,-34.190872,701.04 18.451313,-34.193939,670.56 18.451538,-34.194805,670.56 18.454285,-34.19825,640.08 18.455143,-34.199089,640.08 18.458208,-34.202042,640.08 18.458862,-34.202766,640.08 18.460842,-34.206573,640.08 18.460979,-34.207607,640.08 18.460674,-34.212021,640.08 18.460281,-34.213348,670.56 18.458544,-34.217468,670.56 18.457928,-34.218475,670.56 18.455658,-34.222321,701.04 18.455143,-34.223297,701.04 18.4552,-34.229023,670.56 18.455629,-34.229782,670.56 18.458376,-34.234039,640.08 18.458977,-34.23489,640.08 18.461094,-34.238335,670.56 18.461796,-34.239395,670.56 18.464584,-34.242569,670.56 18.465719,-34.244385,670.56 18.467216,-34.248154,670.56 18.469391,-34.251881,701.04 18.471828,-34.256332,670.56 18.472424,-34.25742,640.08 18.475513,-34.262913,640.08 18.476772,-34.26524,640.08 18.479233,-34.271431,609.6 18.479576,-34.272457,609.6 18.480949,-34.276878,609.6 18.481302,-34.278259,609.6 18.482367,-34.283295,579.12 18.482494,-34.284466,579.12 18.482927,-34.288879,579.12 18.483067,-34.290237,579.12 18.483488,-34.294876,609.6 18.483881,-34.298264,609.6 18.485001,-34.310074,609.6 18.486179,-34.31488,609.6 18.487587,-34.319706,579.12 18.487917,-34.320831,609.6 18.490326,-34.327744,579.12 18.490719,-34.328751,579.12 18.492962,-34.333969,579.12 18.49341,-34.33493,579.12 18.496513,-34.340424,579.12 18.497053,-34.341339,579.12 18.499519,-34.345505,579.12 18.501091,-34.348476,609.6 18.503895,-34.355133,640.08 18.504124,-34.356205,640.08 18.505039,-34.360813,640.08 18.505154,-34.362068,640.08 18.503611,-34.366562,640.08 18.50235,-34.367794,640.08 18.496513,-34.370075,640.08 18.495369,-34.370216,640.08 18.488903,-34.370121,609.6 18.487356,-34.369995,609.6 18.481236,-34.36919,609.6 18.47934,-34.368942,609.6 18.47311,-34.367981,640.08 18.471851,-34.367794,640.08 18.45829,-34.365887,701.04 18.45726,-34.365978,731.52 18.455257,-34.367657,822.96 18.455519,-34.368118,822.96 18.458405,-34.369377,853.44 18.459435,-34.36961,853.44 18.463383,-34.370449,853.44 18.464527,-34.370636,853.44 18.469219,-34.371193,853.44 18.470078,-34.371239,853.44 18.47508,-34.371689,853.44 18.476257,-34.371826,822.96 18.487356,-34.373337,670.56 18.488617,-34.373566,670.56 18.499947,-34.375057,670.56 18.501089,-34.375031,670.56 18.505783,-34.373894,670.56 18.506699,-34.373241,670.56 18.510017,-34.370495,701.04 18.510647,-34.369888,701.04 18.512421,-34.366863,731.52 18.512356,-34.366241,731.52 18.51059,-34.364117,731.52 18.509665,-34.363861,731.52 18.506298,-34.364212,731.52 18.505516,-34.364365,731.52 18.502579,-34.364677,731.52 18.501835,-34.364349,701.04 18.500462,-34.36002,640.08 18.500416,-34.359009,609.6 18.500118,-34.354572,640.08 18.499947,-34.353271,609.6 18.499031,-34.349033,640.08 18.498688,-34.347778,640.08 18.497086,-34.343586,640.08 18.496742,-34.342609,640.08 18.494911,-34.338326,670.56 18.494419,-34.337265,670.56 18.491077,-34.328506,670.56 18.490734,-34.327526,670.56 18.489361,-34.322918,670.56 18.489094,-34.321884,670.56 18.486795,-34.314056,670.56 18.485786,-34.310577,670.56 18.482494,-34.298153,670.56 18.482311,-34.297119,670.56 18.481636,-34.292332,670.56 18.481464,-34.291168,670.56 18.480013,-34.280823,670.56 18.479565,-34.277252,670.56 18.477434,-34.267548,640.08 18.477041,-34.266541,640.08 18.475285,-34.262215,670.56 18.474855,-34.26123,670.56 18.473007,-34.257202,670.56 18.472595,-34.256443,670.56 18.470261,-34.252762,670.56 18.4697,-34.251938,670.56 18.465326,-34.243286,670.56 18.464149,-34.241455,670.56 18.460899,-34.238022,670.56 18.460178,-34.236984,640.08 18.455967,-34.227905,640.08 18.456001,-34.226883,640.08 18.458153,-34.226578,609.6 18.458544,-34.227448,609.6 18.459148,-34.23,670.56 18.459723,-34.229965,640.08 18.463478,-34.230331,579.12 18.464375,-34.231155,579.12 18.4655,-34.235538,548.64 18.465672,-34.236797,548.64 18.466728,-34.24118,579.12 18.467064,-34.242096,579.12 18.468304,-34.246109,609.6 18.468185,-34.246857,640.08 18.469105,-34.247318,670.56 18.469587,-34.246765,640.08 18.470364,-34.242847,548.64 18.470261,-34.241547,518.16 18.470707,-34.237309,457.2 18.471493,-34.236649,426.72 18.475977,-34.237106,274.32 18.476818,-34.237885,243.84 18.478388,-34.24205,182.88 18.478374,-34.243221,182.88 18.481808,-34.24564,213.36 18.482323,-34.244942,213.36 18.480516,-34.24118,91.44 18.479633,-34.240429,91.44 18.476143,-34.236889,60.96 18.475628,-34.235771,60.96 18.475971,-34.231209,60.96 18.476486,-34.23,91.44 18.47637,-34.228455,182.88 18.476089,-34.228729,182.88 18.476944,-34.230511,152.4 18.477287,-34.231071,121.92 18.47723,-34.232513,121.92 18.47683,-34.232655,121.92 18.475399,-34.234097,30.48 18.475342,-34.234562,60.96 18.476873,-34.236649,30.48 18.477802,-34.237076,91.44 18.479565,-34.234818,152.4 18.479845,-34.234222,152.4 18.479958,-34.238297,91.44 18.479116,-34.238342,60.96 18.475584,-34.235321,60.96 18.475456,-34.234329,60.96 18.476429,-34.23056,91.44 18.476593,-34.229416,91.44 18.476543,-34.225533,152.4 18.476429,-34.224415,152.4 18.475571,-34.219387,213.36 18.475399,-34.218594,243.84 18.474598,-34.214546,274.32 18.473911,-34.210308,274.32 18.47168,-34.194901,365.76 18.471157,-34.191971,396.24 18.468691,-34.178146,548.64 18.468185,-34.175217,579.12 18.467402,-34.167709,609.6 18.467331,-34.166458,609.6 18.466873,-34.159893,670.56 18.466644,-34.155609,670.56 18.46656,-34.139694,670.56 18.466587,-34.134663,670.56 18.467289,-34.124863,640.08 18.467457,-34.123444,640.08 18.468132,-34.118694,609.6 18.468304,-34.117718,609.6 18.469194,-34.113098,609.6 18.469475,-34.111725,609.6 18.47138,-34.102066,579.12 18.472366,-34.097,579.12 18.473791,-34.086319,579.12 18.473904,-34.085083,579.12 18.474295,-34.08046,579.12 18.474352,-34.079132,579.12 18.4748,-34.066177,579.12 18.474745,-34.062378,579.12 18.474255,-34.04882,579.12 18.47414,-34.044304,609.6 18.473679,-34.025894,609.6 18.473846,-34.023514,609.6 18.474295,-34.018524,609.6 18.474407,-34.017426,609.6 18.474968,-34.012665,609.6 18.475113,-34.011345,609.6 18.476818,-33.997467,579.12 18.477631,-33.992352,579.12 18.481358,-33.972382,457.2 18.482254,-33.967117,457.2 18.483353,-33.957298,426.72 18.483353,-33.956226,426.72 18.484104,-33.946884,426.72 18.484554,-33.941143,396.24 18.483656,-33.935852,365.76 18.483124,-33.934532,365.76 18.480013,-33.929306,335.28 18.479061,-33.928017,335.28 18.475342,-33.923687,335.28 18.474369,-33.92271,335.28 18.46962,-33.918427,304.8 18.468521,-33.91745,304.8 18.463726,-33.913303,304.8 18.462639,-33.912422,304.8 18.455372,-33.906414,274.32 18.451986,-33.903488,243.84 18.446157,-33.897858,243.84 18.445316,-33.897079,243.84 18.441448,-33.893097,243.84 18.440384,-33.891953,243.84 18.433285,-33.886539,274.32 18.43276,-33.886734,243.84 18.431919,-33.889526,121.92 18.432255,-33.89045,121.92 18.433546,-33.893921,60.96 18.433714,-33.894699,60.96 18.432426,-33.89743,60.96 18.431625,-33.897804,60.96 18.42762,-33.899666,60.96 18.42738,-33.899963,60.96 18.428612,-33.90097,91.44 18.429108,-33.901062,91.44 18.431303,-33.901291,121.92 18.431976,-33.901337,121.92 18.435116,-33.900875,182.88 18.435619,-33.90065,182.88 18.438663,-33.898502,243.84 18.439039,-33.898041,243.84 18.44072,-33.894791,274.32 18.440887,-33.894058,274.32 18.441113,-33.890396,335.28 18.441,-33.889343,335.28 18.439808,-33.885605,365.76 18.439293,-33.884583,365.76 18.43646,-33.88147,396.24 18.435345,-33.880718,396.24 18.430967,-33.878632,426.72 18.429846,-33.87822,457.2 18.425417,-33.877029,487.68 18.424072,-33.876801,487.68 18.419437,-33.876343,518.16 18.418236,-33.876297,518.16 18.412971,-33.87653,548.64 18.411573,-33.876617,548.64 18.406677,-33.877274,579.12 18.40535,-33.877533,579.12 18.400097,-33.878902,609.6 18.398952,-33.87923,609.6 18.394196,-33.880875,609.6 18.392658,-33.881512,609.6 18.388081,-33.883698,640.08 18.386879,-33.884396,640.08 18.38237,-33.8871,640.08 18.381329,-33.887749,640.08 18.37698,-33.890587,640.08 18.375721,-33.891426,640.08 18.371487,-33.894405,670.56 18.370485,-33.895111,670.56 18.366449,-33.898315,670.56 18.365273,-33.899323,701.04 18.362022,-33.90239,701.04 18.361069,-33.903351,701.04 18.357639,-33.907299,701.04 18.356838,-33.908325,731.52 18.354206,-33.912189,731.52 18.353405,-33.913445,731.52 18.351149,-33.91745,762 18.350698,-33.918411,762 18.348598,-33.922478,762 18.348122,-33.923401,762 18.345991,-33.927841,762 18.345509,-33.928761,762 18.34322,-33.934254,762 18.342304,-33.936489,762 18.340721,-33.940979,762 18.338928,-33.945511,762 18.331032,-33.966373,762 18.328558,-33.97261,762 18.321362,-33.986763,701.04 18.320103,-33.988579,701.04 18.316956,-33.994995,670.56 18.316669,-33.996353,670.56 18.317699,-34.000546,670.56 18.318672,-34.001522,670.56 18.322906,-34.002407,670.56 18.324051,-34.002079,670.56 18.327541,-33.999474,640.08 18.328285,-33.998447,640.08 18.333321,-33.990582,640.08 18.334866,-33.988396,640.08 18.341282,-33.976318,640.08 18.342533,-33.973728,609.6 18.350418,-33.954666,609.6 18.352032,-33.950874,609.6 18.358269,-33.937607,609.6 18.358612,-33.936909,609.6 18.364277,-33.92606,609.6 18.366507,-33.922028,609.6 18.370056,-33.916656,609.6 18.370766,-33.915665,609.6 18.373604,-33.912094,609.6 18.374298,-33.911316,609.6 18.377266,-33.907997,609.6 18.377996,-33.907242,609.6 18.381443,-33.904182,609.6 18.382481,-33.903305,609.6 18.386135,-33.900318,609.6 18.387133,-33.899551,609.6 18.391058,-33.896851,579.12 18.392235,-33.89621,579.12 18.396606,-33.89415,518.16 18.398008,-33.8936,518.16 18.402435,-33.892181,457.2 18.403669,-33.891861,457.2 18.408714,-33.890671,396.24 18.409767,-33.8904,396.24 18.414631,-33.889145,365.76 18.417738,-33.88829,365.76 18.42794,-33.885864,274.32 18.428782,-33.886002,243.84 18.430967,-33.887924,243.84 18.43111,-33.888493,213.36 18.430309,-33.891426,182.88 18.430014,-33.892044,182.88 18.428501,-33.894836,121.92 18.428078,-33.89566,121.92 18.427277,-33.897758,91.44 18.427212,-33.89827,91.44 18.427267,-33.899918,60.96 18.427267,-33.900192,60.96 18.428164,-33.900696,60.96 18.428724,-33.900696,60.96 18.430855,-33.900513,91.44 18.431639,-33.900421,121.92 18.434715,-33.899899,152.4 18.435459,-33.899712,152.4 18.438377,-33.898315,182.88 18.439293,-33.897709,213.36 18.441639,-33.895103,243.84 18.442064,-33.894104,243.84 18.442326,-33.89045,274.32 18.442234,-33.889618,274.32 18.441225,-33.885681,304.8 18.440781,-33.884861,304.8 18.437977,-33.881557,365.76 18.437302,-33.880966,365.76 18.433657,-33.87854,396.24 18.432541,-33.877926,396.24 18.427963,-33.876156,426.72 18.426874,-33.875885,457.2 18.42207,-33.87532,487.68 18.42071,-33.87529,487.68 18.415833,-33.875504,548.64 18.414656,-33.87561,548.64 18.409824,-33.876251,579.12 18.408794,-33.876434,579.12 18.403816,-33.877506,579.12 18.402557,-33.877834,579.12 18.397179,-33.879414,609.6 18.39632,-33.879696,609.6 18.391001,-33.881927,609.6 18.389397,-33.882675,609.6 18.384876,-33.885094,609.6 18.383547,-33.885864,609.6 18.37904,-33.888634,640.08 18.377829,-33.889481,640.08 18.373718,-33.892635,640.08 18.372517,-33.893612,640.08 18.368637,-33.897079,640.08 18.367516,-33.898224,640.08 18.364048,-33.901993,670.56 18.363304,-33.902878,670.56 18.360271,-33.906788,670.56 18.35947,-33.907906,701.04 18.356895,-33.911674,701.04 18.356152,-33.912792,701.04 18.353233,-33.917355,731.52 18.352833,-33.918098,731.52 18.350307,-33.922531,731.52 18.349743,-33.923641,731.52 18.34734,-33.928295,731.52 18.346888,-33.929169,731.52 18.343391,-33.936489,731.52 18.34173,-33.939972,731.52 18.338356,-33.949104,731.52 18.3382,-33.950272,731.52 18.339386,-33.955204,701.04 18.343132,-33.958511,670.56 18.351288,-33.958042,640.08 18.352146,-33.957436,640.08 18.354734,-33.953476,640.08 18.355015,-33.952606,640.08 18.356304,-33.948074,609.6 18.356609,-33.947102,609.6 18.358154,-33.942673,609.6 18.358658,-33.941483,609.6 18.364677,-33.926105,609.6 18.366226,-33.922989,609.6 18.368568,-33.918938,609.6 18.369196,-33.917999,609.6 18.371719,-33.914429,609.6 18.372402,-33.91354,609.6 18.375263,-33.909813,609.6 18.375893,-33.909023,609.6 18.379173,-33.905457,609.6 18.379959,-33.904724,609.6 18.383938,-33.901245,609.6 18.384947,-33.900421,609.6 18.388481,-33.897758,609.6 18.389992,-33.896805,609.6 18.394924,-33.894516,579.12 18.396103,-33.894104,548.64 18.401356,-33.892635,518.16 18.402603,-33.892365,518.16 18.407764,-33.891285,457.2 18.409081,-33.891006,457.2 18.414375,-33.889847,396.24 18.417906,-33.888977,365.76 18.426203,-33.886826,304.8 18.427212,-33.886826,304.8 18.430138,-33.888119,274.32 18.43063,-33.888657,243.84 18.431248,-33.891266,213.36 18.431023,-33.891998,213.36 18.429678,-33.894196,152.4 18.42934,-33.894653,152.4 18.427792,-33.897198,91.44 18.42766,-33.897537,91.44 18.427267,-33.899323,60.96 18.427267,-33.899826,60.96 18.428478,-33.900642,91.44 18.430653,-33.900505,121.92 18.434429,-33.899757,182.88 18.435226,-33.899368,182.88 18.437693,-33.897308,213.36 18.438206,-33.896687,243.84 18.440159,-33.893967,274.32 18.440723,-33.893147,274.32 18.44257,-33.890259,304.8 18.443069,-33.889519,304.8 18.444786,-33.886398,335.28 18.445244,-33.885605,335.28 18.44952,-33.882568,365.76 18.450304,-33.88266,365.76 18.452322,-33.884628,365.76 18.452322,-33.885223,396.24 18.449688,-33.887146,396.24 18.448734,-33.887238,396.24 18.444868,-33.88623,426.72 18.443914,-33.885681,457.2 18.440439,-33.883575,487.68 18.439598,-33.883118,487.68 18.435955,-33.88147,518.16 18.434772,-33.880997,518.16 18.430367,-33.879555,548.64 18.42934,-33.879272,548.64 18.424408,-33.878174,579.12 18.423042,-33.877926,579.12 18.418354,-33.877487,609.6 18.417177,-33.877441,609.6 18.41177,-33.877506,609.6 18.410625,-33.877506,609.6 18.405407,-33.877899,640.08 18.40423,-33.878036,640.08 18.398952,-33.878902,640.08 18.397636,-33.879181,640.08 18.392738,-33.880325,640.08 18.391001,-33.880829,640.08 18.386461,-33.882889,670.56 18.385506,-33.883465,670.56 18.381472,-33.886276,701.04 18.380575,-33.886917,701.04 18.376465,-33.889984,731.52 18.375362,-33.890808,731.52 18.371601,-33.893799,731.52 18.367538,-33.897106,731.52 18.364048,-33.900364,762 18.363255,-33.901154,762 18.359699,-33.905159,762 18.359127,-33.905811,762 18.355688,-33.909851,762 18.355007,-33.910744,762 18.350698,-33.916306,792.48 18.349915,-33.917313,792.48 18.344477,-33.924637,822.96 18.343678,-33.925922,822.96 18.342075,-33.929783,853.44 18.341843,-33.931046,853.44 18.342361,-33.935276,883.92 18.342876,-33.936348,883.92 18.346367,-33.93914,914.4 18.347784,-33.939514,914.4 18.3521,-33.938599,914.4 18.352829,-33.937958,914.4 18.353838,-33.934341,914.4 18.353502,-33.933517,914.4 18.349514,-33.931553,914.4 18.348064,-33.931732,914.4 18.344135,-33.935043,883.92 18.34362,-33.936211,914.4 18.342403,-33.941116,914.4 18.342247,-33.942028,914.4 18.341503,-33.946545,914.4 18.341282,-33.9478,914.4 18.340721,-33.952057,944.88 18.340553,-33.953339,944.88 18.339937,-33.960022,914.4 18.339602,-33.964325,914.4 18.3382,-33.981491,914.4 18.338013,-33.985184,914.4 18.338127,-33.993469,914.4 18.3382,-33.994812,914.4 18.338871,-34.009903,914.4 18.339214,-34.013672,914.4 18.340015,-34.027729,883.92 18.339937,-34.029144,914.4 18.339489,-34.033859,914.4 18.339321,-34.035049,914.4 18.338585,-34.039928,914.4 18.338367,-34.040863,914.4 18.337303,-34.045532,914.4 18.336966,-34.046814,914.4 18.335438,-34.051567,914.4 18.335117,-34.052444,914.4 18.333042,-34.057068,914.4 18.332539,-34.058075,914.4 18.330463,-34.064667,883.92 18.33046,-34.065903,883.92 18.332146,-34.069748,914.4 18.332874,-34.070389,914.4 18.336966,-34.071808,914.4 18.338242,-34.07177,914.4 18.342178,-34.070023,914.4 18.342739,-34.06929,914.4 18.343019,-34.066132,914.4 18.342459,-34.065308,914.4 18.338528,-34.0639,883.92 18.337303,-34.064072,883.92 18.333492,-34.066696,853.44 18.332691,-34.067719,853.44 18.330975,-34.072372,792.48 18.330801,-34.073639,792.48 18.330633,-34.078262,762 18.330688,-34.079544,762 18.331362,-34.084259,731.52 18.331585,-34.085266,731.52 18.333378,-34.08997,670.56 18.333883,-34.090988,670.56 18.336868,-34.095325,640.08 18.337694,-34.096252,640.08 18.341961,-34.100071,609.6 18.342964,-34.100784,609.6 18.34774,-34.103519,609.6 18.348827,-34.104076,609.6 18.353462,-34.106403,609.6 18.354492,-34.106915,609.6 18.359127,-34.109245,609.6 18.3605,-34.109894,609.6 18.36834,-34.11348,609.6 18.371326,-34.114883,609.6 18.389431,-34.122574,609.6 18.392796,-34.123901,609.6 18.407593,-34.129166,609.6 18.408546,-34.12944,609.6 18.420485,-34.133057,640.08 18.424129,-34.134102,609.6 18.436375,-34.138012,609.6 18.437462,-34.138523,609.6 18.441896,-34.140976,609.6 18.442841,-34.141785,609.6 18.446157,-34.145462,609.6 18.446774,-34.146378,579.12 18.448849,-34.150394,579.12 18.449465,-34.151733,579.12 18.451426,-34.156036,548.64 18.451931,-34.157227,548.64 18.455126,-34.16423,518.16 18.456745,-34.167294,518.16 18.459148,-34.171532,518.16 18.459723,-34.17247,518.16 18.463211,-34.178513,518.16 18.464985,-34.181538,518.16 18.473682,-34.196808,487.68 18.474026,-34.197601,487.68 18.476086,-34.202068,487.68 18.476482,-34.203094,487.68 18.478331,-34.207672,487.68 18.478832,-34.208866,487.68 18.483639,-34.221527,487.68 18.48517,-34.225708,487.68 18.487358,-34.233025,487.68 18.487579,-34.234039,487.68 18.488216,-34.238285,487.68 18.488308,-34.239487,487.68 18.488445,-34.243408,487.68 18.488445,-34.244572,487.68 18.488216,-34.248901,518.16 18.488159,-34.249969,518.16 18.487759,-34.254395,518.16 18.487637,-34.255234,518.16 18.487072,-34.259468,518.16 18.486851,-34.260498,518.16 18.486122,-34.264938,518.16 18.485842,-34.26622,518.16 18.483376,-34.277298,487.68 18.48304,-34.278534,487.68 18.48175,-34.283112,487.68 18.480686,-34.286545,457.2 18.475754,-34.301193,487.68 18.474541,-34.304764,487.68 18.473343,-34.311996,457.2 18.473339,-34.312908,457.2 18.474026,-34.317287,457.2 18.474369,-34.318451,457.2 18.476257,-34.322754,457.2 18.476706,-34.323669,457.2 18.479229,-34.32756,457.2 18.480013,-34.328476,457.2 18.483181,-34.331577,487.68 18.483982,-34.332184,487.68 18.488159,-34.335068,487.68 18.489262,-34.335754,487.68 18.492851,-34.338047,487.68 18.49371,-34.338608,487.68 18.502266,-34.344177,487.68 18.503036,-34.344799,487.68 18.506012,-34.347546,487.68 18.506863,-34.348343,487.68 18.509502,-34.351456,487.68 18.51,-34.352325,487.68 18.511009,-34.356079,487.68 18.51099,-34.356903,487.68 18.509903,-34.36058,487.68 18.509552,-34.36116,487.68 18.505383,-34.364677,487.68 18.504339,-34.365189,487.68 18.499743,-34.366974,487.68 18.498573,-34.367374,518.16 18.493767,-34.368771,487.68 18.492622,-34.369099,487.68 18.487988,-34.370449,487.68 18.486614,-34.370869,487.68 18.478556,-34.372833,457.2 18.477402,-34.372868,457.2 18.472614,-34.371735,457.2 18.472023,-34.371284,457.2 18.471212,-34.368622,457.2 18.471661,-34.368118,457.2 18.474184,-34.367615,457.2 18.4748,-34.367615,457.2 18.477802,-34.367748,457.2 18.478546,-34.36784,487.68 18.48175,-34.368355,487.68 18.482534,-34.36853,487.68 18.486214,-34.369473,487.68 18.487186,-34.369751,487.68 18.491764,-34.370682,487.68 18.492908,-34.370728,487.68 18.496571,-34.370308,487.68 18.497429,-34.370075,487.68 18.501144,-34.368805,487.68 18.502098,-34.368256,487.68 18.505013,-34.366241,487.68 18.505796,-34.365509,487.68 18.507671,-34.362579,487.68 18.508039,-34.361618,487.68 18.508768,-34.358047,487.68 18.508873,-34.356853,487.68 18.5086,-34.353012,487.68 18.508358,-34.351967,518.16 18.50647,-34.347778,518.16 18.505854,-34.346832,518.16 18.502922,-34.343262,548.64 18.502041,-34.342392,548.64 18.498678,-34.338684,548.64 18.497894,-34.337677,548.64 18.493595,-34.330784,548.64 18.493073,-34.329758,518.16 18.490944,-34.325134,548.64 18.490505,-34.324081,548.64 18.489206,-34.319366,518.16 18.48896,-34.318031,518.16 18.488331,-34.313747,518.16 18.488216,-34.312443,518.16 18.48786,-34.307831,518.16 18.487747,-34.306412,518.16 18.487587,-34.301922,518.16 18.487579,-34.300827,518.16 18.487759,-34.293636,518.16 18.487804,-34.292267,518.16 18.488253,-34.284576,518.16 18.488503,-34.28088,518.16 18.48959,-34.263935,457.2 18.48999,-34.260223,457.2 18.490664,-34.255737,457.2 18.490906,-34.254299,457.2 18.49128,-34.243515,457.2 18.491135,-34.242336,457.2 18.490219,-34.23745,457.2 18.489935,-34.236237,457.2 18.48856,-34.231117,457.2 18.48814,-34.229691,457.2 18.486557,-34.225113,457.2 18.485954,-34.223785,457.2 18.483467,-34.219479,457.2 18.482815,-34.218338,457.2 18.480606,-34.214031,457.2 18.479958,-34.212799,457.2 18.47683,-34.206024,487.68 18.476315,-34.204956,487.68 18.468475,-34.188801,457.2 18.466393,-34.184143,457.2 18.461094,-34.170925,457.2 18.460732,-34.169586,457.2 18.460058,-34.164917,457.2 18.460003,-34.163818,457.2 18.460579,-34.158867,487.68 18.460808,-34.157799,487.68 18.462181,-34.153282,487.68 18.462692,-34.152008,487.68 18.46443,-34.147659,457.2 18.464878,-34.146652,457.2 18.466841,-34.142029,457.2 18.467331,-34.140945,457.2 18.47267,-34.128571,457.2 18.474352,-34.125046,457.2 18.477345,-34.117157,457.2 18.477573,-34.115761,457.2 18.478107,-34.110947,457.2 18.478163,-34.109894,457.2 18.47826,-34.105053,457.2 18.478163,-34.104034,457.2 18.477154,-34.099319,457.2 18.476715,-34.098026,457.2 18.474712,-34.093555,487.68 18.474312,-34.092625,487.68 18.471773,-34.088104,487.68 18.471268,-34.087326,487.68 18.468018,-34.083035,487.68 18.467216,-34.082104,487.68 18.46384,-34.078194,457.2 18.463039,-34.077263,457.2 18.457031,-34.069721,457.2 18.456345,-34.068695,457.2 18.453611,-34.06398,457.2 18.453083,-34.062969,457.2 18.450865,-34.058533,457.2 18.450336,-34.057476,487.68 18.448511,-34.052948,487.68 18.448231,-34.052032,487.68 18.446999,-34.047455,518.16 18.446846,-34.046352,518.16 18.446438,-34.041504,518.16 18.446445,-34.040394,518.16 18.446846,-34.035877,518.16 18.446999,-34.034821,518.16 18.447615,-34.030151,487.68 18.447783,-34.028732,487.68 18.448566,-34.02182,518.16 18.449364,-34.017258,487.68 18.452168,-34.000313,487.68 18.452511,-33.999149,487.68 18.454172,-33.995132,518.16 18.45462,-33.9944,518.16 18.457705,-33.990738,487.68 18.458714,-33.989685,487.68 18.462244,-33.986298,457.2 18.463097,-33.985554,457.2 18.467102,-33.982296,457.2 18.46813,-33.981491,457.2 18.471886,-33.97847,426.72 18.474407,-33.976089,426.72 18.477516,-33.972427,396.24 18.47822,-33.971466,365.76 18.480377,-33.967354,365.76 18.480797,-33.96611,365.76 18.481976,-33.961853,365.76 18.482199,-33.960709,365.76 18.482704,-33.955856,365.76 18.482759,-33.954666,365.76 18.482647,-33.949585,365.76 18.482534,-33.948441,365.76 18.481922,-33.94389,365.76 18.481638,-33.94249,365.76 18.48032,-33.937466,365.76 18.479919,-33.936256,365.76 18.47794,-33.931183,335.28 18.477379,-33.929993,335.28 18.474483,-33.924992,335.28 18.47374,-33.923874,335.28 18.470428,-33.919281,304.8 18.469475,-33.917999,304.8 18.466055,-33.913605,335.28 18.465216,-33.912506,335.28 18.458061,-33.902554,335.28 18.457424,-33.90152,304.8 18.451313,-33.893738,274.32 18.450336,-33.892914,243.84 18.445709,-33.890717,243.84 18.444475,-33.890488,213.36 18.43935,-33.890728,213.36 18.438435,-33.890915,182.88 18.434315,-33.892124,182.88 18.433546,-33.892456,182.88 18.430239,-33.894058,152.4 18.429621,-33.89447,152.4 18.42762,-33.896641,121.92 18.427448,-33.89706,91.44 18.427219,-33.898548,91.44 18.427212,-33.898865,91.44 18.427267,-33.900101,60.96 18.427267,-33.90033,60.96 18.43091,-33.90097,121.92 18.431751,-33.90097,121.92 18.434666,-33.900513,152.4 18.435688,-33.900177,182.88 18.438421,-33.898453,213.36 18.43915,-33.897675,213.36 18.441181,-33.893986,274.32 18.441336,-33.893188,274.32 18.441525,-33.88961,335.28 18.44141,-33.88868,335.28 18.440208,-33.885235,365.76 18.439543,-33.884262,365.76 18.436546,-33.881649,396.24 18.435394,-33.881058,396.24 18.431135,-33.879776,426.72 18.430126,-33.879547,457.2 18.425529,-33.878815,487.68 18.424465,-33.878677,487.68 18.419838,-33.877972,487.68 18.418524,-33.877808,518.16 18.413927,-33.877396,518.16 18.412743,-33.877365,518.16 18.407936,-33.877319,548.64 18.406639,-33.87735,548.64 18.401928,-33.877834,579.12 18.400898,-33.878017,579.12 18.395653,-33.879227,609.6 18.394318,-33.879742,609.6 18.389936,-33.881699,609.6 18.38904,-33.882156,640.08 18.385162,-33.884396,640.08 18.384018,-33.885139,640.08 18.380013,-33.887981,670.56 18.379118,-33.888702,670.56 18.375435,-33.89175,701.04 18.374466,-33.892593,701.04 18.370653,-33.896072,701.04 18.369644,-33.896988,701.04 18.366165,-33.900551,701.04 18.365385,-33.90152,701.04 18.362135,-33.905411,670.56 18.361473,-33.906277,670.56 18.35821,-33.911133,670.56 18.357761,-33.911911,670.56 18.35552,-33.916443,670.56 18.355015,-33.91745,670.56 18.352942,-33.92189,670.56 18.352493,-33.922806,701.04 18.348345,-33.930679,792.48 18.346481,-33.934299,822.96 18.342403,-33.943222,822.96 18.341961,-33.944263,822.96 18.340073,-33.949196,822.96 18.338648,-33.952835,792.48 18.331081,-33.972931,762 18.329544,-33.978664,762 18.32571,-33.995564,792.48 18.325481,-33.997192,792.48 18.325251,-34.00177,762 18.325253,-34.003105,792.48 18.32542,-34.007858,792.48 18.325424,-34.008968,762 18.325869,-34.013535,762 18.325996,-34.014835,762 18.32682,-34.019394,762 18.327026,-34.02047,762 18.327885,-34.024845,762 18.328335,-34.028366,762 18.328278,-34.033173,762 18.328171,-34.034248,762 18.327827,-34.038532,762 18.327829,-34.03949,762 18.327885,-34.046074,762 18.327942,-34.049973,762 18.328171,-34.056175,762 18.328335,-34.057159,762 18.329905,-34.061783,762 18.330463,-34.06279,762 18.333893,-34.066414,792.48 18.335094,-34.067066,792.48 18.340498,-34.068192,792.48 18.34201,-34.0681,792.48 18.34672,-34.066223,792.48 18.347784,-34.065399,792.48 18.350924,-34.0616,762 18.35146,-34.060688,762 18.35289,-34.055943,762 18.353062,-34.054638,762 18.353054,-34.049744,762 18.352833,-34.048401,762 18.351517,-34.04393,731.52 18.350979,-34.042648,731.52 18.349018,-34.038391,731.52 18.348513,-34.037109,731.52 18.346552,-34.032532,701.04 18.345991,-34.031342,701.04 18.339443,-34.015301,670.56 18.3391,-34.014324,670.56 18.337784,-34.009575,640.08 18.33744,-34.008133,670.56 18.336697,-34.003616,670.56 18.33663,-34.002548,670.56 18.343735,-33.975361,609.6 18.346104,-33.970093,609.6 18.353405,-33.953526,609.6 18.354959,-33.949768,640.08 18.361517,-33.934937,670.56 18.362961,-33.931507,670.56 18.367825,-33.92215,670.56 18.368511,-33.920986,640.08 18.371029,-33.916985,640.08 18.371716,-33.916004,640.08 18.374863,-33.911724,640.08 18.375607,-33.910793,640.08 18.378811,-33.906879,640.08 18.379669,-33.905903,640.08 18.382988,-33.902271,609.6 18.383846,-33.901436,609.6 18.387909,-33.897896,609.6 18.389053,-33.89706,609.6 18.393517,-33.894547,548.64 18.394718,-33.893986,548.64 18.399868,-33.892078,487.68 18.401371,-33.891632,487.68 18.406696,-33.890213,457.2 18.408154,-33.889847,426.72 18.413422,-33.888611,365.76 18.414574,-33.888351,365.76 18.419952,-33.887238,304.8 18.422527,-33.886772,274.32 18.427105,-33.886257,243.84 18.428053,-33.886459,243.84 18.430069,-33.888519,213.36 18.430138,-33.889191,213.36 18.429451,-33.892124,152.4 18.42923,-33.892776,152.4 18.428221,-33.895386,121.92 18.427963,-33.896126,121.92 18.427267,-33.898544,91.44 18.427277,-33.899105,91.44 18.427349,-33.900375,0 18.427408,-33.900581,0 18.431135,-33.901382,121.92 18.431808,-33.901428,121.92 18.434498,-33.901154,182.88 18.435001,-33.900921,182.88 18.436718,-33.898594,243.84 18.43689,-33.897896,243.84 18.437233,-33.894547,274.32 18.437233,-33.893566,274.32 18.43689,-33.889935,304.8 18.436661,-33.888866,335.28 18.435003,-33.885132,365.76 18.434315,-33.884209,365.76 18.431416,-33.881287,426.72 18.430742,-33.880783,426.72 18.426704,-33.878437,426.72 18.42556,-33.877972,457.2 18.420753,-33.876808,487.68 18.419701,-33.876663,487.68 18.415031,-33.87653,518.16 18.413647,-33.876572,518.16 18.409195,-33.876949,548.64 18.407993,-33.877087,548.64 18.403072,-33.878017,579.12 18.402214,-33.87825,579.12 18.397335,-33.87973,609.6 18.39599,-33.88028,609.6 18.391897,-33.882248,640.08 18.390827,-33.882858,640.08 18.386765,-33.885422,640.08 18.3859,-33.886047,640.08 18.381865,-33.889023,640.08 18.380985,-33.889702,640.08 18.376764,-33.893188,640.08 18.375755,-33.894104,640.08 18.372335,-33.897308,640.08 18.371384,-33.89827,640.08 18.368282,-33.901527,670.56 18.367367,-33.902504,670.56 18.364321,-33.90596,670.56 18.36359,-33.906879,670.56 18.360443,-33.910744,670.56 18.359556,-33.911865,670.56 18.354063,-33.919006,670.56 18.35339,-33.920013,640.08 18.350868,-33.92395,640.08 18.350307,-33.924911,670.56 18.348064,-33.929214,701.04 18.347672,-33.93013,701.04 18.345909,-33.934067,701.04 18.34543,-33.935303,731.52 18.344028,-33.938919,731.52 18.343357,-33.940887,731.52 18.341339,-33.947205,731.52 18.340946,-33.948486,731.52 18.339096,-33.955124,731.52 18.337727,-33.961163,731.52 18.343245,-33.975586,701.04 18.346607,-33.975128,670.56 18.353405,-33.964466,640.08 18.353725,-33.963318,640.08 18.355293,-33.955387,609.6 18.355465,-33.954269,609.6 18.357538,-33.943314,609.6 18.35849,-33.93869,609.6 18.360386,-33.932018,609.6 18.360786,-33.93095,609.6 18.362846,-33.926479,609.6 18.363361,-33.925549,609.6 18.365993,-33.921452,609.6 18.366623,-33.920521,609.6 18.369598,-33.916565,579.12 18.370262,-33.91571,579.12 18.37368,-33.911682,579.12 18.374409,-33.910812,579.12 18.377829,-33.907104,579.12 18.378557,-33.906326,579.12 18.382759,-33.901947,579.12 18.383617,-33.901154,579.12 18.387751,-33.897629,548.64 18.38887,-33.896759,548.64 18.393002,-33.893707,548.64 18.394085,-33.893005,548.64 18.398905,-33.89003,548.64 18.399969,-33.889435,548.64 18.405182,-33.88678,518.16 18.406136,-33.886368,518.16 18.411741,-33.884354,518.16 18.412918,-33.884033,518.16 18.418179,-33.882908,487.68 18.419476,-33.882751,487.68 18.424816,-33.882488,457.2 18.425961,-33.882488,457.2 18.43071,-33.88356,426.72 18.431625,-33.884163,426.72 18.432827,-33.887096,396.24 18.432537,-33.887833,365.76 18.430239,-33.890076,304.8 18.429737,-33.8904,304.8 18.426987,-33.892593,243.84 18.426476,-33.893379,213.36 18.42609,-33.896164,121.92 18.426189,-33.896591,121.92 18.426819,-33.898827,91.44 18.426931,-33.899368,60.96 18.427309,-33.90057,0 18.427773,-33.900604,91.44 18.432827,-33.900921,152.4 18.433546,-33.900833,152.4 18.436203,-33.899899,182.88 18.436741,-33.89946,213.36 18.438253,-33.89653,243.84 18.438435,-33.89571,243.84 18.438366,-33.892044,304.8 18.438198,-33.890991,304.8 18.437061,-33.887421,335.28 18.436604,-33.886257,335.28 18.434385,-33.882339,365.76 18.433657,-33.88147,365.76 18.42951,-33.878586,426.72 18.428249,-33.878067,426.72 18.423679,-33.876801,457.2 18.422241,-33.876575,457.2 18.417345,-33.876297,487.68 18.415945,-33.876343,487.68 18.411293,-33.876846,518.16 18.409723,-33.877075,548.64 18.404846,-33.877991,579.12 18.403782,-33.87822,579.12 18.399298,-33.879318,609.6 18.398037,-33.879646,609.6 18.393803,-33.881046,640.08 18.392796,-33.88147,640.08 18.388535,-33.883301,670.56 18.387693,-33.883713,670.56 18.383547,-33.885773,670.56 18.382587,-33.886257,670.56 18.378181,-33.888634,670.56 18.376932,-33.889389,670.56 18.372803,-33.892265,670.56 18.371552,-33.893143,670.56 18.367571,-33.896347,670.56 18.366795,-33.89706,670.56 18.363592,-33.900421,640.08 18.362526,-33.901566,640.08 18.359163,-33.905273,640.08 18.358435,-33.906097,640.08 18.35524,-33.909897,640.08 18.354378,-33.910976,640.08 18.350716,-33.915817,640.08 18.350082,-33.916672,640.08 18.347841,-33.920609,670.56 18.347511,-33.921543,670.56 18.346767,-33.925175,670.56 18.346664,-33.926239,670.56 18.346195,-33.930298,701.04 18.346046,-33.931274,701.04 18.344028,-33.938965,701.04 18.343506,-33.940445,701.04 18.341227,-33.946198,701.04 18.340721,-33.947388,701.04 18.338413,-33.953156,701.04 18.338703,-33.957962,762 18.341955,-33.958282,792.48 18.344364,-33.958088,792.48 18.348345,-33.956039,792.48 18.349073,-33.955215,762 18.351765,-33.950867,731.52 18.352268,-33.949814,731.52 18.354006,-33.94487,701.04 18.354454,-33.94368,670.56 18.356192,-33.938965,670.56 18.356642,-33.937683,640.08 18.359667,-33.930954,640.08 18.360117,-33.929993,670.56 18.36516,-33.919327,670.56 18.365721,-33.918411,670.56 18.36858,-33.914474,670.56 18.369253,-33.913605,670.56 18.372503,-33.91008,670.56 18.373512,-33.909027,670.56 18.377094,-33.905159,670.56 18.377895,-33.904182,670.56 18.38747,-33.894241,609.6 18.388309,-33.893475,609.6 18.392773,-33.889889,579.12 18.393692,-33.88916,579.12 18.398512,-33.886139,548.64 18.399925,-33.885372,548.64 18.404503,-33.882908,518.16 18.40563,-33.882339,518.16 18.410564,-33.88028,487.68 18.411655,-33.879929,487.68 18.416897,-33.879089,457.2 18.41835,-33.879089,457.2 18.423288,-33.880234,426.72 18.424072,-33.880554,426.72 18.428389,-33.882843,396.24 18.429285,-33.883484,396.24 18.432087,-33.88623,365.76 18.432598,-33.886955,335.28 18.434429,-33.889984,304.8 18.434658,-33.890682,274.32 18.434372,-33.893799,213.36 18.434086,-33.894314,213.36 18.430996,-33.896591,152.4 18.430182,-33.896896,152.4 18.427048,-33.899338,91.44 18.427048,-33.899944,91.44 18.426987,-33.901062,91.44 18.427212,-33.901142,0 18.431797,-33.901436,152.4 18.432312,-33.901386,152.4 18.435114,-33.900787,213.36 18.435688,-33.900642,213.36 18.438377,-33.899059,243.84 18.438927,-33.898453,274.32 18.440327,-33.895706,304.8 18.440495,-33.895012,335.28 18.440094,-33.891148,335.28 18.439922,-33.89045,365.76 18.438091,-33.886444,365.76 18.437469,-33.885406,396.24 18.434555,-33.882111,426.72 18.433321,-33.881195,426.72 18.429062,-33.878998,487.68 18.428164,-33.878632,487.68 18.423456,-33.877121,548.64 18.422585,-33.8769,548.64 18.417835,-33.876019,609.6 18.416748,-33.875877,640.08 18.412132,-33.875565,670.56 18.411068,-33.875565,670.56 18.406528,-33.875931,701.04 18.405182,-33.876205,701.04 18.400383,-33.87746,701.04 18.399181,-33.877834,701.04 18.394318,-33.879646,701.04 18.393187,-33.880142,701.04 18.389151,-33.882065,701.04 18.387966,-33.882721,701.04 18.383789,-33.885468,701.04 18.382816,-33.886211,701.04 18.379286,-33.889389,701.04 18.378557,-33.890213,701.04 18.375362,-33.893692,701.04 18.374634,-33.894451,701.04 18.371494,-33.897812,701.04 18.370823,-33.898499,731.52 18.361645,-33.908558,853.44 18.361126,-33.90921,853.44 18.358555,-33.912514,883.92 18.357868,-33.913445,883.92 18.35495,-33.9174,914.4 18.352774,-33.920425,914.4 18.350811,-33.92395,914.4 18.350315,-33.925083,914.4 18.348793,-33.929306,914.4 18.348541,-33.930202,914.4 18.347054,-33.935139,914.4 18.346653,-33.936256,914.4 18.344086,-33.944641,883.92 18.343357,-33.947296,883.92 18.336966,-33.966293,883.92 18.334751,-33.972054,914.4 18.328114,-33.990536,883.92 18.326511,-33.995098,883.92 18.32357,-34.005386,853.44 18.323364,-34.006687,853.44 18.323193,-34.01088,853.44 18.32329,-34.011749,853.44 18.324635,-34.016373,822.96 18.324966,-34.017071,822.96 18.327026,-34.021122,822.96 18.327599,-34.021957,792.48 18.32996,-34.025665,792.48 18.330517,-34.02652,792.48 18.333035,-34.030243,762 18.333607,-34.031082,731.52 18.341503,-34.044117,762 18.341955,-34.044983,792.48 18.344364,-34.05003,822.96 18.344765,-34.051052,853.44 18.346943,-34.054504,1036.32 18.34734,-34.054546,1036.32 18.349113,-34.052635,1036.32 18.349411,-34.051666,1036.32 18.350029,-34.047653,1036.32 18.350086,-34.046631,1036.32 18.349342,-34.041882,1036.32 18.348942,-34.040764,1036.32 18.346367,-34.03611,1005.84 18.345543,-34.034958,1005.84 18.341843,-34.030334,944.88 18.340721,-34.029099,944.88 18.33691,-34.024887,914.4 18.335781,-34.023682,914.4 18.329773,-34.015675,883.92 18.329201,-34.014229,853.44 18.328615,-34.00914,822.96 18.328671,-34.007858,822.96 18.329399,-34.002319,792.48 18.329567,-34.001221,792.48 18.330517,-33.996262,792.48 18.33349,-33.986526,762 18.34013,-33.972008,762 18.341619,-33.969315,762 18.346439,-33.959015,731.52 18.347055,-33.957504,701.04 18.348961,-33.952423,701.04 18.3494,-33.95092,701.04 18.351036,-33.945648,701.04 18.351259,-33.944778,701.04 18.355576,-33.932785,640.08 18.356249,-33.931503,609.6 18.358898,-33.927132,609.6 18.359556,-33.926193,609.6 18.362389,-33.922291,579.12 18.363075,-33.921406,579.12 18.366226,-33.917358,579.12 18.366966,-33.916424,579.12 18.370285,-33.912605,579.12 18.371103,-33.911774,579.12 18.374405,-33.908279,548.64 18.37525,-33.907425,579.12 18.379286,-33.90358,579.12 18.380239,-33.90271,548.64 18.383789,-33.899525,548.64 18.384947,-33.89859,548.64 18.391628,-33.892822,548.64 18.394604,-33.890263,548.64 18.403416,-33.883327,548.64 18.40451,-33.882614,548.64 18.409023,-33.880253,518.16 18.410395,-33.87973,518.16 18.415159,-33.879044,518.16 18.416576,-33.879089,518.16 18.421097,-33.879974,487.68 18.42207,-33.880299,487.68 18.426371,-33.882019,457.2 18.427505,-33.882534,457.2 18.431168,-33.884583,426.72 18.431808,-33.885086,396.24 18.434217,-33.887878,335.28 18.434555,-33.888657,335.28 18.435059,-33.891613,274.32 18.435003,-33.892456,243.84 18.434429,-33.895012,213.36 18.433857,-33.89566,182.88 18.430799,-33.895798,182.88 18.42979,-33.895569,152.4 18.427773,-33.897446,91.44 18.427773,-33.897995,91.44 18.427448,-33.899525,91.44 18.427322,-33.899872,91.44
        </coordinates>
      </LineString>
    </Placemark>
  </Document>
</kml>