<?xml version="1.0" encoding="UTF-8"?>
<kml xmlns="http://www.opengis.net/kml/2.2">
  <Document>
    <name>Flight Path - Optimised</name>
    <description><![CDATA[Optimised flight path with 226 points (decimated from 1130 original points). Source format: Google Earth Extended (gx:coord)]]></description>
    
    <Style id="flightPath">
      <LineStyle>
        <color>ff0000ff</color>
        <width>3</width>
      </LineStyle>
    </Style>
    
    <Placemark>
      <name>Flight Path</name>
      <description><![CDATA[Optimized flight path]]></description>
      <styleUrl>#flightPath</styleUrl>
      <LineString>
        <extrude>1</extrude>
        <tessellate>1</tessellate>
        <altitudeMode>absolute</altitudeMode>
        <coordinates>
          18.427099,-33.901062,15 18.427048,-33.900596,22 18.427379,-33.899734,22 18.429285,-33.897079,53 18.43405,-33.8909,106 18.43646,-33.884216,160 18.434372,-33.881045,198 18.425698,-33.878998,243 18.409767,-33.878717,327 18.395748,-33.882022,403 18.382201,-33.889526,495 18.371887,-33.898874,601 18.36163,-33.914703,716 18.354006,-33.932236,777 18.348793,-33.953522,723 18.349971,-33.959061,739 18.352381,-33.960342,746 18.354664,-33.959578,761 18.358612,-33.953899,800 18.361301,-33.946637,739 18.364096,-33.931366,601 18.37286,-33.910885,541 18.382874,-33.897664,472 18.395748,-33.888958,480 18.415546,-33.882674,457 18.426707,-33.881607,434 18.439236,-33.888912,350 18.446549,-33.894791,266 18.445877,-33.898224,213 18.441238,-33.900503,152 18.432827,-33.900922,60 18.429966,-33.900876,30 18.428421,-33.900922,15 18.427277,-33.901015,15 18.427057,-33.901131,0 18.427772,-33.900055,22 18.431583,-33.898132,60 18.435731,-33.89502,129 18.436089,-33.891752,167 18.432827,-33.886724,213 18.424633,-33.880463,251 18.414688,-33.877972,281 18.401203,-33.878265,342 18.391743,-33.881557,396 18.380527,-33.890308,495 18.369925,-33.899551,571 18.366337,-33.899991,586 18.361301,-33.899107,594 18.35821,-33.901062,594 18.355296,-33.910172,632 18.349915,-33.929993,746 18.342991,-33.952269,807 18.329736,-33.989639,792 18.325367,-34.007527,777 18.328839,-34.0215,754 18.337583,-34.043243,792 18.340931,-34.064647,830 18.364993,-34.103714,754 18.388596,-34.110128,723 18.413366,-34.115341,708 18.433041,-34.116714,754 18.444443,-34.115109,769 18.45378,-34.110123,754 18.461723,-34.105706,708 18.464813,-34.10133,708 18.46415,-34.095566,685 18.451653,-34.070466,701 18.442514,-34.049194,701 18.43915,-34.032166,754 18.439751,-34.016046,784 18.440323,-34.003151,800 18.444419,-33.990143,777 18.452379,-33.974075,731 18.46138,-33.959439,708 18.462296,-33.950361,670 18.459105,-33.939011,609 18.451595,-33.925316,472 18.445415,-33.915121,320 18.442682,-33.904404,190 18.440609,-33.898036,144 18.437977,-33.897105,129 18.430824,-33.898688,53 18.42762,-33.899805,22 18.426991,-33.900457,15 18.427099,-33.901062,7 18.427155,-33.901062,7 18.427305,-33.901085,0 18.427884,-33.901245,15 18.429394,-33.901388,22 18.43433,-33.900101,68 18.437405,-33.896965,114 18.438422,-33.890762,144 18.436684,-33.88385,190 18.431969,-33.879974,213 18.418187,-33.876114,259 18.404398,-33.875381,327 18.392963,-33.877441,403 18.382702,-33.881976,480 18.37389,-33.889564,548 18.362807,-33.899048,609 18.356753,-33.910904,632 18.347,-33.941849,685 18.345394,-33.946776,769 18.343468,-33.954391,899 18.344765,-33.959578,975 18.347785,-33.962219,1028 18.350258,-33.962278,1043 18.352032,-33.960509,1028 18.353838,-33.953796,975 18.35793,-33.93512,845 18.364096,-33.9207,754 18.374691,-33.905903,609 18.390216,-33.889389,525 18.401763,-33.882431,472 18.413486,-33.879462,449 18.42368,-33.880646,403 18.429394,-33.884117,350 18.432256,-33.889847,259 18.433433,-33.895157,160 18.431864,-33.897217,99 18.42822,-33.899139,30 18.427491,-33.899734,22 18.427262,-33.900038,0 18.426973,-33.900272,0 18.426875,-33.900742,7 18.427155,-33.900993,0 18.427015,-33.901142,0 18.427105,-33.901109,30 18.427019,-33.901132,0 18.427043,-33.901062,22 18.427048,-33.900364,30 18.428613,-33.898224,38 18.434143,-33.891239,129 18.435675,-33.886414,190 18.434086,-33.882907,236 18.430014,-33.880508,281 18.424759,-33.879788,358 18.412228,-33.882255,464 18.398037,-33.886957,556 18.384247,-33.894777,670 18.370914,-33.906043,784 18.359241,-33.919171,822 18.347054,-33.939095,868 18.334444,-33.965515,861 18.327774,-33.990051,830 18.327255,-34.007341,822 18.334164,-34.03418,830 18.338648,-34.047134,830 18.341503,-34.048865,853 18.344135,-34.048865,861 18.345823,-34.047226,861 18.346103,-34.041092,838 18.341563,-34.027359,792 18.334637,-34.014929,784 18.334637,-34.008039,784 18.341961,-33.988766,746 18.349578,-33.97728,739 18.357482,-33.958832,739 18.364449,-33.934952,647 18.373489,-33.914376,609 18.38562,-33.898688,586 18.397923,-33.888307,556 18.40692,-33.88472,525 18.422985,-33.884164,426 18.4342,-33.886677,380 18.439879,-33.890488,320 18.441897,-33.895889,251 18.440944,-33.899872,182 18.43831,-33.901337,137 18.432088,-33.900421,60 18.429229,-33.900421,38 18.427505,-33.900783,22 18.427043,-33.901108,15 18.427048,-33.901155,15 18.427043,-33.901108,22 18.427391,-33.901341,30 18.43007,-33.900696,68 18.434666,-33.899185,114 18.436031,-33.896546,167 18.434554,-33.889618,236 18.432368,-33.88559,274 18.42802,-33.883465,312 18.417402,-33.882889,388 18.409023,-33.883977,464 18.397671,-33.888382,548 18.384947,-33.895432,617 18.372631,-33.905438,655 18.353634,-33.926899,739 18.340988,-33.944588,731 18.34061,-33.94931,777 18.342934,-33.951711,807 18.345966,-33.951851,822 18.34941,-33.948486,800 18.360172,-33.932373,746 18.369421,-33.91864,655 18.385396,-33.901566,548 18.399241,-33.889847,510 18.41177,-33.884955,464 18.421662,-33.883759,380 18.42553,-33.885132,327 18.428535,-33.889471,236 18.429508,-33.894265,144 18.428421,-33.896919,76 18.427162,-33.899945,30 18.427043,-33.900742,15 18.427048,-33.901155,7 18.427043,-33.901165,0 18.427033,-33.901132,0 18.427029,-33.901154,0 18.427105,-33.901109,30 18.428164,-33.901337,38 18.431396,-33.900783,45 18.435283,-33.899048,68 18.436718,-33.895988,76 18.436031,-33.884815,152 18.433285,-33.880532,182 18.428444,-33.879318,213 18.411999,-33.879415,312 18.39695,-33.882069,350 18.38562,-33.887695,449 18.373625,-33.897903,541 18.358669,-33.916471,586 18.346439,-33.938873,662 18.333771,-33.968307,761 18.327213,-33.988174,761 18.329544,-33.997099,754
        </coordinates>
      </LineString>
    </Placemark>
  </Document>
</kml>