<?xml version="1.0" encoding="UTF-8"?>
<kml xmlns="http://www.opengis.net/kml/2.2">
  <Document>
    <name>FR24 ZSHIE 3dd1c8f5 - Optimised</name>
    <description><![CDATA[Optimised flight path with 1 points (decimated from 1 original points). Source format: Standard KML]]></description>
    
    <Style id="flightPath">
      <LineStyle>
        <color>ff0000ff</color>
        <width>3</width>
      </LineStyle>
    </Style>
    
    <Placemark>
      <name>Flight Path</name>
      <description><![CDATA[Source: ADS-B
Start (SAST): 2026-01-08 12:44:37
End (SAST): 2026-01-08 17:09:28
Points: 1363]]></description>
      <styleUrl>#flightPath</styleUrl>
      <LineString>
        <extrude>1</extrude>
        <tessellate>1</tessellate>
        <altitudeMode>absolute</altitudeMode>
        <coordinates>
          18.41818,-33.88151,312.42 18.41477,-33.88115,327.66 18.4112,-33.88086,358.14000000000004 18.41034,-33.88078,365.76 18.40937,-33.88076,365.76 18.40857,-33.88076,365.76 18.40754,-33.88076,373.38 18.40679,-33.88076,373.38 18.40557,-33.88083,373.38 18.40473,-33.88087,373.38 18.40359,-33.88095,373.38 18.40267,-33.88105,373.38 18.40165,-33.8811,373.38 18.40064,-33.88124,373.38 18.39941,-33.88137,381 18.39857,-33.88147,381 18.39745,-33.88161,381 18.39649,-33.88179,381 18.39543,-33.88216,381 18.39459,-33.88225,388.62 18.39358,-33.88252,388.62 18.39274,-33.88275,388.62 18.39163,-33.88314,388.62 18.39083,-33.88348,396.24 18.3898,-33.88388,403.86 18.38871,-33.8844,411.48 18.38781,-33.88486,411.48 18.38702,-33.88527,411.48 18.38612,-33.88573,411.48 18.38523,-33.88623,411.48 18.38444,-33.88669,419.1 18.38345,-33.88742,419.1 18.38271,-33.88788,419.1 18.38173,-33.88845,426.72 18.38097,-33.88893,426.72 18.37887,-33.89026,434.34000000000003 18.37805,-33.89081,434.34000000000003 18.37733,-33.89131,441.96000000000004 18.37641,-33.89198,441.96000000000004 18.37542,-33.89264,449.58000000000004 18.37475,-33.89319,449.58000000000004 18.37389,-33.89389,457.20000000000005 18.37318,-33.89452,457.20000000000005 18.37257,-33.89506,464.82000000000005 18.37189,-33.89566,464.82000000000005 18.3712,-33.89627,472.44 18.37051,-33.89697,472.44 18.36987,-33.89763,472.44 18.36925,-33.89827,472.44 18.36864,-33.89886,480.06 18.36785,-33.89969,487.68 18.3672,-33.90032,495.3 18.36662,-33.90092,502.92 18.36611,-33.90152,502.92 18.36542,-33.90232,510.54 18.36485,-33.90297,518.1600000000001 18.36438,-33.90358,518.1600000000001 18.36376,-33.90432,525.78 18.36314,-33.90514,525.78 18.36273,-33.90567,533.4 18.36208,-33.9066,533.4 18.36157,-33.90729,541.02 18.36107,-33.90795,541.02 18.36062,-33.90866,548.64 18.36006,-33.90953,548.64 18.35961,-33.91031,548.64 18.35913,-33.91112,548.64 18.35873,-33.91196,548.64 18.35815,-33.91292,548.64 18.35764,-33.91396,548.64 18.35726,-33.91475,548.64 18.35675,-33.91571,556.26 18.35625,-33.91672,556.26 18.35575,-33.91777,556.26 18.35535,-33.91859,556.26 18.35489,-33.91959,563.88 18.35449,-33.92052,563.88 18.35409,-33.92141,563.88 18.35361,-33.92253,571.5 18.35322,-33.9234,579.12 18.35289,-33.9242,586.74 18.35255,-33.92504,586.74 18.35215,-33.92601,586.74 18.35175,-33.92685,586.74 18.35126,-33.92793,594.36 18.35087,-33.92876,594.36 18.35049,-33.9296,601.98 18.35003,-33.93058,609.6 18.34952,-33.93159,609.6 18.34913,-33.93242,617.22 18.34868,-33.93338,624.84 18.34823,-33.93434,624.84 18.3479,-33.93503,632.46 18.34722,-33.93654,640.08 18.34682,-33.93728,647.7 18.34504,-33.94098,670.5600000000001 18.34373,-33.94361,670.5600000000001 18.34236,-33.94636,670.5600000000001 18.34099,-33.94925,670.5600000000001 18.33943,-33.95247,678.1800000000001 18.33853,-33.9546,685.8000000000001 18.33721,-33.95744,701.0400000000001 18.33573,-33.96075,716.2800000000001 18.33461,-33.96313,723.9000000000001 18.33293,-33.9668,739.14 18.33086,-33.97108,746.76 18.32973,-33.97343,754.38 18.32632,-33.98058,762 18.32382,-33.9856,762 18.32211,-33.98891,762 18.3205,-33.99179,762 18.3189,-33.99468,762 18.31673,-33.99836,754.38 18.31611,-33.99934,754.38 18.31533,-34.00044,754.38 18.31478,-34.00124,754.38 18.3141,-34.00218,754.38 18.31337,-34.0031,754.38 18.31275,-34.00388,754.38 18.31186,-34.00488,746.76 18.31106,-34.00562,746.76 18.31012,-34.00653,746.76 18.3094,-34.00711,739.14 18.30837,-34.00785,739.14 18.3074,-34.0086,739.14 18.30636,-34.00923,739.14 18.3053,-34.00996,739.14 18.30446,-34.01056,739.14 18.30345,-34.01125,739.14 18.30255,-34.01207,739.14 18.30182,-34.01276,739.14 18.30104,-34.01367,739.14 18.30042,-34.01446,739.14 18.2998,-34.01546,739.14 18.29913,-34.01651,739.14 18.2987,-34.0173,746.76 18.29818,-34.0183,746.76 18.29762,-34.01949,746.76 18.29728,-34.0204,754.38 18.29695,-34.02132,754.38 18.29655,-34.02255,754.38 18.29622,-34.02351,754.38 18.29601,-34.02452,754.38 18.29571,-34.02585,754.38 18.2955,-34.02689,754.38 18.29538,-34.02782,754.38 18.29521,-34.02913,754.38 18.2951,-34.03024,754.38 18.29498,-34.03127,754.38 18.29498,-34.03239,754.38 18.29493,-34.03349,754.38 18.29493,-34.03471,754.38 18.29504,-34.03579,754.38 18.29515,-34.03711,754.38 18.29538,-34.03839,754.38 18.2956,-34.03958,754.38 18.29582,-34.04073,762 18.2961,-34.04182,762 18.29647,-34.04305,762 18.29678,-34.04416,762 18.29711,-34.04521,762 18.2975,-34.04631,762 18.29795,-34.04755,762 18.29847,-34.04887,762 18.29887,-34.04989,762 18.2993,-34.05089,769.62 18.29969,-34.05194,769.62 18.3003,-34.05329,769.62 18.30082,-34.05431,769.62 18.30145,-34.05557,769.62 18.30193,-34.05661,769.62 18.30244,-34.05762,769.62 18.30322,-34.05913,769.62 18.30373,-34.06009,769.62 18.3042,-34.06102,769.62 18.30494,-34.06237,769.62 18.30545,-34.06334,769.62 18.30603,-34.06441,769.62 18.30664,-34.06563,769.62 18.30717,-34.0666,777.24 18.30774,-34.06758,777.24 18.30826,-34.06856,777.24 18.30883,-34.06956,777.24 18.30939,-34.07053,777.24 18.31012,-34.07172,769.62 18.31068,-34.07268,777.24 18.31135,-34.07386,777.24 18.31203,-34.07503,777.24 18.3127,-34.07616,777.24 18.31335,-34.07722,784.86 18.31393,-34.07822,784.86 18.31461,-34.07903,792.48 18.31533,-34.08009,792.48 18.316,-34.08105,792.48 18.31678,-34.0821,792.48 18.31774,-34.08334,792.48 18.31839,-34.0842,792.48 18.31913,-34.08513,792.48 18.3201,-34.08629,792.48 18.3211,-34.08746,792.48 18.32182,-34.08829,792.48 18.32273,-34.08927,792.48 18.32371,-34.09039,792.48 18.32474,-34.09142,792.48 18.3257,-34.09236,792.48 18.32668,-34.09337,792.48 18.32766,-34.09421,792.48 18.32862,-34.09511,792.48 18.32983,-34.09616,792.48 18.33086,-34.09703,792.48 18.33187,-34.09785,792.48 18.33321,-34.09886,784.86 18.33439,-34.09973,792.48 18.33545,-34.10056,792.48 18.33658,-34.10138,792.48 18.33784,-34.10231,792.48 18.33927,-34.10333,784.86 18.34027,-34.10403,784.86 18.34167,-34.10501,784.86 18.34316,-34.10598,784.86 18.34425,-34.10674,777.24 18.34562,-34.10757,777.24 18.347,-34.10843,777.24 18.34843,-34.1092,769.62 18.34969,-34.10985,769.62 18.35094,-34.11045,769.62 18.35249,-34.11108,762 18.45722,-34.13794,457.20000000000005 18.46198,-34.13651,464.82000000000005 18.46587,-34.13521,472.44 18.4676,-34.13455,464.82000000000005 18.46882,-34.13402,472.44 18.47013,-34.13337,464.82000000000005 18.47131,-34.13272,464.82000000000005 18.47247,-34.13199,464.82000000000005 18.47362,-34.13128,464.82000000000005 18.47484,-34.13053,464.82000000000005 18.47602,-34.12984,464.82000000000005 18.47717,-34.12901,464.82000000000005 18.4782,-34.12824,464.82000000000005 18.47915,-34.12748,464.82000000000005 18.48022,-34.12656,464.82000000000005 18.48112,-34.12573,464.82000000000005 18.48192,-34.12484,464.82000000000005 18.48263,-34.12397,464.82000000000005 18.48336,-34.12301,457.20000000000005 18.48406,-34.12206,457.20000000000005 18.48465,-34.12099,457.20000000000005 18.4851,-34.12008,457.20000000000005 18.48557,-34.11919,457.20000000000005 18.48598,-34.11823,457.20000000000005 18.48636,-34.11722,457.20000000000005 18.48669,-34.11631,457.20000000000005 18.48693,-34.11535,457.20000000000005 18.48712,-34.11412,457.20000000000005 18.48735,-34.11306,464.82000000000005 18.48753,-34.11198,464.82000000000005 18.4878,-34.11105,457.20000000000005 18.48805,-34.11007,457.20000000000005 18.48834,-34.10898,449.58000000000004 18.48858,-34.108,449.58000000000004 18.48877,-34.10688,464.82000000000005 18.48894,-34.10612,449.58000000000004 18.48908,-34.10515,449.58000000000004 18.48931,-34.10392,449.58000000000004 18.48955,-34.10302,449.58000000000004 18.48975,-34.10198,449.58000000000004 18.4899,-34.1011,449.58000000000004 18.49012,-34.10023,457.20000000000005 18.49026,-34.09924,457.20000000000005 18.49035,-34.0983,449.58000000000004 18.49016,-34.09705,457.20000000000005 18.4903,-34.09641,457.20000000000005 18.489,-34.09588,449.58000000000004 18.49043,-34.0944,457.20000000000005 18.49079,-34.09324,457.20000000000005 18.4904,-34.09242,449.58000000000004 18.49067,-34.09132,449.58000000000004 18.49071,-34.09018,441.96000000000004 18.49058,-34.08913,441.96000000000004 18.49065,-34.08792,441.96000000000004 18.49111,-34.08718,434.34000000000003 18.49113,-34.08625,434.34000000000003 18.49106,-34.08507,434.34000000000003 18.49189,-34.08373,426.72 18.49182,-34.08284,426.72 18.49156,-34.08195,426.72 18.49214,-34.08078,426.72 18.49267,-34.07949,426.72 18.4926,-34.07678,426.72 18.49269,-34.07389,419.1 18.49254,-34.07306,419.1 18.49249,-34.07207,419.1 18.49253,-34.07101,419.1 18.49244,-34.06995,419.1 18.4921,-34.06908,411.48 18.49177,-34.06825,411.48 18.49152,-34.06719,411.48 18.49154,-34.0662,403.86 18.4917,-34.06508,396.24 18.49167,-34.064,396.24 18.49168,-34.06302,396.24 18.49174,-34.06191,396.24 18.49171,-34.06093,396.24 18.49176,-34.05768,396.24 18.49177,-34.05353,396.24 18.49174,-34.05058,388.62 18.4914,-34.0497,388.62 18.49155,-34.04862,388.62 18.4914,-34.04766,381 18.49142,-34.04656,381 18.49138,-34.04571,373.38 18.4909,-34.04473,373.38 18.4908,-34.04377,373.38 18.49073,-34.04282,373.38 18.49068,-34.04173,365.76 18.49076,-34.04074,365.76 18.49113,-34.03945,365.76 18.4914,-34.03841,365.76 18.49166,-34.03722,365.76 18.49124,-34.03642,365.76 18.49124,-34.0354,365.76 18.49107,-34.03456,373.38 18.49105,-34.03371,381 18.49101,-34.03271,381 18.49063,-34.03183,381 18.49041,-34.03083,381 18.49052,-34.02958,381 18.4905,-34.0287,381 18.4905,-34.02761,381 18.4907,-34.0267,381 18.4907,-34.02549,381 18.49059,-34.02471,381 18.49043,-34.02373,381 18.49053,-34.02253,381 18.49063,-34.02118,388.62 18.49068,-34.02023,388.62 18.49054,-34.01934,388.62 18.49043,-34.01841,388.62 18.4902,-34.01746,381 18.48997,-34.01657,388.62 18.48994,-34.0157,388.62 18.48999,-34.01459,388.62 18.49005,-34.01381,388.62 18.49005,-34.01266,388.62 18.48987,-34.01168,381 18.48952,-34.01074,381 18.48926,-34.00961,373.38 18.48946,-34.00855,373.38 18.48978,-34.00739,373.38 18.48992,-34.0064,365.76 18.49012,-34.00533,365.76 18.48975,-34.0044,373.38 18.48922,-34.00348,373.38 18.48917,-34.00242,381 18.48947,-34.00139,373.38 18.48963,-34.00043,365.76 18.48959,-33.99958,365.76 18.48925,-33.99859,365.76 18.48915,-33.99749,358.14000000000004 18.48906,-33.99664,350.52000000000004 18.48903,-33.9955,350.52000000000004 18.48911,-33.99453,342.90000000000003 18.48921,-33.99347,342.90000000000003 18.48945,-33.99261,342.90000000000003 18.48938,-33.99159,350.52000000000004 18.48946,-33.99047,358.14000000000004 18.4895,-33.98937,358.14000000000004 18.48958,-33.98837,358.14000000000004 18.48966,-33.98769,365.76 18.48944,-33.9868,358.14000000000004 18.48918,-33.98592,358.14000000000004 18.48897,-33.98484,365.76 18.48871,-33.98392,358.14000000000004 18.48888,-33.98309,358.14000000000004 18.48905,-33.98211,358.14000000000004 18.48919,-33.981,365.76 18.48915,-33.97991,365.76 18.48915,-33.97906,365.76 18.48911,-33.97797,358.14000000000004 18.48915,-33.97704,350.52000000000004 18.48916,-33.97552,350.52000000000004 18.48879,-33.97368,350.52000000000004 18.48879,-33.97275,335.28000000000003 18.48876,-33.97169,327.66 18.48873,-33.97057,327.66 18.4887,-33.96959,320.04 18.48867,-33.96847,320.04 18.48862,-33.96759,320.04 18.48856,-33.96656,312.42 18.4885,-33.96558,312.42 18.48837,-33.96465,312.42 18.4882,-33.96359,304.8 18.48804,-33.96265,304.8 18.48787,-33.96177,304.8 18.4877,-33.96079,304.8 18.48752,-33.95984,297.18 18.4873,-33.95874,297.18 18.48713,-33.95787,297.18 18.4869,-33.95674,289.56 18.4868,-33.95599,289.56 18.48657,-33.9549,289.56 18.48639,-33.95395,289.56 18.48621,-33.95278,289.56 18.48604,-33.95171,289.56 18.48593,-33.95082,281.94 18.48573,-33.94968,281.94 18.48564,-33.94883,281.94 18.48551,-33.9478,281.94 18.48536,-33.94687,281.94 18.48511,-33.94583,281.94 18.48495,-33.94492,281.94 18.48473,-33.94408,281.94 18.48438,-33.94299,281.94 18.48415,-33.94212,281.94 18.48394,-33.94139,281.94 18.48358,-33.94035,281.94 18.48324,-33.93956,281.94 18.48281,-33.93851,274.32 18.48249,-33.93765,274.32 18.48215,-33.93686,274.32 18.48181,-33.93599,274.32 18.48146,-33.93523,274.32 18.48095,-33.93416,274.32 18.48061,-33.93337,274.32 18.48013,-33.93242,274.32 18.47973,-33.93159,274.32 18.47929,-33.93085,274.32 18.47883,-33.93002,274.32 18.47833,-33.92921,274.32 18.4778,-33.92844,266.7 18.47706,-33.92751,274.32 18.47643,-33.92674,266.7 18.47581,-33.92606,266.7 18.47514,-33.92542,266.7 18.47458,-33.92491,266.7 18.47374,-33.92411,266.7 18.47306,-33.92354,266.7 18.47225,-33.92289,266.7 18.47139,-33.9222,266.7 18.47054,-33.9215,266.7 18.46981,-33.92093,266.7 18.46908,-33.92043,266.7 18.46813,-33.91969,266.7 18.4675,-33.91922,266.7 18.4667,-33.91866,266.7 18.46579,-33.91796,259.08000000000004 18.46481,-33.91731,259.08000000000004 18.46404,-33.91676,259.08000000000004 18.46303,-33.91608,259.08000000000004 18.46224,-33.91548,251.46 18.46144,-33.91489,251.46 18.46052,-33.91419,251.46 18.45972,-33.91351,243.84 18.45888,-33.91278,243.84 18.4581,-33.91209,243.84 18.45732,-33.91135,251.46 18.45663,-33.9107,251.46 18.4558,-33.9099,251.46 18.45503,-33.90916,251.46 18.45451,-33.90865,251.46 18.45366,-33.90776,251.46 18.45322,-33.90729,251.46 18.45238,-33.90642,251.46 18.45176,-33.90573,251.46 18.45102,-33.90493,251.46 18.4503,-33.90417,251.46 18.44975,-33.90358,251.46 18.44908,-33.90292,243.84 18.44818,-33.90211,236.22 18.44765,-33.90167,228.60000000000002 18.44683,-33.90106,220.98000000000002 18.44587,-33.90055,213.36 18.44504,-33.90024,205.74 18.44421,-33.89999,198.12 18.44319,-33.89987,190.5 18.44238,-33.89985,182.88 18.44147,-33.89985,175.26000000000002 18.44061,-33.89999,167.64000000000001 18.43966,-33.90015,152.4 18.43912,-33.90027,144.78 18.43831,-33.90042,137.16 18.43758,-33.90055,121.92 18.43689,-33.90064,114.30000000000001 18.43615,-33.90069,106.68 18.43528,-33.9007,91.44 18.43456,-33.90074,83.82000000000001 18.43391,-33.90069,76.2 18.43311,-33.9006,60.96 18.43287,-33.90005,53.34 18.4322,-33.89999,45.72 18.43134,-33.90032,38.1 18.43102,-33.90028,38.1 18.43105,-33.89976,30.48 18.43071,-33.90018,30.48 18.43041,-33.90015,30.48 18.43014,-33.89967,22.86 18.42979,-33.89971,15.24 18.42951,-33.89976,15.24 18.42923,-33.90005,15.24 18.42888,-33.90013,7.62 18.42867,-33.90024,7.62 18.42839,-33.90033,0 18.42796,-33.90041,0 18.42772,-33.90047,0 18.42751,-33.90051,0 18.42731,-33.90061,0 18.4271,-33.90041,15.24 18.42671,-33.89996,15.24 18.42665,-33.89967,22.86 18.42699,-33.89937,22.86 18.42705,-33.89906,22.86 18.42715,-33.89877,30.48 18.42699,-33.89841,30.48 18.42728,-33.89808,38.1 18.42766,-33.89767,45.72 18.42828,-33.89713,53.34 18.42871,-33.89673,60.96 18.42928,-33.89631,68.58 18.42979,-33.89589,76.2 18.43025,-33.89548,83.82000000000001 18.43094,-33.89487,91.44 18.43128,-33.89459,99.06 18.43192,-33.89401,99.06 18.43248,-33.89351,106.68 18.43306,-33.89301,114.30000000000001 18.4336,-33.8925,121.92 18.43409,-33.89203,121.92 18.43472,-33.89133,129.54000000000002 18.43523,-33.89082,129.54000000000002 18.43575,-33.89026,137.16 18.43635,-33.88957,144.78 18.4368,-33.88907,152.4 18.43736,-33.88838,160.02 18.43769,-33.88792,167.64000000000001 18.43815,-33.8871,175.26000000000002 18.43848,-33.88641,182.88 18.43865,-33.88596,190.5 18.4387,-33.88518,198.12 18.4338,-33.88207,266.7 18.43311,-33.88198,266.7 18.43231,-33.88188,266.7 18.43163,-33.88184,274.32 18.4308,-33.88179,274.32 18.42773,-33.88151,289.56 18.42452,-33.8812,304.8 18.42224,-33.88095,320.04 18.41944,-33.88067,320.04 18.41681,-33.88049,327.66 18.41611,-33.88046,335.28000000000003 18.41526,-33.88044,335.28000000000003 18.41429,-33.88039,335.28000000000003 18.41349,-33.88034,335.28000000000003 18.41251,-33.8803,342.90000000000003 18.41166,-33.88025,342.90000000000003 18.41085,-33.88021,350.52000000000004 18.40989,-33.8801,350.52000000000004 18.40905,-33.88005,350.52000000000004 18.40811,-33.87997,358.14000000000004 18.40726,-33.87996,358.14000000000004 18.40619,-33.87991,358.14000000000004 18.40546,-33.87991,365.76 18.4044,-33.87991,365.76 18.40359,-33.87993,373.38 18.40267,-33.87997,381 18.40165,-33.88005,388.62 18.40087,-33.8801,388.62 18.40004,-33.88021,396.24 18.39907,-33.88039,403.86 18.39815,-33.88058,411.48 18.39734,-33.88074,411.48 18.39655,-33.88092,411.48 18.39581,-33.88114,419.1 18.39498,-33.88138,419.1 18.39403,-33.8817,419.1 18.39323,-33.88198,426.72 18.39237,-33.8823,426.72 18.39163,-33.88263,434.34000000000003 18.39055,-33.88307,434.34000000000003 18.3898,-33.88346,441.96000000000004 18.38905,-33.88384,441.96000000000004 18.38809,-33.88431,441.96000000000004 18.38747,-33.88463,449.58000000000004 18.38659,-33.88514,449.58000000000004 18.3859,-33.88554,449.58000000000004 18.38516,-33.88602,457.20000000000005 18.38448,-33.88644,457.20000000000005 18.38366,-33.88692,464.82000000000005 18.38293,-33.88737,464.82000000000005 18.38213,-33.88789,472.44 18.38127,-33.88849,472.44 18.3807,-33.88887,472.44 18.38001,-33.88938,480.06 18.37921,-33.88998,480.06 18.37839,-33.89063,480.06 18.37777,-33.89113,480.06 18.37693,-33.89182,480.06 18.37626,-33.89241,480.06 18.37555,-33.89301,480.06 18.37469,-33.89371,480.06 18.37385,-33.89442,480.06 18.37318,-33.89507,480.06 18.37257,-33.89557,480.06 18.37177,-33.89631,480.06 18.37116,-33.89694,487.68 18.37032,-33.89777,487.68 18.3696,-33.8985,487.68 18.36897,-33.8992,495.3 18.36811,-33.90004,495.3 18.36768,-33.90056,495.3 18.36701,-33.90134,495.3 18.36628,-33.90216,495.3 18.36559,-33.90306,495.3 18.36505,-33.90376,502.92 18.36451,-33.90442,502.92 18.36393,-33.90516,502.92 18.36325,-33.90609,502.92 18.36273,-33.90683,510.54 18.36208,-33.90779,510.54 18.36152,-33.90871,518.1600000000001 18.36101,-33.90944,518.1600000000001 18.36057,-33.91022,525.78 18.36004,-33.91107,525.78 18.3595,-33.91205,533.4 18.35916,-33.91269,533.4 18.35866,-33.9137,533.4 18.35815,-33.91466,541.02 18.35782,-33.91539,541.02 18.35735,-33.91624,548.64 18.35695,-33.91703,548.64 18.35647,-33.91805,548.64 18.35604,-33.91889,548.64 18.35569,-33.91969,556.26 18.35524,-33.92061,556.26 18.35485,-33.92148,556.26 18.35438,-33.92252,563.88 18.35361,-33.92413,563.88 18.35318,-33.92499,563.88 18.35266,-33.92606,563.88 18.35232,-33.92676,563.88 18.35193,-33.92766,571.5 18.35137,-33.9288,571.5 18.35083,-33.92988,571.5 18.35049,-33.93072,571.5 18.35009,-33.9316,571.5 18.34969,-33.93248,571.5 18.34919,-33.93365,571.5 18.34877,-33.93458,571.5 18.3484,-33.93553,579.12 18.34803,-33.93644,579.12 18.34734,-33.93821,586.74 18.34694,-33.93924,586.74 18.34649,-33.94029,586.74 18.3461,-33.9413,586.74 18.34498,-33.94409,594.36 18.34402,-33.94654,617.22 18.34274,-33.94995,632.46 18.3415,-33.9532,655.32 18.34122,-33.95418,655.32 18.34087,-33.95511,662.94 18.34047,-33.95637,662.94 18.33954,-33.95911,670.5600000000001 18.33864,-33.96177,678.1800000000001 18.33831,-33.96281,678.1800000000001 18.33736,-33.96547,693.4200000000001 18.33727,-33.96568,693.4200000000001 18.33517,-33.97119,731.52 18.33372,-33.97449,746.76 18.33187,-33.97852,762 18.32994,-33.98248,769.62 18.32771,-33.98686,769.62 18.32703,-33.98807,769.62 18.32571,-33.99016,769.62 18.32452,-33.99211,762 18.32354,-33.99352,762 18.32256,-33.99495,769.62 18.32189,-33.99582,769.62 18.32119,-33.99677,769.62 18.32066,-33.99747,769.62 18.31981,-33.99838,777.24 18.31919,-33.9991,777.24 18.31844,-33.99985,777.24 18.31757,-34.00076,784.86 18.31678,-34.00148,784.86 18.3161,-34.00208,784.86 18.31539,-34.00273,784.86 18.31478,-34.00334,792.48 18.31398,-34.00399,792.48 18.31306,-34.00473,792.48 18.31242,-34.00529,800.1 18.31169,-34.00584,800.1 18.31085,-34.00648,807.72 18.31012,-34.00699,807.72 18.30939,-34.00754,815.34 18.3086,-34.00813,815.34 18.30787,-34.00868,815.34 18.30706,-34.0093,822.96 18.3063,-34.00987,822.96 18.3054,-34.01051,822.96 18.30468,-34.01097,830.58 18.30362,-34.01171,830.58 18.30272,-34.01239,830.58 18.30185,-34.01307,838.2 18.30116,-34.01363,838.2 18.30031,-34.01436,838.2 18.29962,-34.01502,838.2 18.29913,-34.0155,838.2 18.29818,-34.01651,830.58 18.29762,-34.01711,830.58 18.29687,-34.018,830.58 18.29607,-34.01884,830.58 18.29526,-34.01944,822.96 18.29437,-34.02008,822.96 18.29367,-34.02047,822.96 18.29263,-34.021,822.96 18.29179,-34.0215,815.34 18.29083,-34.02214,815.34 18.29012,-34.02293,815.34 18.28977,-34.02374,815.34 18.28977,-34.02452,815.34 18.28999,-34.02521,822.96 18.29078,-34.02617,830.58 18.29155,-34.0268,838.2 18.29246,-34.02718,838.2 18.29397,-34.02763,845.82 18.29504,-34.02773,845.82 18.29633,-34.02782,845.82 18.29756,-34.02773,845.82 18.29887,-34.02745,838.2 18.30002,-34.02708,830.58 18.30165,-34.0264,822.96 18.30265,-34.02582,815.34 18.30357,-34.02522,815.34 18.30465,-34.02443,807.72 18.3058,-34.02347,807.72 18.30664,-34.02264,800.1 18.30743,-34.02182,792.48 18.30821,-34.0209,792.48 18.30912,-34.01977,784.86 18.31009,-34.01856,784.86 18.31078,-34.01763,777.24 18.31135,-34.01674,777.24 18.31221,-34.01549,769.62 18.31292,-34.01436,769.62 18.31354,-34.0134,762 18.31438,-34.01212,762 18.31494,-34.01134,762 18.31598,-34.00981,754.38 18.31662,-34.00891,754.38 18.31747,-34.00771,754.38 18.31813,-34.00681,754.38 18.31881,-34.00584,754.38 18.3197,-34.00464,746.76 18.32073,-34.00315,739.14 18.3215,-34.00214,739.14 18.32216,-34.00119,739.14 18.32291,-34.00022,731.52 18.32399,-33.99878,731.52 18.32469,-33.99783,731.52 18.32564,-33.99664,723.9000000000001 18.32665,-33.99536,716.2800000000001 18.328,-33.99371,716.2800000000001 18.32895,-33.99257,708.6600000000001 18.33429,-33.98635,685.8000000000001 18.33882,-33.98099,655.32 18.34305,-33.97592,640.08 18.347,-33.97084,632.46 18.34868,-33.96835,624.84 18.35053,-33.96556,609.6 18.3521,-33.96295,601.98 18.3535,-33.96057,586.74 18.35501,-33.95786,579.12 18.35642,-33.95517,571.5 18.3573,-33.95334,571.5 18.35827,-33.95101,563.88 18.35894,-33.94949,563.88 18.35939,-33.94839,556.26 18.35993,-33.9471,556.26 18.36039,-33.94613,556.26 18.3609,-33.94487,556.26 18.36129,-33.94409,556.26 18.36182,-33.94287,556.26 18.36219,-33.94189,556.26 18.36275,-33.94061,548.64 18.36376,-33.93828,548.64 18.36594,-33.93309,541.02 18.36737,-33.92978,533.4 18.36886,-33.92688,525.78 18.36998,-33.92473,510.54 18.37065,-33.92358,510.54 18.37143,-33.92229,502.92 18.37206,-33.92139,495.3 18.37269,-33.92038,487.68 18.37349,-33.91922,487.68 18.37423,-33.9181,480.06 18.37492,-33.91712,472.44 18.37564,-33.91612,472.44 18.37626,-33.91539,464.82000000000005 18.37716,-33.9142,464.82000000000005 18.37784,-33.9133,464.82000000000005 18.37878,-33.91219,457.20000000000005 18.3794,-33.91136,457.20000000000005 18.38018,-33.91047,457.20000000000005 18.38093,-33.90963,457.20000000000005 18.38192,-33.90857,457.20000000000005 18.3827,-33.90767,457.20000000000005 18.38349,-33.90688,457.20000000000005 18.38444,-33.90587,457.20000000000005 18.38523,-33.90504,457.20000000000005 18.38631,-33.90404,457.20000000000005 18.38734,-33.90306,457.20000000000005 18.38831,-33.90221,464.82000000000005 18.38915,-33.90152,464.82000000000005 18.39022,-33.9006,457.20000000000005 18.39117,-33.89992,457.20000000000005 18.39229,-33.89914,457.20000000000005 18.39352,-33.89836,457.20000000000005 18.39466,-33.89771,457.20000000000005 18.39609,-33.89701,457.20000000000005 18.39758,-33.89627,457.20000000000005 18.39907,-33.89561,457.20000000000005 18.40015,-33.8952,449.58000000000004 18.40153,-33.89468,449.58000000000004 18.40313,-33.89417,449.58000000000004 18.4044,-33.89378,449.58000000000004 18.40608,-33.89323,441.96000000000004 18.40736,-33.89287,441.96000000000004 18.40885,-33.8925,441.96000000000004 18.41034,-33.89212,434.34000000000003 18.41196,-33.89172,426.72 18.41337,-33.89136,426.72 18.41515,-33.89101,419.1 18.41686,-33.89063,411.48 18.41835,-33.89035,411.48 18.41955,-33.89008,403.86 18.4211,-33.88976,396.24 18.4227,-33.88938,388.62 18.42418,-33.88911,381 18.42558,-33.88884,381 18.42739,-33.88854,373.38 18.42917,-33.88824,365.76 18.43048,-33.88812,358.14000000000004 18.4322,-33.88798,350.52000000000004 18.43394,-33.88797,342.90000000000003 18.435,-33.88803,335.28000000000003 18.43646,-33.8882,327.66 18.4382,-33.88857,312.42 18.43941,-33.88896,304.8 18.44061,-33.88938,289.56 18.4421,-33.89012,281.94 18.44313,-33.89076,274.32 18.4441,-33.89157,266.7 18.4449,-33.89245,259.08000000000004 18.4457,-33.89357,243.84 18.44616,-33.89465,236.22 18.44633,-33.89561,236.22 18.44627,-33.89662,228.60000000000002 18.40499,-33.87166,220.98000000000002 18.37625,-33.88441,434.34000000000003 18.37407,-33.88708,449.58000000000004 18.37943,-33.8922,457.20000000000005 18.37333,-33.89476,472.44 18.36769,-33.89559,480.06 18.36554,-33.90392,487.68 18.36971,-33.90619,502.92 18.36712,-33.90767,510.54 18.36442,-33.90916,510.54 18.36799,-33.91168,533.4 18.36011,-33.91185,533.4 18.36261,-33.91658,548.64 18.3595,-33.91737,548.64 18.37015,-33.92619,563.88 18.3716,-33.92313,556.26 18.36906,-33.91129,518.1600000000001 18.36659,-33.90768,502.92 18.38392,-33.90098,495.3 18.38318,-33.89912,495.3 18.39479,-33.87306,320.04 18.42848,-33.89943,0 18.42813,-33.89925,15.24 18.42811,-33.89891,15.24 18.42816,-33.8985,22.86 18.43293,-33.89301,91.44 18.43334,-33.89254,91.44 18.36555,-33.8605,289.56 18.38317,-33.87899,411.48 18.36088,-33.884,419.1 18.37456,-33.88886,426.72 18.37419,-33.89144,426.72 18.35805,-33.90084,426.72 18.35707,-33.90474,434.34000000000003 18.35559,-33.9063,434.34000000000003 18.35945,-33.90763,441.96000000000004 18.36314,-33.91347,449.58000000000004 18.35487,-33.91278,449.58000000000004 18.36079,-33.91759,441.96000000000004 18.36027,-33.91852,441.96000000000004 18.35989,-33.91937,441.96000000000004 18.35939,-33.92047,434.34000000000003 18.35894,-33.92139,434.34000000000003 18.35855,-33.92235,434.34000000000003 18.35804,-33.92354,434.34000000000003 18.35775,-33.92424,434.34000000000003 18.35726,-33.92542,434.34000000000003 18.35692,-33.92633,426.72 18.35658,-33.92706,426.72 18.35598,-33.92839,419.1 18.35541,-33.92953,419.1 18.35507,-33.93027,419.1 18.35457,-33.93132,419.1 18.35401,-33.93256,419.1 18.35346,-33.9337,419.1 18.35335,-33.93393,419.1 18.35126,-33.93942,403.86 18.35092,-33.94025,403.86 18.35054,-33.94138,403.86 18.3502,-33.94231,411.48 18.34986,-33.94345,411.48 18.34947,-33.9445,411.48 18.34911,-33.94552,419.1 18.34879,-33.94643,419.1 18.34837,-33.94761,426.72 18.34808,-33.9485,434.34000000000003 18.34774,-33.94925,434.34000000000003 18.3474,-33.95013,434.34000000000003 18.34689,-33.95137,434.34000000000003 18.34649,-33.95224,434.34000000000003 18.34566,-33.95421,441.96000000000004 18.34511,-33.95544,441.96000000000004 18.34265,-33.96083,472.44 18.34151,-33.963,480.06 18.34019,-33.96521,487.68 18.33893,-33.96725,495.3 18.33624,-33.9716,502.92 18.33349,-33.97596,502.92 18.33069,-33.98057,502.92 18.32766,-33.98538,502.92 18.32479,-33.98988,502.92 18.32188,-33.99454,495.3 18.31902,-33.9991,495.3 18.31696,-34.00231,495.3 18.31242,-34.00763,487.68 18.31029,-34.00941,480.06 18.30809,-34.01116,472.44 18.30586,-34.01294,472.44 18.30373,-34.01477,464.82000000000005 18.30177,-34.01692,457.20000000000005 18.30031,-34.01907,457.20000000000005 18.29905,-34.02187,449.58000000000004 18.29863,-34.02461,441.96000000000004 18.29882,-34.02768,434.34000000000003 18.2993,-34.03056,426.72 18.29935,-34.03267,419.1 18.29947,-34.03404,419.1 18.29962,-34.03518,411.48 18.29985,-34.03653,411.48 18.30003,-34.03743,411.48 18.30963,-34.05478,388.62 18.31309,-34.06055,396.24 18.31512,-34.064,403.86 18.31712,-34.06778,403.86 18.31774,-34.06911,403.86 18.31821,-34.07033,403.86 18.31844,-34.07112,411.48 18.31886,-34.07236,411.48 18.31925,-34.07364,411.48 18.31965,-34.07478,419.1 18.31999,-34.07563,411.48 18.32043,-34.07666,411.48 18.32099,-34.0779,411.48 18.32159,-34.07903,411.48 18.32217,-34.08,411.48 18.32295,-34.08124,411.48 18.32357,-34.08215,411.48 18.32434,-34.08313,411.48 18.3252,-34.08426,411.48 18.32598,-34.08513,411.48 18.32688,-34.08618,403.86 18.32777,-34.08713,403.86 18.3288,-34.08815,403.86 18.32977,-34.08908,403.86 18.3308,-34.08994,403.86 18.33192,-34.0909,403.86 18.33315,-34.09195,403.86 18.33412,-34.09277,411.48 18.33523,-34.09369,411.48 18.33641,-34.09472,411.48 18.33733,-34.09551,419.1 18.33841,-34.09649,419.1 18.33926,-34.09726,419.1 18.34024,-34.09812,419.1 18.34127,-34.09924,419.1 18.34224,-34.10037,419.1 18.34296,-34.10129,419.1 18.34362,-34.10231,419.1 18.34414,-34.10321,419.1 18.34471,-34.1045,411.48 18.34505,-34.10552,411.48 18.34534,-34.1071,403.86 18.34539,-34.10794,403.86 18.34528,-34.10929,403.86 18.34517,-34.11008,403.86 18.34487,-34.11145,396.24 18.34465,-34.11241,396.24 18.34437,-34.11337,396.24 18.34402,-34.11441,388.62 18.34351,-34.11562,388.62 18.34313,-34.11653,388.62 18.34276,-34.11744,388.62 18.34213,-34.1186,388.62 18.34167,-34.11948,381 18.34093,-34.12046,381 18.34016,-34.12134,373.38 18.33926,-34.12221,373.38 18.33837,-34.12289,373.38 18.3375,-34.12354,373.38 18.33641,-34.12419,365.76 18.33549,-34.1247,365.76 18.33444,-34.12523,365.76 18.33326,-34.12582,365.76 18.33252,-34.12614,365.76 18.33058,-34.12701,365.76 18.32901,-34.1277,365.76 18.32777,-34.12819,358.14000000000004 18.3252,-34.12926,350.52000000000004 18.32394,-34.12982,350.52000000000004 18.31535,-34.13517,342.90000000000003 18.31409,-34.13662,350.52000000000004 18.31337,-34.13763,350.52000000000004 18.31232,-34.13955,350.52000000000004 18.31198,-34.14048,342.90000000000003 18.31169,-34.14166,342.90000000000003 18.31152,-34.1429,342.90000000000003 18.31146,-34.14359,342.90000000000003 18.31152,-34.145,342.90000000000003 18.31152,-34.14523,342.90000000000003 18.31197,-34.14771,342.90000000000003 18.31249,-34.14942,342.90000000000003 18.31606,-34.15691,358.14000000000004 18.31673,-34.15812,358.14000000000004 18.31736,-34.15929,358.14000000000004 18.3178,-34.16002,358.14000000000004 18.32153,-34.16618,358.14000000000004 18.3248,-34.17133,358.14000000000004 18.32577,-34.1727,365.76 18.32783,-34.17522,365.76 18.32811,-34.17549,365.76 18.32903,-34.17646,365.76 18.33977,-34.18446,388.62 18.34127,-34.18526,388.62 18.34302,-34.18616,396.24 18.34431,-34.18671,396.24 18.34557,-34.18726,396.24 18.3512,-34.18973,403.86 18.35233,-34.19037,403.86 18.35339,-34.19106,403.86 18.35451,-34.19202,403.86 18.35535,-34.19294,396.24 18.35619,-34.19412,396.24 18.35684,-34.19527,396.24 18.36271,-34.19437,396.24 18.35878,-34.1997,388.62 18.35918,-34.20076,388.62 18.35958,-34.20202,388.62 18.36033,-34.20454,381 18.36101,-34.20685,373.38 18.36129,-34.20827,373.38 18.36153,-34.20956,365.76 18.36168,-34.21092,365.76 18.36176,-34.2118,365.76 18.36191,-34.21303,358.14000000000004 18.36202,-34.21431,358.14000000000004 18.36222,-34.21548,358.14000000000004 18.36236,-34.21646,358.14000000000004 18.36256,-34.21753,358.14000000000004 18.3629,-34.21892,358.14000000000004 18.36319,-34.21994,350.52000000000004 18.36353,-34.22111,350.52000000000004 18.36393,-34.22237,350.52000000000004 18.36432,-34.22346,350.52000000000004 18.36576,-34.228,350.52000000000004 18.3669,-34.23175,350.52000000000004 18.36718,-34.23276,342.90000000000003 18.36742,-34.23354,342.90000000000003 18.36777,-34.23498,342.90000000000003 18.368,-34.236,342.90000000000003 18.36828,-34.23712,342.90000000000003 18.36852,-34.23839,342.90000000000003 18.36875,-34.2393,342.90000000000003 18.36897,-34.24054,342.90000000000003 18.36914,-34.24159,342.90000000000003 18.36931,-34.24261,342.90000000000003 18.36948,-34.2436,342.90000000000003 18.36966,-34.24494,335.28000000000003 18.36977,-34.24592,335.28000000000003 18.36987,-34.24672,335.28000000000003 18.37006,-34.24839,335.28000000000003 18.37015,-34.24947,327.66 18.37023,-34.25062,327.66 18.37037,-34.25171,327.66 18.37051,-34.253,327.66 18.37065,-34.25404,327.66 18.37074,-34.25509,320.04 18.37088,-34.25638,327.66 18.37091,-34.25733,320.04 18.37099,-34.25858,320.04 18.37109,-34.25961,327.66 18.3711,-34.26073,327.66 18.3712,-34.26156,327.66 18.37126,-34.26263,327.66 18.37143,-34.2638,327.66 18.37149,-34.26443,327.66 18.37172,-34.2658,327.66 18.39066,-34.30341,335.28000000000003 18.39324,-34.30774,350.52000000000004 18.39523,-34.31077,358.14000000000004 18.39581,-34.31156,358.14000000000004 18.39678,-34.31277,365.76 18.39919,-34.3157,381 18.40021,-34.31677,381 18.4012,-34.31781,388.62 18.40221,-34.31887,388.62 18.40296,-34.31961,396.24 18.40434,-34.32097,396.24 18.40529,-34.32188,403.86 18.40593,-34.3225,411.48 18.40731,-34.32385,411.48 18.40857,-34.32506,419.1 18.40967,-34.32596,426.72 18.41068,-34.32683,419.1 18.41163,-34.32761,419.1 18.4128,-34.32846,419.1 18.41398,-34.32935,426.72 18.41503,-34.33014,426.72 18.41623,-34.33104,434.34000000000003 18.41738,-34.3319,434.34000000000003 18.41846,-34.33274,441.96000000000004 18.41925,-34.33333,441.96000000000004 18.42048,-34.3342,449.58000000000004 18.42166,-34.33502,449.58000000000004 18.4227,-34.33577,457.20000000000005 18.4239,-34.33662,457.20000000000005 18.42476,-34.33721,464.82000000000005 18.42581,-34.33791,464.82000000000005 18.4271,-34.3387,464.82000000000005 18.42831,-34.33954,464.82000000000005 18.42928,-34.34024,464.82000000000005 18.43029,-34.34097,464.82000000000005 18.43125,-34.34175,464.82000000000005 18.4322,-34.34252,472.44 18.4334,-34.34349,472.44 18.43427,-34.34422,472.44 18.43523,-34.34496,480.06 18.43646,-34.34587,480.06 18.43758,-34.34666,480.06 18.43837,-34.34729,487.68 18.43935,-34.34801,487.68 18.44055,-34.34889,487.68 18.44141,-34.34954,487.68 18.44261,-34.35052,495.3 18.44353,-34.35127,495.3 18.44448,-34.35201,495.3 18.44548,-34.35283,495.3 18.44662,-34.35374,495.3 18.44753,-34.35448,502.92 18.44874,-34.35539,502.92 18.44963,-34.35612,502.92 18.45062,-34.35685,502.92 18.45154,-34.3576,502.92 18.45271,-34.35855,502.92 18.45366,-34.35932,510.54 18.45457,-34.36007,510.54 18.45566,-34.36095,510.54 18.45658,-34.36171,510.54 18.4577,-34.36263,510.54 18.45894,-34.36363,510.54 18.45989,-34.36432,518.1600000000001 18.46095,-34.36501,518.1600000000001 18.46196,-34.36565,518.1600000000001 18.46304,-34.36631,518.1600000000001 18.46409,-34.36684,518.1600000000001 18.46555,-34.36752,525.78 18.46676,-34.36807,525.78 18.46785,-34.36853,525.78 18.46933,-34.3691,533.4 18.47048,-34.36949,533.4 18.47179,-34.36989,533.4 18.47328,-34.37031,533.4 18.47474,-34.37073,533.4 18.47603,-34.37105,533.4 18.47749,-34.37137,533.4 18.47889,-34.3717,533.4 18.48046,-34.37206,533.4 18.48203,-34.37247,533.4 18.48335,-34.37273,533.4 18.48472,-34.37311,533.4 18.48607,-34.37343,525.78 18.48776,-34.3738,518.1600000000001 18.48909,-34.37407,518.1600000000001 18.49066,-34.37434,510.54 18.49195,-34.37457,510.54 18.49341,-34.37471,510.54 18.49492,-34.37485,502.92 18.49634,-34.37487,502.92 18.49771,-34.37482,495.3 18.4988,-34.37473,495.3 18.50023,-34.37455,487.68 18.50148,-34.37434,480.06 18.50321,-34.37385,480.06 18.50424,-34.37347,480.06 18.50535,-34.37292,472.44 18.50624,-34.37236,472.44 18.50709,-34.37164,472.44 18.50796,-34.37091,472.44 18.50532,-34.37468,464.82000000000005 18.50645,-34.37363,457.20000000000005 18.50855,-34.37051,449.58000000000004 18.5072,-34.37132,449.58000000000004 18.50676,-34.37173,449.58000000000004 18.50922,-34.3619,426.72 18.50759,-34.36089,411.48 18.50641,-34.36095,411.48 18.50538,-34.36105,403.86 18.50456,-34.36116,396.24 18.50361,-34.36132,388.62 18.50241,-34.36156,388.62 18.50131,-34.36176,381 18.50035,-34.36193,381 18.49909,-34.36216,373.38 18.49817,-34.36235,373.38 18.49717,-34.36249,373.38 18.49594,-34.36267,365.76 18.49503,-34.36281,358.14000000000004 18.49382,-34.36291,358.14000000000004 18.49279,-34.36299,358.14000000000004 18.49167,-34.36308,358.14000000000004 18.49089,-34.36313,350.52000000000004 18.48988,-34.36304,350.52000000000004 18.4887,-34.36304,342.90000000000003 18.48742,-34.36295,335.28000000000003 18.4864,-34.3629,335.28000000000003 18.48534,-34.36295,335.28000000000003 18.48444,-34.36291,342.90000000000003 18.48341,-34.36319,342.90000000000003 18.48249,-34.36384,350.52000000000004 18.48198,-34.3645,350.52000000000004 18.48181,-34.36533,350.52000000000004 18.48192,-34.36635,350.52000000000004 18.47982,-34.37083,358.14000000000004 18.48263,-34.36948,358.14000000000004 18.4009,-34.30658,403.86 18.39901,-34.30476,396.24 18.39834,-34.30385,388.62 18.39778,-34.30302,388.62 18.39712,-34.30183,388.62 18.39649,-34.30069,388.62 18.39609,-34.29969,388.62 18.39569,-34.29876,388.62 18.39523,-34.29778,381 18.39466,-34.29652,381 18.39442,-34.29593,381 18.30168,-34.03234,335.28000000000003 18.30087,-34.02562,327.66 18.30013,-34.02275,312.42 18.29935,-34.01981,304.8 18.29857,-34.01724,281.94 18.2975,-34.01456,259.08000000000004 18.29672,-34.01207,243.84 18.29699,-34.00957,220.98000000000002 18.29876,-34.00687,190.5 18.30013,-34.00473,175.26000000000002 18.30173,-34.00236,167.64000000000001 18.30356,-34.00072,167.64000000000001 18.30608,-33.99887,152.4 18.3082,-33.99766,152.4 18.31249,-33.9958,144.78 18.31507,-33.99482,137.16 18.31841,-33.99339,137.16 18.32088,-33.99211,144.78 18.32342,-33.99068,144.78 18.32611,-33.98909,144.78 18.32839,-33.98749,144.78 18.3308,-33.98579,152.4 18.33298,-33.98416,152.4 18.33527,-33.98225,152.4 18.33738,-33.98043,152.4 18.33956,-33.97843,152.4 18.34179,-33.97636,160.02 18.34385,-33.97424,160.02 18.34579,-33.97215,160.02 18.34784,-33.97009,160.02 18.34986,-33.96799,167.64000000000001 18.35188,-33.96579,160.02 18.35369,-33.96363,160.02 18.35546,-33.96144,167.64000000000001 18.35731,-33.95892,167.64000000000001 18.35878,-33.9566,167.64000000000001 18.35995,-33.95425,167.64000000000001 18.36119,-33.95143,167.64000000000001 18.36225,-33.94881,167.64000000000001 18.36313,-33.94636,167.64000000000001 18.36404,-33.94368,167.64000000000001 18.36473,-33.94101,167.64000000000001 18.36542,-33.93816,167.64000000000001 18.36605,-33.93565,167.64000000000001 18.36674,-33.933,167.64000000000001 18.36752,-33.93031,167.64000000000001 18.36847,-33.92793,167.64000000000001 18.36998,-33.92477,175.26000000000002 18.37127,-33.9223,190.5 18.37263,-33.92033,190.5 18.37559,-33.91699,175.26000000000002 18.3779,-33.91479,160.02 18.37996,-33.9126,160.02 18.38116,-33.91154,160.02 18.38213,-33.9107,160.02 18.38276,-33.91017,152.4 18.38379,-33.90926,152.4 18.38676,-33.9067,144.78 18.39038,-33.90358,137.16 18.39306,-33.90139,144.78 18.39392,-33.9007,144.78 18.39476,-33.90005,144.78 18.39593,-33.89923,144.78 18.39694,-33.89859,144.78 18.3979,-33.89799,144.78 18.3989,-33.89748,144.78 18.40025,-33.89662,152.4 18.40126,-33.89612,144.78 18.40216,-33.89571,152.4 18.40311,-33.89529,152.4 18.40473,-33.89465,152.4 18.40588,-33.89417,152.4 18.40685,-33.89375,152.4 18.40816,-33.89324,152.4 18.40928,-33.89282,152.4 18.41034,-33.8925,160.02 18.41154,-33.89208,160.02 18.41263,-33.89175,160.02 18.41377,-33.89147,160.02 18.4155,-33.89104,160.02 18.41663,-33.89077,160.02 18.41768,-33.89058,160.02 18.41908,-33.89026,160.02 18.42018,-33.88998,152.4 18.42121,-33.88976,152.4 18.42253,-33.88947,152.4 18.42351,-33.88921,152.4 18.42442,-33.88905,152.4 18.42613,-33.88877,160.02 18.42715,-33.88866,160.02 18.42816,-33.88847,160.02 18.42968,-33.88849,160.02 18.43077,-33.88849,160.02 18.43151,-33.88854,160.02 18.43287,-33.88857,160.02 18.43431,-33.88854,167.64000000000001 18.43523,-33.88861,167.64000000000001 18.43635,-33.88811,167.64000000000001 18.43746,-33.88849,175.26000000000002 18.43781,-33.88916,175.26000000000002 18.43918,-33.88998,182.88 18.42682,-33.90097,0
        </coordinates>
      </LineString>
    </Placemark>
  </Document>
</kml>