<?xml version="1.0" encoding="UTF-8"?>
<kml xmlns="http://www.opengis.net/kml/2.2">
  <Document>
    <name>FR24 ZTHOT 3dfb5938 - Optimised</name>
    <description><![CDATA[Optimised flight path with 1 points (decimated from 1 original points). Source format: Standard KML]]></description>
    
    <Style id="flightPath">
      <LineStyle>
        <color>ff0000ff</color>
        <width>3</width>
      </LineStyle>
    </Style>
    
    <Placemark>
      <name>Flight Path</name>
      <description><![CDATA[Source: ADS-B
Start (SAST): 2026-01-20 10:51:40
End (SAST): 2026-01-20 17:21:29
Points: 3219]]></description>
      <styleUrl>#flightPath</styleUrl>
      <LineString>
        <extrude>1</extrude>
        <tessellate>1</tessellate>
        <altitudeMode>absolute</altitudeMode>
        <coordinates>
          18.42751,-33.90074,30.48 18.42777,-33.9008,0 18.42831,-33.90092,60.96 18.42878,-33.90097,91.44 18.42934,-33.90097,91.44 18.42968,-33.90097,91.44 18.43029,-33.90097,91.44 18.4306,-33.90097,121.92 18.43142,-33.90088,121.92 18.43209,-33.90074,121.92 18.43266,-33.9006,152.4 18.43321,-33.90042,152.4 18.43391,-33.90018,182.88 18.43449,-33.89994,182.88 18.43506,-33.89969,182.88 18.4358,-33.89929,213.36 18.4364,-33.89886,213.36 18.43696,-33.89836,243.84 18.43758,-33.89777,243.84 18.43798,-33.8972,243.84 18.43843,-33.89645,274.32 18.43898,-33.89539,274.32 18.43932,-33.89461,274.32 18.43958,-33.89375,304.8 18.43988,-33.89259,304.8 18.44004,-33.8917,304.8 18.44021,-33.89063,335.28000000000003 18.44027,-33.88962,335.28000000000003 18.44022,-33.8887,335.28000000000003 18.4401,-33.88765,365.76 18.43988,-33.88664,365.76 18.43952,-33.88542,365.76 18.43915,-33.88449,396.24 18.43849,-33.88309,396.24 18.43797,-33.8822,396.24 18.43758,-33.88151,426.72 18.43663,-33.88019,426.72 18.43592,-33.87918,426.72 18.43523,-33.87836,457.20000000000005 18.4345,-33.87758,457.20000000000005 18.43338,-33.87653,457.20000000000005 18.43254,-33.87583,457.20000000000005 18.4313,-33.87492,487.68 18.43042,-33.87434,487.68 18.42934,-33.87364,487.68 18.42802,-33.87294,487.68 18.42665,-33.87234,518.1600000000001 18.42556,-33.87187,518.1600000000001 18.42441,-33.87149,518.1600000000001 18.42351,-33.87122,518.1600000000001 18.42183,-33.87071,548.64 18.4206,-33.87039,548.64 18.41891,-33.87007,548.64 18.41778,-33.86992,548.64 18.41639,-33.8698,579.12 18.41515,-33.86973,579.12 18.41366,-33.86969,579.12 18.41246,-33.86973,579.12 18.41124,-33.8698,609.6 18.41017,-33.86992,609.6 18.40868,-33.87015,609.6 18.40725,-33.87038,609.6 18.40614,-33.87057,609.6 18.40502,-33.8708,609.6 18.40347,-33.87113,640.08 18.40227,-33.87141,640.08 18.40092,-33.87177,640.08 18.39981,-33.8721,640.08 18.39846,-33.87254,640.08 18.39734,-33.87291,640.08 18.39627,-33.87328,640.08 18.39509,-33.87369,640.08 18.39386,-33.8742,640.08 18.39246,-33.87474,640.08 18.39156,-33.87515,640.08 18.3905,-33.87566,640.08 18.38915,-33.8763,640.08 18.38792,-33.87689,670.5600000000001 18.38691,-33.87735,670.5600000000001 18.38573,-33.87799,670.5600000000001 18.38472,-33.87854,670.5600000000001 18.38377,-33.87909,670.5600000000001 18.38259,-33.87979,701.0400000000001 18.38144,-33.88053,701.0400000000001 18.38052,-33.88115,701.0400000000001 18.37929,-33.88197,701.0400000000001 18.37835,-33.88268,701.0400000000001 18.37744,-33.88337,701.0400000000001 18.37654,-33.88408,701.0400000000001 18.37543,-33.88496,701.0400000000001 18.37447,-33.88568,701.0400000000001 18.37332,-33.88663,701.0400000000001 18.37234,-33.88737,701.0400000000001 18.37137,-33.88817,701.0400000000001 18.37043,-33.88889,701.0400000000001 18.3692,-33.88985,701.0400000000001 18.3683,-33.89053,701.0400000000001 18.36737,-33.89128,701.0400000000001 18.36651,-33.89204,701.0400000000001 18.36554,-33.89291,701.0400000000001 18.36439,-33.89389,701.0400000000001 18.36348,-33.8947,701.0400000000001 18.36269,-33.89539,731.52 18.3618,-33.89616,731.52 18.36096,-33.89697,731.52 18.35989,-33.89795,731.52 18.35907,-33.89874,731.52 18.35821,-33.89955,731.52 18.35718,-33.9006,762 18.35649,-33.90134,762 18.35563,-33.90225,762 18.35466,-33.9033,792.48 18.35398,-33.90413,792.48 18.35329,-33.90493,792.48 18.35261,-33.90573,792.48 18.35171,-33.90683,792.48 18.35106,-33.90763,792.48 18.35026,-33.9087,822.96 18.34957,-33.90958,822.96 18.34868,-33.91063,822.96 18.34763,-33.91191,822.96 18.34683,-33.91278,822.96 18.34614,-33.91359,822.96 18.34539,-33.91442,822.96 18.34459,-33.91539,822.96 18.34358,-33.91649,822.96 18.34282,-33.91731,822.96 18.34208,-33.91815,822.96 18.34106,-33.91924,822.96 18.33841,-33.9222,822.96 18.3359,-33.925,822.96 18.33492,-33.9262,822.96 18.33418,-33.92704,822.96 18.33326,-33.92815,822.96 18.33258,-33.92904,822.96 18.33172,-33.9303,822.96 18.33102,-33.93123,822.96 18.33035,-33.93219,822.96 18.32934,-33.93375,822.96 18.32862,-33.93489,822.96 18.32806,-33.93584,822.96 18.32727,-33.93713,822.96 18.32674,-33.93807,822.96 18.32617,-33.93919,822.96 18.32548,-33.94049,822.96 18.32497,-33.94156,822.96 18.3243,-33.94295,822.96 18.32359,-33.94436,822.96 18.32256,-33.94656,822.96 18.32113,-33.94971,822.96 18.32038,-33.95233,822.96 18.32027,-33.95385,822.96 18.32039,-33.95483,822.96 18.32062,-33.95604,822.96 18.32096,-33.95697,822.96 18.32166,-33.95828,822.96 18.32434,-33.96125,792.48 18.32508,-33.96172,792.48 18.32628,-33.96228,792.48 18.32731,-33.9626,822.96 18.32966,-33.96284,792.48 18.33108,-33.96277,792.48 18.33321,-33.96223,762 18.33464,-33.96167,762 18.33555,-33.96116,762 18.33664,-33.96051,731.52 18.33927,-33.95846,731.52 18.34123,-33.95654,701.0400000000001 18.34225,-33.95544,701.0400000000001 18.34296,-33.95457,670.5600000000001 18.34386,-33.95348,670.5600000000001 18.34442,-33.95279,670.5600000000001 18.34532,-33.95155,640.08 18.34588,-33.95078,640.08 18.34672,-33.94958,640.08 18.34728,-33.94887,640.08 18.34808,-33.9478,640.08 18.34885,-33.94666,640.08 18.34952,-33.94574,640.08 18.35019,-33.94478,640.08 18.35104,-33.94368,609.6 18.35135,-33.94324,640.08 18.35243,-33.94189,609.6 18.35305,-33.94102,609.6 18.35386,-33.93993,609.6 18.35647,-33.93636,579.12 18.35731,-33.93521,579.12 18.35827,-33.93388,579.12 18.35884,-33.933,579.12 18.35964,-33.93193,579.12 18.3601,-33.93123,579.12 18.36079,-33.93025,609.6 18.36153,-33.92913,609.6 18.36202,-33.92839,609.6 18.36256,-33.92751,609.6 18.36325,-33.92643,609.6 18.36382,-33.92555,579.12 18.36439,-33.92476,609.6 18.36499,-33.92386,579.12 18.36567,-33.92285,579.12 18.36617,-33.92215,579.12 18.36679,-33.92111,609.6 18.36725,-33.92033,579.12 18.368,-33.91927,579.12 18.36836,-33.91864,579.12 18.36909,-33.91763,579.12 18.36964,-33.91676,579.12 18.37034,-33.91577,579.12 18.37091,-33.91498,579.12 18.37155,-33.91415,579.12 18.37229,-33.91317,609.6 18.37273,-33.9126,609.6 18.37349,-33.91163,609.6 18.37412,-33.91084,609.6 18.37491,-33.90985,609.6 18.37561,-33.90911,609.6 18.37632,-33.90825,609.6 18.37692,-33.90758,609.6 18.37772,-33.90665,609.6 18.37847,-33.90572,609.6 18.3791,-33.90493,609.6 18.37973,-33.90413,609.6 18.38058,-33.90311,609.6 18.38121,-33.90232,609.6 18.38184,-33.90157,609.6 18.38253,-33.90078,640.08 18.38327,-33.89992,609.6 18.38402,-33.89915,640.08 18.38484,-33.89832,640.08 18.38562,-33.89754,609.6 18.38646,-33.89676,609.6 18.38753,-33.89589,609.6 18.38831,-33.89525,640.08 18.38932,-33.89452,609.6 18.3902,-33.89389,609.6 18.39146,-33.8931,609.6 18.39229,-33.89259,609.6 18.39329,-33.89203,609.6 18.39455,-33.89143,609.6 18.39558,-33.89096,579.12 18.39661,-33.89054,579.12 18.3979,-33.89003,579.12 18.39918,-33.88961,548.64 18.40025,-33.88925,548.64 18.4016,-33.88879,518.1600000000001 18.40267,-33.88849,518.1600000000001 18.40361,-33.88824,487.68 18.40479,-33.88798,487.68 18.40625,-33.88765,457.20000000000005 18.40759,-33.88733,457.20000000000005 18.40871,-33.88705,426.72 18.41,-33.88678,426.72 18.41103,-33.88654,426.72 18.41191,-33.88632,396.24 18.41325,-33.88605,396.24 18.41432,-33.88582,365.76 18.41549,-33.8856,365.76 18.41669,-33.88537,365.76 18.41785,-33.88513,335.28000000000003 18.41886,-33.88495,335.28000000000003 18.42211,-33.8844,304.8 18.4231,-33.8843,304.8 18.42396,-33.88435,304.8 18.42503,-33.88454,304.8 18.42579,-33.88496,274.32 18.4263,-33.88537,274.32 18.42676,-33.88596,274.32 18.42704,-33.88646,243.84 18.42733,-33.88719,243.84 18.42743,-33.88788,243.84 18.42745,-33.88845,243.84 18.42739,-33.8891,213.36 18.42738,-33.88971,213.36 18.42733,-33.89035,213.36 18.42733,-33.89082,182.88 18.42728,-33.89147,182.88 18.42727,-33.89186,182.88 18.42721,-33.89236,182.88 18.42716,-33.89296,152.4 18.4271,-33.89346,152.4 18.4271,-33.89406,152.4 18.42704,-33.89447,121.92 18.42705,-33.89487,121.92 18.42699,-33.89548,121.92 18.42699,-33.89594,121.92 18.42705,-33.89631,91.44 18.42704,-33.89671,91.44 18.42705,-33.89706,91.44 18.4271,-33.89749,91.44 18.4271,-33.8978,91.44 18.42716,-33.89813,91.44 18.42721,-33.8985,60.96 18.42721,-33.89877,60.96 18.42728,-33.89901,60.96 18.42733,-33.89939,60.96 18.42739,-33.89976,60.96 18.42751,-33.90004,60.96 18.42753,-33.90027,0 18.42756,-33.9005,0 18.42755,-33.90072,0 18.42811,-33.90079,60.96 18.429,-33.90079,91.44 18.43008,-33.90078,121.92 18.43054,-33.90078,121.92 18.43097,-33.9007,152.4 18.43163,-33.90064,152.4 18.43208,-33.9006,152.4 18.43259,-33.90051,182.88 18.43304,-33.90047,182.88 18.43357,-33.90041,182.88 18.43409,-33.90036,213.36 18.43467,-33.90033,213.36 18.43517,-33.90028,213.36 18.43569,-33.90027,213.36 18.43618,-33.90024,243.84 18.43683,-33.90022,243.84 18.43747,-33.90019,243.84 18.43821,-33.90018,243.84 18.43865,-33.9001,274.32 18.43943,-33.89987,274.32 18.44004,-33.89957,274.32 18.44083,-33.89905,274.32 18.44135,-33.8985,274.32 18.44201,-33.89767,304.8 18.4424,-33.89699,304.8 18.44278,-33.89608,304.8 18.44302,-33.89539,304.8 18.4433,-33.89397,304.8 18.44341,-33.89314,335.28000000000003 18.44347,-33.89209,335.28000000000003 18.44336,-33.89082,335.28000000000003 18.44313,-33.88966,335.28000000000003 18.44279,-33.88861,365.76 18.44229,-33.88733,365.76 18.44173,-33.88623,365.76 18.44094,-33.88509,365.76 18.44016,-33.88412,365.76 18.43932,-33.88321,396.24 18.43797,-33.88197,396.24 18.43712,-33.88118,426.72 18.43596,-33.88037,426.72 18.43454,-33.87955,426.72 18.43338,-33.879,426.72 18.43226,-33.87859,457.20000000000005 18.43147,-33.87827,457.20000000000005 18.43008,-33.87783,457.20000000000005 18.42871,-33.87737,487.68 18.42728,-33.877,487.68 18.42615,-33.87666,487.68 18.42469,-33.8763,518.1600000000001 18.42362,-33.87607,518.1600000000001 18.42217,-33.8757,548.64 18.42082,-33.87543,548.64 18.41978,-33.87518,548.64 18.41875,-33.87497,579.12 18.41729,-33.87474,579.12 18.41623,-33.8746,579.12 18.41488,-33.87447,579.12 18.41381,-33.87433,609.6 18.4124,-33.87425,609.6 18.41103,-33.87415,609.6 18.40994,-33.87415,640.08 18.40891,-33.87415,640.08 18.40748,-33.87419,640.08 18.40614,-33.87428,640.08 18.40496,-33.87439,640.08 18.40384,-33.87451,640.08 18.40239,-33.87471,640.08 18.40132,-33.87488,640.08 18.40004,-33.87509,640.08 18.3989,-33.87532,640.08 18.39745,-33.87561,670.5600000000001 18.39598,-33.87592,670.5600000000001 18.39487,-33.87621,670.5600000000001 18.39369,-33.87653,670.5600000000001 18.39229,-33.87698,670.5600000000001 18.39095,-33.87749,670.5600000000001 18.38974,-33.87793,640.08 18.3886,-33.87839,640.08 18.38728,-33.879,670.5600000000001 18.38635,-33.87946,670.5600000000001 18.38506,-33.88014,670.5600000000001 18.38413,-33.88063,670.5600000000001 18.38299,-33.88133,670.5600000000001 18.3823,-33.88174,670.5600000000001 18.38121,-33.88249,670.5600000000001 18.38013,-33.88319,670.5600000000001 18.37921,-33.88384,670.5600000000001 18.37841,-33.8844,701.0400000000001 18.37738,-33.88518,701.0400000000001 18.37637,-33.88591,701.0400000000001 18.37559,-33.8866,701.0400000000001 18.37469,-33.88737,701.0400000000001 18.37383,-33.88807,701.0400000000001 18.3729,-33.88898,701.0400000000001 18.37194,-33.88994,701.0400000000001 18.37116,-33.89072,701.0400000000001 18.37037,-33.89145,701.0400000000001 18.36964,-33.89218,701.0400000000001 18.36897,-33.89291,701.0400000000001 18.36782,-33.89403,701.0400000000001 18.36718,-33.89474,701.0400000000001 18.36634,-33.89561,701.0400000000001 18.36544,-33.89653,701.0400000000001 18.36471,-33.89735,701.0400000000001 18.36398,-33.89813,731.52 18.36313,-33.89901,731.52 18.36245,-33.89981,731.52 18.36174,-33.90056,731.52 18.3609,-33.90153,731.52 18.36021,-33.90237,731.52 18.35782,-33.90518,731.52 18.35552,-33.90775,762 18.35318,-33.91037,762 18.35054,-33.9133,792.48 18.3482,-33.91596,822.96 18.34621,-33.91809,853.44 18.34392,-33.92075,853.44 18.34252,-33.92244,883.9200000000001 18.34173,-33.9234,883.9200000000001 18.34099,-33.92439,883.9200000000001 18.34022,-33.92537,883.9200000000001 18.3396,-33.92615,883.9200000000001 18.33899,-33.92699,914.4000000000001 18.33814,-33.92807,914.4000000000001 18.33755,-33.9289,914.4000000000001 18.33697,-33.92967,914.4000000000001 18.33618,-33.93076,914.4000000000001 18.33562,-33.93155,914.4000000000001 18.33538,-33.93197,914.4000000000001 18.33456,-33.93388,944.88 18.33439,-33.93498,944.88 18.3345,-33.93594,944.88 18.33492,-33.93677,944.88 18.33544,-33.93742,975.36 18.33601,-33.93789,975.36 18.33693,-33.9383,975.36 18.33764,-33.93842,975.36 18.33841,-33.9384,975.36 18.33932,-33.93814,975.36 18.34002,-33.93779,975.36 18.34078,-33.93727,975.36 18.34133,-33.93691,1005.84 18.34212,-33.93649,1005.84 18.34293,-33.93626,1005.84 18.34402,-33.93621,1005.84 18.34492,-33.9364,1005.84 18.34568,-33.93677,1036.3200000000002 18.34642,-33.93737,1036.3200000000002 18.34682,-33.93793,1036.3200000000002 18.34717,-33.93882,1036.3200000000002 18.34728,-33.93966,1066.8 18.34723,-33.94059,1066.8 18.34706,-33.94153,1066.8 18.34671,-33.9424,1066.8 18.34616,-33.94336,1036.3200000000002 18.34577,-33.944,1036.3200000000002 18.34498,-33.9451,1066.8 18.34454,-33.94566,1066.8 18.34375,-33.94675,1066.8 18.34316,-33.94752,1066.8 18.34263,-33.94826,1066.8 18.34202,-33.94906,1066.8 18.34123,-33.95009,1066.8 18.34067,-33.95087,1066.8 18.33988,-33.95187,1066.8 18.33943,-33.95247,1066.8 18.33865,-33.95338,1066.8 18.33807,-33.95413,1066.8 18.33727,-33.95511,1066.8 18.33664,-33.9559,1066.8 18.33595,-33.95678,1066.8 18.33515,-33.95772,1066.8 18.3345,-33.9586,1066.8 18.33384,-33.95948,1066.8 18.3331,-33.96053,1066.8 18.33254,-33.96135,1066.8 18.33114,-33.96336,1066.8 18.33024,-33.96478,1066.8 18.32962,-33.96588,1066.8 18.32926,-33.96642,1066.8 18.32845,-33.96803,1066.8 18.328,-33.96889,1066.8 18.32755,-33.96977,1066.8 18.32705,-33.97087,1066.8 18.32651,-33.97205,1066.8 18.32605,-33.97308,1066.8 18.32564,-33.97408,1066.8 18.32514,-33.97522,1066.8 18.32475,-33.97627,1066.8 18.32435,-33.97723,1066.8 18.32388,-33.97843,1066.8 18.32351,-33.97939,1066.8 18.32323,-33.9803,1066.8 18.32284,-33.98149,1066.8 18.32245,-33.98277,1066.8 18.32217,-33.98387,1066.8 18.32193,-33.98467,1066.8 18.32166,-33.98593,1066.8 18.3215,-33.98703,1066.8 18.3213,-33.98811,1066.8 18.32119,-33.98923,1036.3200000000002 18.3211,-33.99019,1036.3200000000002 18.32102,-33.99147,1036.3200000000002 18.32102,-33.99249,1036.3200000000002 18.32099,-33.99362,1066.8 18.32105,-33.99463,1066.8 18.3211,-33.99564,1066.8 18.32116,-33.99673,1066.8 18.32127,-33.99783,1066.8 18.32138,-33.99879,1066.8 18.32161,-33.99998,1066.8 18.32178,-34.00095,1066.8 18.322,-34.00214,1066.8 18.32222,-34.00315,1066.8 18.32251,-34.00413,1066.8 18.32291,-34.00539,1066.8 18.32323,-34.0063,1066.8 18.32365,-34.00748,1066.8 18.32405,-34.00841,1066.8 18.32458,-34.00969,1066.8 18.32502,-34.0106,1066.8 18.32554,-34.01171,1066.8 18.32609,-34.01285,1066.8 18.3266,-34.01376,1097.28 18.32721,-34.01495,1097.28 18.32766,-34.01578,1097.28 18.39413,-34.12536,701.0400000000001 18.39725,-34.12654,701.0400000000001 18.40084,-34.12804,701.0400000000001 18.40429,-34.12896,670.5600000000001 18.4084,-34.13012,670.5600000000001 18.41136,-34.13125,670.5600000000001 18.41343,-34.13216,670.5600000000001 18.4158,-34.13285,670.5600000000001 18.41668,-34.13312,670.5600000000001 18.41766,-34.13339,640.08 18.41891,-34.13387,640.08 18.42003,-34.13426,640.08 18.42104,-34.13469,640.08 18.42209,-34.13504,640.08 18.42313,-34.13532,640.08 18.42433,-34.13554,640.08 18.4255,-34.13581,640.08 18.42679,-34.13598,640.08 18.42786,-34.13609,640.08 18.42915,-34.13625,640.08 18.43021,-34.13645,640.08 18.43113,-34.1366,640.08 18.43228,-34.13674,640.08 18.43353,-34.13677,640.08 18.4346,-34.13689,640.08 18.43582,-34.13703,609.6 18.43687,-34.13719,640.08 18.43815,-34.13736,609.6 18.43904,-34.13747,609.6 18.44036,-34.13765,609.6 18.44162,-34.13781,609.6 18.44264,-34.13787,609.6 18.44389,-34.13802,609.6 18.44503,-34.13809,609.6 18.44632,-34.13808,609.6 18.44723,-34.13806,609.6 18.44851,-34.13818,609.6 18.44954,-34.1382,609.6 18.45072,-34.13811,609.6 18.45192,-34.138,609.6 18.45311,-34.13795,640.08 18.4541,-34.13785,640.08 18.45526,-34.13773,640.08 18.45662,-34.13752,640.08 18.45771,-34.13727,640.08 18.45926,-34.13689,609.6 18.46005,-34.13651,609.6 18.46137,-34.13602,609.6 18.46234,-34.13558,609.6 18.46357,-34.13501,609.6 18.46473,-34.1343,609.6 18.46582,-34.13354,609.6 18.4669,-34.13271,609.6 18.46773,-34.13185,609.6 18.46855,-34.13099,609.6 18.46938,-34.1302,609.6 18.47025,-34.12915,609.6 18.47097,-34.1283,609.6 18.47177,-34.1272,609.6 18.47253,-34.12636,609.6 18.47332,-34.12537,609.6 18.47389,-34.12442,609.6 18.47452,-34.12321,609.6 18.47492,-34.12207,609.6 18.47544,-34.12098,609.6 18.47589,-34.1199,609.6 18.47622,-34.11877,609.6 18.47652,-34.1177,609.6 18.47687,-34.1163,609.6 18.47717,-34.11522,609.6 18.47739,-34.11407,609.6 18.47758,-34.1129,609.6 18.47775,-34.1118,609.6 18.47792,-34.11047,609.6 18.47807,-34.10891,609.6 18.47816,-34.10773,609.6 18.47814,-34.10657,640.08 18.47825,-34.10531,640.08 18.47831,-34.1042,640.08 18.47828,-34.10285,640.08 18.47822,-34.10183,640.08 18.47817,-34.10067,640.08 18.47791,-34.09962,640.08 18.47732,-34.09854,640.08 18.47699,-34.09731,640.08 18.47702,-34.09608,640.08 18.47685,-34.09503,640.08 18.47694,-34.09382,640.08 18.47676,-34.09208,640.08 18.47638,-34.09096,640.08 18.47596,-34.08947,640.08 18.47567,-34.08825,640.08 18.47555,-34.08693,640.08 18.47509,-34.08579,640.08 18.47448,-34.08422,640.08 18.47374,-34.08304,640.08 18.47327,-34.08192,640.08 18.47269,-34.08075,640.08 18.47208,-34.07965,640.08 18.47164,-34.07846,640.08 18.47099,-34.07719,640.08 18.47093,-34.07582,640.08 18.47059,-34.07441,640.08 18.47015,-34.07303,640.08 18.46986,-34.07184,640.08 18.46922,-34.07068,640.08 18.46878,-34.06938,640.08 18.46817,-34.0682,640.08 18.46675,-34.06547,640.08 18.4666,-34.06413,609.6 18.46605,-34.06255,609.6 18.46572,-34.06157,609.6 18.46526,-34.06023,609.6 18.46493,-34.05884,609.6 18.46497,-34.05755,609.6 18.46465,-34.05611,609.6 18.4644,-34.05486,609.6 18.46409,-34.05366,609.6 18.46432,-34.05236,609.6 18.46442,-34.05116,609.6 18.46474,-34.04982,609.6 18.46496,-34.0485,609.6 18.46502,-34.04729,609.6 18.46528,-34.04607,609.6 18.46542,-34.04472,609.6 18.4656,-34.04351,609.6 18.46541,-34.04215,609.6 18.46524,-34.04093,640.08 18.46502,-34.03976,640.08 18.46518,-34.03855,609.6 18.46523,-34.03713,609.6 18.4651,-34.03601,609.6 18.46509,-34.03481,640.08 18.46539,-34.03346,609.6 18.4654,-34.03208,640.08 18.46566,-34.03076,609.6 18.4661,-34.02706,609.6 18.46616,-34.02571,640.08 18.46641,-34.02442,640.08 18.46673,-34.02311,640.08 18.46687,-34.0219,640.08 18.46741,-34.02051,640.08 18.46723,-34.01676,640.08 18.46792,-34.01281,640.08 18.46848,-34.00786,640.08 18.46949,-34.00404,640.08 18.47109,-33.99862,640.08 18.47173,-33.99627,609.6 18.47187,-33.99509,609.6 18.472,-33.99376,609.6 18.47219,-33.99235,609.6 18.47249,-33.99086,609.6 18.47276,-33.98937,579.12 18.47298,-33.98839,579.12 18.47338,-33.9866,579.12 18.47372,-33.98563,579.12 18.47435,-33.98405,548.64 18.47497,-33.98255,548.64 18.47553,-33.98151,548.64 18.47596,-33.98019,548.64 18.47631,-33.97873,548.64 18.47664,-33.97758,548.64 18.47691,-33.97601,518.1600000000001 18.47726,-33.97478,518.1600000000001 18.47755,-33.97361,518.1600000000001 18.47999,-33.96912,487.68 18.4818,-33.96327,487.68 18.48178,-33.95956,487.68 18.48212,-33.95804,487.68 18.48224,-33.95679,487.68 18.48241,-33.95547,487.68 18.48267,-33.95396,457.20000000000005 18.48301,-33.95244,457.20000000000005 18.48318,-33.95118,457.20000000000005 18.48373,-33.94944,457.20000000000005 18.48396,-33.94818,457.20000000000005 18.4833,-33.94496,457.20000000000005 18.4831,-33.94363,426.72 18.48284,-33.94231,426.72 18.48253,-33.94098,426.72 18.48209,-33.93942,426.72 18.48175,-33.93823,426.72 18.48112,-33.93653,396.24 18.48078,-33.93551,396.24 18.48009,-33.93379,396.24 18.47956,-33.93256,396.24 18.47906,-33.93146,396.24 18.47828,-33.92986,365.76 18.47757,-33.92857,365.76 18.47687,-33.92729,365.76 18.47603,-33.92587,365.76 18.4753,-33.92459,365.76 18.47458,-33.92349,365.76 18.47363,-33.92206,365.76 18.47282,-33.92103,365.76 18.47162,-33.91945,335.28000000000003 18.47082,-33.91847,335.28000000000003 18.46985,-33.91731,335.28000000000003 18.4687,-33.91591,335.28000000000003 18.46773,-33.91479,335.28000000000003 18.46678,-33.91374,335.28000000000003 18.4655,-33.91228,335.28000000000003 18.46465,-33.91132,335.28000000000003 18.46367,-33.91019,335.28000000000003 18.46247,-33.90888,335.28000000000003 18.46132,-33.90767,365.76 18.46041,-33.90665,365.76 18.45938,-33.90562,365.76 18.4584,-33.9046,365.76 18.45726,-33.90339,365.76 18.45411,-33.90013,365.76 18.45005,-33.89589,365.76 18.44683,-33.89255,335.28000000000003 18.4437,-33.88942,304.8 18.44273,-33.88863,304.8 18.44151,-33.8877,304.8 18.44049,-33.887,304.8 18.43918,-33.88635,304.8 18.43809,-33.88593,274.32 18.4368,-33.88554,274.32 18.43586,-33.88542,274.32 18.43483,-33.88536,274.32 18.43323,-33.88551,243.84 18.43214,-33.88579,243.84 18.4313,-33.88614,243.84 18.43082,-33.8864,243.84 18.42957,-33.88737,213.36 18.42912,-33.88783,213.36 18.42872,-33.88829,213.36 18.42822,-33.88889,213.36 18.42791,-33.88938,213.36 18.42756,-33.88998,213.36 18.42733,-33.89059,213.36 18.42716,-33.89115,182.88 18.42699,-33.89166,182.88 18.42693,-33.89214,182.88 18.42682,-33.89268,182.88 18.4267,-33.89333,152.4 18.4267,-33.89384,152.4 18.4267,-33.89436,152.4 18.42671,-33.89484,121.92 18.42676,-33.89534,121.92 18.42682,-33.89585,121.92 18.42688,-33.89627,121.92 18.42693,-33.89673,121.92 18.42693,-33.89701,121.92 18.42693,-33.89738,121.92 18.42699,-33.89767,91.44 18.42699,-33.89799,91.44 18.42705,-33.89832,91.44 18.4271,-33.89854,91.44 18.4271,-33.89877,91.44 18.42716,-33.89906,91.44 18.42728,-33.89943,91.44 18.42738,-33.89973,60.96 18.42756,-33.90004,60.96 18.42766,-33.90033,60.96 18.42763,-33.90054,0 18.42755,-33.90074,0 18.42785,-33.90078,60.96 18.42951,-33.90078,91.44 18.43094,-33.90083,152.4 18.43163,-33.90083,152.4 18.43214,-33.90083,182.88 18.43276,-33.90074,182.88 18.43334,-33.90064,213.36 18.43397,-33.90055,213.36 18.43472,-33.90041,213.36 18.43546,-33.90027,243.84 18.43601,-33.90015,243.84 18.43668,-33.90001,274.32 18.43747,-33.89987,274.32 18.43814,-33.89969,274.32 18.43906,-33.89929,304.8 18.43977,-33.89886,304.8 18.44055,-33.89813,304.8 18.44111,-33.89749,335.28000000000003 18.44156,-33.89667,335.28000000000003 18.44195,-33.8958,335.28000000000003 18.44229,-33.89465,335.28000000000003 18.44244,-33.89357,365.76 18.44246,-33.89246,365.76 18.44238,-33.89119,365.76 18.44223,-33.89012,396.24 18.44198,-33.88905,396.24 18.44147,-33.88779,396.24 18.44089,-33.88669,426.72 18.44016,-33.8855,426.72 18.43926,-33.88431,457.20000000000005 18.43842,-33.88339,457.20000000000005 18.4374,-33.88235,457.20000000000005 18.43635,-33.88147,487.68 18.4354,-33.88076,487.68 18.4342,-33.87997,487.68 18.433,-33.87923,518.1600000000001 18.43174,-33.87853,518.1600000000001 18.43024,-33.87781,518.1600000000001 18.42859,-33.87709,518.1600000000001 18.42722,-33.87658,548.64 18.42619,-33.8762,548.64 18.42486,-33.87579,548.64 18.4234,-33.87534,548.64 18.42189,-33.87483,548.64 18.42087,-33.87453,579.12 18.41936,-33.8741,579.12 18.41801,-33.87374,579.12 18.41703,-33.8735,579.12 18.41544,-33.87323,579.12 18.41438,-33.87305,609.6 18.41326,-33.8729,609.6 18.41171,-33.87281,609.6 18.41039,-33.87273,609.6 18.40914,-33.87271,640.08 18.40793,-33.87268,640.08 18.40653,-33.87273,640.08 18.40535,-33.87277,640.08 18.40395,-33.87282,640.08 18.40277,-33.87291,670.5600000000001 18.40141,-33.87304,670.5600000000001 18.40027,-33.87318,670.5600000000001 18.39896,-33.87337,670.5600000000001 18.39758,-33.8736,670.5600000000001 18.39638,-33.87387,670.5600000000001 18.39523,-33.87411,670.5600000000001 18.39392,-33.87448,670.5600000000001 18.39272,-33.87485,670.5600000000001 18.39163,-33.87523,701.0400000000001 18.39038,-33.8757,701.0400000000001 18.38938,-33.87616,701.0400000000001 18.38825,-33.87662,701.0400000000001 18.38694,-33.87727,701.0400000000001 18.38591,-33.87783,701.0400000000001 18.38484,-33.87845,701.0400000000001 18.38356,-33.87918,701.0400000000001 18.38236,-33.87993,701.0400000000001 18.38144,-33.88058,701.0400000000001 18.38052,-33.8812,701.0400000000001 18.37951,-33.88193,731.52 18.37847,-33.88268,731.52 18.37767,-33.88333,731.52 18.37681,-33.88393,762 18.37576,-33.88477,762 18.37491,-33.88541,762 18.37407,-33.88609,762 18.37301,-33.88692,762 18.37234,-33.88747,762 18.37133,-33.88824,762 18.37032,-33.88907,762 18.36937,-33.88993,762 18.36857,-33.89063,792.48 18.3676,-33.89161,792.48 18.36695,-33.89227,792.48 18.36589,-33.89337,792.48 18.36508,-33.89417,792.48 18.36421,-33.89511,792.48 18.36342,-33.89598,792.48 18.36264,-33.8968,792.48 18.3617,-33.8979,792.48 18.3609,-33.89874,792.48 18.3601,-33.89971,792.48 18.35924,-33.90064,792.48 18.3586,-33.90147,792.48 18.35793,-33.90225,792.48 18.35703,-33.9034,792.48 18.35621,-33.90446,792.48 18.35563,-33.90509,792.48 18.35484,-33.90614,792.48 18.35384,-33.90738,792.48 18.353,-33.90837,792.48 18.35232,-33.9093,792.48 18.35157,-33.91019,792.48 18.3507,-33.91132,792.48 18.35008,-33.91214,792.48 18.34919,-33.91338,792.48 18.34843,-33.91447,792.48 18.34774,-33.9154,792.48 18.34705,-33.91642,792.48 18.34642,-33.9174,792.48 18.34568,-33.91843,792.48 18.34488,-33.91968,792.48 18.34425,-33.92061,792.48 18.34341,-33.92175,792.48 18.3428,-33.92267,792.48 18.34201,-33.92372,792.48 18.34139,-33.92468,792.48 18.3407,-33.92574,792.48 18.34002,-33.92671,792.48 18.33926,-33.92784,792.48 18.33854,-33.92894,762 18.33775,-33.93013,762 18.3371,-33.93123,762 18.33641,-33.93221,762 18.33595,-33.93295,762 18.33517,-33.93416,762 18.33464,-33.93504,762 18.33377,-33.93636,762 18.33303,-33.93751,762 18.33254,-33.93837,762 18.33181,-33.93951,762 18.33103,-33.94086,762 18.3292,-33.94398,792.48 18.32743,-33.94678,792.48 18.32508,-33.95055,792.48 18.32335,-33.95348,792.48 18.32279,-33.95446,762 18.32222,-33.95553,762 18.31993,-33.95998,762 18.31947,-33.9626,762 18.32005,-33.96489,762 18.32188,-33.96666,762 18.32508,-33.96739,762 18.328,-33.96703,762 18.3308,-33.96584,762 18.3331,-33.96414,762 18.33534,-33.96194,762 18.3367,-33.96051,762 18.33813,-33.95893,731.52 18.34007,-33.9566,731.52 18.34076,-33.95576,731.52 18.34173,-33.9545,731.52 18.3423,-33.95376,731.52 18.34316,-33.95269,731.52 18.34381,-33.95183,731.52 18.34471,-33.95073,731.52 18.34545,-33.94985,701.0400000000001 18.3462,-33.94896,701.0400000000001 18.34694,-33.94803,701.0400000000001 18.34784,-33.94693,701.0400000000001 18.34888,-33.94561,701.0400000000001 18.34951,-33.94477,701.0400000000001 18.35037,-33.94366,670.5600000000001 18.35112,-33.94273,670.5600000000001 18.35197,-33.94156,670.5600000000001 18.35289,-33.9404,670.5600000000001 18.35378,-33.93919,670.5600000000001 18.35462,-33.93791,670.5600000000001 18.35552,-33.93663,670.5600000000001 18.35615,-33.93579,640.08 18.35709,-33.93448,640.08 18.35776,-33.93347,640.08 18.35838,-33.93256,640.08 18.35913,-33.93142,640.08 18.35972,-33.9304,640.08 18.3605,-33.92918,640.08 18.36102,-33.9283,640.08 18.36182,-33.92704,640.08 18.36241,-33.92606,640.08 18.36309,-33.92491,609.6 18.36359,-33.92413,609.6 18.36421,-33.92303,609.6 18.36479,-33.9221,609.6 18.36536,-33.92113,609.6 18.36611,-33.91996,609.6 18.36874,-33.916,609.6 18.37071,-33.91319,609.6 18.37154,-33.91205,609.6 18.37222,-33.91118,609.6 18.37295,-33.91022,609.6 18.37383,-33.90916,609.6 18.37463,-33.90829,609.6 18.37536,-33.90747,609.6 18.37606,-33.9067,609.6 18.37709,-33.90562,609.6 18.3779,-33.90479,609.6 18.37875,-33.9039,609.6 18.37961,-33.90302,609.6 18.38046,-33.90211,609.6 18.38139,-33.90125,609.6 18.38254,-33.9001,609.6 18.38338,-33.89928,609.6 18.38444,-33.89832,609.6 18.38533,-33.89748,609.6 18.38619,-33.89678,640.08 18.38734,-33.89585,640.08 18.38854,-33.89492,609.6 18.38951,-33.89422,609.6 18.39089,-33.89333,609.6 18.39191,-33.89268,609.6 18.39313,-33.89204,609.6 18.39436,-33.89149,579.12 18.39552,-33.89101,579.12 18.39678,-33.8905,548.64 18.39823,-33.88989,548.64 18.39952,-33.88947,518.1600000000001 18.40096,-33.88896,518.1600000000001 18.40216,-33.88858,487.68 18.40356,-33.88815,487.68 18.40479,-33.88779,487.68 18.40619,-33.88733,487.68 18.40731,-33.88701,457.20000000000005 18.40843,-33.88669,457.20000000000005 18.40967,-33.88632,457.20000000000005 18.41068,-33.88607,457.20000000000005 18.41194,-33.88579,426.72 18.4132,-33.88551,426.72 18.41423,-33.88528,396.24 18.41532,-33.88509,396.24 18.41658,-33.88486,396.24 18.41802,-33.88458,365.76 18.41915,-33.8844,365.76 18.42018,-33.88421,335.28000000000003 18.42149,-33.88403,335.28000000000003 18.42253,-33.88388,304.8 18.4235,-33.88379,304.8 18.42459,-33.88379,304.8 18.42575,-33.88385,304.8 18.42665,-33.88403,304.8 18.42755,-33.8844,304.8 18.42816,-33.88486,274.32 18.42856,-33.88536,274.32 18.42882,-33.88607,243.84 18.42888,-33.88672,243.84 18.42888,-33.88737,243.84 18.42872,-33.88847,243.84 18.42859,-33.8891,213.36 18.42844,-33.88976,213.36 18.42828,-33.89053,182.88 18.42819,-33.89096,182.88 18.42805,-33.89168,182.88 18.42796,-33.89222,182.88 18.42788,-33.89291,152.4 18.42777,-33.89355,152.4 18.42772,-33.8941,152.4 18.42762,-33.89468,121.92 18.4276,-33.8952,121.92 18.42749,-33.8958,121.92 18.42743,-33.8963,121.92 18.42738,-33.89676,121.92 18.42739,-33.89715,91.44 18.42733,-33.89776,91.44 18.42733,-33.89808,91.44 18.42732,-33.89845,91.44 18.42728,-33.89883,91.44 18.42727,-33.89923,91.44 18.42727,-33.8996,60.96 18.42722,-33.89985,60.96 18.42699,-33.90028,60.96 18.42687,-33.90056,60.96 18.42699,-33.90079,0 18.42707,-33.901,0 18.42731,-33.9011,0 18.42805,-33.90129,91.44 18.42842,-33.90134,91.44 18.42899,-33.90139,121.92 18.42945,-33.90139,121.92 18.43002,-33.90134,152.4 18.43057,-33.90134,152.4 18.43108,-33.90125,152.4 18.4318,-33.90115,182.88 18.43237,-33.90106,182.88 18.43294,-33.90102,213.36 18.43366,-33.90088,213.36 18.43431,-33.90078,243.84 18.43483,-33.9007,243.84 18.43546,-33.90055,243.84 18.43612,-33.90038,274.32 18.43683,-33.90018,274.32 18.43752,-33.89992,304.8 18.43815,-33.89967,304.8 18.43876,-33.89932,304.8 18.43943,-33.89886,304.8 18.44022,-33.89809,335.28000000000003 18.44078,-33.89745,335.28000000000003 18.44123,-33.89676,335.28000000000003 18.44173,-33.89584,365.76 18.4421,-33.8951,365.76 18.4425,-33.89426,365.76 18.44302,-33.89319,365.76 18.4433,-33.8925,396.24 18.44376,-33.89133,396.24 18.44404,-33.8904,396.24 18.44419,-33.88934,396.24 18.44427,-33.88803,426.72 18.44414,-33.88687,426.72 18.44397,-33.88577,426.72 18.44369,-33.88463,426.72 18.4433,-33.88362,457.20000000000005 18.44268,-33.88257,457.20000000000005 18.44179,-33.88124,457.20000000000005 18.44107,-33.8803,457.20000000000005 18.44016,-33.87927,487.68 18.43924,-33.87839,487.68 18.43825,-33.87753,518.1600000000001 18.43712,-33.87667,518.1600000000001 18.43596,-33.87589,548.64 18.43494,-33.87532,548.64 18.43369,-33.87467,548.64 18.43266,-33.8742,579.12 18.43122,-33.87364,579.12 18.43013,-33.87328,579.12 18.42861,-33.87286,609.6 18.42749,-33.87259,609.6 18.42625,-33.87234,609.6 18.42499,-33.87215,609.6 18.42362,-33.87199,640.08 18.4225,-33.87186,640.08 18.4211,-33.87177,640.08 18.41992,-33.87172,640.08 18.41847,-33.87167,640.08 18.41755,-33.87164,640.08 18.4164,-33.87164,670.5600000000001 18.41503,-33.87169,670.5600000000001 18.41337,-33.87181,670.5600000000001 18.4124,-33.87187,670.5600000000001 18.41096,-33.87199,670.5600000000001 18.40972,-33.87213,670.5600000000001 18.40828,-33.87234,701.0400000000001 18.40748,-33.87243,701.0400000000001 18.40619,-33.87259,701.0400000000001 18.40479,-33.87281,731.52 18.40347,-33.87304,731.52 18.40239,-33.87327,731.52 18.40101,-33.87355,731.52 18.39986,-33.87383,731.52 18.39844,-33.8742,731.52 18.39724,-33.87448,731.52 18.39593,-33.87483,731.52 18.39478,-33.87518,731.52 18.39336,-33.87561,701.0400000000001 18.39214,-33.87602,701.0400000000001 18.3906,-33.87653,701.0400000000001 18.38951,-33.8769,701.0400000000001 18.38802,-33.87751,731.52 18.38688,-33.87797,731.52 18.38585,-33.8784,731.52 18.38442,-33.87909,731.52 18.38332,-33.87964,731.52 18.38198,-33.88037,701.0400000000001 18.38102,-33.88092,731.52 18.37979,-33.88165,731.52 18.37873,-33.88229,731.52 18.37777,-33.88284,731.52 18.37669,-33.88346,731.52 18.37536,-33.88431,701.0400000000001 18.37441,-33.8849,701.0400000000001 18.37346,-33.88554,701.0400000000001 18.37211,-33.88651,701.0400000000001 18.3711,-33.88719,731.52 18.3704,-33.88775,731.52 18.36926,-33.88863,701.0400000000001 18.36841,-33.8893,731.52 18.36731,-33.89017,731.52 18.36623,-33.89108,731.52 18.36533,-33.89177,731.52 18.36432,-33.89264,731.52 18.36348,-33.89338,731.52 18.36262,-33.89408,731.52 18.36163,-33.89497,731.52 18.36073,-33.8958,731.52 18.35978,-33.89671,731.52 18.359,-33.89749,731.52 18.35827,-33.89832,731.52 18.35741,-33.89929,731.52 18.35667,-33.90018,731.52 18.35604,-33.90106,731.52 18.35541,-33.90185,762 18.35466,-33.90283,762 18.35398,-33.90381,762 18.35328,-33.90477,792.48 18.35272,-33.90558,792.48 18.35209,-33.9066,822.96 18.35163,-33.9073,822.96 18.35115,-33.90816,822.96 18.35059,-33.90903,822.96 18.35003,-33.91003,822.96 18.34952,-33.9109,853.44 18.34906,-33.91172,853.44 18.34851,-33.91269,853.44 18.34823,-33.91324,853.44 18.34763,-33.91447,853.44 18.34722,-33.91525,853.44 18.34683,-33.91599,853.44 18.34633,-33.91695,883.9200000000001 18.34593,-33.91782,883.9200000000001 18.34538,-33.91882,883.9200000000001 18.34498,-33.9196,883.9200000000001 18.34448,-33.92052,914.4000000000001 18.34392,-33.92143,914.4000000000001 18.34339,-33.92234,914.4000000000001 18.34302,-33.9229,914.4000000000001 18.34236,-33.92397,914.4000000000001 18.34173,-33.92496,914.4000000000001 18.34122,-33.92583,944.88 18.3407,-33.92667,944.88 18.34013,-33.92751,944.88 18.33956,-33.9283,944.88 18.33893,-33.92927,944.88 18.3383,-33.9302,975.36 18.33767,-33.93113,975.36 18.33693,-33.93216,975.36 18.33641,-33.93297,975.36 18.3359,-33.93375,1005.84 18.33534,-33.93457,1005.84 18.33484,-33.93539,1005.84 18.33418,-33.93644,1005.84 18.33361,-33.93732,1036.3200000000002 18.33315,-33.93826,1036.3200000000002 18.33246,-33.94012,1066.8 18.33237,-33.94093,1066.8 18.33237,-33.94203,1066.8 18.33258,-33.94291,1066.8 18.33293,-33.94363,1066.8 18.33361,-33.9445,1097.28 18.33416,-33.94501,1097.28 18.33506,-33.94556,1097.28 18.3359,-33.94585,1097.28 18.33704,-33.94608,1097.28 18.33784,-33.94613,1097.28 18.3391,-33.94597,1097.28 18.34002,-33.94571,1097.28 18.3407,-33.94547,1097.28 18.34173,-33.94496,1097.28 18.3428,-33.94432,1097.28 18.34347,-33.94382,1097.28 18.34431,-33.94327,1097.28 18.34532,-33.94267,1097.28 18.34642,-33.94231,1097.28 18.34756,-33.94217,1097.28 18.34902,-33.9424,1097.28 18.34986,-33.94281,1097.28 18.35066,-33.94347,1097.28 18.35137,-33.94446,1097.28 18.35169,-33.94529,1097.28 18.35182,-33.94638,1097.28 18.35169,-33.94733,1097.28 18.35132,-33.94849,1097.28 18.35083,-33.94938,1097.28 18.3502,-33.95045,1097.28 18.34958,-33.95142,1097.28 18.34891,-33.95238,1097.28 18.34812,-33.95348,1097.28 18.34751,-33.95436,1097.28 18.34677,-33.95534,1097.28 18.34608,-33.95627,1097.28 18.34509,-33.9575,1097.28 18.34425,-33.95851,1097.28 18.34356,-33.95935,1097.28 18.34268,-33.96043,1097.28 18.34185,-33.96135,1097.28 18.34024,-33.96312,1097.28 18.33736,-33.96625,1066.8 18.33647,-33.96721,1066.8 18.33209,-33.9722,1066.8 18.33018,-33.97453,1066.8 18.32738,-33.97797,1066.8 18.32663,-33.97899,1066.8 18.32581,-33.98016,1066.8 18.32391,-33.98305,1066.8 18.32314,-33.98425,1066.8 18.32256,-33.9852,1066.8 18.32199,-33.98616,1066.8 18.3215,-33.98703,1066.8 18.32082,-33.98808,1066.8 18.32021,-33.98914,1066.8 18.3197,-33.99007,1066.8 18.31902,-33.99114,1066.8 18.31853,-33.99193,1066.8 18.31781,-33.993,1066.8 18.31713,-33.99412,1066.8 18.31662,-33.99495,1066.8 18.31604,-33.99598,1066.8 18.31555,-33.99683,1066.8 18.31494,-33.99788,1066.8 18.31432,-33.99898,1066.8 18.31387,-33.99971,1066.8 18.31337,-34.00067,1066.8 18.3127,-34.00182,1066.8 18.31219,-34.00269,1097.28 18.31169,-34.00369,1066.8 18.31106,-34.00473,1066.8 18.31062,-34.00557,1066.8 18.31015,-34.0065,1066.8 18.309,-34.00864,1066.8 18.30843,-34.00967,1066.8 18.30786,-34.01088,1066.8 18.30731,-34.01198,1066.8 18.30683,-34.01297,1066.8 18.30648,-34.01367,1066.8 18.30585,-34.01511,1066.8 18.30552,-34.01587,1066.8 18.305,-34.01707,1066.8 18.30462,-34.01807,1066.8 18.30425,-34.01917,1066.8 18.3039,-34.02017,1066.8 18.30356,-34.02113,1066.8 18.30317,-34.02228,1066.8 18.30289,-34.02333,1066.8 18.30259,-34.02457,1066.8 18.30236,-34.0255,1066.8 18.30214,-34.02652,1066.8 18.30196,-34.02773,1066.8 18.30177,-34.02887,1066.8 18.30162,-34.02992,1066.8 18.30149,-34.03088,1066.8 18.30128,-34.03239,1066.8 18.30116,-34.03332,1066.8 18.30105,-34.03448,1066.8 18.30092,-34.03578,1066.8 18.30081,-34.03674,1066.8 18.30076,-34.03766,1066.8 18.30076,-34.03885,1066.8 18.3007,-34.03988,1066.8 18.3007,-34.04109,1097.28 18.3007,-34.04207,1097.28 18.3007,-34.04311,1097.28 18.30076,-34.04434,1097.28 18.30076,-34.04535,1097.28 18.30087,-34.04668,1066.8 18.30092,-34.04768,1097.28 18.30098,-34.04869,1097.28 18.30104,-34.04979,1097.28 18.30115,-34.05112,1097.28 18.3012,-34.05222,1066.8 18.30126,-34.0535,1097.28 18.30132,-34.05441,1097.28 18.30137,-34.05569,1066.8 18.30143,-34.05643,1066.8 18.3016,-34.05885,1066.8 18.30173,-34.05994,1066.8 18.30188,-34.06091,1066.8 18.30205,-34.06187,1066.8 18.30236,-34.06306,1066.8 18.30265,-34.06427,1066.8 18.30294,-34.06522,1066.8 18.30328,-34.06614,1066.8 18.30367,-34.06709,1066.8 18.3042,-34.06823,1066.8 18.30457,-34.06892,1066.8 18.30534,-34.06991,1066.8 18.30597,-34.07056,1097.28 18.3067,-34.07103,1097.28 18.30757,-34.07144,1097.28 18.30843,-34.07167,1097.28 18.30916,-34.07172,1097.28 18.31012,-34.07158,1097.28 18.31112,-34.07126,1097.28 18.31208,-34.0708,1097.28 18.31301,-34.07047,1066.8 18.31387,-34.07025,1066.8 18.31495,-34.07028,1066.8 18.31587,-34.07056,1066.8 18.31673,-34.07098,1066.8 18.31753,-34.07158,1066.8 18.31839,-34.07247,1097.28 18.31896,-34.07321,1097.28 18.31959,-34.07414,1097.28 18.32015,-34.07501,1097.28 18.32079,-34.07587,1097.28 18.32148,-34.07689,1066.8 18.32206,-34.07767,1066.8 18.32267,-34.07858,1066.8 18.32342,-34.07968,1066.8 18.32388,-34.08052,1066.8 18.32457,-34.08164,1066.8 18.32525,-34.08293,1066.8 18.32582,-34.08392,1066.8 18.32637,-34.08495,1066.8 18.32697,-34.08597,1066.8 18.32755,-34.08691,1066.8 18.32833,-34.08815,1036.3200000000002 18.3289,-34.08897,1036.3200000000002 18.32972,-34.09016,1036.3200000000002 18.33041,-34.09113,1005.84 18.33138,-34.09221,1005.84 18.33212,-34.09309,1005.84 18.33304,-34.09406,1005.84 18.33395,-34.09495,1005.84 18.33478,-34.09575,975.36 18.33561,-34.09644,975.36 18.33669,-34.0974,975.36 18.3375,-34.09807,975.36 18.33837,-34.09882,944.88 18.33921,-34.09946,944.88 18.3403,-34.10035,944.88 18.34145,-34.1012,914.4000000000001 18.34235,-34.10184,914.4000000000001 18.34328,-34.10249,914.4000000000001 18.34454,-34.10333,914.4000000000001 18.34532,-34.10376,883.9200000000001 18.34655,-34.10454,883.9200000000001 18.34763,-34.10515,883.9200000000001 18.34874,-34.10577,883.9200000000001 18.34975,-34.10632,883.9200000000001 18.35098,-34.10696,853.44 18.3518,-34.10738,853.44 18.35306,-34.10803,853.44 18.35445,-34.1087,822.96 18.35529,-34.1091,822.96 18.35658,-34.10971,822.96 18.35775,-34.11031,822.96 18.35894,-34.11081,822.96 18.36021,-34.11143,792.48 18.36135,-34.11195,792.48 18.36241,-34.11246,792.48 18.36365,-34.11306,762 18.36477,-34.11356,762 18.36836,-34.11511,762 18.37065,-34.11607,762 18.372,-34.11658,762 18.37303,-34.11697,731.52 18.37429,-34.11749,731.52 18.37532,-34.1179,731.52 18.37658,-34.11842,731.52 18.37755,-34.11882,731.52 18.37852,-34.11921,701.0400000000001 18.37973,-34.11972,701.0400000000001 18.38074,-34.1201,701.0400000000001 18.38196,-34.1206,701.0400000000001 18.38282,-34.12093,701.0400000000001 18.38385,-34.1213,701.0400000000001 18.38516,-34.12177,670.5600000000001 18.38657,-34.1223,670.5600000000001 18.38747,-34.12262,670.5600000000001 18.39077,-34.12381,670.5600000000001 18.39414,-34.12495,640.08 18.39834,-34.12646,640.08 18.4016,-34.12756,640.08 18.40485,-34.12865,640.08 18.40816,-34.12977,640.08 18.41234,-34.13112,640.08 18.41526,-34.13205,640.08 18.41732,-34.13266,640.08 18.41846,-34.13298,640.08 18.41959,-34.13329,609.6 18.42064,-34.13354,640.08 18.42267,-34.13406,640.08 18.42361,-34.13429,609.6 18.42464,-34.13457,609.6 18.42575,-34.1348,609.6 18.42665,-34.13503,609.6 18.42777,-34.1353,609.6 18.42894,-34.13554,609.6 18.42997,-34.13573,640.08 18.43088,-34.13592,640.08 18.43214,-34.13615,640.08 18.43311,-34.13629,640.08 18.43427,-34.13644,640.08 18.43523,-34.13652,640.08 18.43632,-34.13662,640.08 18.43736,-34.13667,640.08 18.43859,-34.13672,640.08 18.43937,-34.13667,640.08 18.44083,-34.13654,640.08 18.44184,-34.13635,640.08 18.4429,-34.13606,640.08 18.44398,-34.13568,640.08 18.44537,-34.13512,640.08 18.44633,-34.13466,640.08 18.44739,-34.13406,640.08 18.44857,-34.13338,609.6 18.44948,-34.13275,609.6 18.45058,-34.13191,640.08 18.45142,-34.13126,640.08 18.4524,-34.13052,640.08 18.45331,-34.12973,640.08 18.45457,-34.12861,640.08 18.45543,-34.12786,640.08 18.45647,-34.12692,640.08 18.45737,-34.12609,640.08 18.45815,-34.12532,640.08 18.45933,-34.12418,640.08 18.46011,-34.12335,640.08 18.46107,-34.1223,640.08 18.4618,-34.12138,640.08 18.46252,-34.12051,640.08 18.46342,-34.11937,640.08 18.46415,-34.11832,640.08 18.46487,-34.1173,640.08 18.46561,-34.11599,640.08 18.46611,-34.11502,640.08 18.46662,-34.11374,640.08 18.46699,-34.11269,640.08 18.4674,-34.11131,640.08 18.46773,-34.11013,640.08 18.46802,-34.10866,640.08 18.46819,-34.10766,640.08 18.46836,-34.10627,640.08 18.46853,-34.10496,640.08 18.46858,-34.10381,640.08 18.46865,-34.10254,640.08 18.4687,-34.10133,640.08 18.46865,-34.09961,640.08 18.46852,-34.09836,640.08 18.46835,-34.09703,640.08 18.46813,-34.09593,640.08 18.4679,-34.09481,640.08 18.46756,-34.09337,640.08 18.46722,-34.09216,640.08 18.46687,-34.09095,640.08 18.46651,-34.08948,640.08 18.46613,-34.0882,640.08 18.46573,-34.08676,640.08 18.46544,-34.08563,640.08 18.4651,-34.08435,640.08 18.46477,-34.08302,640.08 18.46443,-34.08183,640.08 18.46413,-34.08057,640.08 18.46378,-34.07898,640.08 18.46353,-34.07785,640.08 18.46325,-34.07652,640.08 18.46292,-34.07494,640.08 18.46281,-34.0741,609.6 18.46258,-34.07247,609.6 18.46241,-34.07121,609.6 18.46235,-34.07005,609.6 18.4623,-34.0686,609.6 18.46224,-34.06755,609.6 18.46218,-34.06609,609.6 18.46218,-34.06488,609.6 18.46224,-34.06343,609.6 18.4623,-34.06227,609.6 18.46235,-34.06111,609.6 18.46241,-34.05963,609.6 18.46247,-34.05864,609.6 18.46258,-34.05739,609.6 18.46264,-34.05618,609.6 18.46275,-34.05473,609.6 18.46281,-34.05329,609.6 18.46292,-34.05212,609.6 18.46304,-34.05101,609.6 18.4632,-34.04979,640.08 18.46342,-34.04832,609.6 18.46361,-34.04724,640.08 18.4639,-34.04589,640.08 18.46424,-34.04467,640.08 18.46449,-34.04361,640.08 18.46481,-34.04244,640.08 18.46522,-34.04109,640.08 18.4655,-34.03995,640.08 18.46579,-34.0389,640.08 18.46611,-34.03775,640.08 18.46647,-34.03639,640.08 18.46682,-34.03504,640.08 18.46716,-34.03378,640.08 18.46746,-34.03271,640.08 18.46774,-34.03162,640.08 18.46807,-34.03052,640.08 18.46841,-34.02933,640.08 18.46875,-34.02786,640.08 18.46903,-34.02672,640.08 18.46925,-34.02567,640.08 18.46959,-34.02429,640.08 18.46979,-34.02308,640.08 18.47002,-34.02191,640.08 18.47026,-34.02072,640.08 18.47043,-34.01967,609.6 18.47071,-34.01811,640.08 18.47088,-34.01706,640.08 18.4711,-34.01578,640.08 18.47134,-34.01456,640.08 18.47155,-34.01312,640.08 18.47174,-34.01186,640.08 18.47191,-34.01083,640.08 18.47217,-34.00969,609.6 18.47245,-34.00813,609.6 18.47271,-34.00702,609.6 18.47295,-34.00575,609.6 18.47323,-34.00452,609.6 18.47346,-34.00328,609.6 18.47374,-34.0019,609.6 18.47407,-34.00035,579.12 18.47431,-33.9992,579.12 18.47463,-33.99783,579.12 18.47488,-33.99649,579.12 18.47517,-33.9951,548.64 18.47546,-33.99375,548.64 18.47581,-33.9922,548.64 18.47609,-33.99072,548.64 18.47637,-33.98942,548.64 18.47665,-33.98813,518.1600000000001 18.47699,-33.98653,518.1600000000001 18.47729,-33.98523,518.1600000000001 18.47766,-33.98355,487.68 18.47792,-33.98225,487.68 18.47822,-33.98085,487.68 18.47928,-33.97609,487.68 18.48055,-33.97015,457.20000000000005 18.48169,-33.96437,426.72 18.48255,-33.96009,426.72 18.48371,-33.9543,426.72 18.48427,-33.95119,426.72 18.48444,-33.94981,426.72 18.48455,-33.94841,426.72 18.48461,-33.94664,426.72 18.48461,-33.94561,426.72 18.48455,-33.94382,426.72 18.48438,-33.94258,396.24 18.4841,-33.94091,396.24 18.48377,-33.93961,396.24 18.48324,-33.93779,396.24 18.48281,-33.93672,365.76 18.4822,-33.93512,365.76 18.48158,-33.9337,365.76 18.4808,-33.93205,365.76 18.48043,-33.93127,365.76 18.47946,-33.92955,365.76 18.4785,-33.92798,335.28000000000003 18.47783,-33.92697,335.28000000000003 18.47665,-33.92537,335.28000000000003 18.47574,-33.9242,335.28000000000003 18.47483,-33.92303,335.28000000000003 18.47362,-33.92157,335.28000000000003 18.4726,-33.92038,335.28000000000003 18.47166,-33.91928,335.28000000000003 18.47048,-33.91791,335.28000000000003 18.46951,-33.91684,335.28000000000003 18.46847,-33.91571,335.28000000000003 18.46704,-33.91419,335.28000000000003 18.46622,-33.91324,335.28000000000003 18.46494,-33.91191,335.28000000000003 18.46387,-33.91081,335.28000000000003 18.46269,-33.90953,335.28000000000003 18.46135,-33.90816,335.28000000000003 18.46041,-33.90721,365.76 18.45921,-33.90595,365.76 18.45669,-33.90343,365.76 18.45322,-33.89996,335.28000000000003 18.44868,-33.89576,304.8 18.44759,-33.89473,274.32 18.44662,-33.89389,274.32 18.44564,-33.8932,274.32 18.44421,-33.89227,243.84 18.44313,-33.89166,243.84 18.44184,-33.89117,243.84 18.44094,-33.89085,243.84 18.43941,-33.8905,213.36 18.43792,-33.89021,213.36 18.43683,-33.89012,213.36 18.43472,-33.89017,182.88 18.43377,-33.8903,182.88 18.43277,-33.89054,182.88 18.43168,-33.89101,182.88 18.43013,-33.892,152.4 18.42957,-33.89254,152.4 18.429,-33.89323,152.4 18.42871,-33.89371,152.4 18.42833,-33.89438,121.92 18.42805,-33.89488,121.92 18.42779,-33.89557,121.92 18.4276,-33.89621,121.92 18.42751,-33.89669,91.44 18.42739,-33.89724,91.44 18.42738,-33.89772,91.44 18.42732,-33.89804,91.44 18.42732,-33.89836,91.44 18.42728,-33.89883,91.44 18.42728,-33.89915,60.96 18.42727,-33.89941,91.44 18.42722,-33.89962,60.96 18.42715,-33.89996,60.96 18.42693,-33.90036,60.96 18.42697,-33.90064,0 18.42721,-33.90067,0 18.42773,-33.90064,91.44 18.42905,-33.90074,121.92 18.42957,-33.90074,121.92 18.43007,-33.90074,121.92 18.43063,-33.90074,152.4 18.43134,-33.90069,152.4 18.43203,-33.90065,152.4 18.43266,-33.90064,182.88 18.4334,-33.90055,182.88 18.43403,-33.90051,182.88 18.43456,-33.90047,182.88 18.43534,-33.90041,213.36 18.4358,-33.90036,213.36 18.43666,-33.90036,213.36 18.43719,-33.90033,213.36 18.43798,-33.90032,243.84 18.43861,-33.90032,243.84 18.43929,-33.90032,243.84 18.4401,-33.90033,243.84 18.44072,-33.90038,243.84 18.44139,-33.90042,243.84 18.4421,-33.90051,274.32 18.44268,-33.9006,274.32 18.44336,-33.90074,274.32 18.44404,-33.90092,274.32 18.4447,-33.90115,274.32 18.4453,-33.90139,274.32 18.44599,-33.90166,274.32 18.44656,-33.9019,274.32 18.44707,-33.90218,304.8 18.44756,-33.90253,304.8 18.44816,-33.90292,304.8 18.44868,-33.90321,304.8 18.44918,-33.90358,304.8 18.44963,-33.9039,304.8 18.45016,-33.90432,304.8 18.45064,-33.90472,304.8 18.45114,-33.9052,304.8 18.4516,-33.90562,304.8 18.45194,-33.906,304.8 18.45238,-33.90646,304.8 18.45285,-33.90688,304.8 18.45344,-33.90742,304.8 18.45394,-33.90791,304.8 18.4544,-33.90833,304.8 18.45486,-33.90884,304.8 18.45531,-33.9093,304.8 18.45574,-33.90971,304.8 18.45629,-33.91032,304.8 18.4567,-33.91081,304.8 18.4572,-33.9114,304.8 18.4576,-33.91186,304.8 18.45806,-33.91242,304.8 18.45849,-33.91287,304.8 18.45903,-33.91349,304.8 18.45943,-33.91396,304.8 18.45989,-33.91443,304.8 18.46035,-33.91494,304.8 18.46092,-33.91563,304.8 18.46138,-33.9161,304.8 18.46174,-33.91658,304.8 18.46218,-33.91708,304.8 18.46264,-33.91763,335.28000000000003 18.46314,-33.91823,304.8 18.46353,-33.91869,304.8 18.46401,-33.91922,304.8 18.46443,-33.91974,304.8 18.46494,-33.92038,304.8 18.46544,-33.92094,304.8 18.4659,-33.9215,304.8 18.46628,-33.92194,304.8 18.46673,-33.92249,304.8 18.46718,-33.92308,304.8 18.46762,-33.92368,304.8 18.46813,-33.92432,304.8 18.46852,-33.92487,304.8 18.46897,-33.92542,304.8 18.46933,-33.92587,304.8 18.46973,-33.92648,304.8 18.47009,-33.92706,304.8 18.47037,-33.92757,304.8 18.47076,-33.92825,304.8 18.47105,-33.92876,304.8 18.47149,-33.92949,304.8 18.47183,-33.93004,304.8 18.47217,-33.93054,304.8 18.47265,-33.93137,335.28000000000003 18.47301,-33.93205,304.8 18.47328,-33.93258,304.8 18.47368,-33.93328,304.8 18.47385,-33.9337,304.8 18.47425,-33.93444,304.8 18.47454,-33.93504,304.8 18.47494,-33.93584,335.28000000000003 18.47523,-33.93644,304.8 18.4754,-33.93691,304.8 18.4758,-33.93774,304.8 18.47614,-33.93846,304.8 18.47643,-33.93909,335.28000000000003 18.47676,-33.93974,335.28000000000003 18.4771,-33.94043,335.28000000000003 18.47734,-33.94096,335.28000000000003 18.47763,-33.94156,335.28000000000003 18.47792,-33.94217,365.76 18.47816,-33.94276,365.76 18.47849,-33.94352,365.76 18.47867,-33.94409,365.76 18.47889,-33.94468,365.76 18.47906,-33.94524,365.76 18.47929,-33.94603,396.24 18.47952,-33.94673,396.24 18.47969,-33.94738,396.24 18.4799,-33.94817,396.24 18.48001,-33.94881,396.24 18.48015,-33.94943,396.24 18.48029,-33.95013,426.72 18.48043,-33.95092,426.72 18.48055,-33.95152,426.72 18.48072,-33.95232,426.72 18.4808,-33.95306,426.72 18.48089,-33.95376,426.72 18.48097,-33.95448,426.72 18.48102,-33.95526,426.72 18.48108,-33.95613,426.72 18.48108,-33.95668,426.72 18.48108,-33.95764,426.72 18.48118,-33.95855,426.72 18.48118,-33.95935,426.72 18.48124,-33.96014,426.72 18.4813,-33.96094,426.72 18.48136,-33.96153,426.72 18.48141,-33.9627,426.72 18.48153,-33.96346,457.20000000000005 18.48158,-33.96419,457.20000000000005 18.4817,-33.9651,457.20000000000005 18.48175,-33.96582,457.20000000000005 18.48181,-33.96666,457.20000000000005 18.48186,-33.96739,487.68 18.48198,-33.96812,487.68 18.48204,-33.96898,487.68 18.48215,-33.96987,487.68 18.48221,-33.97066,487.68 18.48225,-33.97151,487.68 18.48225,-33.97234,487.68 18.48231,-33.97321,487.68 18.48238,-33.9742,487.68 18.48238,-33.97517,487.68 18.48238,-33.97596,487.68 18.48238,-33.97694,487.68 18.48237,-33.97783,487.68 18.48237,-33.9787,487.68 18.48232,-33.9796,487.68 18.48227,-33.98067,487.68 18.48227,-33.98155,487.68 18.48225,-33.9825,487.68 18.48221,-33.98351,487.68 18.48215,-33.98635,487.68 18.48214,-33.98831,487.68 18.48225,-33.99001,487.68 18.48231,-33.99092,487.68 18.48238,-33.99189,487.68 18.48248,-33.99298,487.68 18.48253,-33.99403,487.68 18.48265,-33.9949,487.68 18.4827,-33.99596,487.68 18.48276,-33.99683,487.68 18.48278,-33.99798,487.68 18.48272,-33.99882,487.68 18.48278,-33.99975,487.68 18.48276,-34.00081,487.68 18.48276,-34.00163,487.68 18.48278,-34.00245,487.68 18.48276,-34.00351,487.68 18.48278,-34.00436,487.68 18.48278,-34.00548,487.68 18.48278,-34.00636,487.68 18.48278,-34.0072,487.68 18.48284,-34.00832,487.68 18.48284,-34.00916,487.68 18.48287,-34.01207,487.68 18.48284,-34.01302,487.68 18.48289,-34.01405,487.68 18.48287,-34.015,487.68 18.48287,-34.01587,487.68 18.48287,-34.01683,487.68 18.48289,-34.01781,487.68 18.48284,-34.01875,487.68 18.48287,-34.01981,487.68 18.48287,-34.02068,487.68 18.48289,-34.02177,487.68 18.48289,-34.02387,518.1600000000001 18.48284,-34.02671,487.68 18.48281,-34.02777,487.68 18.48284,-34.02852,487.68 18.48287,-34.02956,487.68 18.48295,-34.03076,487.68 18.48295,-34.03159,487.68 18.48304,-34.03285,487.68 18.4831,-34.03377,487.68 18.48312,-34.03467,487.68 18.48315,-34.0356,487.68 18.48324,-34.03667,487.68 18.4833,-34.03755,487.68 18.4833,-34.03872,487.68 18.48335,-34.03946,487.68 18.48338,-34.04054,487.68 18.48343,-34.0415,487.68 18.4836,-34.04453,487.68 18.48381,-34.04761,518.1600000000001 18.48415,-34.05189,487.68 18.48421,-34.05296,487.68 18.48427,-34.05389,487.68 18.48427,-34.05487,487.68 18.48427,-34.05606,487.68 18.48433,-34.0572,487.68 18.48433,-34.05822,487.68 18.48427,-34.05927,487.68 18.48427,-34.06023,487.68 18.48427,-34.06146,487.68 18.48421,-34.06213,487.68 18.48421,-34.06334,487.68 18.48415,-34.06455,487.68 18.4841,-34.06548,487.68 18.48404,-34.06665,487.68 18.48399,-34.06764,487.68 18.48399,-34.06874,487.68 18.48392,-34.06995,487.68 18.48392,-34.07088,487.68 18.48388,-34.07181,487.68 18.48388,-34.07277,487.68 18.48381,-34.07372,487.68 18.48364,-34.07712,487.68 18.48338,-34.08032,487.68 18.48326,-34.08325,487.68 18.48315,-34.08636,487.68 18.4831,-34.08723,487.68 18.48298,-34.09026,487.68 18.48284,-34.09416,487.68 18.48278,-34.09723,487.68 18.4827,-34.10051,487.68 18.48265,-34.1044,487.68 18.48261,-34.10729,487.68 18.48255,-34.11045,487.68 18.48249,-34.11427,487.68 18.48242,-34.11745,487.68 18.48237,-34.12175,487.68 18.48232,-34.12377,487.68 18.48227,-34.12484,487.68 18.48221,-34.12558,487.68 18.48215,-34.12656,487.68 18.48209,-34.12782,487.68 18.48209,-34.12871,487.68 18.48204,-34.12968,487.68 18.48198,-34.13066,487.68 18.48186,-34.13182,487.68 18.48181,-34.13271,487.68 18.4817,-34.1337,487.68 18.48164,-34.13461,487.68 18.48153,-34.13557,487.68 18.48147,-34.13658,487.68 18.48136,-34.13759,487.68 18.48124,-34.13876,487.68 18.48112,-34.13964,487.68 18.48097,-34.14061,487.68 18.48085,-34.14153,487.68 18.48041,-34.14455,487.68 18.47992,-34.1484,487.68 18.47962,-34.15132,487.68 18.47923,-34.15459,487.68 18.47906,-34.15645,487.68 18.479,-34.15733,487.68 18.479,-34.15822,487.68 18.47895,-34.15924,487.68 18.47895,-34.16016,457.20000000000005 18.47889,-34.16125,457.20000000000005 18.47889,-34.16212,487.68 18.47883,-34.16301,487.68 18.47878,-34.16399,487.68 18.47878,-34.16511,487.68 18.47872,-34.16579,487.68 18.47872,-34.16684,487.68 18.47872,-34.16771,487.68 18.47872,-34.16876,487.68 18.47872,-34.16967,457.20000000000005 18.47872,-34.17073,457.20000000000005 18.47872,-34.17178,426.72 18.47872,-34.17274,426.72 18.47866,-34.17381,426.72 18.47866,-34.17474,426.72 18.47867,-34.17567,396.24 18.4786,-34.17684,396.24 18.4786,-34.17777,396.24 18.4786,-34.17861,396.24 18.4786,-34.17944,365.76 18.47861,-34.1803,365.76 18.47856,-34.18382,335.28000000000003 18.47855,-34.18675,304.8 18.4786,-34.18759,304.8 18.47866,-34.18829,304.8 18.47878,-34.18922,304.8 18.47895,-34.18996,304.8 18.47906,-34.19073,274.32 18.47906,-34.19164,274.32 18.47895,-34.19243,304.8 18.47872,-34.19316,274.32 18.47856,-34.19403,274.32 18.47839,-34.19472,274.32 18.47815,-34.19583,274.32 18.47794,-34.19687,274.32 18.47783,-34.19778,304.8 18.47775,-34.19858,304.8 18.47769,-34.19942,304.8 18.47766,-34.20012,304.8 18.47769,-34.20081,304.8 18.47763,-34.20169,304.8 18.47766,-34.20264,304.8 18.4776,-34.20337,304.8 18.47763,-34.20407,304.8 18.47763,-34.20505,304.8 18.47763,-34.20593,304.8 18.47763,-34.20672,304.8 18.47763,-34.20761,304.8 18.47766,-34.2084,304.8 18.47763,-34.20914,304.8 18.47763,-34.21012,304.8 18.47763,-34.21096,304.8 18.47763,-34.21189,304.8 18.47757,-34.2124,304.8 18.47746,-34.21403,304.8 18.4774,-34.21473,274.32 18.47734,-34.21534,274.32 18.4771,-34.21765,274.32 18.47704,-34.21815,243.84 18.47694,-34.21906,243.84 18.47687,-34.21985,243.84 18.47677,-34.22055,213.36 18.47649,-34.22269,182.88 18.47626,-34.22516,152.4 18.47609,-34.2269,152.4 18.47575,-34.23033,121.92 18.47524,-34.23483,0 18.47504,-34.23513,0 18.47509,-34.23538,0 18.4753,-34.23555,60.96 18.47557,-34.23573,60.96 18.47591,-34.23596,60.96 18.47643,-34.23624,91.44 18.47672,-34.23638,91.44 18.47727,-34.2366,91.44 18.47797,-34.2368,121.92 18.4785,-34.23688,121.92 18.47935,-34.23693,152.4 18.48001,-34.23688,152.4 18.48085,-34.23674,152.4 18.48158,-34.23656,182.88 18.48248,-34.23624,182.88 18.48318,-34.23591,213.36 18.48387,-34.23554,213.36 18.48478,-34.23494,213.36 18.48545,-34.23445,243.84 18.48612,-34.23386,243.84 18.48696,-34.23299,243.84 18.48758,-34.23225,274.32 18.4881,-34.23154,274.32 18.48873,-34.23061,274.32 18.48913,-34.22968,304.8 18.48954,-34.22845,304.8 18.48971,-34.22763,335.28000000000003 18.48976,-34.22665,335.28000000000003 18.48954,-34.22498,365.76 18.4893,-34.22385,365.76 18.48885,-34.22255,396.24 18.48839,-34.22162,396.24 18.48769,-34.22021,396.24 18.48707,-34.21915,426.72 18.48635,-34.21806,426.72 18.48541,-34.21673,457.20000000000005 18.48461,-34.21557,457.20000000000005 18.48371,-34.21426,457.20000000000005 18.48289,-34.21315,487.68 18.48198,-34.21185,487.68 18.48119,-34.21074,487.68 18.48021,-34.20938,487.68 18.47918,-34.20798,518.1600000000001 18.47832,-34.20686,518.1600000000001 18.47734,-34.20551,518.1600000000001 18.47649,-34.20435,518.1600000000001 18.47446,-34.20172,518.1600000000001 18.47334,-34.20035,518.1600000000001 18.47237,-34.19928,518.1600000000001 18.47099,-34.19769,518.1600000000001 18.46998,-34.1965,518.1600000000001 18.46882,-34.19504,518.1600000000001 18.4679,-34.19383,518.1600000000001 18.4669,-34.19238,518.1600000000001 18.46601,-34.19122,518.1600000000001 18.46516,-34.18987,518.1600000000001 18.46418,-34.18829,518.1600000000001 18.46315,-34.18643,518.1600000000001 18.46264,-34.18531,518.1600000000001 18.46195,-34.18364,518.1600000000001 18.46144,-34.18214,487.68 18.46109,-34.18084,487.68 18.46075,-34.17931,487.68 18.46052,-34.17763,487.68 18.46041,-34.17633,518.1600000000001 18.46039,-34.1749,518.1600000000001 18.46045,-34.17361,487.68 18.46052,-34.17237,487.68 18.46064,-34.17107,487.68 18.46087,-34.16934,487.68 18.46101,-34.16812,487.68 18.46121,-34.16716,487.68 18.46149,-34.16566,518.1600000000001 18.46178,-34.16413,487.68 18.46208,-34.16295,487.68 18.46236,-34.16153,487.68 18.46269,-34.16016,487.68 18.46297,-34.15906,487.68 18.46337,-34.1575,487.68 18.46365,-34.1564,487.68 18.46395,-34.15519,487.68 18.46437,-34.15361,487.68 18.46464,-34.15273,487.68 18.46504,-34.15123,487.68 18.46544,-34.14988,487.68 18.4659,-34.1484,487.68 18.46628,-34.1472,487.68 18.46699,-34.14486,487.68 18.46733,-34.1436,487.68 18.46779,-34.14211,487.68 18.46886,-34.1385,487.68 18.46916,-34.13741,457.20000000000005 18.46953,-34.13599,487.68 18.46985,-34.13475,487.68 18.47025,-34.13336,487.68 18.4706,-34.13214,487.68 18.47161,-34.12843,487.68 18.47254,-34.12461,487.68 18.47277,-34.12339,487.68 18.47362,-34.11928,457.20000000000005 18.47413,-34.11667,457.20000000000005 18.47429,-34.11557,457.20000000000005 18.47448,-34.11404,457.20000000000005 18.47458,-34.11278,457.20000000000005 18.4746,-34.11143,457.20000000000005 18.4746,-34.11027,457.20000000000005 18.47458,-34.10898,457.20000000000005 18.47452,-34.10747,457.20000000000005 18.47443,-34.10603,457.20000000000005 18.47431,-34.10477,457.20000000000005 18.47413,-34.10339,457.20000000000005 18.47391,-34.10207,457.20000000000005 18.47362,-34.10069,457.20000000000005 18.47323,-34.09937,457.20000000000005 18.47282,-34.09821,457.20000000000005 18.47231,-34.09677,457.20000000000005 18.47162,-34.09533,457.20000000000005 18.47111,-34.09439,457.20000000000005 18.47019,-34.09281,457.20000000000005 18.46956,-34.09193,457.20000000000005 18.4687,-34.09062,487.68 18.46785,-34.08946,487.68 18.46693,-34.08825,487.68 18.46589,-34.08696,487.68 18.46504,-34.08592,487.68 18.46407,-34.0848,487.68 18.46309,-34.08371,487.68 18.46184,-34.08252,487.68 18.46081,-34.08155,487.68 18.45961,-34.08052,487.68 18.45846,-34.07959,487.68 18.45692,-34.07838,487.68 18.45569,-34.07744,487.68 18.45451,-34.07652,487.68 18.45325,-34.07563,487.68 18.45193,-34.07465,487.68 18.45079,-34.07386,487.68 18.44959,-34.07302,487.68 18.44818,-34.07208,487.68 18.44673,-34.07107,487.68 18.44547,-34.07028,487.68 18.44419,-34.06943,487.68 18.44279,-34.06847,487.68 18.44134,-34.06741,487.68 18.43999,-34.06641,457.20000000000005 18.43889,-34.06558,487.68 18.43775,-34.06467,457.20000000000005 18.4366,-34.06376,457.20000000000005 18.43545,-34.06288,457.20000000000005 18.43426,-34.06195,457.20000000000005 18.43293,-34.06087,457.20000000000005 18.43181,-34.06,457.20000000000005 18.43048,-34.05887,457.20000000000005 18.42912,-34.0578,457.20000000000005 18.42796,-34.05687,457.20000000000005 18.42682,-34.05602,457.20000000000005 18.42579,-34.05524,426.72 18.42458,-34.05441,426.72 18.4235,-34.05375,426.72 18.4223,-34.05301,426.72 18.42105,-34.05222,426.72 18.41976,-34.05139,396.24 18.41863,-34.05075,396.24 18.4174,-34.05002,396.24 18.41612,-34.04924,396.24 18.41526,-34.04877,396.24 18.41377,-34.04803,365.76 18.41275,-34.04755,365.76 18.4114,-34.047,365.76 18.41045,-34.04668,365.76 18.40933,-34.04631,365.76 18.40804,-34.0459,365.76 18.40709,-34.04558,365.76 18.40599,-34.04519,365.76 18.40502,-34.04477,365.76 18.40416,-34.04435,365.76 18.40328,-34.04375,365.76 18.4025,-34.04319,365.76 18.40193,-34.04253,365.76 18.40147,-34.04193,365.76 18.40126,-34.04132,365.76 18.40118,-34.04063,365.76 18.40137,-34.04004,365.76 18.40181,-34.03951,335.28000000000003 18.40227,-34.03922,335.28000000000003 18.4029,-34.039,335.28000000000003 18.40342,-34.0389,304.8 18.40412,-34.03889,304.8 18.40479,-34.03894,304.8 18.40525,-34.039,274.32 18.40591,-34.03908,274.32 18.40636,-34.03917,243.84 18.40696,-34.03928,243.84 18.40737,-34.03931,243.84 18.40787,-34.0394,243.84 18.40832,-34.03949,243.84 18.40883,-34.03954,213.36 18.40931,-34.0396,213.36 18.40971,-34.0397,213.36 18.41,-34.0397,213.36 18.41039,-34.03976,182.88 18.4108,-34.03974,182.88 18.41112,-34.03976,182.88 18.41143,-34.03974,182.88 18.41168,-34.03976,152.4 18.41202,-34.03976,152.4 18.41234,-34.03983,152.4 18.41257,-34.03983,152.4 18.41278,-34.0399,0 18.41269,-34.04012,182.88 18.4118,-34.04077,182.88 18.41068,-34.04178,213.36 18.41051,-34.0421,243.84 18.41057,-34.04281,243.84 18.41068,-34.04343,274.32 18.4109,-34.04393,274.32 18.41137,-34.04454,274.32 18.41185,-34.04494,304.8 18.41263,-34.04542,304.8 18.41349,-34.04575,304.8 18.41429,-34.04593,335.28000000000003 18.41522,-34.04608,335.28000000000003 18.41645,-34.04613,335.28000000000003 18.41746,-34.04613,335.28000000000003 18.41863,-34.04608,365.76 18.41972,-34.04593,365.76 18.42065,-34.04576,365.76 18.42166,-34.04553,365.76 18.4231,-34.04514,365.76 18.42413,-34.04482,365.76 18.4255,-34.04435,396.24 18.42653,-34.04398,396.24 18.42755,-34.04356,396.24 18.42861,-34.04311,396.24 18.42985,-34.04258,426.72 18.43088,-34.04211,426.72 18.43192,-34.04164,426.72 18.43293,-34.04114,426.72 18.43427,-34.04041,426.72 18.43506,-34.03995,426.72 18.43612,-34.03931,426.72 18.43735,-34.03858,426.72 18.43826,-34.03797,426.72 18.43924,-34.03737,426.72 18.44049,-34.03653,426.72 18.44145,-34.03583,457.20000000000005 18.44246,-34.0351,426.72 18.44336,-34.03439,457.20000000000005 18.44444,-34.0335,457.20000000000005 18.44532,-34.03276,457.20000000000005 18.44633,-34.03192,457.20000000000005 18.44719,-34.03113,457.20000000000005 18.44829,-34.03015,457.20000000000005 18.44924,-34.02919,457.20000000000005 18.45003,-34.02837,457.20000000000005 18.45108,-34.02726,457.20000000000005 18.45182,-34.02638,457.20000000000005 18.4526,-34.02544,457.20000000000005 18.45361,-34.0242,487.68 18.45434,-34.02322,457.20000000000005 18.45537,-34.02187,457.20000000000005 18.45619,-34.02081,457.20000000000005 18.45698,-34.01967,457.20000000000005 18.45759,-34.01866,487.68 18.45835,-34.01735,487.68 18.45892,-34.01623,487.68 18.45961,-34.01488,487.68 18.46018,-34.01381,487.68 18.4609,-34.01234,487.68 18.46144,-34.01116,487.68 18.46207,-34.00985,487.68 18.46258,-34.00864,487.68 18.46325,-34.00717,487.68 18.46378,-34.00599,487.68 18.46432,-34.00484,487.68 18.46499,-34.00337,487.68 18.4655,-34.00217,487.68 18.466,-34.00099,487.68 18.46767,-33.99715,487.68 18.46819,-33.99594,487.68 18.46888,-33.9944,487.68 18.47048,-33.99068,487.68 18.47225,-33.98676,487.68 18.47278,-33.98543,457.20000000000005 18.47329,-33.98419,487.68 18.47374,-33.98305,487.68 18.47437,-33.9815,487.68 18.47486,-33.98021,457.20000000000005 18.47643,-33.97601,457.20000000000005 18.47693,-33.97476,457.20000000000005 18.47743,-33.97339,457.20000000000005 18.47792,-33.97219,457.20000000000005 18.47839,-33.97092,426.72 18.47883,-33.96968,426.72 18.47945,-33.96794,426.72 18.48046,-33.96506,396.24 18.48091,-33.96378,396.24 18.48141,-33.96214,396.24 18.48175,-33.96094,396.24 18.48209,-33.95967,365.76 18.48249,-33.95795,365.76 18.48265,-33.95682,365.76 18.48284,-33.95544,365.76 18.48307,-33.95376,365.76 18.48318,-33.95218,365.76 18.48332,-33.95078,365.76 18.48343,-33.9494,365.76 18.48352,-33.94766,365.76 18.4836,-33.94629,365.76 18.4836,-33.94492,365.76 18.48354,-33.94368,365.76 18.48343,-33.94189,365.76 18.48324,-33.94007,335.28000000000003 18.48312,-33.939,335.28000000000003 18.48287,-33.93745,335.28000000000003 18.48249,-33.93579,335.28000000000003 18.48215,-33.93453,335.28000000000003 18.48175,-33.93328,335.28000000000003 18.48118,-33.93179,335.28000000000003 18.48066,-33.93058,335.28000000000003 18.47992,-33.92904,335.28000000000003 18.47928,-33.92784,335.28000000000003 18.4786,-33.92662,304.8 18.47788,-33.92542,304.8 18.47677,-33.92373,304.8 18.47603,-33.92262,304.8 18.47502,-33.9212,304.8 18.47437,-33.92033,304.8 18.47322,-33.91889,304.8 18.47242,-33.91787,304.8 18.47151,-33.91684,335.28000000000003 18.47031,-33.91549,335.28000000000003 18.46931,-33.91443,335.28000000000003 18.46824,-33.91333,335.28000000000003 18.46733,-33.91237,335.28000000000003 18.46601,-33.91112,335.28000000000003 18.46493,-33.91005,335.28000000000003 18.46393,-33.90903,335.28000000000003 18.46292,-33.90805,335.28000000000003 18.46174,-33.90688,335.28000000000003 18.46073,-33.90587,335.28000000000003 18.45943,-33.9046,335.28000000000003 18.45858,-33.90381,335.28000000000003 18.45714,-33.90253,335.28000000000003 18.45623,-33.90171,335.28000000000003 18.45507,-33.90074,335.28000000000003 18.45366,-33.89948,335.28000000000003 18.4524,-33.89841,335.28000000000003 18.45125,-33.89738,304.8 18.45014,-33.89644,304.8 18.44908,-33.89552,304.8 18.44806,-33.89465,304.8 18.44667,-33.89352,304.8 18.44536,-33.8925,274.32 18.44439,-33.89175,274.32 18.44307,-33.89085,274.32 18.44195,-33.89021,274.32 18.44078,-33.88956,243.84 18.43954,-33.88907,243.84 18.43866,-33.88877,243.84 18.43718,-33.8884,243.84 18.43377,-33.88838,213.36 18.43254,-33.88863,213.36 18.43163,-33.88896,213.36 18.43046,-33.88962,213.36 18.42985,-33.89008,213.36 18.42911,-33.89082,182.88 18.42872,-33.8914,182.88 18.42833,-33.892,182.88 18.42811,-33.89259,182.88 18.42785,-33.89329,152.4 18.42766,-33.89392,152.4 18.42755,-33.89447,152.4 18.42743,-33.89516,121.92 18.42733,-33.89552,121.92 18.42722,-33.89631,121.92 18.42721,-33.89676,121.92 18.42716,-33.8972,121.92 18.4271,-33.89766,91.44 18.4271,-33.89808,91.44 18.4271,-33.8985,91.44 18.4271,-33.89882,91.44 18.42715,-33.89919,91.44 18.42722,-33.89939,91.44 18.42722,-33.89967,91.44 18.42715,-33.89996,91.44 18.42704,-33.90024,91.44 18.42688,-33.90046,60.96 18.42693,-33.9007,0 18.42713,-33.90076,0 18.42735,-33.90076,0 18.42756,-33.90078,60.96 18.42791,-33.90078,91.44 18.42884,-33.90079,91.44 18.42979,-33.90079,121.92 18.43008,-33.90078,152.4 18.43082,-33.90083,152.4 18.43128,-33.90083,152.4 18.43186,-33.90079,182.88 18.43237,-33.90079,182.88 18.43287,-33.90079,182.88 18.43355,-33.90074,213.36 18.43391,-33.90074,213.36 18.43472,-33.90064,213.36 18.43534,-33.90055,213.36 18.43601,-33.90038,243.84 18.43666,-33.90009,243.84 18.4373,-33.89969,243.84 18.43797,-33.89919,243.84 18.43865,-33.8985,274.32 18.43924,-33.89771,274.32 18.43969,-33.89701,304.8 18.44004,-33.89618,304.8 18.44044,-33.89506,304.8 18.44067,-33.89441,335.28000000000003 18.4409,-33.89329,335.28000000000003 18.44101,-33.89231,335.28000000000003 18.441,-33.8914,365.76 18.44095,-33.89012,365.76 18.44078,-33.88911,396.24 18.44044,-33.8877,396.24 18.44005,-33.88673,396.24 18.43971,-33.88591,426.72 18.43918,-33.88482,426.72 18.43842,-33.88362,426.72 18.43786,-33.88277,426.72 18.43708,-33.88179,457.20000000000005 18.43603,-33.88067,457.20000000000005 18.43523,-33.87996,457.20000000000005 18.43409,-33.879,487.68 18.43306,-33.8783,487.68 18.43197,-33.87765,487.68 18.43052,-33.87689,487.68 18.42917,-33.87634,518.1600000000001 18.42802,-33.87588,518.1600000000001 18.42682,-33.87543,518.1600000000001 18.42533,-33.87499,518.1600000000001 18.42402,-33.87465,548.64 18.42256,-33.87433,548.64 18.42166,-33.87415,548.64 18.41995,-33.87383,579.12 18.41875,-33.8736,579.12 18.41778,-33.87346,579.12 18.41589,-33.87318,579.12 18.4144,-33.87299,609.6 18.41314,-33.87285,609.6 18.41166,-33.87271,609.6 18.41045,-33.87263,609.6 18.40937,-33.87262,640.08 18.40782,-33.87259,640.08 18.40664,-33.87263,640.08 18.40552,-33.87273,640.08 18.40405,-33.87285,640.08 18.40284,-33.87299,640.08 18.40124,-33.87322,670.5600000000001 18.3998,-33.87346,670.5600000000001 18.39857,-33.87369,670.5600000000001 18.39734,-33.87396,670.5600000000001 18.39609,-33.87425,670.5600000000001 18.39409,-33.87481,670.5600000000001 18.393,-33.87513,670.5600000000001 18.39163,-33.8756,670.5600000000001 18.39054,-33.87602,670.5600000000001 18.38911,-33.87658,670.5600000000001 18.38808,-33.877,670.5600000000001 18.38682,-33.87751,670.5600000000001 18.38562,-33.87808,701.0400000000001 18.38402,-33.87881,701.0400000000001 18.38304,-33.87932,701.0400000000001 18.38173,-33.88002,701.0400000000001 18.38081,-33.88049,701.0400000000001 18.37955,-33.88123,701.0400000000001 18.3785,-33.88188,731.52 18.37778,-33.88235,731.52 18.37671,-33.88312,731.52 18.37572,-33.88379,731.52 18.37486,-33.88445,731.52 18.37407,-33.88513,731.52 18.37306,-33.88596,731.52 18.37222,-33.88669,731.52 18.37144,-33.88737,731.52 18.37065,-33.88811,731.52 18.36987,-33.88875,731.52 18.3692,-33.88942,731.52 18.36824,-33.89035,731.52 18.36746,-33.89117,731.52 18.36662,-33.89204,731.52 18.36589,-33.89287,731.52 18.36502,-33.89384,731.52 18.36443,-33.89447,731.52 18.36359,-33.89552,731.52 18.36296,-33.89622,731.52 18.36233,-33.89701,731.52 18.36147,-33.89799,731.52 18.36084,-33.89878,762 18.35984,-33.89992,762 18.35928,-33.9007,762 18.35855,-33.90153,762 18.35798,-33.90237,762 18.35737,-33.90317,762 18.35678,-33.90395,762 18.35615,-33.90483,762 18.35541,-33.90591,792.48 18.3549,-33.90665,792.48 18.35423,-33.9077,792.48 18.35373,-33.90852,792.48 18.35306,-33.90958,792.48 18.35255,-33.91051,792.48 18.35209,-33.9113,822.96 18.35152,-33.91237,822.96 18.35104,-33.91324,822.96 18.3506,-33.91414,822.96 18.35014,-33.91494,853.44 18.34952,-33.91608,853.44 18.34907,-33.91695,853.44 18.34871,-33.91759,853.44 18.34801,-33.91891,853.44 18.34751,-33.91978,853.44 18.347,-33.92061,883.9200000000001 18.34642,-33.92141,883.9200000000001 18.34593,-33.92226,883.9200000000001 18.34543,-33.92299,883.9200000000001 18.34375,-33.9256,914.4000000000001 18.34319,-33.92656,914.4000000000001 18.34259,-33.92755,914.4000000000001 18.3419,-33.92857,914.4000000000001 18.34145,-33.92941,914.4000000000001 18.3411,-33.92997,944.88 18.33984,-33.93216,944.88 18.33836,-33.93491,944.88 18.33681,-33.9377,944.88 18.33509,-33.94086,975.36 18.33326,-33.94412,975.36 18.33164,-33.94711,975.36 18.3312,-33.94799,975.36 18.33074,-33.94894,975.36 18.33,-33.95031,975.36 18.32949,-33.95124,975.36 18.3289,-33.95233,975.36 18.3284,-33.95329,975.36 18.32783,-33.9543,975.36 18.32737,-33.95515,975.36 18.32674,-33.95627,975.36 18.32617,-33.95734,975.36 18.32571,-33.95818,975.36 18.3252,-33.95925,975.36 18.32508,-33.95947,975.36 18.32368,-33.96227,1005.84 18.32291,-33.96372,1005.84 18.32211,-33.96526,1005.84 18.31953,-33.96996,1036.3200000000002 18.31785,-33.97339,1036.3200000000002 18.31634,-33.97646,1036.3200000000002 18.3145,-33.98062,1036.3200000000002 18.31404,-33.9816,1036.3200000000002 18.31359,-33.98277,1036.3200000000002 18.3132,-33.98373,1036.3200000000002 18.31264,-33.98502,1036.3200000000002 18.3123,-33.98593,1005.84 18.31095,-33.98909,1005.84 18.31055,-33.99016,1005.84 18.31009,-33.99123,1005.84 18.30889,-33.99426,1036.3200000000002 18.30763,-33.99728,1036.3200000000002 18.30636,-34.00049,1066.8 18.30523,-34.00338,1066.8 18.30368,-34.00734,1066.8 18.30219,-34.01102,1066.8 18.30081,-34.01468,1066.8 18.29992,-34.01738,1066.8 18.29967,-34.01819,1066.8 18.29939,-34.01926,1066.8 18.29919,-34.02013,1066.8 18.29885,-34.0215,1097.28 18.29863,-34.02237,1097.28 18.29836,-34.02354,1097.28 18.29812,-34.02461,1097.28 18.29784,-34.0255,1097.28 18.29762,-34.02635,1097.28 18.29721,-34.0275,1097.28 18.29693,-34.02838,1097.28 18.2965,-34.02946,1097.28 18.29605,-34.03061,1097.28 18.29571,-34.03152,1127.76 18.29532,-34.03258,1127.76 18.29498,-34.03355,1127.76 18.29464,-34.03457,1127.76 18.2943,-34.03579,1127.76 18.29395,-34.03685,1127.76 18.29372,-34.03774,1127.76 18.29344,-34.03872,1127.76 18.29308,-34.03995,1127.76 18.29287,-34.041,1127.76 18.29281,-34.04211,1127.76 18.29281,-34.04281,1127.76 18.29308,-34.04388,1127.76 18.29347,-34.04462,1127.76 18.29401,-34.04533,1127.76 18.29493,-34.04594,1127.76 18.29571,-34.04626,1127.76 18.29661,-34.0464,1127.76 18.29756,-34.04636,1127.76 18.29865,-34.04602,1127.76 18.29945,-34.04561,1127.76 18.30019,-34.045,1127.76 18.30093,-34.04407,1097.28 18.30137,-34.04311,1097.28 18.30171,-34.04228,1097.28 18.30205,-34.041,1097.28 18.30231,-34.04021,1097.28 18.30255,-34.03926,1097.28 18.30283,-34.03821,1097.28 18.30311,-34.03702,1097.28 18.30334,-34.03611,1097.28 18.30357,-34.0349,1097.28 18.30379,-34.03392,1097.28 18.30408,-34.03276,1097.28 18.3044,-34.03143,1097.28 18.30462,-34.03061,1127.76 18.305,-34.02917,1097.28 18.30534,-34.0281,1097.28 18.30574,-34.02681,1097.28 18.30614,-34.02563,1097.28 18.30648,-34.02457,1097.28 18.30694,-34.02349,1097.28 18.30748,-34.02228,1097.28 18.30793,-34.02122,1097.28 18.30837,-34.02024,1097.28 18.30894,-34.01912,1097.28 18.30952,-34.018,1097.28 18.31017,-34.01683,1097.28 18.31079,-34.01573,1097.28 18.31152,-34.01442,1097.28 18.31208,-34.01344,1097.28 18.31266,-34.01242,1097.28 18.31324,-34.01139,1097.28 18.31404,-34.01001,1097.28 18.3146,-34.00914,1097.28 18.31512,-34.00822,1097.28 18.3157,-34.00725,1097.28 18.31638,-34.00599,1097.28 18.31696,-34.00501,1097.28 18.31763,-34.00388,1097.28 18.3181,-34.00301,1097.28 18.31869,-34.002,1097.28 18.31947,-34.00068,1097.28 18.31999,-33.99971,1097.28 18.32049,-33.99879,1097.28 18.32119,-33.99757,1097.28 18.32178,-33.99655,1097.28 18.3225,-33.99536,1097.28 18.32314,-33.99426,1097.28 18.32376,-33.99328,1066.8 18.32447,-33.9922,1066.8 18.32503,-33.99124,1066.8 18.32582,-33.99007,1066.8 18.3264,-33.98914,1066.8 18.3271,-33.98813,1066.8 18.32788,-33.98695,1066.8 18.32845,-33.98607,1066.8 18.32897,-33.98518,1066.8 18.32966,-33.98402,1066.8 18.3304,-33.98281,1066.8 18.33091,-33.98186,1066.8 18.33149,-33.9809,1066.8 18.33209,-33.97984,1066.8 18.33271,-33.97865,1066.8 18.33332,-33.97755,1066.8 18.33394,-33.97641,1066.8 18.33447,-33.97541,1036.3200000000002 18.33495,-33.97453,1036.3200000000002 18.33557,-33.97343,1036.3200000000002 18.33596,-33.97266,1066.8 18.33657,-33.97151,1066.8 18.33704,-33.97052,1066.8 18.33753,-33.9695,1066.8 18.33809,-33.96835,1066.8 18.33858,-33.96745,1066.8 18.33933,-33.96614,1066.8 18.33994,-33.96497,1066.8 18.34036,-33.96428,1066.8 18.34173,-33.96186,1036.3200000000002 18.34229,-33.9608,1036.3200000000002 18.34288,-33.95981,1036.3200000000002 18.34522,-33.95581,1036.3200000000002 18.34717,-33.95255,1036.3200000000002 18.34911,-33.94929,1005.84 18.35171,-33.9451,975.36 18.35249,-33.944,944.88 18.35312,-33.943,944.88 18.35415,-33.94161,914.4000000000001 18.35485,-33.94061,914.4000000000001 18.35558,-33.93951,883.9200000000001 18.35604,-33.93877,883.9200000000001 18.35678,-33.93756,883.9200000000001 18.35735,-33.93658,883.9200000000001 18.35775,-33.93584,883.9200000000001 18.35838,-33.93476,853.44 18.35905,-33.93356,853.44 18.3597,-33.93253,853.44 18.36027,-33.93146,822.96 18.36079,-33.93054,822.96 18.36146,-33.9294,792.48 18.36216,-33.92806,792.48 18.36262,-33.92727,792.48 18.3633,-33.92597,792.48 18.36382,-33.92505,762 18.36578,-33.92171,731.52 18.36718,-33.91956,731.52 18.368,-33.91838,701.0400000000001 18.36864,-33.91745,701.0400000000001 18.36954,-33.91619,670.5600000000001 18.37034,-33.91521,670.5600000000001 18.37109,-33.91424,670.5600000000001 18.37194,-33.91319,640.08 18.3728,-33.91214,640.08 18.37357,-33.91122,640.08 18.37435,-33.91032,640.08 18.37526,-33.90926,640.08 18.3762,-33.90816,640.08 18.37698,-33.90721,640.08 18.37778,-33.90628,640.08 18.37856,-33.90546,640.08 18.37923,-33.90468,640.08 18.38018,-33.90367,640.08 18.38104,-33.90283,640.08 18.38181,-33.90207,640.08 18.3827,-33.9012,640.08 18.38371,-33.90028,640.08 18.38472,-33.89937,640.08 18.38568,-33.89859,609.6 18.38659,-33.89785,609.6 18.38769,-33.89708,609.6 18.3887,-33.89635,609.6 18.38971,-33.89571,609.6 18.39083,-33.89497,609.6 18.39212,-33.8942,609.6 18.39329,-33.89357,609.6 18.39432,-33.89305,609.6 18.39565,-33.89241,579.12 18.39678,-33.89194,579.12 18.3979,-33.89149,548.64 18.39907,-33.89115,548.64 18.40047,-33.89067,548.64 18.40153,-33.89035,518.1600000000001 18.4029,-33.88993,518.1600000000001 18.40439,-33.88952,487.68 18.40553,-33.88919,487.68 18.40662,-33.88887,487.68 18.40804,-33.88852,487.68 18.40925,-33.88821,457.20000000000005 18.41028,-33.88794,457.20000000000005 18.41163,-33.8876,457.20000000000005 18.4128,-33.88737,426.72 18.41394,-33.8871,426.72 18.41505,-33.88687,426.72 18.41623,-33.88664,396.24 18.41743,-33.88635,396.24 18.41841,-33.88614,396.24 18.41972,-33.88589,365.76 18.42099,-33.88559,365.76 18.42189,-33.88541,365.76 18.42281,-33.88523,335.28000000000003 18.42379,-33.88509,335.28000000000003 18.42497,-33.88499,335.28000000000003 18.42585,-33.885,304.8 18.42682,-33.88522,304.8 18.42762,-33.8856,304.8 18.42811,-33.88609,274.32 18.42842,-33.88677,274.32 18.42856,-33.88751,243.84 18.42854,-33.88807,243.84 18.4285,-33.88857,243.84 18.42822,-33.8898,213.36 18.42808,-33.89059,213.36 18.42791,-33.89119,213.36 18.42779,-33.89185,182.88 18.42762,-33.89254,182.88 18.42749,-33.89333,182.88 18.42738,-33.89388,152.4 18.42728,-33.8945,152.4 18.42721,-33.89507,152.4 18.42716,-33.89561,152.4 18.4271,-33.89607,121.92 18.4271,-33.89671,121.92 18.4271,-33.8972,121.92 18.4271,-33.89762,121.92 18.42715,-33.89799,91.44 18.42715,-33.89845,91.44 18.42721,-33.89886,91.44 18.42728,-33.8992,91.44 18.42728,-33.89957,91.44 18.42721,-33.89996,91.44 18.4271,-33.90024,91.44 18.42693,-33.90051,60.96 18.42713,-33.90074,0 18.42735,-33.90077,0 18.42756,-33.90075,0 18.42783,-33.90074,91.44 18.42905,-33.90069,91.44 18.42945,-33.9006,91.44 18.43035,-33.90047,121.92 18.43153,-33.90019,121.92 18.43198,-33.90005,121.92 18.43294,-33.89976,152.4 18.43351,-33.89957,152.4 18.43422,-33.89923,152.4 18.43483,-33.89886,182.88 18.43567,-33.89827,182.88 18.43624,-33.89772,182.88 18.4368,-33.89713,213.36 18.43729,-33.89641,213.36 18.43775,-33.89561,213.36 18.43809,-33.8947,213.36 18.43843,-33.89361,243.84 18.43865,-33.89268,243.84 18.43876,-33.89172,243.84 18.43881,-33.89058,274.32 18.4387,-33.88962,274.32 18.43855,-33.88858,274.32 18.4382,-33.88742,274.32 18.43775,-33.88646,304.8 18.43729,-33.88556,304.8 18.43652,-33.88445,304.8 18.43584,-33.88358,304.8 18.43483,-33.88263,335.28000000000003 18.43391,-33.88193,335.28000000000003 18.43242,-33.88097,335.28000000000003 18.43128,-33.88039,335.28000000000003 18.43048,-33.88007,365.76 18.42878,-33.8795,365.76 18.42772,-33.87923,365.76 18.42625,-33.87895,365.76 18.42508,-33.87881,365.76 18.4239,-33.87868,396.24 18.4225,-33.87859,396.24 18.42144,-33.87859,396.24 18.41995,-33.87858,396.24 18.41802,-33.87868,396.24 18.41695,-33.87872,426.72 18.41555,-33.87881,426.72 18.41466,-33.87886,426.72 18.4132,-33.87895,426.72 18.41183,-33.87904,457.20000000000005 18.41096,-33.87914,457.20000000000005 18.40982,-33.87923,457.20000000000005 18.40851,-33.87932,487.68 18.40742,-33.87941,487.68 18.40616,-33.87955,487.68 18.40496,-33.87968,487.68 18.40364,-33.87983,518.1600000000001 18.4026,-33.87996,518.1600000000001 18.4013,-33.88016,518.1600000000001 18.40027,-33.88034,518.1600000000001 18.3993,-33.88058,518.1600000000001 18.39832,-33.88076,548.64 18.39655,-33.88124,548.64 18.39546,-33.88151,548.64 18.3946,-33.88179,548.64 18.39369,-33.88211,579.12 18.39272,-33.88244,579.12 18.39191,-33.88277,579.12 18.39106,-33.88309,579.12 18.39027,-33.88344,609.6 18.38932,-33.8839,609.6 18.38865,-33.88422,609.6 18.38797,-33.88458,640.08 18.38711,-33.88505,640.08 18.38624,-33.88559,640.08 18.38568,-33.88591,640.08 18.38488,-33.88644,670.5600000000001 18.38411,-33.88696,670.5600000000001 18.38349,-33.88742,670.5600000000001 18.38282,-33.88792,670.5600000000001 18.38209,-33.88852,701.0400000000001 18.38119,-33.88921,701.0400000000001 18.38058,-33.8897,701.0400000000001 18.38001,-33.89021,701.0400000000001 18.37934,-33.89076,731.52 18.3787,-33.89138,731.52 18.37812,-33.89194,731.52 18.37755,-33.89245,731.52 18.37698,-33.89301,762 18.37626,-33.89369,762 18.3757,-33.89424,762 18.37503,-33.89493,792.48 18.37446,-33.89548,792.48 18.37406,-33.89594,792.48 18.3734,-33.89671,792.48 18.37275,-33.89748,792.48 18.37222,-33.89809,822.96 18.37161,-33.89886,822.96 18.3711,-33.89941,822.96 18.37046,-33.90027,822.96 18.36988,-33.90102,822.96 18.36937,-33.9017,822.96 18.3688,-33.90248,822.96 18.3683,-33.90312,853.44 18.36788,-33.90372,853.44 18.36729,-33.9045,853.44 18.36684,-33.90514,853.44 18.36623,-33.90601,883.9200000000001 18.36578,-33.90665,883.9200000000001 18.36531,-33.90734,883.9200000000001 18.36482,-33.90807,883.9200000000001 18.36433,-33.90879,883.9200000000001 18.36387,-33.90948,883.9200000000001 18.36225,-33.91196,914.4000000000001 18.36124,-33.91363,914.4000000000001 18.36068,-33.91457,914.4000000000001 18.36017,-33.91548,914.4000000000001 18.35967,-33.9164,944.88 18.35916,-33.9174,944.88 18.35878,-33.91819,944.88 18.35838,-33.91898,944.88 18.35793,-33.91996,944.88 18.35752,-33.92075,944.88 18.35709,-33.9218,944.88 18.35672,-33.92262,944.88 18.35632,-33.92359,944.88 18.35598,-33.92448,944.88 18.35569,-33.92527,944.88 18.35541,-33.9261,975.36 18.35512,-33.92704,975.36 18.35479,-33.92812,975.36 18.35449,-33.92918,975.36 18.35409,-33.93048,975.36 18.3539,-33.93114,944.88 18.35311,-33.93356,975.36 18.35283,-33.93449,975.36 18.35227,-33.93636,944.88 18.35193,-33.93741,944.88 18.35163,-33.93835,944.88 18.35083,-33.94096,944.88 18.35049,-33.94221,944.88 18.35014,-33.94318,944.88 18.34986,-33.94409,944.88 18.34957,-33.94505,944.88 18.34924,-33.9462,944.88 18.34891,-33.94716,944.88 18.34857,-33.94812,975.36 18.34834,-33.94894,975.36 18.34797,-33.94989,944.88 18.34756,-33.95096,975.36 18.34717,-33.95208,975.36 18.34671,-33.9532,944.88 18.34638,-33.95403,944.88 18.34593,-33.95512,944.88 18.34549,-33.95613,944.88 18.34504,-33.95718,944.88 18.34454,-33.95813,944.88 18.34162,-33.963,944.88 18.34022,-33.9651,944.88 18.3387,-33.96726,944.88 18.33721,-33.96931,944.88 18.33428,-33.97334,944.88 18.33023,-33.97862,975.36 18.32851,-33.9808,975.36 18.32632,-33.98355,975.36 18.32576,-33.98424,975.36 18.32508,-33.98515,975.36 18.32447,-33.98602,975.36 18.32376,-33.98705,975.36 18.32312,-33.98795,975.36 18.3225,-33.98882,1005.84 18.32193,-33.98965,1005.84 18.32138,-33.99046,1005.84 18.32082,-33.99124,1005.84 18.32021,-33.99216,1005.84 18.31947,-33.99319,1005.84 18.3189,-33.99393,1005.84 18.31833,-33.99468,1005.84 18.31752,-33.99559,1005.84 18.31679,-33.99632,1005.84 18.31589,-33.99715,1005.84 18.31516,-33.99779,1005.84 18.31421,-33.9985,1005.84 18.31337,-33.99911,1005.84 18.31258,-33.99971,1005.84 18.31152,-34.0004,1005.84 18.31057,-34.00108,1005.84 18.30967,-34.00177,1005.84 18.30877,-34.00246,1005.84 18.30776,-34.00319,1005.84 18.30694,-34.00389,1005.84 18.30586,-34.0047,1005.84 18.30502,-34.00539,1005.84 18.30406,-34.00621,1005.84 18.30317,-34.00692,1005.84 18.30231,-34.00757,1005.84 18.30128,-34.00846,1005.84 18.30048,-34.00916,1005.84 18.29973,-34.00981,1005.84 18.29882,-34.01069,1005.84 18.2979,-34.01167,1005.84 18.29739,-34.01246,1005.84 18.29695,-34.01385,1005.84 18.29699,-34.01469,1005.84 18.29739,-34.01573,1005.84 18.29818,-34.0166,1005.84 18.29902,-34.01715,1005.84 18.30008,-34.01763,1005.84 18.30105,-34.01791,1005.84 18.30219,-34.01814,975.36 18.30328,-34.01825,975.36 18.30474,-34.0182,975.36 18.3058,-34.01807,975.36 18.3072,-34.0177,975.36 18.30821,-34.01733,944.88 18.30933,-34.01674,975.36 18.31034,-34.01614,975.36 18.31141,-34.0154,975.36 18.31253,-34.01445,975.36 18.31335,-34.01372,975.36 18.31438,-34.0127,975.36 18.31505,-34.01207,975.36 18.31595,-34.01115,975.36 18.31684,-34.01027,975.36 18.31763,-34.00946,975.36 18.31839,-34.00864,975.36 18.31914,-34.00777,975.36 18.31993,-34.0069,975.36 18.32066,-34.00603,975.36 18.32148,-34.00506,975.36 18.32222,-34.00413,975.36 18.3229,-34.00328,975.36 18.32363,-34.00232,975.36 18.3243,-34.00145,975.36 18.32497,-34.00055,975.36 18.3256,-33.99975,975.36 18.3264,-33.99863,975.36 18.32703,-33.9978,975.36 18.32783,-33.99673,975.36 18.3285,-33.99582,975.36 18.32923,-33.99486,975.36 18.3299,-33.99399,975.36 18.33215,-33.99115,975.36 18.33447,-33.9883,944.88 18.33693,-33.98542,944.88 18.33984,-33.98183,944.88 18.34067,-33.9808,944.88 18.34133,-33.97987,944.88 18.34196,-33.97906,944.88 18.34274,-33.97801,944.88 18.34319,-33.97733,944.88 18.34392,-33.97636,944.88 18.34454,-33.97541,944.88 18.34509,-33.97449,944.88 18.34562,-33.97364,944.88 18.34627,-33.97266,944.88 18.3466,-33.97201,944.88 18.34711,-33.97108,944.88 18.34767,-33.97014,944.88 18.34818,-33.96918,944.88 18.34857,-33.96844,944.88 18.34917,-33.9674,944.88 18.34951,-33.9667,944.88 18.35003,-33.96558,944.88 18.35049,-33.96461,944.88 18.35089,-33.96372,944.88 18.35132,-33.96268,944.88 18.35175,-33.96172,944.88 18.3521,-33.96085,914.4000000000001 18.3526,-33.95976,914.4000000000001 18.353,-33.95879,914.4000000000001 18.3534,-33.95786,914.4000000000001 18.35381,-33.95678,883.9200000000001 18.3544,-33.9554,883.9200000000001 18.35478,-33.95436,883.9200000000001 18.35524,-33.95329,883.9200000000001 18.35552,-33.95242,853.44 18.35602,-33.95123,853.44 18.35661,-33.94976,853.44 18.35703,-33.94876,853.44 18.35759,-33.94739,822.96 18.35804,-33.94629,822.96 18.35849,-33.94528,822.96 18.359,-33.94418,822.96 18.35953,-33.94291,792.48 18.35995,-33.94199,792.48 18.36045,-33.94084,792.48 18.36096,-33.93965,792.48 18.36247,-33.93636,762 18.36415,-33.93274,731.52 18.36583,-33.92935,701.0400000000001 18.368,-33.92517,670.5600000000001 18.36851,-33.9242,670.5600000000001 18.36908,-33.92322,670.5600000000001 18.36987,-33.92198,670.5600000000001 18.37057,-33.92089,670.5600000000001 18.37114,-33.9201,670.5600000000001 18.37183,-33.91922,670.5600000000001 18.37262,-33.91809,670.5600000000001 18.37346,-33.91708,670.5600000000001 18.37412,-33.91624,640.08 18.37486,-33.91535,640.08 18.37578,-33.91433,640.08 18.37646,-33.91354,640.08 18.37738,-33.91255,640.08 18.37811,-33.91173,640.08 18.37898,-33.91084,640.08 18.37967,-33.91005,640.08 18.38041,-33.9093,640.08 18.38133,-33.90833,640.08 18.38203,-33.90752,640.08 18.38271,-33.90678,640.08 18.3835,-33.9059,640.08 18.38422,-33.90514,640.08 18.38499,-33.90437,640.08 18.38568,-33.90358,640.08 18.3864,-33.9028,609.6 18.38725,-33.90179,609.6 18.38791,-33.90102,609.6 18.38882,-33.89994,579.12 18.38954,-33.89914,579.12 18.39055,-33.89813,579.12 18.39123,-33.89748,579.12 18.3922,-33.89664,579.12 18.39302,-33.89598,579.12 18.39386,-33.89529,579.12 18.39481,-33.89461,548.64 18.39582,-33.89397,548.64 18.39712,-33.89315,548.64 18.39798,-33.89259,518.1600000000001 18.3989,-33.89208,518.1600000000001 18.4001,-33.89143,518.1600000000001 18.40107,-33.89091,487.68 18.40204,-33.8904,487.68 18.40328,-33.88985,487.68 18.4045,-33.88933,487.68 18.40542,-33.889,487.68 18.40658,-33.88861,487.68 18.40742,-33.88831,457.20000000000005 18.40855,-33.88792,457.20000000000005 18.4095,-33.8876,457.20000000000005 18.41039,-33.88733,426.72 18.41146,-33.88701,426.72 18.41213,-33.88683,426.72 18.41342,-33.88646,426.72 18.41432,-33.88623,426.72 18.4152,-33.88602,426.72 18.41595,-33.88586,396.24 18.4169,-33.88568,396.24 18.41763,-33.88554,396.24 18.41858,-33.88537,396.24 18.41949,-33.88523,396.24 18.42037,-33.88509,365.76 18.42099,-33.88504,365.76 18.42178,-33.88496,365.76 18.42258,-33.88491,365.76 18.42329,-33.88486,365.76 18.42413,-33.88486,365.76 18.42475,-33.8849,365.76 18.42533,-33.885,365.76 18.42587,-33.88513,365.76 18.42648,-33.88528,335.28000000000003 18.42693,-33.88545,335.28000000000003 18.42738,-33.88559,335.28000000000003 18.42796,-33.88589,335.28000000000003 18.42833,-33.88609,304.8 18.42872,-33.88632,304.8 18.42916,-33.88663,304.8 18.42951,-33.88691,304.8 18.42979,-33.88714,304.8 18.43013,-33.88747,304.8 18.43052,-33.88797,274.32 18.43085,-33.88829,274.32 18.43114,-33.88866,274.32 18.4314,-33.88905,274.32 18.43164,-33.88939,274.32 18.43197,-33.88984,243.84 18.4322,-33.89026,243.84 18.43242,-33.89067,243.84 18.43265,-33.89113,243.84 18.43288,-33.89157,243.84 18.43306,-33.89203,213.36 18.43317,-33.8924,213.36 18.43323,-33.89291,213.36 18.43321,-33.89328,213.36 18.43321,-33.89378,213.36 18.43317,-33.89413,213.36 18.43299,-33.89456,182.88 18.43283,-33.89501,182.88 18.43259,-33.89539,182.88 18.43237,-33.89571,182.88 18.43209,-33.89607,152.4 18.43185,-33.89631,152.4 18.43147,-33.89667,152.4 18.43114,-33.89699,152.4 18.43029,-33.89763,121.92 18.42968,-33.89804,121.92 18.42878,-33.89873,91.44 18.42808,-33.89929,91.44 18.42693,-33.90032,91.44 18.42682,-33.9006,60.96 18.42705,-33.90078,0 18.42725,-33.90079,0 18.42755,-33.90074,60.96
        </coordinates>
      </LineString>
    </Placemark>
  </Document>
</kml>