<?xml version="1.0" encoding="UTF-8"?>
<kml xmlns="http://www.opengis.net/kml/2.2">
  <Document>
    <name>FR24 ZSHGD 3df47e94 - Optimised</name>
    <description><![CDATA[Optimised flight path with 1 points (decimated from 1 original points). Source format: Standard KML]]></description>
    
    <Style id="flightPath">
      <LineStyle>
        <color>ff0000ff</color>
        <width>3</width>
      </LineStyle>
    </Style>
    
    <Placemark>
      <name>Flight Path</name>
      <description><![CDATA[Source: ADS-B
Start (SAST): 2026-01-18 09:53:08
End (SAST): 2026-01-18 18:14:09
Points: 2587]]></description>
      <styleUrl>#flightPath</styleUrl>
      <LineString>
        <extrude>1</extrude>
        <tessellate>1</tessellate>
        <altitudeMode>absolute</altitudeMode>
        <coordinates>
          18.42728,-33.90125,0 18.42716,-33.90092,0 18.4271,-33.90056,0 18.42715,-33.90024,0 18.42738,-33.89969,0 18.42749,-33.89946,0 18.42768,-33.89925,0 18.42785,-33.89901,0 18.42822,-33.89845,0 18.42842,-33.89822,0 18.42899,-33.89738,0 18.42939,-33.89687,7.62 18.42973,-33.89648,15.24 18.42991,-33.89622,15.24 18.43019,-33.89585,22.86 18.43042,-33.89561,30.48 18.43057,-33.89534,30.48 18.43082,-33.89501,38.1 18.43119,-33.89452,53.34 18.43271,-33.89245,76.2 18.43391,-33.89068,99.06 18.43437,-33.88989,114.30000000000001 18.43478,-33.88925,121.92 18.43511,-33.88857,129.54000000000002 18.43551,-33.88774,144.78 18.43575,-33.887,152.4 18.43601,-33.88632,160.02 18.43615,-33.88565,175.26000000000002 18.43635,-33.88481,182.88 18.43643,-33.88407,182.88 18.43652,-33.88335,190.5 18.43655,-33.88249,198.12 18.43657,-33.88174,205.74 18.43655,-33.88081,213.36 18.43643,-33.88021,220.98000000000002 18.43632,-33.87941,228.60000000000002 18.43612,-33.87849,243.84 18.43597,-33.87783,251.46 18.43575,-33.87713,259.08000000000004 18.43552,-33.8762,266.7 18.43529,-33.87537,274.32 18.43511,-33.8746,281.94 18.43483,-33.87383,289.56 18.43461,-33.87291,297.18 18.43439,-33.87222,304.8 18.4342,-33.87155,312.42 18.43391,-33.87066,320.04 18.43366,-33.86993,327.66 18.43334,-33.86903,335.28000000000003 18.43323,-33.86857,335.28000000000003 18.43243,-33.86605,373.38 18.43225,-33.86545,388.62 18.43214,-33.86485,396.24 18.43174,-33.8634,426.72 18.43153,-33.86261,441.96000000000004 18.43136,-33.86201,449.58000000000004 18.43119,-33.86142,457.20000000000005 18.431,-33.86065,472.44 18.43082,-33.86,480.06 18.43069,-33.85941,487.68 18.43052,-33.85867,495.3 18.43035,-33.85808,502.92 18.43014,-33.85744,510.54 18.4299,-33.8567,518.1600000000001 18.42968,-33.85597,525.78 18.42945,-33.85535,533.4 18.42917,-33.85469,548.64 18.42889,-33.854,556.26 18.42856,-33.85327,563.88 18.42833,-33.85263,571.5 18.42796,-33.85195,579.12 18.42768,-33.8513,586.74 18.42728,-33.85051,594.36 18.42682,-33.84976,601.98 18.42648,-33.84911,609.6 18.42613,-33.8485,617.22 18.42573,-33.84785,624.84 18.42533,-33.84711,640.08 18.42493,-33.84645,647.7 18.42453,-33.84571,655.32 18.4243,-33.84521,655.32 18.4239,-33.84441,662.94 18.42362,-33.8438,670.5600000000001 18.42323,-33.84297,670.5600000000001 18.42281,-33.84213,678.1800000000001 18.4225,-33.84146,685.8000000000001 18.42213,-33.84078,693.4200000000001 18.42172,-33.83995,701.0400000000001 18.42138,-33.83929,708.6600000000001 18.42093,-33.83836,716.2800000000001 18.42043,-33.83752,723.9000000000001 18.42004,-33.83679,731.52 18.41964,-33.8362,739.14 18.4192,-33.83551,739.14 18.41863,-33.83473,746.76 18.41819,-33.83405,746.76 18.41763,-33.83318,754.38 18.41715,-33.83249,754.38 18.41669,-33.83179,762 18.41617,-33.83093,762 18.41561,-33.83015,762 18.41497,-33.82919,762 18.41443,-33.82832,769.62 18.41393,-33.82755,769.62 18.41331,-33.82654,777.24 18.41286,-33.82576,777.24 18.41108,-33.82295,792.48 18.40908,-33.8196,800.1 18.40702,-33.8161,807.72 18.40507,-33.81267,815.34 18.4035,-33.80997,815.34 18.40187,-33.80717,807.72 18.40031,-33.80457,807.72 18.39861,-33.80186,807.72 18.3975,-33.80022,807.72 18.39683,-33.79926,807.72 18.39633,-33.79852,807.72 18.39586,-33.79786,807.72 18.39512,-33.79697,807.72 18.39459,-33.79628,807.72 18.39375,-33.79539,800.1 18.39329,-33.79488,800.1 18.39243,-33.79404,800.1 18.39179,-33.79335,800.1 18.39106,-33.79274,800.1 18.39022,-33.79193,800.1 18.38949,-33.79134,792.48 18.38893,-33.79088,792.48 18.38802,-33.79013,792.48 18.38722,-33.78943,792.48 18.38648,-33.78892,792.48 18.38573,-33.78841,792.48 18.38476,-33.7878,792.48 18.38405,-33.7874,792.48 18.3831,-33.78685,792.48 18.38224,-33.78645,792.48 18.38116,-33.78594,792.48 18.3803,-33.78556,792.48 18.37944,-33.78519,792.48 18.37844,-33.78488,792.48 18.37727,-33.78454,784.86 18.37632,-33.78429,784.86 18.37498,-33.78398,784.86 18.37396,-33.78387,784.86 18.37309,-33.78375,784.86 18.37189,-33.78374,784.86 18.37082,-33.78374,784.86 18.36964,-33.78378,777.24 18.36847,-33.78383,777.24 18.36742,-33.78394,777.24 18.36634,-33.7841,777.24 18.36542,-33.78426,777.24 18.36439,-33.78445,784.86 18.36331,-33.78474,784.86 18.3623,-33.78502,784.86 18.36147,-33.78529,784.86 18.3604,-33.78571,784.86 18.35964,-33.78603,784.86 18.35888,-33.78644,784.86 18.35787,-33.78696,784.86 18.3569,-33.78757,784.86 18.35615,-33.78808,777.24 18.3553,-33.78877,777.24 18.35445,-33.78946,769.62 18.35384,-33.79005,769.62 18.353,-33.79087,762 18.35233,-33.79166,762 18.3516,-33.79243,762 18.35094,-33.7932,762 18.35042,-33.79385,762 18.34991,-33.79454,769.62 18.3493,-33.79527,769.62 18.34879,-33.79605,769.62 18.34818,-33.7971,769.62 18.34785,-33.79776,777.24 18.34745,-33.79869,777.24 18.34722,-33.79948,777.24 18.34694,-33.80054,777.24 18.34677,-33.80116,777.24 18.34666,-33.80205,777.24 18.34661,-33.80296,777.24 18.3466,-33.804,777.24 18.34665,-33.80493,769.62 18.34672,-33.80576,769.62 18.34683,-33.80667,769.62 18.34694,-33.8074,762 18.34717,-33.80873,762 18.34734,-33.8094,762 18.34756,-33.81033,754.38 18.3479,-33.81171,754.38 18.34814,-33.81271,754.38 18.34924,-33.81647,754.38 18.34986,-33.81853,746.76 18.35064,-33.82114,746.76 18.35143,-33.82375,746.76 18.35323,-33.82928,746.76 18.35485,-33.83359,746.76 18.35518,-33.8344,746.76 18.35552,-33.83533,746.76 18.35598,-33.83654,754.38 18.35718,-33.83989,762 18.35821,-33.84306,762 18.35901,-33.84566,762 18.35936,-33.84678,762 18.35967,-33.84782,762 18.35987,-33.84874,762 18.36016,-33.84976,762 18.36039,-33.85065,762 18.36062,-33.85181,762 18.36085,-33.85291,762 18.36101,-33.85368,762 18.36118,-33.85469,762 18.36136,-33.85572,762 18.36157,-33.85684,754.38 18.36176,-33.85796,754.38 18.36193,-33.8587,754.38 18.36208,-33.85982,754.38 18.36222,-33.86094,754.38 18.36241,-33.86206,754.38 18.36258,-33.86316,754.38 18.36269,-33.86407,754.38 18.36285,-33.86503,746.76 18.36296,-33.8661,746.76 18.36309,-33.8671,746.76 18.3632,-33.86819,746.76 18.36331,-33.86911,746.76 18.36342,-33.87003,739.14 18.36353,-33.87112,739.14 18.3637,-33.87222,739.14 18.36376,-33.87332,739.14 18.36387,-33.87433,739.14 18.36393,-33.8755,731.52 18.36398,-33.87657,731.52 18.36405,-33.87774,731.52 18.3641,-33.87868,731.52 18.36411,-33.87983,731.52 18.3641,-33.88078,731.52 18.3641,-33.88184,731.52 18.36411,-33.88263,723.9000000000001 18.36415,-33.88353,723.9000000000001 18.36415,-33.88467,723.9000000000001 18.36411,-33.8857,723.9000000000001 18.3641,-33.88664,716.2800000000001 18.36411,-33.88756,716.2800000000001 18.36404,-33.89053,708.6600000000001 18.36404,-33.89333,708.6600000000001 18.36399,-33.89529,708.6600000000001 18.36387,-33.89648,708.6600000000001 18.36382,-33.89734,708.6600000000001 18.36365,-33.89841,708.6600000000001 18.36348,-33.89934,708.6600000000001 18.3633,-33.90018,708.6600000000001 18.36309,-33.90111,701.0400000000001 18.36279,-33.90227,701.0400000000001 18.36253,-33.90335,701.0400000000001 18.3623,-33.90422,701.0400000000001 18.36205,-33.90506,701.0400000000001 18.36176,-33.90614,708.6600000000001 18.36146,-33.90706,708.6600000000001 18.36119,-33.90814,708.6600000000001 18.3609,-33.90898,701.0400000000001 18.36051,-33.91008,708.6600000000001 18.36021,-33.91088,708.6600000000001 18.35976,-33.91196,708.6600000000001 18.35941,-33.91275,708.6600000000001 18.35901,-33.91359,716.2800000000001 18.35855,-33.91447,716.2800000000001 18.35804,-33.91549,716.2800000000001 18.35758,-33.91638,708.6600000000001 18.35718,-33.91717,708.6600000000001 18.35664,-33.91818,708.6600000000001 18.35621,-33.91903,701.0400000000001 18.35569,-33.9201,701.0400000000001 18.3553,-33.92088,693.4200000000001 18.35478,-33.92196,693.4200000000001 18.35443,-33.92276,693.4200000000001 18.3539,-33.92381,693.4200000000001 18.35346,-33.92471,701.0400000000001 18.35295,-33.92569,701.0400000000001 18.35244,-33.92665,701.0400000000001 18.3521,-33.92729,701.0400000000001 18.35154,-33.92834,701.0400000000001 18.35106,-33.92923,701.0400000000001 18.35064,-33.93008,701.0400000000001 18.35019,-33.93095,693.4200000000001 18.34974,-33.93183,693.4200000000001 18.34924,-33.93283,693.4200000000001 18.34874,-33.93388,693.4200000000001 18.34834,-33.93471,693.4200000000001 18.34795,-33.93549,693.4200000000001 18.34616,-33.93933,693.4200000000001 18.34509,-33.94194,701.0400000000001 18.3447,-33.94299,708.6600000000001 18.34442,-33.9438,708.6600000000001 18.34414,-33.94459,708.6600000000001 18.34375,-33.94556,708.6600000000001 18.34339,-33.9465,708.6600000000001 18.34305,-33.94743,716.2800000000001 18.34276,-33.94822,716.2800000000001 18.34248,-33.94896,716.2800000000001 18.34218,-33.94995,716.2800000000001 18.3419,-33.951,716.2800000000001 18.34162,-33.95194,716.2800000000001 18.34134,-33.95288,716.2800000000001 18.3411,-33.95385,716.2800000000001 18.34083,-33.95471,716.2800000000001 18.34059,-33.95572,716.2800000000001 18.3403,-33.95678,716.2800000000001 18.34019,-33.95734,716.2800000000001 18.33988,-33.95847,716.2800000000001 18.33967,-33.95935,716.2800000000001 18.3395,-33.95995,716.2800000000001 18.33921,-33.96093,716.2800000000001 18.33898,-33.96208,716.2800000000001 18.33876,-33.96309,716.2800000000001 18.33725,-33.96881,723.9000000000001 18.33612,-33.97317,723.9000000000001 18.33521,-33.97731,723.9000000000001 18.33435,-33.98155,731.52 18.33361,-33.98569,739.14 18.33338,-33.98781,739.14 18.33327,-33.98872,731.52 18.33321,-33.99042,731.52 18.33326,-33.99231,731.52 18.33332,-33.99307,739.14 18.33349,-33.99403,739.14 18.33366,-33.99472,739.14 18.33378,-33.9951,739.14 18.33572,-33.99971,731.52 18.33618,-34.0005,731.52 18.33663,-34.00122,731.52 18.33704,-34.0018,731.52 18.33767,-34.00259,723.9000000000001 18.33824,-34.0032,723.9000000000001 18.33904,-34.00394,723.9000000000001 18.33984,-34.00459,723.9000000000001 18.34053,-34.00515,716.2800000000001 18.34123,-34.00566,716.2800000000001 18.34225,-34.00641,716.2800000000001 18.34293,-34.00683,708.6600000000001 18.34403,-34.00745,708.6600000000001 18.34481,-34.00781,708.6600000000001 18.34571,-34.00827,708.6600000000001 18.34661,-34.00859,708.6600000000001 18.34757,-34.00892,716.2800000000001 18.34843,-34.0092,716.2800000000001 18.34946,-34.00948,716.2800000000001 18.35049,-34.00972,723.9000000000001 18.35157,-34.00995,723.9000000000001 18.35249,-34.01014,723.9000000000001 18.35346,-34.01027,723.9000000000001 18.35449,-34.01046,723.9000000000001 18.35546,-34.01065,723.9000000000001 18.35649,-34.01078,723.9000000000001 18.35793,-34.01097,723.9000000000001 18.35911,-34.01111,723.9000000000001 18.36006,-34.01125,723.9000000000001 18.3613,-34.01134,723.9000000000001 18.36227,-34.01144,723.9000000000001 18.36348,-34.01152,731.52 18.36443,-34.01157,731.52 18.36578,-34.01166,731.52 18.3669,-34.0117,731.52 18.368,-34.01181,731.52 18.36914,-34.01186,731.52 18.37026,-34.01193,731.52 18.37114,-34.012,731.52 18.37246,-34.01204,723.9000000000001 18.37318,-34.01212,723.9000000000001 18.3744,-34.01213,723.9000000000001 18.37664,-34.01228,723.9000000000001 18.38058,-34.01234,716.2800000000001 18.38465,-34.01237,708.6600000000001 18.38814,-34.01242,693.4200000000001 18.39214,-34.01246,685.8000000000001 18.39593,-34.01257,685.8000000000001 18.3989,-34.0126,685.8000000000001 18.40165,-34.01257,678.1800000000001 18.40399,-34.01265,678.1800000000001 18.40668,-34.01274,678.1800000000001 18.40782,-34.01283,685.8000000000001 18.41073,-34.01303,678.1800000000001 18.41168,-34.01308,678.1800000000001 18.41251,-34.01311,678.1800000000001 18.41387,-34.01317,670.5600000000001 18.41589,-34.01326,670.5600000000001 18.41679,-34.01331,670.5600000000001 18.41761,-34.0133,662.94 18.41892,-34.01335,662.94 18.42071,-34.01335,662.94 18.42172,-34.01331,662.94 18.42278,-34.01326,662.94 18.42346,-34.01321,662.94 18.42463,-34.01312,662.94 18.42564,-34.01312,662.94 18.42653,-34.01307,662.94 18.42751,-34.01307,662.94 18.42844,-34.01308,662.94 18.42951,-34.01307,655.32 18.43035,-34.01308,655.32 18.4313,-34.01308,655.32 18.43214,-34.01307,647.7 18.43327,-34.01308,640.08 18.43409,-34.01302,640.08 18.43528,-34.01294,632.46 18.43607,-34.01289,632.46 18.437,-34.01283,624.84 18.43814,-34.01271,617.22 18.43898,-34.01262,617.22 18.44016,-34.01248,617.22 18.44139,-34.01234,624.84 18.44212,-34.01225,624.84 18.44347,-34.01202,624.84 18.44439,-34.01186,624.84 18.44537,-34.01166,624.84 18.44644,-34.01138,624.84 18.44733,-34.01115,617.22 18.44829,-34.01083,617.22 18.44935,-34.01047,617.22 18.45028,-34.01014,617.22 18.45131,-34.00969,617.22 18.4524,-34.0092,617.22 18.45344,-34.00868,617.22 18.4544,-34.00813,617.22 18.45537,-34.00753,617.22 18.45608,-34.00708,609.6 18.45709,-34.00636,609.6 18.45804,-34.00566,601.98 18.45875,-34.0052,601.98 18.45983,-34.00438,594.36 18.46045,-34.00388,594.36 18.46152,-34.00296,594.36 18.46252,-34.00209,586.74 18.46333,-34.00138,586.74 18.46413,-34.00059,594.36 18.46477,-33.99998,594.36 18.46561,-33.99911,594.36 18.46639,-33.9982,594.36 18.46706,-33.99747,594.36 18.46768,-33.99673,594.36 18.46848,-33.9957,594.36 18.4691,-33.99487,594.36 18.46979,-33.99398,594.36 18.47048,-33.99305,586.74 18.47099,-33.99234,586.74 18.47172,-33.99133,579.12 18.47239,-33.99033,571.5 18.473,-33.98946,571.5 18.47351,-33.98867,563.88 18.4742,-33.98774,563.88 18.47474,-33.98689,563.88 18.4754,-33.98588,563.88 18.47598,-33.98502,563.88 18.47654,-33.98415,563.88 18.47769,-33.98234,563.88 18.4782,-33.9815,563.88 18.47975,-33.97885,563.88 18.48035,-33.97783,563.88 18.48078,-33.97699,556.26 18.48129,-33.97601,556.26 18.48169,-33.97522,556.26 18.48214,-33.97435,556.26 18.48267,-33.97313,548.64 18.48298,-33.97211,541.02 18.48332,-33.97128,541.02 18.48366,-33.97032,533.4 18.48392,-33.96922,525.78 18.48415,-33.96833,525.78 18.48433,-33.96744,518.1600000000001 18.48455,-33.96629,518.1600000000001 18.48472,-33.96547,510.54 18.48483,-33.96469,510.54 18.48501,-33.96377,502.92 18.48523,-33.96272,495.3 18.48539,-33.9619,487.68 18.48558,-33.96093,480.06 18.48579,-33.95998,480.06 18.48593,-33.95916,472.44 18.4861,-33.95823,464.82000000000005 18.48621,-33.95744,457.20000000000005 18.48633,-33.95641,449.58000000000004 18.4865,-33.95544,441.96000000000004 18.48656,-33.95469,441.96000000000004 18.48668,-33.95352,434.34000000000003 18.48674,-33.9527,426.72 18.48673,-33.95181,426.72 18.48667,-33.95078,419.1 18.48663,-33.94968,419.1 18.48657,-33.94849,419.1 18.48646,-33.94753,411.48 18.48639,-33.94673,411.48 18.48623,-33.94579,403.86 18.48604,-33.94473,396.24 18.48579,-33.94368,396.24 18.48556,-33.94281,396.24 18.48524,-33.94161,403.86 18.48507,-33.94091,403.86 18.48473,-33.93979,403.86 18.48444,-33.93892,403.86 18.48405,-33.93787,403.86 18.4837,-33.93686,403.86 18.48335,-33.93598,403.86 18.48289,-33.93495,403.86 18.48232,-33.93365,403.86 18.48192,-33.93269,403.86 18.48146,-33.93169,403.86 18.48091,-33.93059,403.86 18.48046,-33.92972,403.86 18.48001,-33.92894,403.86 18.47951,-33.92812,403.86 18.479,-33.92715,403.86 18.47849,-33.92639,403.86 18.47786,-33.92541,403.86 18.47712,-33.92429,403.86 18.47671,-33.92368,403.86 18.47591,-33.92262,403.86 18.47536,-33.92184,403.86 18.47477,-33.92103,396.24 18.47401,-33.92001,396.24 18.47357,-33.91933,396.24 18.47271,-33.91824,396.24 18.47197,-33.91735,396.24 18.47134,-33.91661,396.24 18.47043,-33.91562,396.24 18.4697,-33.91484,396.24 18.46897,-33.91406,403.86 18.46796,-33.91307,403.86 18.46723,-33.91228,403.86 18.46634,-33.91145,411.48 18.46561,-33.91077,411.48 18.46487,-33.91014,411.48 18.46381,-33.90912,396.24 18.46321,-33.90856,396.24 18.46219,-33.90765,388.62 18.46152,-33.90697,388.62 18.46067,-33.90619,381 18.45995,-33.90555,373.38 18.45921,-33.90493,373.38 18.45835,-33.90413,373.38 18.45742,-33.90335,365.76 18.45657,-33.90265,358.14000000000004 18.45594,-33.90208,350.52000000000004 18.45507,-33.90143,335.28000000000003 18.4544,-33.90092,327.66 18.45366,-33.90041,320.04 18.45283,-33.89983,312.42 18.45193,-33.89928,304.8 18.45125,-33.89883,297.18 18.45042,-33.89832,289.56 18.44975,-33.8979,281.94 18.44891,-33.89738,266.7 18.44823,-33.89699,259.08000000000004 18.44739,-33.89648,251.46 18.44683,-33.89626,243.84 18.44587,-33.89589,236.22 18.44498,-33.89561,220.98000000000002 18.44431,-33.89543,213.36 18.44341,-33.89529,205.74 18.44267,-33.89515,198.12 18.44206,-33.89507,190.5 18.44128,-33.89493,182.88 18.44066,-33.89479,175.26000000000002 18.43988,-33.89461,167.64000000000001 18.43932,-33.89452,160.02 18.43865,-33.89447,152.4 18.43809,-33.89455,144.78 18.43736,-33.8947,129.54000000000002 18.43678,-33.89492,114.30000000000001 18.43629,-33.89516,99.06 18.43557,-33.89557,76.2 18.43494,-33.89594,68.58 18.43439,-33.89635,53.34 18.4338,-33.89678,45.72 18.43338,-33.89717,30.48 18.43306,-33.89738,30.48 18.4326,-33.89776,15.24 18.4322,-33.89804,7.62 18.43198,-33.89822,7.62 18.4317,-33.89841,0 18.43136,-33.89859,0 18.43071,-33.89892,0 18.43048,-33.89901,0 18.43001,-33.89923,0 18.42979,-33.89929,0 18.42957,-33.89937,0 18.42911,-33.89952,0 18.42865,-33.89967,0 18.42822,-33.89973,0 18.428,-33.89978,0 18.42773,-33.89981,0 18.42779,-33.89957,0 18.428,-33.89932,0 18.42836,-33.89897,0 18.42859,-33.89883,0 18.42895,-33.8985,0 18.42929,-33.89818,0 18.43002,-33.89729,0 18.43019,-33.89701,0 18.43035,-33.8968,0 18.43074,-33.89621,0 18.43088,-33.89594,0 18.43111,-33.89557,0 18.4313,-33.89525,0 18.43147,-33.89484,0 18.43164,-33.89452,7.62 18.43181,-33.8942,7.62 18.43203,-33.89371,7.62 18.4322,-33.89333,7.62 18.43231,-33.89296,7.62 18.43254,-33.89241,7.62 18.4327,-33.89204,15.24 18.43288,-33.89166,15.24 18.43304,-33.89127,22.86 18.43321,-33.8909,22.86 18.43332,-33.89067,30.48 18.43355,-33.89012,30.48 18.43374,-33.8897,38.1 18.4341,-33.88893,45.72 18.4345,-33.88829,53.34 18.43483,-33.88756,60.96 18.43528,-33.88678,76.2 18.43569,-33.88607,91.44 18.43601,-33.88545,106.68 18.43632,-33.88491,121.92 18.43663,-33.88422,137.16 18.43683,-33.88365,144.78 18.43708,-33.88289,160.02 18.43718,-33.88226,167.64000000000001 18.4373,-33.88138,182.88 18.43736,-33.88074,190.5 18.43729,-33.87983,205.74 18.43719,-33.87914,213.36 18.43708,-33.87849,220.98000000000002 18.43689,-33.87778,228.60000000000002 18.4366,-33.87709,243.84 18.43632,-33.87643,251.46 18.43603,-33.87579,259.08000000000004 18.43556,-33.87492,266.7 18.43517,-33.87428,274.32 18.43472,-33.8736,281.94 18.43431,-33.87299,289.56 18.43374,-33.87225,304.8 18.43338,-33.87172,312.42 18.43283,-33.87099,327.66 18.43237,-33.87044,342.90000000000003 18.43186,-33.86989,350.52000000000004 18.43122,-33.86922,365.76 18.43063,-33.8687,373.38 18.42974,-33.86796,381 18.42899,-33.86745,396.24 18.42828,-33.86705,403.86 18.42755,-33.86664,403.86 18.42676,-33.86632,411.48 18.42575,-33.86591,419.1 18.42487,-33.86568,426.72 18.42402,-33.86545,434.34000000000003 18.42278,-33.86513,441.96000000000004 18.42173,-33.86494,457.20000000000005 18.42093,-33.86475,472.44 18.42004,-33.86458,480.06 18.41931,-33.86444,495.3 18.41846,-33.86433,502.92 18.41738,-33.86424,518.1600000000001 18.41651,-33.86417,525.78 18.41555,-33.86415,533.4 18.41475,-33.86415,541.02 18.41348,-33.86426,556.26 18.41281,-33.86435,556.26 18.41177,-33.86447,563.88 18.41085,-33.86466,571.5 18.40956,-33.8649,579.12 18.40862,-33.86512,579.12 18.40754,-33.86545,579.12 18.40651,-33.86573,579.12 18.40541,-33.86609,586.74 18.40445,-33.86643,586.74 18.40361,-33.86673,586.74 18.40256,-33.86713,586.74 18.40158,-33.86755,586.74 18.40047,-33.86806,586.74 18.39947,-33.86852,586.74 18.39857,-33.86893,586.74 18.39787,-33.86922,586.74 18.39655,-33.86989,594.36 18.39548,-33.87044,594.36 18.39442,-33.87103,601.98 18.39375,-33.87144,601.98 18.39272,-33.87206,609.6 18.39186,-33.87257,609.6 18.391,-33.87313,609.6 18.3902,-33.87364,617.22 18.3891,-33.87433,617.22 18.38825,-33.87488,617.22 18.38757,-33.87532,624.84 18.3864,-33.87611,624.84 18.3854,-33.8768,632.46 18.38465,-33.87737,632.46 18.38367,-33.87802,640.08 18.38304,-33.87854,640.08 18.38214,-33.87918,640.08 18.38114,-33.87991,640.08 18.38035,-33.88055,640.08 18.37955,-33.88118,640.08 18.37878,-33.88179,647.7 18.37778,-33.88268,647.7 18.37698,-33.88342,640.08 18.37624,-33.88412,647.7 18.37561,-33.88472,647.7 18.37469,-33.8857,647.7 18.37396,-33.88646,647.7 18.37329,-33.88719,647.7 18.37234,-33.88821,647.7 18.37172,-33.88893,647.7 18.37093,-33.88985,655.32 18.37026,-33.89058,655.32 18.36948,-33.89154,662.94 18.36885,-33.89222,670.5600000000001 18.36823,-33.89296,678.1800000000001 18.36757,-33.89365,693.4200000000001 18.36673,-33.89452,701.0400000000001 18.36611,-33.8952,708.6600000000001 18.3655,-33.89584,708.6600000000001 18.36477,-33.89658,716.2800000000001 18.36416,-33.89724,716.2800000000001 18.36275,-33.89877,723.9000000000001 18.36213,-33.89941,723.9000000000001 18.36142,-33.90022,723.9000000000001 18.36096,-33.90078,731.52 18.36028,-33.90161,731.52 18.3597,-33.90232,739.14 18.35918,-33.90302,739.14 18.3586,-33.9039,746.76 18.35799,-33.90477,746.76 18.35752,-33.90553,746.76 18.35686,-33.90656,754.38 18.35644,-33.90721,754.38 18.35574,-33.90839,754.38 18.35535,-33.90907,754.38 18.35478,-33.91005,754.38 18.35432,-33.91084,762 18.35392,-33.91163,762 18.35335,-33.91261,762 18.35289,-33.9134,769.62 18.35249,-33.91419,769.62 18.35192,-33.91517,769.62 18.35152,-33.91596,769.62 18.3498,-33.9191,769.62 18.34837,-33.92173,769.62 18.347,-33.92453,777.24 18.34648,-33.92564,777.24 18.3461,-33.92651,777.24 18.34577,-33.92738,784.86 18.34549,-33.92821,784.86 18.34511,-33.92927,784.86 18.34476,-33.93016,784.86 18.34442,-33.93105,784.86 18.34403,-33.93205,784.86 18.34373,-33.93286,784.86 18.34336,-33.93375,784.86 18.34299,-33.93467,784.86 18.34257,-33.93571,784.86 18.34219,-33.93663,777.24 18.34173,-33.9377,777.24 18.34139,-33.93849,777.24 18.34099,-33.93933,769.62 18.34055,-33.94034,769.62 18.34013,-33.94124,769.62 18.33967,-33.94226,769.62 18.33938,-33.94286,769.62 18.33893,-33.94389,762 18.33854,-33.94487,762 18.33807,-33.94589,754.38 18.33773,-33.94668,754.38 18.3373,-33.94766,754.38 18.33693,-33.94845,754.38 18.33641,-33.94957,754.38 18.33607,-33.95032,754.38 18.33562,-33.95142,754.38 18.33515,-33.95259,746.76 18.33481,-33.95343,746.76 18.33447,-33.95432,739.14 18.33416,-33.95517,739.14 18.33388,-33.95609,739.14 18.33355,-33.95692,731.52 18.33321,-33.95796,731.52 18.33292,-33.95874,723.9000000000001 18.33248,-33.95993,723.9000000000001 18.33223,-33.96083,716.2800000000001 18.33195,-33.96177,716.2800000000001 18.33158,-33.96281,716.2800000000001 18.33132,-33.96377,716.2800000000001 18.33108,-33.9646,708.6600000000001 18.33013,-33.9678,708.6600000000001 18.32886,-33.97182,708.6600000000001 18.32748,-33.9762,716.2800000000001 18.32604,-33.98039,723.9000000000001 18.32469,-33.98451,731.52 18.322,-33.99033,739.14 18.32136,-33.99142,739.14 18.32096,-33.99212,739.14 18.3205,-33.99295,739.14 18.3201,-33.9937,739.14 18.3197,-33.9944,739.14 18.31903,-33.99541,739.14 18.31847,-33.99623,739.14 18.31804,-33.99691,739.14 18.31628,-33.99948,739.14 18.31578,-34.00017,739.14 18.31524,-34.00101,739.14 18.31471,-34.00177,739.14 18.31421,-34.00246,739.14 18.31375,-34.00315,739.14 18.31309,-34.0041,739.14 18.31266,-34.00478,739.14 18.31208,-34.00571,739.14 18.31032,-34.00837,739.14 18.30855,-34.01129,739.14 18.30816,-34.01202,739.14 18.30754,-34.01312,731.52 18.30726,-34.01376,731.52 18.30677,-34.01469,731.52 18.30647,-34.01537,731.52 18.30608,-34.01633,723.9000000000001 18.30568,-34.01726,723.9000000000001 18.30528,-34.01819,723.9000000000001 18.3049,-34.01921,723.9000000000001 18.3046,-34.0201,723.9000000000001 18.30434,-34.02081,723.9000000000001 18.30406,-34.02182,723.9000000000001 18.30379,-34.02275,731.52 18.30356,-34.0237,739.14 18.30334,-34.0247,739.14 18.30317,-34.02544,739.14 18.30299,-34.02643,739.14 18.30289,-34.02708,739.14 18.30276,-34.02815,739.14 18.30261,-34.02896,739.14 18.30248,-34.02969,739.14 18.30231,-34.03066,746.76 18.30214,-34.03146,739.14 18.30199,-34.0323,739.14 18.30185,-34.03322,739.14 18.30188,-34.03441,739.14 18.30193,-34.03542,739.14 18.30202,-34.03648,739.14 18.30219,-34.03746,739.14 18.30233,-34.0383,746.76 18.30249,-34.03917,746.76 18.30271,-34.04007,746.76 18.30294,-34.04086,746.76 18.30317,-34.04165,746.76 18.3035,-34.04274,746.76 18.30379,-34.04365,746.76 18.30395,-34.0442,746.76 18.30425,-34.04519,746.76 18.30457,-34.04613,746.76 18.30485,-34.04691,746.76 18.30528,-34.04798,754.38 18.30558,-34.04874,746.76 18.30602,-34.04965,746.76 18.30631,-34.05035,746.76 18.30677,-34.05124,746.76 18.3072,-34.05203,746.76 18.30746,-34.05259,746.76 18.30797,-34.05352,746.76 18.30832,-34.05426,746.76 18.30883,-34.05524,746.76 18.30917,-34.05603,746.76 18.30957,-34.05696,746.76 18.30989,-34.05794,746.76 18.3102,-34.05878,746.76 18.31045,-34.05954,746.76 18.31078,-34.0606,746.76 18.31107,-34.06142,754.38 18.31146,-34.06246,754.38 18.31175,-34.0632,754.38 18.31221,-34.06423,754.38 18.31249,-34.06502,754.38 18.31286,-34.06581,754.38 18.31329,-34.06674,754.38 18.31359,-34.06746,754.38 18.31398,-34.06837,754.38 18.31438,-34.06929,754.38 18.31483,-34.07016,754.38 18.3153,-34.07112,754.38 18.3157,-34.07191,754.38 18.31606,-34.07268,754.38 18.31645,-34.07336,754.38 18.31678,-34.07401,754.38 18.31718,-34.07484,754.38 18.31774,-34.07584,754.38 18.31821,-34.07652,754.38 18.31861,-34.07717,754.38 18.31919,-34.07805,754.38 18.3197,-34.07877,754.38 18.32032,-34.07959,754.38 18.3209,-34.08033,754.38 18.32159,-34.08122,754.38 18.32211,-34.08178,754.38 18.32262,-34.08243,754.38 18.32329,-34.08316,754.38 18.32396,-34.08385,754.38 18.32451,-34.08448,754.38 18.32531,-34.08522,762 18.32592,-34.08582,762 18.32668,-34.08652,762 18.32749,-34.08719,754.38 18.32817,-34.08783,754.38 18.32901,-34.08856,754.38 18.32966,-34.08913,762 18.33046,-34.08979,762 18.33126,-34.09048,762 18.33209,-34.09117,762 18.33281,-34.09183,762 18.33344,-34.09241,762 18.33401,-34.0929,762 18.33475,-34.09356,762 18.33544,-34.09416,762 18.33624,-34.09483,762 18.33698,-34.09542,762 18.33769,-34.09602,762 18.33853,-34.09668,762 18.33921,-34.09714,762 18.34005,-34.09772,754.38 18.34076,-34.09821,754.38 18.34167,-34.09872,754.38 18.34242,-34.09919,754.38 18.34302,-34.0995,754.38 18.34391,-34.10003,754.38 18.34476,-34.10049,754.38 18.34551,-34.10086,754.38 18.34644,-34.10129,754.38 18.347,-34.10156,746.76 18.3478,-34.10194,746.76 18.34888,-34.10245,746.76 18.34986,-34.10289,746.76 18.35076,-34.10326,739.14 18.35175,-34.10366,739.14 18.35255,-34.10399,739.14 18.35358,-34.1044,739.14 18.35449,-34.10477,731.52 18.35546,-34.10513,731.52 18.35649,-34.10556,731.52 18.35737,-34.10587,731.52 18.35838,-34.10627,739.14 18.35918,-34.10654,739.14 18.35995,-34.10687,731.52 18.36073,-34.10719,731.52 18.36176,-34.10757,731.52 18.36262,-34.10794,731.52 18.36348,-34.10829,731.52 18.36445,-34.10868,731.52 18.36548,-34.1091,731.52 18.36645,-34.10953,731.52 18.36735,-34.10989,731.52 18.36817,-34.11022,731.52 18.36908,-34.11059,731.52 18.36994,-34.11097,731.52 18.37069,-34.11124,731.52 18.37154,-34.11157,731.52 18.37252,-34.11194,723.9000000000001 18.37326,-34.11222,723.9000000000001 18.37424,-34.11255,723.9000000000001 18.37519,-34.11292,716.2800000000001 18.37601,-34.1132,708.6600000000001 18.37688,-34.11356,708.6600000000001 18.37767,-34.11385,701.0400000000001 18.37839,-34.11411,693.4200000000001 18.37934,-34.11447,685.8000000000001 18.3822,-34.11548,670.5600000000001 18.38478,-34.11635,655.32 18.38757,-34.11725,640.08 18.39014,-34.11813,624.84 18.39308,-34.11909,617.22 18.39609,-34.12009,609.6 18.39912,-34.12107,601.98 18.40199,-34.12209,594.36 18.40467,-34.12307,586.74 18.40794,-34.12414,586.74 18.40877,-34.1244,579.12 18.40984,-34.12473,579.12 18.4109,-34.12505,579.12 18.4118,-34.12532,571.5 18.41281,-34.12564,571.5 18.41394,-34.126,571.5 18.41499,-34.12628,571.5 18.416,-34.12666,571.5 18.41695,-34.12692,571.5 18.41813,-34.12733,571.5 18.41927,-34.12772,571.5 18.4202,-34.12802,571.5 18.42396,-34.12935,579.12 18.42693,-34.1304,579.12 18.42979,-34.13136,571.5 18.43321,-34.13251,579.12 18.43713,-34.13379,579.12 18.43826,-34.1341,579.12 18.43946,-34.13443,579.12 18.44061,-34.13466,579.12 18.44156,-34.13489,579.12 18.44267,-34.13508,579.12 18.44358,-34.13527,579.12 18.44473,-34.13541,571.5 18.44593,-34.13557,571.5 18.447,-34.13567,571.5 18.44822,-34.13573,571.5 18.44942,-34.13578,571.5 18.45025,-34.13576,571.5 18.45148,-34.13568,563.88 18.45294,-34.13548,563.88 18.45394,-34.13531,563.88 18.45507,-34.13507,563.88 18.45594,-34.13485,563.88 18.4572,-34.13443,563.88 18.45829,-34.13406,563.88 18.45933,-34.13365,556.26 18.46028,-34.13319,556.26 18.46129,-34.13274,556.26 18.46252,-34.13205,548.64 18.46348,-34.1315,548.64 18.46465,-34.13081,548.64 18.46589,-34.13004,556.26 18.46676,-34.12945,556.26 18.46767,-34.1288,556.26 18.4688,-34.12798,556.26 18.46981,-34.1272,556.26 18.47071,-34.12647,556.26 18.47166,-34.12573,556.26 18.47254,-34.12493,556.26 18.47351,-34.12408,556.26 18.47454,-34.12307,556.26 18.47547,-34.12212,556.26 18.47631,-34.1212,556.26 18.47706,-34.12041,548.64 18.47786,-34.11958,548.64 18.47878,-34.11842,548.64 18.47968,-34.11726,548.64 18.48029,-34.11635,548.64 18.48095,-34.11534,548.64 18.48164,-34.11418,548.64 18.48214,-34.11324,548.64 18.48261,-34.11217,548.64 18.48315,-34.11099,548.64 18.48358,-34.11003,548.64 18.48404,-34.10892,556.26 18.48455,-34.10765,556.26 18.48495,-34.10651,556.26 18.4853,-34.10556,556.26 18.48567,-34.10449,556.26 18.48604,-34.10333,563.88 18.4864,-34.10207,556.26 18.48667,-34.10114,556.26 18.48701,-34.09984,556.26 18.48724,-34.09886,556.26 18.48764,-34.09737,556.26 18.4878,-34.09648,556.26 18.48808,-34.0952,556.26 18.48827,-34.09425,556.26 18.48845,-34.09309,556.26 18.48865,-34.092,556.26 18.48885,-34.09085,556.26 18.48898,-34.08989,556.26 18.48919,-34.08867,556.26 18.48932,-34.08751,556.26 18.48948,-34.08648,556.26 18.48953,-34.08564,556.26 18.4897,-34.08424,548.64 18.48982,-34.08339,548.64 18.48993,-34.08215,548.64 18.48999,-34.08128,548.64 18.4901,-34.07991,548.64 18.49016,-34.07895,548.64 18.49022,-34.07801,548.64 18.49039,-34.07587,541.02 18.49056,-34.07354,541.02 18.49066,-34.07227,541.02 18.49073,-34.0713,541.02 18.49077,-34.07002,541.02 18.49079,-34.06898,541.02 18.49083,-34.06778,541.02 18.49091,-34.0666,541.02 18.491,-34.06325,541.02 18.49105,-34.06224,541.02 18.49128,-34.05766,541.02 18.49156,-34.05276,541.02 18.49194,-34.04803,541.02 18.49234,-34.04361,541.02 18.49268,-34.04007,541.02 18.49308,-34.0356,541.02 18.49341,-34.03244,548.64 18.49371,-34.02908,533.4 18.49405,-34.02475,525.78 18.49408,-34.02351,525.78 18.49408,-34.0226,525.78 18.49411,-34.02121,525.78 18.49414,-34.02031,525.78 18.49414,-34.0193,525.78 18.49417,-34.01828,525.78 18.49419,-34.01706,525.78 18.49419,-34.01482,525.78 18.49419,-34.01363,525.78 18.49417,-34.0127,525.78 18.49422,-34.01139,533.4 18.49422,-34.01051,533.4 18.49425,-34.0096,533.4 18.49425,-34.0085,533.4 18.49428,-34.00729,533.4 18.49428,-34.00622,541.02 18.49434,-34.00488,541.02 18.49436,-34.00388,541.02 18.4944,-34.00296,541.02 18.49442,-34.00204,548.64 18.49442,-33.99852,541.02 18.49442,-33.99408,548.64 18.49442,-33.99316,548.64 18.49445,-33.99193,541.02 18.49447,-33.99083,541.02 18.49447,-33.98982,541.02 18.49451,-33.98858,548.64 18.49451,-33.98751,548.64 18.49457,-33.98639,548.64 18.49459,-33.98538,548.64 18.4947,-33.98195,541.02 18.49464,-33.97801,525.78 18.49453,-33.97481,510.54 18.4944,-33.97271,502.92 18.49436,-33.97156,502.92 18.49425,-33.9706,502.92 18.49419,-33.96931,495.3 18.49411,-33.96819,495.3 18.49397,-33.96707,495.3 18.4936,-33.96391,487.68 18.49348,-33.96293,480.06 18.4933,-33.96172,480.06 18.49308,-33.96056,472.44 18.49297,-33.95967,472.44 18.49274,-33.95874,472.44 18.49246,-33.95755,472.44 18.49223,-33.95659,472.44 18.49201,-33.95563,472.44 18.49176,-33.95464,472.44 18.49145,-33.95348,472.44 18.49122,-33.95256,464.82000000000005 18.49089,-33.95132,464.82000000000005 18.49068,-33.95027,464.82000000000005 18.49044,-33.94931,464.82000000000005 18.49016,-33.94836,464.82000000000005 18.48999,-33.94753,472.44 18.48971,-33.94652,464.82000000000005 18.48954,-33.94565,464.82000000000005 18.48925,-33.94463,457.20000000000005 18.48902,-33.94375,457.20000000000005 18.48873,-33.94258,449.58000000000004 18.48848,-33.94176,449.58000000000004 18.48814,-33.94066,449.58000000000004 18.48782,-33.93979,449.58000000000004 18.48758,-33.93901,449.58000000000004 18.48724,-33.93798,449.58000000000004 18.48696,-33.93723,441.96000000000004 18.48661,-33.93635,441.96000000000004 18.48639,-33.93565,441.96000000000004 18.4859,-33.93452,434.34000000000003 18.48556,-33.9337,434.34000000000003 18.48517,-33.93283,426.72 18.48473,-33.93183,419.1 18.48433,-33.93105,411.48 18.48388,-33.93027,411.48 18.48335,-33.92932,403.86 18.48281,-33.92848,403.86 18.4822,-33.92747,396.24 18.48169,-33.92667,388.62 18.48113,-33.92583,388.62 18.48061,-33.92504,381 18.4799,-33.92409,381 18.4794,-33.9234,381 18.47878,-33.92258,373.38 18.47805,-33.92166,373.38 18.4774,-33.92089,365.76 18.4766,-33.92001,365.76 18.47598,-33.91933,358.14000000000004 18.4753,-33.91864,358.14000000000004 18.47431,-33.91768,358.14000000000004 18.47351,-33.91698,350.52000000000004 18.47277,-33.91633,350.52000000000004 18.47185,-33.91554,342.90000000000003 18.47093,-33.91479,342.90000000000003 18.47013,-33.91424,342.90000000000003 18.4691,-33.91344,335.28000000000003 18.46802,-33.91265,327.66 18.46722,-33.91205,327.66 18.46634,-33.91145,327.66 18.46522,-33.91068,327.66 18.46437,-33.91013,320.04 18.46344,-33.90949,320.04 18.46275,-33.90903,320.04 18.46178,-33.90842,312.42 18.46098,-33.90786,312.42 18.46024,-33.90734,312.42 18.45927,-33.90678,304.8 18.45852,-33.90628,297.18 18.45765,-33.90578,297.18 18.45709,-33.90548,297.18 18.45613,-33.90495,289.56 18.45537,-33.90451,281.94 18.45446,-33.90404,274.32 18.4536,-33.90362,259.08000000000004 18.45268,-33.9032,251.46 18.45188,-33.90283,243.84 18.4507,-33.9023,228.60000000000002 18.44959,-33.90181,213.36 18.44873,-33.90144,205.74 18.4477,-33.90102,198.12 18.44677,-33.9006,190.5 18.44542,-33.90004,175.26000000000002 18.44431,-33.8996,160.02 18.44341,-33.89925,144.78 18.44223,-33.89886,129.54000000000002 18.441,-33.89854,121.92 18.44005,-33.89827,114.30000000000001 18.43921,-33.89804,106.68 18.43825,-33.89772,99.06 18.43752,-33.89749,99.06 18.43678,-33.89724,91.44 18.43592,-33.89697,83.82000000000001 18.43517,-33.89678,76.2 18.43443,-33.89659,60.96 18.43369,-33.89655,53.34 18.43315,-33.89658,45.72 18.43282,-33.89671,38.1 18.43259,-33.89685,38.1 18.4322,-33.89711,30.48 18.4318,-33.89743,22.86 18.43142,-33.89786,15.24 18.43108,-33.89818,7.62 18.43063,-33.8985,0 18.43035,-33.89873,0 18.43002,-33.89892,0 18.42979,-33.89906,0 18.4294,-33.89928,0 18.42912,-33.89941,0 18.42876,-33.89957,0 18.4285,-33.89964,0 18.42811,-33.89973,0 18.42785,-33.89981,0 18.4276,-33.89987,0 18.42773,-33.89967,0 18.42808,-33.89939,0 18.42844,-33.89928,0 18.42876,-33.8992,0 18.42906,-33.89914,0 18.42928,-33.89911,0 18.42973,-33.899,0 18.42996,-33.89896,0 18.43031,-33.89887,0 18.43117,-33.89864,0 18.43186,-33.89845,0 18.4322,-33.89832,0 18.43259,-33.89818,0 18.43293,-33.89804,0 18.43332,-33.8979,15.24 18.43374,-33.89776,22.86 18.43422,-33.89754,30.48 18.4345,-33.8974,38.1 18.43511,-33.89713,45.72 18.43567,-33.89671,53.34 18.43629,-33.89616,68.58 18.4368,-33.89557,76.2 18.43723,-33.89473,83.82000000000001 18.43752,-33.89417,91.44 18.43775,-33.89329,106.68 18.43792,-33.89259,121.92 18.43803,-33.8918,137.16 18.43814,-33.89108,152.4 18.43814,-33.89026,160.02 18.43814,-33.88943,175.26000000000002 18.43809,-33.88857,182.88 18.43803,-33.88797,190.5 18.43792,-33.88724,205.74 18.43781,-33.88635,220.98000000000002 18.43764,-33.88559,228.60000000000002 18.43747,-33.88486,236.22 18.43729,-33.88393,251.46 18.43708,-33.88321,259.08000000000004 18.4368,-33.8822,266.7 18.43657,-33.88147,274.32 18.43635,-33.88069,289.56 18.43597,-33.87965,297.18 18.43567,-33.87886,304.8 18.43539,-33.87804,320.04 18.43511,-33.87726,327.66 18.43478,-33.87625,342.90000000000003 18.4345,-33.87552,350.52000000000004 18.43422,-33.87479,365.76 18.43391,-33.87387,381 18.43363,-33.87318,388.62 18.43328,-33.87243,388.62 18.43293,-33.87149,403.86 18.43266,-33.8708,411.48 18.43225,-33.86992,419.1 18.43197,-33.86927,426.72 18.43157,-33.86834,441.96000000000004 18.43117,-33.86755,449.58000000000004 18.43085,-33.86682,457.20000000000005 18.4306,-33.8662,464.82000000000005 18.43018,-33.86531,472.44 18.42979,-33.8644,480.06 18.42957,-33.8638,480.06 18.42916,-33.86284,487.68 18.42876,-33.86182,495.3 18.42839,-33.86096,502.92 18.42802,-33.86014,510.54 18.42772,-33.85941,510.54 18.42728,-33.85837,518.1600000000001 18.42699,-33.85762,525.78 18.42653,-33.85661,533.4 18.42626,-33.85588,533.4 18.42596,-33.85511,541.02 18.4255,-33.85405,541.02 18.42514,-33.853,541.02 18.42475,-33.85204,541.02 18.42452,-33.85144,541.02 18.42329,-33.84819,556.26 18.42205,-33.84512,571.5 18.42098,-33.84231,571.5 18.41955,-33.83859,579.12 18.41835,-33.8356,586.74 18.41721,-33.83295,594.36 18.41578,-33.82974,609.6 18.41454,-33.827,617.22 18.41325,-33.82434,624.84 18.41163,-33.82114,632.46 18.41114,-33.8202,640.08 18.41057,-33.81927,640.08 18.41005,-33.81848,647.7 18.4096,-33.81778,647.7 18.40914,-33.81713,647.7 18.40851,-33.81624,655.32 18.40782,-33.81531,655.32 18.4072,-33.81445,655.32 18.40656,-33.81364,655.32 18.40608,-33.81294,655.32 18.40535,-33.81198,655.32 18.40485,-33.81131,655.32 18.40429,-33.81052,647.7 18.4035,-33.80956,647.7 18.40279,-33.80861,647.7 18.40239,-33.80805,647.7 18.40154,-33.8069,647.7 18.40087,-33.80598,647.7 18.40027,-33.80516,647.7 18.3997,-33.80437,647.7 18.39895,-33.80339,647.7 18.39834,-33.8026,647.7 18.39769,-33.80181,647.7 18.39706,-33.80098,640.08 18.39643,-33.80023,640.08 18.39565,-33.7993,640.08 18.39489,-33.79842,640.08 18.39437,-33.79781,640.08 18.39363,-33.79688,640.08 18.39291,-33.79601,640.08 18.39229,-33.79527,640.08 18.391,-33.79367,640.08 18.39014,-33.79264,640.08 18.3896,-33.79202,632.46 18.38887,-33.79124,632.46 18.38803,-33.79042,632.46 18.38722,-33.78971,632.46 18.38652,-33.78905,632.46 18.38568,-33.78845,624.84 18.38488,-33.7879,624.84 18.38388,-33.78726,624.84 18.3831,-33.78676,624.84 18.38198,-33.78621,624.84 18.38108,-33.7858,617.22 18.38018,-33.78548,617.22 18.37901,-33.78511,617.22 18.37812,-33.78487,617.22 18.37676,-33.78452,617.22 18.37578,-33.78431,624.84 18.37469,-33.7841,624.84 18.37346,-33.78387,624.84 18.3725,-33.78378,624.84 18.37121,-33.78369,624.84 18.3697,-33.78369,617.22 18.36892,-33.78369,617.22 18.36752,-33.78378,617.22 18.36628,-33.78394,617.22 18.36533,-33.78406,617.22 18.36426,-33.78429,617.22 18.36342,-33.78447,617.22 18.36241,-33.78474,624.84 18.36129,-33.78511,624.84 18.36028,-33.78552,624.84 18.35944,-33.78589,624.84 18.35843,-33.78635,632.46 18.3577,-33.78678,632.46 18.35686,-33.78731,632.46 18.35602,-33.7879,632.46 18.35535,-33.78841,632.46 18.35462,-33.78909,640.08 18.35401,-33.78969,640.08 18.35322,-33.79047,640.08 18.35272,-33.79111,647.7 18.35205,-33.79198,647.7 18.3516,-33.79266,655.32 18.35106,-33.79362,655.32 18.35077,-33.79418,662.94 18.35037,-33.79515,662.94 18.35008,-33.79601,662.94 18.34986,-33.79678,662.94 18.34958,-33.79779,662.94 18.34935,-33.7988,662.94 18.34919,-33.79971,655.32 18.34906,-33.80051,655.32 18.34894,-33.80149,655.32 18.34885,-33.80255,662.94 18.34879,-33.80338,670.5600000000001 18.34877,-33.80437,670.5600000000001 18.34879,-33.80507,678.1800000000001 18.34883,-33.80591,678.1800000000001 18.34891,-33.80685,685.8000000000001 18.34894,-33.80768,685.8000000000001 18.349,-33.80852,693.4200000000001 18.34907,-33.80951,701.0400000000001 18.34911,-33.81052,708.6600000000001 18.34917,-33.8115,708.6600000000001 18.34923,-33.81243,716.2800000000001 18.3493,-33.81317,716.2800000000001 18.3494,-33.81401,723.9000000000001 18.34951,-33.81503,723.9000000000001 18.34963,-33.81606,723.9000000000001 18.34974,-33.81704,723.9000000000001 18.34991,-33.81793,723.9000000000001 18.35009,-33.81894,723.9000000000001 18.35025,-33.81999,723.9000000000001 18.35042,-33.82082,731.52 18.35064,-33.82182,731.52 18.35081,-33.82301,731.52 18.35094,-33.82388,731.52 18.35115,-33.82503,739.14 18.35135,-33.82607,739.14 18.35146,-33.8269,746.76 18.3516,-33.82796,746.76 18.3522,-33.83165,739.14 18.3526,-33.83468,739.14 18.35306,-33.83808,739.14 18.35345,-33.84109,739.14 18.35369,-33.84292,739.14 18.35381,-33.84408,739.14 18.35392,-33.84515,739.14 18.35406,-33.84622,739.14 18.35423,-33.84709,746.76 18.3544,-33.84824,746.76 18.35455,-33.8492,746.76 18.35501,-33.85217,746.76 18.35518,-33.85335,746.76 18.35535,-33.85446,746.76 18.35546,-33.85538,746.76 18.35564,-33.85619,746.76 18.3558,-33.85725,746.76 18.3563,-33.86041,754.38 18.35649,-33.86163,754.38 18.35658,-33.86252,754.38 18.35675,-33.86334,754.38 18.35684,-33.86415,754.38 18.3572,-33.86719,754.38 18.35754,-33.87012,746.76 18.35758,-33.87094,746.76 18.35764,-33.87178,746.76 18.3577,-33.8729,746.76 18.3577,-33.87378,746.76 18.35764,-33.87462,746.76 18.35765,-33.8757,746.76 18.35759,-33.87662,746.76 18.35754,-33.87758,739.14 18.35747,-33.87848,739.14 18.35737,-33.8795,739.14 18.35726,-33.8806,731.52 18.35712,-33.88169,731.52 18.35701,-33.88253,731.52 18.35681,-33.88371,723.9000000000001 18.3567,-33.88458,723.9000000000001 18.35653,-33.88559,723.9000000000001 18.35642,-33.88646,723.9000000000001 18.35621,-33.88752,716.2800000000001 18.35608,-33.88829,716.2800000000001 18.35592,-33.88929,716.2800000000001 18.35574,-33.89017,708.6600000000001 18.35518,-33.89333,693.4200000000001 18.35501,-33.89413,693.4200000000001 18.35473,-33.8952,693.4200000000001 18.35451,-33.89603,693.4200000000001 18.35426,-33.89678,701.0400000000001 18.35386,-33.89794,701.0400000000001 18.35358,-33.89878,708.6600000000001 18.35335,-33.89939,708.6600000000001 18.353,-33.90038,708.6600000000001 18.35272,-33.90115,708.6600000000001 18.35238,-33.90198,708.6600000000001 18.35199,-33.90294,708.6600000000001 18.35163,-33.90367,716.2800000000001 18.3512,-33.90463,716.2800000000001 18.35083,-33.90544,716.2800000000001 18.35048,-33.90619,716.2800000000001 18.34997,-33.90725,708.6600000000001 18.34958,-33.90807,708.6600000000001 18.34913,-33.90894,716.2800000000001 18.34883,-33.90949,716.2800000000001 18.34823,-33.91068,723.9000000000001 18.34785,-33.91149,723.9000000000001 18.34745,-33.91224,723.9000000000001 18.3461,-33.91484,731.52 18.34442,-33.91815,739.14 18.34313,-33.9207,739.14 18.34134,-33.92409,746.76 18.33949,-33.92757,746.76 18.3382,-33.93004,739.14 18.33764,-33.93105,739.14 18.33601,-33.9343,731.52 18.33562,-33.93512,731.52 18.33523,-33.93608,731.52 18.33498,-33.93677,739.14 18.33464,-33.93779,739.14 18.33444,-33.93851,739.14 18.33422,-33.93947,739.14 18.33411,-33.94025,739.14 18.33406,-33.94128,739.14 18.33406,-33.94217,739.14 18.33412,-33.94287,739.14 18.33422,-33.94373,739.14 18.33439,-33.94441,739.14 18.33458,-33.94515,739.14 18.33492,-33.94603,739.14 18.33529,-33.9467,739.14 18.33568,-33.9473,739.14 18.33613,-33.9478,739.14 18.33674,-33.9483,739.14 18.33755,-33.94883,739.14 18.33824,-33.9491,739.14 18.33915,-33.94936,731.52 18.34013,-33.94948,731.52 18.34117,-33.94945,723.9000000000001 18.34207,-33.94931,723.9000000000001 18.34305,-33.94906,716.2800000000001 18.34402,-33.94873,708.6600000000001 18.34504,-33.9483,708.6600000000001 18.34602,-33.9478,708.6600000000001 18.34682,-33.94733,708.6600000000001 18.3478,-33.94668,701.0400000000001 18.34871,-33.94603,701.0400000000001 18.3494,-33.94547,693.4200000000001 18.35008,-33.94487,685.8000000000001 18.35089,-33.94408,685.8000000000001 18.35137,-33.94359,685.8000000000001 18.35243,-33.94254,678.1800000000001 18.35306,-33.94189,678.1800000000001 18.35381,-33.9411,678.1800000000001 18.35438,-33.94044,670.5600000000001 18.35535,-33.93938,662.94 18.35586,-33.93883,662.94 18.35667,-33.93789,655.32 18.35743,-33.937,655.32 18.35804,-33.93626,647.7 18.35861,-33.93556,647.7 18.35941,-33.93463,640.08 18.36017,-33.93365,640.08 18.36096,-33.93269,632.46 18.36159,-33.93188,632.46 18.36213,-33.93114,632.46 18.3629,-33.9302,632.46 18.36353,-33.92941,632.46 18.36439,-33.9283,632.46 18.36508,-33.92746,624.84 18.36571,-33.92671,624.84 18.36634,-33.92587,624.84 18.36695,-33.92505,617.22 18.36777,-33.92411,617.22 18.3684,-33.92331,609.6 18.36926,-33.92234,601.98 18.37011,-33.92136,601.98 18.37103,-33.92033,594.36 18.37177,-33.91956,586.74 18.37263,-33.91861,586.74 18.37323,-33.91791,579.12 18.37413,-33.91704,579.12 18.37497,-33.91617,571.5 18.3757,-33.91544,563.88 18.37648,-33.91461,563.88 18.37738,-33.91372,556.26 18.37811,-33.91301,548.64 18.37917,-33.912,541.02 18.38013,-33.91107,541.02 18.38091,-33.91031,533.4 18.38345,-33.90795,525.78 18.38696,-33.90477,525.78 18.38988,-33.90216,533.4 18.39254,-33.89985,533.4 18.39431,-33.89836,525.78 18.39532,-33.89763,525.78 18.39638,-33.89687,518.1600000000001 18.39729,-33.89631,518.1600000000001 18.3984,-33.89561,510.54 18.39963,-33.89497,502.92 18.40078,-33.89436,495.3 18.40165,-33.89392,487.68 18.40277,-33.89337,487.68 18.40372,-33.89296,487.68 18.40485,-33.8925,480.06 18.40586,-33.89209,472.44 18.40708,-33.89161,457.20000000000005 18.40815,-33.89122,449.58000000000004 18.40931,-33.89082,441.96000000000004 18.41057,-33.8904,434.34000000000003 18.41157,-33.89003,426.72 18.41251,-33.88975,419.1 18.41359,-33.88943,411.48 18.41486,-33.8891,411.48 18.41566,-33.88891,403.86 18.41703,-33.88854,403.86 18.41801,-33.88831,396.24 18.4192,-33.88802,396.24 18.42018,-33.88775,396.24 18.42093,-33.8876,388.62 18.42217,-33.88728,388.62 18.4234,-33.88705,388.62 18.42442,-33.88686,388.62 18.42547,-33.88669,388.62 18.42642,-33.88654,388.62 18.42749,-33.88646,388.62 18.42828,-33.88655,388.62 18.42934,-33.88673,388.62 18.43014,-33.88686,388.62 18.43097,-33.88705,388.62 18.43174,-33.88724,381 18.43271,-33.88752,373.38 18.43357,-33.88779,373.38 18.43427,-33.88806,365.76 18.43489,-33.88829,365.76 18.43575,-33.88873,358.14000000000004 18.43637,-33.889,358.14000000000004 18.43708,-33.88939,350.52000000000004 18.43769,-33.88976,350.52000000000004 18.43815,-33.89003,342.90000000000003 18.4387,-33.89044,335.28000000000003 18.43921,-33.89081,327.66 18.43964,-33.89115,320.04 18.44009,-33.89157,312.42 18.44066,-33.89204,304.8 18.44101,-33.89236,297.18 18.44123,-33.89264,297.18 18.4417,-33.8931,281.94 18.44206,-33.89365,274.32 18.44227,-33.89408,266.7 18.44238,-33.89445,259.08000000000004 18.44255,-33.89482,251.46 18.44268,-33.89529,243.84 18.44274,-33.89571,236.22 18.44274,-33.89612,220.98000000000002 18.44267,-33.89645,213.36 18.44233,-33.89697,198.12 18.44193,-33.89724,182.88 18.44145,-33.8974,167.64000000000001 18.44084,-33.89738,152.4 18.43998,-33.89715,137.16 18.43924,-33.89678,121.92 18.43855,-33.89645,114.30000000000001 18.43786,-33.89608,114.30000000000001 18.43708,-33.89566,106.68 18.43652,-33.89543,99.06 18.43575,-33.8951,91.44 18.43511,-33.89493,91.44 18.43437,-33.89492,76.2 18.43394,-33.89511,68.58 18.43363,-33.89538,53.34 18.43327,-33.89584,45.72 18.43294,-33.89622,38.1 18.43254,-33.89676,22.86 18.43243,-33.89697,22.86 18.43208,-33.89734,15.24 18.43192,-33.89758,7.62 18.4317,-33.89781,7.62 18.4314,-33.89813,0 18.43117,-33.89832,0 18.43094,-33.89855,0 18.43065,-33.89874,0 18.43041,-33.89891,0 18.43019,-33.89901,0 18.4299,-33.89914,0 18.42945,-33.89934,0 18.42923,-33.89946,0 18.42899,-33.89952,0 18.42861,-33.89964,0 18.42839,-33.89973,0 18.42808,-33.89981,0 18.42783,-33.89987,0 18.43655,-33.89776,53.34 18.43706,-33.89697,68.58 18.43741,-33.89621,76.2 18.43769,-33.89548,76.2 18.43792,-33.89447,83.82000000000001 18.43803,-33.89365,91.44 18.43814,-33.89259,99.06 18.43815,-33.89175,99.06 18.4382,-33.89076,106.68 18.43815,-33.88975,121.92 18.43803,-33.88861,129.54000000000002 18.43792,-33.88761,137.16 18.43769,-33.88651,144.78 18.43746,-33.88556,152.4 18.43723,-33.88472,152.4 18.437,-33.88384,160.02 18.43657,-33.8828,167.64000000000001 18.43624,-33.88188,175.26000000000002 18.43569,-33.88076,182.88 18.43529,-33.88002,190.5 18.43483,-33.87927,198.12 18.43426,-33.87839,205.74 18.43363,-33.87746,213.36 18.43306,-33.87676,228.60000000000002 18.43248,-33.87611,236.22 18.43168,-33.87537,243.84 18.4308,-33.87479,259.08000000000004 18.42996,-33.87424,274.32 18.42899,-33.87378,281.94 18.42802,-33.87336,289.56 18.4271,-33.873,297.18 18.42615,-33.87259,304.8 18.42547,-33.87231,312.42 18.42442,-33.87192,320.04 18.42361,-33.87164,327.66 18.42258,-33.87136,335.28000000000003 18.42189,-33.87122,342.90000000000003 18.42087,-33.87099,358.14000000000004 18.41987,-33.8708,365.76 18.41903,-33.87071,373.38 18.41819,-33.87062,373.38 18.41712,-33.87053,381 18.41646,-33.87048,388.62 18.41515,-33.87043,396.24 18.41446,-33.87038,403.86 18.41325,-33.8703,419.1 18.41241,-33.87025,426.72 18.41154,-33.8702,441.96000000000004 18.41063,-33.87015,457.20000000000005 18.40977,-33.87011,464.82000000000005 18.40897,-33.87011,480.06 18.40788,-33.87006,495.3 18.40692,-33.87007,502.92 18.40608,-33.87007,510.54 18.40485,-33.8702,518.1600000000001 18.40401,-33.8703,525.78 18.40319,-33.87038,525.78 18.40233,-33.87053,525.78 18.40126,-33.87071,525.78 18.40015,-33.87094,533.4 18.39935,-33.87117,533.4 18.39838,-33.8715,541.02 18.39734,-33.87186,541.02 18.39666,-33.8721,548.64 18.39554,-33.87254,548.64 18.3947,-33.87286,548.64 18.39392,-33.87318,548.64 18.39272,-33.87369,556.26 18.39167,-33.8741,556.26 18.39083,-33.87448,563.88 18.38999,-33.87483,563.88 18.3891,-33.87524,563.88 18.38814,-33.87575,571.5 18.3873,-33.87616,571.5 18.38642,-33.87667,571.5 18.38551,-33.87718,571.5 18.38459,-33.87769,571.5 18.38396,-33.87807,571.5 18.3831,-33.87862,571.5 18.38242,-33.87909,571.5 18.38144,-33.87974,563.88 18.38063,-33.88023,556.26 18.37985,-33.88083,556.26 18.37893,-33.88151,556.26 18.37824,-33.88202,556.26 18.37744,-33.88268,556.26 18.37665,-33.88326,563.88 18.37578,-33.88388,571.5 18.37525,-33.88426,579.12 18.37441,-33.88481,594.36 18.37355,-33.88537,609.6 18.37301,-33.88577,624.84 18.3724,-33.88617,632.46 18.37166,-33.88664,647.7 18.37086,-33.88719,655.32 18.37029,-33.88756,662.94 18.36966,-33.88803,662.94 18.36903,-33.88847,670.5600000000001 18.36852,-33.88884,670.5600000000001 18.3678,-33.88939,678.1800000000001 18.36697,-33.88998,685.8000000000001 18.3655,-33.89104,693.4200000000001 18.36485,-33.89152,701.0400000000001 18.36398,-33.89209,701.0400000000001 18.36348,-33.89246,708.6600000000001 18.36275,-33.89296,708.6600000000001 18.36197,-33.89346,708.6600000000001 18.36119,-33.89403,708.6600000000001 18.36028,-33.89461,708.6600000000001 18.35939,-33.89529,708.6600000000001 18.35866,-33.8958,708.6600000000001 18.35775,-33.8965,708.6600000000001 18.35709,-33.89699,708.6600000000001 18.3563,-33.89763,708.6600000000001 18.35563,-33.89818,708.6600000000001 18.35489,-33.89878,708.6600000000001 18.35415,-33.89948,716.2800000000001 18.35363,-33.89994,716.2800000000001 18.35277,-33.9007,716.2800000000001 18.35203,-33.90139,716.2800000000001 18.35143,-33.90202,716.2800000000001 18.3507,-33.90285,723.9000000000001 18.35008,-33.90363,723.9000000000001 18.34957,-33.90432,723.9000000000001 18.34911,-33.90493,723.9000000000001 18.34846,-33.90591,723.9000000000001 18.34801,-33.9066,723.9000000000001 18.3475,-33.90724,723.9000000000001 18.34705,-33.90795,731.52 18.34649,-33.9088,731.52 18.34602,-33.90953,731.52 18.34562,-33.91019,731.52 18.34515,-33.91104,731.52 18.3447,-33.91187,731.52 18.34436,-33.91261,723.9000000000001 18.34392,-33.91347,723.9000000000001 18.34356,-33.91419,723.9000000000001 18.34333,-33.91479,723.9000000000001 18.34293,-33.91573,723.9000000000001 18.34268,-33.91631,716.2800000000001 18.3423,-33.91722,716.2800000000001 18.34202,-33.91796,716.2800000000001 18.34173,-33.91866,708.6600000000001 18.34139,-33.91959,708.6600000000001 18.34111,-33.92038,708.6600000000001 18.34087,-33.92122,708.6600000000001 18.34061,-33.92198,708.6600000000001 18.34036,-33.92285,708.6600000000001 18.34011,-33.92372,716.2800000000001 18.3399,-33.92443,716.2800000000001 18.33973,-33.92532,716.2800000000001 18.33954,-33.92628,716.2800000000001 18.33938,-33.92706,716.2800000000001 18.33926,-33.9278,716.2800000000001 18.33904,-33.92876,716.2800000000001 18.33893,-33.92946,716.2800000000001 18.3387,-33.9304,716.2800000000001 18.33853,-33.93123,716.2800000000001 18.33837,-33.93196,716.2800000000001 18.3382,-33.93301,716.2800000000001 18.33801,-33.93398,708.6600000000001 18.33784,-33.93476,708.6600000000001 18.33764,-33.93567,708.6600000000001 18.33747,-33.93649,708.6600000000001 18.33721,-33.93765,708.6600000000001 18.33708,-33.93842,708.6600000000001 18.33693,-33.93914,708.6600000000001 18.33674,-33.94025,708.6600000000001 18.33658,-33.94105,708.6600000000001 18.33641,-33.94207,708.6600000000001 18.33624,-33.94282,708.6600000000001 18.33613,-33.94373,701.0400000000001 18.33578,-33.94571,693.4200000000001 18.33534,-33.94849,678.1800000000001 18.33523,-33.94931,678.1800000000001 18.33515,-33.95022,670.5600000000001 18.33517,-33.9511,662.94 18.33527,-33.95194,655.32 18.33549,-33.95278,655.32 18.33585,-33.95352,655.32 18.33629,-33.95421,655.32 18.3367,-33.95474,655.32 18.33744,-33.95548,655.32 18.34016,-33.95686,647.7 18.34369,-33.95709,640.08 18.34602,-33.95646,632.46 18.3486,-33.95511,617.22 18.34974,-33.95427,609.6 18.3506,-33.95353,609.6 18.35148,-33.95274,601.98 18.35227,-33.95192,601.98 18.35312,-33.95101,601.98 18.35375,-33.95018,609.6 18.35445,-33.94922,601.98 18.35506,-33.94831,601.98 18.35558,-33.94748,601.98 18.35621,-33.9465,601.98 18.3569,-33.94543,601.98 18.35743,-33.94446,601.98 18.35787,-33.94366,601.98 18.35838,-33.94263,601.98 18.3589,-33.94156,601.98 18.35933,-33.94066,601.98 18.35976,-33.93979,601.98 18.36021,-33.93877,594.36 18.36062,-33.93787,594.36 18.36113,-33.93681,594.36 18.36157,-33.93599,594.36 18.36197,-33.93512,594.36 18.36264,-33.93384,594.36 18.36313,-33.9329,594.36 18.36376,-33.93173,586.74 18.36422,-33.93081,586.74 18.36485,-33.92965,579.12 18.36539,-33.92871,579.12 18.36605,-33.9276,571.5 18.36662,-33.92671,571.5 18.36718,-33.92578,563.88 18.36791,-33.92468,563.88 18.36847,-33.92381,556.26 18.36926,-33.92271,556.26 18.37004,-33.92157,556.26 18.37077,-33.92052,563.88 18.37133,-33.91974,556.26 18.37217,-33.91859,556.26 18.37286,-33.91768,556.26 18.37355,-33.91684,556.26 18.3744,-33.91582,556.26 18.37509,-33.91498,548.64 18.37592,-33.91402,548.64 18.37648,-33.91338,548.64 18.37744,-33.91237,548.64 18.37812,-33.91158,541.02 18.37884,-33.91072,541.02 18.37973,-33.90977,533.4 18.38035,-33.90907,533.4 18.38114,-33.90825,533.4 18.38198,-33.90738,525.78 18.38282,-33.90651,525.78 18.38333,-33.90595,518.1600000000001 18.38428,-33.90509,510.54 18.38489,-33.9045,510.54 18.38585,-33.90358,502.92 18.38659,-33.90292,495.3 18.38717,-33.90241,495.3 18.38831,-33.90144,480.06 18.38926,-33.9007,480.06 18.38997,-33.90013,480.06 18.39088,-33.89939,480.06 18.39169,-33.89883,472.44 18.39272,-33.89808,464.82000000000005 18.39352,-33.89753,457.20000000000005 18.39436,-33.89694,449.58000000000004 18.39548,-33.89616,441.96000000000004 18.39633,-33.89561,441.96000000000004 18.39741,-33.89492,434.34000000000003 18.39861,-33.89417,426.72 18.39958,-33.8936,419.1 18.40044,-33.8931,419.1 18.40147,-33.8925,419.1 18.40256,-33.89194,411.48 18.40344,-33.89149,411.48 18.40462,-33.89099,403.86 18.40552,-33.89058,403.86 18.40622,-33.89026,403.86 18.40765,-33.8897,403.86 18.40894,-33.88925,396.24 18.41006,-33.88889,396.24 18.41108,-33.88854,396.24 18.41202,-33.88824,388.62 18.4132,-33.88792,381 18.41423,-33.88761,381 18.41544,-33.88728,381 18.41652,-33.88705,381 18.4178,-33.88673,373.38 18.41887,-33.88649,373.38 18.41984,-33.88635,373.38 18.42075,-33.88617,373.38 18.42184,-33.88593,373.38 18.42281,-33.88575,381 18.42374,-33.88559,381 18.42482,-33.88542,381 18.42587,-33.88527,373.38 18.42671,-33.88522,365.76 18.42779,-33.88514,365.76 18.42867,-33.88513,358.14000000000004 18.42957,-33.88513,358.14000000000004 18.43041,-33.88513,358.14000000000004 18.4314,-33.88519,350.52000000000004 18.43214,-33.88528,350.52000000000004 18.43311,-33.88542,342.90000000000003 18.4338,-33.8856,335.28000000000003 18.43449,-33.88579,335.28000000000003 18.43517,-33.88602,327.66 18.43603,-33.88631,312.42 18.43678,-33.88663,304.8 18.43752,-33.88701,297.18 18.43826,-33.88737,289.56 18.43887,-33.8877,281.94 18.43958,-33.88817,274.32 18.44005,-33.88861,266.7 18.44055,-33.88916,259.08000000000004 18.44094,-33.88976,251.46 18.44112,-33.89022,243.84 18.44124,-33.89082,236.22 18.44117,-33.89131,228.60000000000002 18.44101,-33.8917,220.98000000000002 18.44055,-33.89209,213.36 18.43998,-33.89231,213.36 18.43935,-33.89236,205.74 18.43866,-33.89231,190.5 18.43798,-33.89227,182.88 18.43746,-33.89227,175.26000000000002 18.43696,-33.89227,167.64000000000001 18.43635,-33.89223,167.64000000000001 18.43584,-33.89223,160.02 18.43528,-33.89223,152.4 18.43472,-33.89223,137.16 18.4342,-33.89231,121.92 18.43369,-33.89254,114.30000000000001 18.43328,-33.89278,99.06 18.43287,-33.8931,91.44 18.43248,-33.89343,76.2 18.43208,-33.89384,68.58 18.43174,-33.89426,60.96 18.43147,-33.89465,53.34 18.43114,-33.89507,45.72 18.43091,-33.89539,38.1 18.43069,-33.89566,30.48 18.43042,-33.89599,22.86 18.43029,-33.89621,22.86 18.43008,-33.89645,22.86 18.42957,-33.89722,15.24 18.42929,-33.89754,7.62 18.42894,-33.89799,0 18.42867,-33.89827,0 18.42839,-33.89854,0 18.42819,-33.89878,0 18.42788,-33.89905,0 18.42768,-33.89929,0 18.42768,-33.89952,0 18.42766,-33.89978,0 18.43454,-33.89734,45.72 18.43689,-33.89613,60.96 18.43752,-33.89566,68.58 18.43809,-33.89496,76.2 18.43848,-33.89429,83.82000000000001 18.43878,-33.89357,91.44 18.43893,-33.89287,91.44 18.43901,-33.89217,99.06 18.43921,-33.89127,99.06 18.43912,-33.89031,99.06 18.43893,-33.88925,106.68 18.43866,-33.88826,114.30000000000001 18.43837,-33.88719,121.92 18.43798,-33.88635,129.54000000000002 18.43763,-33.88551,137.16 18.43729,-33.88472,144.78 18.4368,-33.88376,160.02 18.4366,-33.88333,167.64000000000001 18.43601,-33.88234,182.88 18.4354,-33.88132,198.12 18.43489,-33.88055,205.74 18.43439,-33.87982,213.36 18.43403,-33.87932,220.98000000000002 18.43332,-33.87849,228.60000000000002 18.4326,-33.87765,236.22 18.43192,-33.87698,243.84 18.43134,-33.87643,243.84 18.43052,-33.87575,251.46 18.42991,-33.87523,259.08000000000004 18.42906,-33.87456,259.08000000000004 18.42825,-33.87406,266.7 18.42738,-33.87355,266.7 18.42659,-33.87309,274.32 18.4257,-33.87268,281.94 18.42464,-33.8722,297.18 18.42368,-33.87177,312.42 18.42287,-33.87146,327.66 18.42207,-33.87113,335.28000000000003 18.42133,-33.8708,342.90000000000003 18.42037,-33.87048,358.14000000000004 18.41959,-33.87021,365.76 18.41858,-33.86996,373.38 18.41774,-33.86975,373.38 18.41695,-33.86961,381 18.416,-33.8695,388.62 18.41516,-33.86943,396.24 18.41438,-33.86938,403.86 18.41342,-33.86934,403.86 18.41257,-33.86941,411.48 18.4116,-33.86945,419.1 18.41096,-33.86952,419.1 18.40994,-33.86959,426.72 18.40897,-33.86969,434.34000000000003 18.40788,-33.86983,441.96000000000004 18.40686,-33.86998,441.96000000000004 18.40599,-33.87011,449.58000000000004 18.40513,-33.87029,457.20000000000005 18.4045,-33.87043,464.82000000000005 18.40359,-33.87066,472.44 18.4026,-33.87094,480.06 18.40164,-33.87127,495.3 18.4009,-33.8715,502.92 18.39997,-33.87181,510.54 18.39912,-33.8721,518.1600000000001 18.39829,-33.87236,525.78 18.39746,-33.87267,541.02 18.39672,-33.87296,548.64 18.39586,-33.87327,556.26 18.39512,-33.87355,563.88 18.39408,-33.87396,571.5 18.39336,-33.87428,571.5 18.39266,-33.87462,579.12 18.39197,-33.87499,586.74 18.39111,-33.87538,586.74 18.39038,-33.8757,594.36 18.38954,-33.87611,594.36 18.38881,-33.87648,601.98 18.38803,-33.87689,601.98 18.38739,-33.87723,609.6 18.38657,-33.87767,609.6 18.38591,-33.87802,617.22 18.38522,-33.87835,617.22 18.38436,-33.87881,624.84 18.38366,-33.87923,632.46 18.38299,-33.87955,640.08 18.3823,-33.87997,640.08 18.3815,-33.88039,647.7 18.38086,-33.88074,655.32 18.37985,-33.88124,670.5600000000001 18.37923,-33.88156,678.1800000000001 18.37841,-33.88198,693.4200000000001 18.37784,-33.8823,701.0400000000001 18.37704,-33.88271,716.2800000000001 18.37643,-33.88307,723.9000000000001 18.37566,-33.88346,731.52 18.37503,-33.8838,739.14 18.37412,-33.8843,746.76 18.3736,-33.88467,754.38 18.3729,-33.88509,762 18.37229,-33.88547,762 18.37154,-33.88598,762 18.37093,-33.88637,769.62 18.37029,-33.88682,769.62 18.36931,-33.88752,777.24 18.36868,-33.88798,784.86 18.36805,-33.88845,784.86 18.3674,-33.88893,792.48 18.36662,-33.88962,800.1 18.36599,-33.89012,800.1 18.36544,-33.89063,800.1 18.36482,-33.89113,800.1 18.36405,-33.89175,800.1 18.36348,-33.89227,800.1 18.36279,-33.89287,807.72 18.36219,-33.89342,807.72 18.36164,-33.89389,807.72 18.3609,-33.89456,807.72 18.36017,-33.89516,807.72 18.35961,-33.89566,807.72 18.359,-33.89621,807.72 18.35838,-33.89678,807.72 18.35764,-33.89743,807.72 18.35701,-33.89804,807.72 18.35655,-33.89846,807.72 18.35587,-33.89911,807.72 18.3553,-33.8996,807.72 18.35466,-33.90027,800.1 18.35403,-33.90092,800.1 18.35339,-33.90161,800.1 18.35283,-33.90225,807.72 18.35232,-33.90288,807.72 18.35192,-33.90334,807.72 18.35132,-33.90404,807.72 18.35081,-33.90477,807.72 18.35031,-33.90541,807.72 18.34974,-33.90628,807.72 18.34934,-33.90688,807.72 18.34891,-33.90747,807.72 18.34848,-33.90818,807.72 18.34818,-33.90871,807.72 18.34773,-33.90948,807.72 18.3474,-33.91005,807.72 18.34694,-33.91084,807.72 18.3466,-33.91149,807.72 18.34625,-33.91214,807.72 18.34591,-33.91279,807.72 18.34551,-33.91363,800.1 18.34522,-33.91433,800.1 18.34492,-33.91498,800.1 18.34448,-33.91582,800.1 18.3442,-33.91653,800.1 18.34392,-33.91713,800.1 18.34352,-33.91795,800.1 18.34322,-33.91861,800.1 18.34285,-33.91956,800.1 18.34252,-33.9202,800.1 18.34224,-33.92088,807.72 18.34201,-33.92139,807.72 18.3415,-33.92234,807.72 18.34111,-33.92317,807.72 18.34076,-33.92392,807.72 18.34036,-33.92471,800.1 18.33999,-33.92542,800.1 18.33887,-33.92784,800.1 18.33778,-33.92997,800.1 18.33738,-33.93076,800.1 18.33697,-33.93155,800.1 18.33657,-33.93228,800.1 18.3359,-33.93375,800.1 18.33551,-33.93452,800.1 18.33509,-33.93537,807.72 18.33478,-33.93594,807.72 18.33441,-33.93677,815.34 18.33405,-33.93759,815.34 18.33366,-33.9384,815.34 18.33344,-33.93887,815.34 18.33298,-33.93975,807.72 18.33258,-33.94049,807.72 18.33218,-33.94133,807.72 18.33178,-33.94212,807.72 18.33138,-33.94291,807.72 18.33102,-33.94363,807.72 18.33035,-33.94496,815.34 18.33002,-33.94574,807.72 18.32962,-33.94652,807.72 18.32937,-33.94724,800.1 18.32903,-33.9479,800.1 18.32878,-33.94853,792.48 18.32839,-33.9494,800.1 18.328,-33.95027,800.1 18.32771,-33.95097,807.72 18.32749,-33.95151,807.72 18.32714,-33.95241,815.34 18.32685,-33.95306,815.34 18.32654,-33.95398,822.96 18.32623,-33.95478,822.96 18.32598,-33.95567,830.58 18.32571,-33.95646,830.58 18.32542,-33.9573,830.58 18.32525,-33.95796,830.58 18.32491,-33.95897,830.58 18.32474,-33.95967,830.58 18.32458,-33.96021,830.58 18.32435,-33.96112,830.58 18.32422,-33.96181,830.58 18.32402,-33.96259,830.58 18.32385,-33.96336,830.58 18.32374,-33.96405,830.58 18.32363,-33.96487,830.58 18.32348,-33.96572,830.58 18.32335,-33.96657,830.58 18.32318,-33.96771,830.58 18.32314,-33.96847,822.96 18.32302,-33.96912,822.96 18.32301,-33.97,822.96 18.32295,-33.97073,822.96 18.32301,-33.9716,822.96 18.32312,-33.97261,815.34 18.32318,-33.9733,815.34 18.32331,-33.97396,815.34 18.32348,-33.97494,815.34 18.32396,-33.97691,815.34 18.32468,-33.97932,815.34 18.32548,-33.98192,815.34 18.32565,-33.98257,815.34 18.32605,-33.98365,815.34 18.32643,-33.98451,815.34 18.32671,-33.9852,815.34 18.32697,-33.98583,807.72 18.32726,-33.98648,807.72 18.3276,-33.98723,807.72 18.328,-33.98793,800.1 18.32839,-33.98872,800.1 18.32867,-33.98932,800.1 18.32901,-33.98991,800.1 18.32945,-33.99069,800.1 18.3299,-33.99138,792.48 18.33024,-33.99197,792.48 18.33063,-33.99266,792.48 18.33097,-33.99321,792.48 18.33143,-33.99398,800.1 18.33181,-33.99458,800.1 18.3322,-33.99513,792.48 18.33271,-33.99596,792.48 18.33303,-33.99649,792.48 18.33355,-33.99724,792.48 18.33395,-33.99784,800.1 18.33447,-33.99845,800.1 18.33506,-33.99907,800.1 18.33549,-33.99957,800.1 18.33607,-34.00017,800.1 18.33652,-34.00068,792.48 18.3371,-34.00119,800.1 18.33773,-34.0018,800.1 18.33837,-34.00237,807.72 18.33904,-34.00291,807.72 18.33977,-34.00346,807.72 18.34044,-34.00397,807.72 18.34116,-34.00441,807.72 18.34184,-34.00484,807.72 18.34276,-34.00534,815.34 18.34375,-34.0058,815.34 18.34448,-34.00616,815.34 18.34539,-34.00655,807.72 18.34616,-34.00681,807.72 18.34682,-34.00702,807.72 18.34774,-34.00729,807.72 18.34868,-34.00749,807.72 18.34947,-34.00772,807.72 18.35032,-34.00795,800.1 18.3512,-34.00822,800.1 18.35205,-34.0085,800.1 18.353,-34.00883,800.1 18.35392,-34.00911,800.1 18.35468,-34.00932,800.1 18.35552,-34.00955,800.1 18.35638,-34.00976,792.48 18.35712,-34.00995,792.48 18.3581,-34.01018,792.48 18.35928,-34.01042,800.1 18.36012,-34.0106,800.1 18.36096,-34.01074,800.1 18.36191,-34.01093,807.72 18.36258,-34.01102,807.72 18.3637,-34.01111,815.34 18.36468,-34.0112,822.96 18.36578,-34.01129,822.96 18.36685,-34.01139,830.58 18.36796,-34.01147,830.58 18.3688,-34.01153,830.58 18.36971,-34.01162,830.58 18.37065,-34.0117,822.96 18.37172,-34.01176,815.34 18.37284,-34.01184,807.72 18.37372,-34.0119,807.72 18.3748,-34.01198,800.1 18.37561,-34.012,792.48 18.37648,-34.01202,784.86 18.3795,-34.01218,769.62 18.38018,-34.01225,769.62 18.38125,-34.0123,769.62 18.38226,-34.01234,762 18.38327,-34.01242,762 18.38402,-34.01242,762 18.38484,-34.01248,762 18.38562,-34.01251,762 18.38663,-34.01257,762 18.38734,-34.0126,762 18.3882,-34.01262,762 18.38915,-34.01266,762 18.39008,-34.0127,762 18.39088,-34.0127,754.38 18.39151,-34.01274,754.38 18.39268,-34.0128,762 18.39369,-34.01283,762 18.39455,-34.01283,762 18.39554,-34.01285,754.38 18.39643,-34.01288,754.38 18.39746,-34.01288,754.38 18.39834,-34.01289,754.38 18.4012,-34.01294,754.38 18.40462,-34.01294,762 18.40736,-34.01297,769.62 18.41005,-34.01302,769.62 18.41246,-34.01307,784.86 18.41492,-34.01316,800.1 18.41578,-34.01325,807.72 18.41652,-34.0133,807.72 18.41726,-34.01339,807.72 18.41819,-34.01349,800.1 18.41904,-34.01358,800.1 18.41992,-34.01372,800.1 18.42082,-34.01381,800.1 18.42155,-34.0139,800.1 18.42236,-34.01395,800.1 18.42318,-34.01404,800.1 18.42424,-34.01413,800.1 18.42508,-34.01418,800.1 18.42587,-34.01422,792.48 18.42676,-34.01423,792.48 18.42783,-34.01422,792.48 18.42871,-34.01423,792.48 18.42945,-34.01418,792.48 18.43054,-34.01409,792.48 18.43157,-34.01395,792.48 18.43243,-34.01381,792.48 18.43332,-34.01358,800.1 18.43444,-34.01335,800.1 18.43506,-34.01316,800.1 18.43637,-34.01283,800.1 18.43723,-34.01255,800.1 18.43826,-34.01223,800.1 18.43921,-34.01189,800.1 18.44027,-34.01152,800.1 18.4413,-34.01116,800.1 18.44223,-34.01079,800.1 18.4433,-34.01041,800.1 18.44425,-34.01006,792.48 18.44524,-34.00967,792.48 18.44633,-34.00928,792.48 18.44748,-34.00879,792.48 18.44862,-34.00832,792.48 18.44948,-34.00799,792.48 18.45062,-34.00753,792.48 18.45159,-34.00713,792.48 18.45251,-34.00669,792.48 18.45367,-34.00621,800.1 18.45457,-34.00589,800.1 18.45574,-34.00548,792.48 18.4567,-34.00516,792.48 18.45776,-34.00484,784.86 18.45869,-34.0045,777.24 18.4595,-34.00424,769.62 18.46046,-34.00389,769.62 18.46161,-34.00348,762 18.46258,-34.00315,754.38 18.46353,-34.00278,746.76 18.46437,-34.00237,739.14 18.46527,-34.00195,739.14 18.46639,-34.00136,739.14 18.46727,-34.00087,731.52 18.46807,-34.0004,731.52 18.46882,-33.99989,731.52 18.46985,-33.9992,723.9000000000001 18.47065,-33.99863,723.9000000000001 18.47138,-33.99811,723.9000000000001 18.47233,-33.99747,716.2800000000001 18.47301,-33.99696,716.2800000000001 18.47401,-33.99628,708.6600000000001 18.47463,-33.99582,708.6600000000001 18.47563,-33.99505,701.0400000000001 18.47648,-33.9944,693.4200000000001 18.47729,-33.9937,685.8000000000001 18.47792,-33.99305,685.8000000000001 18.47895,-33.99207,678.1800000000001 18.47958,-33.99142,678.1800000000001 18.48021,-33.99068,670.5600000000001 18.48072,-33.98997,662.94 18.48146,-33.989,662.94 18.48203,-33.98808,655.32 18.48276,-33.98694,655.32 18.4833,-33.98597,647.7 18.48381,-33.98504,647.7 18.48438,-33.98387,640.08 18.48478,-33.983,640.08 18.48523,-33.98204,640.08 18.48564,-33.98095,640.08 18.48598,-33.98006,632.46 18.48635,-33.97893,632.46 18.48673,-33.97778,632.46 18.48707,-33.97671,632.46 18.48736,-33.97564,632.46 18.48759,-33.97494,632.46 18.48792,-33.9738,624.84 18.4882,-33.97293,617.22 18.48842,-33.97206,617.22 18.48873,-33.97094,609.6 18.4889,-33.97005,609.6 18.48919,-33.96898,609.6 18.48936,-33.96796,601.98 18.48954,-33.96693,594.36 18.4897,-33.96591,594.36 18.48982,-33.96506,586.74 18.48993,-33.96414,586.74 18.49005,-33.96307,579.12 18.49016,-33.96213,571.5 18.49027,-33.96089,563.88 18.49033,-33.95979,556.26 18.49038,-33.95888,556.26 18.49045,-33.9579,548.64 18.49051,-33.95688,548.64 18.49049,-33.95586,548.64 18.49051,-33.95478,541.02 18.49045,-33.95371,541.02 18.49038,-33.95274,533.4 18.49027,-33.95178,533.4 18.4901,-33.9505,525.78 18.48999,-33.94949,525.78 18.48982,-33.94859,525.78 18.48959,-33.94748,518.1600000000001 18.48942,-33.94654,510.54 18.48915,-33.94537,510.54 18.48885,-33.9444,502.92 18.48859,-33.94336,495.3 18.48825,-33.94226,487.68 18.48786,-33.94116,480.06 18.48758,-33.94025,472.44 18.48724,-33.93938,472.44 18.48685,-33.93846,464.82000000000005 18.4864,-33.93741,457.20000000000005 18.48607,-33.93649,457.20000000000005 18.48553,-33.93542,441.96000000000004 18.48501,-33.93435,434.34000000000003 18.48466,-33.93365,434.34000000000003 18.48416,-33.93269,426.72 18.48358,-33.9316,426.72 18.48301,-33.93058,426.72 18.48248,-33.92967,426.72 18.48186,-33.92857,419.1 18.48136,-33.9278,419.1 18.48066,-33.92662,419.1 18.48007,-33.92564,419.1 18.47963,-33.9249,411.48 18.47895,-33.92378,411.48 18.47832,-33.92285,403.86 18.47771,-33.92194,396.24 18.47694,-33.92089,396.24 18.47648,-33.92029,388.62 18.47558,-33.91905,381 18.47491,-33.91814,381 18.47414,-33.91722,373.38 18.47328,-33.91619,373.38 18.4726,-33.91545,373.38 18.47162,-33.91442,373.38 18.47099,-33.91374,373.38 18.47031,-33.91307,365.76 18.46933,-33.91214,358.14000000000004 18.46853,-33.9113,358.14000000000004 18.46785,-33.91061,350.52000000000004 18.46693,-33.90977,350.52000000000004 18.46628,-33.90912,342.90000000000003 18.46538,-33.90829,342.90000000000003 18.46465,-33.90761,335.28000000000003 18.46384,-33.90688,327.66 18.4631,-33.90623,320.04 18.46213,-33.90536,320.04 18.46135,-33.90472,312.42 18.46028,-33.90385,304.8 18.45955,-33.90331,304.8 18.45869,-33.9026,304.8 18.45795,-33.90199,304.8 18.45698,-33.90125,304.8 18.45589,-33.90041,312.42 18.45514,-33.89985,304.8 18.45446,-33.89929,304.8 18.45371,-33.89869,297.18 18.45263,-33.8978,289.56 18.45187,-33.89717,289.56 18.45102,-33.8965,281.94 18.45016,-33.89585,274.32 18.44942,-33.89524,266.7 18.44862,-33.89468,259.08000000000004 18.4477,-33.89403,251.46 18.44689,-33.89351,251.46 18.44593,-33.89301,243.84 18.44498,-33.89255,236.22 18.44414,-33.89218,228.60000000000002 18.44336,-33.89189,220.98000000000002 18.44238,-33.89161,213.36 18.44135,-33.89143,205.74 18.44015,-33.89133,198.12 18.43935,-33.89133,190.5 18.43832,-33.89138,175.26000000000002 18.43752,-33.89149,167.64000000000001 18.4368,-33.89159,160.02 18.4362,-33.89166,160.02 18.43529,-33.8918,152.4 18.43439,-33.89191,144.78 18.43366,-33.89204,137.16 18.43294,-33.89217,129.54000000000002 18.43231,-33.89232,129.54000000000002 18.43158,-33.89246,121.92 18.43094,-33.89264,114.30000000000001 18.43042,-33.89282,106.68 18.42979,-33.89319,99.06 18.42939,-33.89347,91.44 18.429,-33.89383,83.82000000000001 18.42867,-33.89429,76.2 18.42842,-33.89478,68.58 18.42816,-33.8952,60.96 18.42808,-33.89548,53.34 18.42785,-33.89608,38.1 18.42777,-33.89648,38.1 18.42772,-33.89676,30.48 18.42766,-33.89717,22.86 18.42762,-33.89743,15.24 18.42755,-33.89777,15.24 18.42749,-33.89809,7.62 18.42749,-33.89841,7.62 18.42751,-33.89869,0 18.42751,-33.89892,0 18.42755,-33.89919,0 18.4276,-33.89941,0 18.42762,-33.89962,0 18.42749,-33.90005,0 18.42732,-33.90038,0 18.42716,-33.90064,0 18.42716,-33.90092,0 18.42721,-33.90115,0
        </coordinates>
      </LineString>
    </Placemark>
  </Document>
</kml>