<?xml version="1.0" encoding="UTF-8"?>
<kml xmlns="http://www.opengis.net/kml/2.2">
  <Document>
    <name>FR24 ZSHGD 3e0f8958 - Optimised</name>
    <description><![CDATA[Optimised flight path with 1 points (decimated from 1 original points). Source format: Standard KML]]></description>
    
    <Style id="flightPath">
      <LineStyle>
        <color>ff0000ff</color>
        <width>3</width>
      </LineStyle>
    </Style>
    
    <Placemark>
      <name>Flight Path</name>
      <description><![CDATA[Source: ADS-B
Start (SAST): 2026-01-26 10:25:07
End (SAST): 2026-01-26 18:00:24
Points: 3201]]></description>
      <styleUrl>#flightPath</styleUrl>
      <LineString>
        <extrude>1</extrude>
        <tessellate>1</tessellate>
        <altitudeMode>absolute</altitudeMode>
        <coordinates>
          18.42777,-33.89841,45.72 18.42906,-33.89658,68.58 18.43037,-33.89492,91.44 18.43097,-33.89415,99.06 18.43163,-33.89357,99.06 18.43231,-33.89301,99.06 18.43321,-33.89236,99.06 18.43399,-33.89186,106.68 18.43478,-33.89136,106.68 18.43586,-33.89068,114.30000000000001 18.43674,-33.88985,129.54000000000002 18.43724,-33.88907,137.16 18.43747,-33.88811,144.78 18.43735,-33.88733,144.78 18.437,-33.88644,152.4 18.43666,-33.8857,160.02 18.43629,-33.88513,167.64000000000001 18.43573,-33.8844,175.26000000000002 18.43512,-33.88379,182.88 18.4345,-33.88321,182.88 18.43382,-33.88266,190.5 18.43306,-33.88211,198.12 18.43225,-33.8816,205.74 18.43145,-33.88118,205.74 18.43065,-33.88081,213.36 18.42974,-33.88044,220.98000000000002 18.42871,-33.88011,228.60000000000002 18.42772,-33.87982,228.60000000000002 18.42682,-33.87959,236.22 18.42615,-33.87946,243.84 18.42487,-33.87923,251.46 18.4239,-33.87904,259.08000000000004 18.4229,-33.87895,266.7 18.42184,-33.87886,274.32 18.42121,-33.87881,274.32 18.42009,-33.87881,281.94 18.41927,-33.87881,289.56 18.41824,-33.87886,297.18 18.41723,-33.87891,297.18 18.41639,-33.87895,304.8 18.41533,-33.87909,312.42 18.41463,-33.87918,312.42 18.41349,-33.87941,320.04 18.41257,-33.87965,327.66 18.41166,-33.87993,327.66 18.41063,-33.88021,335.28000000000003 18.40978,-33.88051,342.90000000000003 18.40866,-33.88087,350.52000000000004 18.40782,-33.88115,358.14000000000004 18.40703,-33.88142,358.14000000000004 18.40602,-33.88174,365.76 18.40542,-33.88198,365.76 18.40429,-33.88239,373.38 18.4035,-33.88271,373.38 18.40255,-33.88312,381 18.40165,-33.88353,388.62 18.4007,-33.88403,396.24 18.39998,-33.8844,396.24 18.39896,-33.88499,403.86 18.39823,-33.88541,403.86 18.39739,-33.88591,403.86 18.39644,-33.8866,411.48 18.39581,-33.88705,411.48 18.39489,-33.88775,419.1 18.39415,-33.88826,419.1 18.39306,-33.8891,426.72 18.39231,-33.88961,434.34000000000003 18.39151,-33.89022,434.34000000000003 18.39083,-33.89068,441.96000000000004 18.38991,-33.89138,441.96000000000004 18.38915,-33.89186,441.96000000000004 18.38825,-33.89254,449.58000000000004 18.38745,-33.89305,449.58000000000004 18.38665,-33.89366,449.58000000000004 18.38585,-33.89424,457.20000000000005 18.38484,-33.89502,457.20000000000005 18.38408,-33.89561,457.20000000000005 18.38327,-33.89635,457.20000000000005 18.38254,-33.89699,457.20000000000005 18.38173,-33.89771,464.82000000000005 18.38081,-33.89855,464.82000000000005 18.38007,-33.89923,472.44 18.37934,-33.89983,472.44 18.37852,-33.90064,480.06 18.37772,-33.90139,480.06 18.37704,-33.90204,480.06 18.37635,-33.90279,487.68 18.37549,-33.90372,487.68 18.3748,-33.9044,487.68 18.37423,-33.90506,495.3 18.37351,-33.90582,495.3 18.37273,-33.90669,502.92 18.37212,-33.90739,502.92 18.37133,-33.90829,510.54 18.3706,-33.90912,510.54 18.36988,-33.91,510.54 18.36937,-33.91068,510.54 18.36868,-33.91158,518.1600000000001 18.36813,-33.91223,518.1600000000001 18.36746,-33.9131,525.78 18.36667,-33.91406,525.78 18.36617,-33.9147,525.78 18.36554,-33.91554,525.78 18.36496,-33.91629,533.4 18.36426,-33.91718,533.4 18.36382,-33.91782,533.4 18.36313,-33.9187,541.02 18.36258,-33.91946,541.02 18.36187,-33.92033,541.02 18.3613,-33.92103,548.64 18.3605,-33.92201,548.64 18.35989,-33.92276,548.64 18.35936,-33.9235,556.26 18.35877,-33.92413,556.26 18.35821,-33.9249,563.88 18.35764,-33.92559,563.88 18.35707,-33.92639,563.88 18.35636,-33.92738,563.88 18.35581,-33.92806,571.5 18.35518,-33.92895,571.5 18.35449,-33.92992,571.5 18.35401,-33.93059,571.5 18.35322,-33.93169,571.5 18.35266,-33.93244,579.12 18.35203,-33.93337,579.12 18.35152,-33.93411,579.12 18.35089,-33.93504,579.12 18.35025,-33.93604,586.74 18.34991,-33.93658,586.74 18.34913,-33.93791,586.74 18.34863,-33.93869,586.74 18.34791,-33.93984,594.36 18.34728,-33.94082,594.36 18.34666,-33.94171,594.36 18.34593,-33.94286,601.98 18.34543,-33.94363,601.98 18.3447,-33.94482,601.98 18.34414,-33.94579,601.98 18.34368,-33.94664,601.98 18.34322,-33.94743,609.6 18.34274,-33.9483,609.6 18.34224,-33.94926,609.6 18.34179,-33.95013,617.22 18.34127,-33.95111,617.22 18.34061,-33.95238,624.84 18.34022,-33.95316,624.84 18.33967,-33.95418,632.46 18.33927,-33.95511,632.46 18.33796,-33.95795,632.46 18.33753,-33.95901,632.46 18.33719,-33.95984,632.46 18.33687,-33.96074,632.46 18.33517,-33.96597,647.7 18.33456,-33.96831,647.7 18.33395,-33.97075,647.7 18.33338,-33.97317,647.7 18.33229,-33.97811,647.7 18.33143,-33.98299,655.32 18.33074,-33.98772,662.94 18.33012,-33.99286,670.5600000000001 18.32949,-33.9978,678.1800000000001 18.32945,-33.99861,678.1800000000001 18.32937,-33.99966,685.8000000000001 18.32929,-34.00104,685.8000000000001 18.32926,-34.00171,685.8000000000001 18.32923,-34.00301,693.4200000000001 18.32906,-34.0052,693.4200000000001 18.32897,-34.00613,693.4200000000001 18.32895,-34.00699,701.0400000000001 18.32897,-34.0079,701.0400000000001 18.32912,-34.00905,701.0400000000001 18.3294,-34.01001,701.0400000000001 18.32966,-34.01093,701.0400000000001 18.32994,-34.01181,701.0400000000001 18.33035,-34.01283,708.6600000000001 18.3308,-34.0139,708.6600000000001 18.33115,-34.01479,708.6600000000001 18.33166,-34.01586,716.2800000000001 18.33198,-34.01646,716.2800000000001 18.33254,-34.01756,716.2800000000001 18.3331,-34.01852,716.2800000000001 18.33355,-34.01939,716.2800000000001 18.33412,-34.02042,708.6600000000001 18.33472,-34.0215,708.6600000000001 18.33517,-34.02246,701.0400000000001 18.33557,-34.02319,701.0400000000001 18.33607,-34.02419,693.4200000000001 18.33652,-34.02516,693.4200000000001 18.33708,-34.02635,693.4200000000001 18.3375,-34.02717,693.4200000000001 18.33803,-34.02832,693.4200000000001 18.33842,-34.02914,685.8000000000001 18.3391,-34.03047,685.8000000000001 18.33961,-34.03159,685.8000000000001 18.34002,-34.03252,685.8000000000001 18.34036,-34.03322,685.8000000000001 18.34078,-34.03441,685.8000000000001 18.34128,-34.03578,685.8000000000001 18.34162,-34.03672,685.8000000000001 18.34201,-34.03784,685.8000000000001 18.3424,-34.03894,685.8000000000001 18.3427,-34.03988,685.8000000000001 18.34305,-34.04095,685.8000000000001 18.34333,-34.04198,685.8000000000001 18.34362,-34.04319,685.8000000000001 18.34385,-34.04426,678.1800000000001 18.34414,-34.04519,678.1800000000001 18.34442,-34.04617,678.1800000000001 18.34471,-34.04737,678.1800000000001 18.34482,-34.04836,670.5600000000001 18.34476,-34.04938,670.5600000000001 18.34465,-34.05052,670.5600000000001 18.34459,-34.05153,670.5600000000001 18.34459,-34.05245,662.94 18.34459,-34.05371,662.94 18.3447,-34.05464,662.94 18.34488,-34.05576,662.94 18.34511,-34.05701,662.94 18.34538,-34.05798,662.94 18.3456,-34.0589,662.94 18.34579,-34.05981,662.94 18.34614,-34.06092,655.32 18.34649,-34.06229,655.32 18.34677,-34.06325,655.32 18.34705,-34.06413,655.32 18.34734,-34.06512,647.7 18.34767,-34.06622,647.7 18.34803,-34.06735,647.7 18.34831,-34.06865,647.7 18.34854,-34.06968,640.08 18.34871,-34.07079,640.08 18.34885,-34.07176,640.08 18.34896,-34.07291,640.08 18.34896,-34.07401,640.08 18.34894,-34.07503,640.08 18.34891,-34.07597,632.46 18.34885,-34.07703,632.46 18.34879,-34.07794,640.08 18.3486,-34.0788,640.08 18.34814,-34.07982,647.7 18.34745,-34.08055,655.32 18.3466,-34.08094,670.5600000000001 18.34543,-34.08087,678.1800000000001 18.34481,-34.08037,678.1800000000001 18.34465,-34.07964,678.1800000000001 18.34487,-34.07909,678.1800000000001 18.34545,-34.07847,670.5600000000001 18.34633,-34.0779,670.5600000000001 18.34694,-34.0775,670.5600000000001 18.34791,-34.07703,678.1800000000001 18.34879,-34.07671,678.1800000000001 18.34952,-34.07661,685.8000000000001 18.35048,-34.07671,685.8000000000001 18.35152,-34.07722,678.1800000000001 18.3521,-34.07776,670.5600000000001 18.35255,-34.0784,670.5600000000001 18.35305,-34.07932,662.94 18.3535,-34.08014,662.94 18.3539,-34.08092,655.32 18.35423,-34.08174,655.32 18.35451,-34.08247,647.7 18.35478,-34.08336,640.08 18.35501,-34.08417,632.46 18.35524,-34.08499,632.46 18.35558,-34.08623,624.84 18.35587,-34.08709,617.22 18.35625,-34.08778,617.22 18.35684,-34.08862,609.6 18.35758,-34.08932,609.6 18.35827,-34.0898,609.6 18.35916,-34.0903,609.6 18.35981,-34.09062,609.6 18.36085,-34.09117,601.98 18.36152,-34.09154,601.98 18.36258,-34.09213,594.36 18.36359,-34.09267,586.74 18.3646,-34.09323,579.12 18.36554,-34.09379,579.12 18.36673,-34.09447,571.5 18.3674,-34.09483,571.5 18.36845,-34.09542,563.88 18.36953,-34.09598,563.88 18.3704,-34.09644,556.26 18.37144,-34.09703,556.26 18.37252,-34.09765,556.26 18.37337,-34.09807,556.26 18.37435,-34.09863,556.26 18.37515,-34.09909,556.26 18.37606,-34.09961,556.26 18.37704,-34.10017,556.26 18.37772,-34.1006,556.26 18.37878,-34.1012,556.26 18.37962,-34.1017,563.88 18.38046,-34.1022,556.26 18.38127,-34.10273,556.26 18.38231,-34.1033,556.26 18.3831,-34.10381,563.88 18.38371,-34.10417,563.88 18.38472,-34.10477,563.88 18.38545,-34.10524,563.88 18.38646,-34.10587,556.26 18.38734,-34.1064,556.26 18.38802,-34.10687,556.26 18.38917,-34.10761,556.26 18.39025,-34.10826,556.26 18.39111,-34.1088,556.26 18.39197,-34.10934,556.26 18.39272,-34.1098,563.88 18.39392,-34.11055,563.88 18.39661,-34.11227,563.88 18.39901,-34.11376,563.88 18.40193,-34.11544,563.88 18.40501,-34.11722,571.5 18.40771,-34.11877,586.74 18.41096,-34.12056,586.74 18.41457,-34.1226,586.74 18.41784,-34.12447,586.74 18.42184,-34.12666,586.74 18.4227,-34.12721,586.74 18.42373,-34.12782,579.12 18.4247,-34.12842,579.12 18.42567,-34.12903,579.12 18.42682,-34.12977,571.5 18.42773,-34.13033,571.5 18.42884,-34.13104,563.88 18.42951,-34.13145,563.88 18.43074,-34.13223,563.88 18.43145,-34.13266,563.88 18.43259,-34.13338,563.88 18.43366,-34.13402,563.88 18.43472,-34.13471,556.26 18.43557,-34.13527,556.26 18.43674,-34.13599,556.26 18.43848,-34.13708,548.64 18.43964,-34.13773,548.64 18.44078,-34.13829,548.64 18.44175,-34.13876,541.02 18.44273,-34.13918,541.02 18.44391,-34.13969,541.02 18.44496,-34.14011,541.02 18.44633,-34.14061,533.4 18.44717,-34.14093,533.4 18.44851,-34.14139,533.4 18.44948,-34.14178,533.4 18.45075,-34.1423,533.4 18.45165,-34.14276,533.4 18.45263,-34.14346,533.4 18.45337,-34.14411,533.4 18.454,-34.14476,533.4 18.45451,-34.14555,533.4 18.45491,-34.14653,533.4 18.45501,-34.14752,533.4 18.45479,-34.14835,533.4 18.45446,-34.14904,533.4 18.45394,-34.14979,541.02 18.45339,-34.15036,563.88 18.4528,-34.15044,579.12 18.45245,-34.15002,571.5 18.45263,-34.14923,548.64 18.45303,-34.14849,541.02 18.45344,-34.14775,533.4 18.45389,-34.14702,533.4 18.4544,-34.14602,533.4 18.4549,-34.14519,533.4 18.45552,-34.14418,533.4 18.45597,-34.14345,533.4 18.45664,-34.1424,533.4 18.45732,-34.14137,533.4 18.45782,-34.14061,541.02 18.45849,-34.13965,541.02 18.45909,-34.13871,548.64 18.45967,-34.13786,548.64 18.46024,-34.13699,548.64 18.46084,-34.13612,548.64 18.46129,-34.13535,548.64 18.46201,-34.13433,548.64 18.46264,-34.13338,548.64 18.46309,-34.13269,548.64 18.46378,-34.13163,556.26 18.46572,-34.12862,556.26 18.46756,-34.12586,556.26 18.4687,-34.12423,563.88 18.46947,-34.12331,563.88 18.47031,-34.12233,563.88 18.47122,-34.12135,571.5 18.47194,-34.12056,571.5 18.47256,-34.11978,579.12 18.47318,-34.11896,586.74 18.47374,-34.11818,586.74 18.47429,-34.11717,586.74 18.47488,-34.11613,594.36 18.47528,-34.1153,594.36 18.47575,-34.11424,601.98 18.47597,-34.11334,609.6 18.47609,-34.11232,609.6 18.47609,-34.1115,609.6 18.47592,-34.11058,609.6 18.47563,-34.10948,601.98 18.4754,-34.10868,601.98 18.47502,-34.10756,601.98 18.47466,-34.10664,601.98 18.47429,-34.1055,601.98 18.47396,-34.10458,601.98 18.47357,-34.10335,601.98 18.47334,-34.10262,601.98 18.47301,-34.10143,601.98 18.47277,-34.10054,601.98 18.47248,-34.09937,601.98 18.47225,-34.09844,601.98 18.47205,-34.09767,601.98 18.47185,-34.09639,601.98 18.47172,-34.09552,601.98 18.47155,-34.09438,601.98 18.47138,-34.09346,601.98 18.47122,-34.09244,601.98 18.4711,-34.09145,601.98 18.47099,-34.09044,601.98 18.47088,-34.08929,609.6 18.47076,-34.08815,609.6 18.47065,-34.08719,609.6 18.47048,-34.08601,609.6 18.47037,-34.08513,617.22 18.47019,-34.08406,617.22 18.47004,-34.08311,617.22 18.46991,-34.08224,617.22 18.46976,-34.08138,624.84 18.46959,-34.08018,624.84 18.46947,-34.07927,624.84 18.46933,-34.07829,624.84 18.46916,-34.07722,624.84 18.46897,-34.07625,617.22 18.4688,-34.07529,617.22 18.46863,-34.07419,617.22 18.46842,-34.07321,617.22 18.46824,-34.07204,617.22 18.46813,-34.07103,617.22 18.46796,-34.07016,617.22 18.46779,-34.06916,617.22 18.46757,-34.06796,617.22 18.46739,-34.06711,624.84 18.46716,-34.06595,632.46 18.46701,-34.06512,632.46 18.46684,-34.06412,624.84 18.46656,-34.06297,624.84 18.46634,-34.06197,624.84 18.46611,-34.06105,624.84 18.46584,-34.06013,624.84 18.4655,-34.05873,617.22 18.46527,-34.0578,617.22 18.46504,-34.05683,617.22 18.46481,-34.05594,609.6 18.46454,-34.05482,609.6 18.46437,-34.05386,609.6 18.46413,-34.05273,609.6 18.46384,-34.05143,609.6 18.46367,-34.05059,617.22 18.46348,-34.04933,617.22 18.46325,-34.04828,609.6 18.46309,-34.04732,609.6 18.46297,-34.04649,609.6 18.4628,-34.0453,609.6 18.46264,-34.0444,609.6 18.46252,-34.04319,609.6 18.46241,-34.04226,609.6 18.46236,-34.04123,609.6 18.4623,-34.04027,609.6 18.46224,-34.03904,601.98 18.46219,-34.03816,601.98 18.46218,-34.03685,601.98 18.46213,-34.03596,601.98 18.46212,-34.03504,601.98 18.46208,-34.03404,601.98 18.46202,-34.03267,601.98 18.46202,-34.03175,601.98 18.46196,-34.03052,601.98 18.46191,-34.02956,601.98 18.46189,-34.02857,601.98 18.46178,-34.02531,594.36 18.46168,-34.02223,601.98 18.46167,-34.0201,601.98 18.46167,-34.01917,601.98 18.46168,-34.01706,601.98 18.46168,-34.01624,609.6 18.46172,-34.01507,609.6 18.4618,-34.01413,609.6 18.4618,-34.01321,609.6 18.46189,-34.01209,609.6 18.46191,-34.01129,617.22 18.46196,-34.01033,617.22 18.46202,-34.00914,617.22 18.46207,-34.00827,624.84 18.46213,-34.00731,624.84 18.46224,-34.00618,624.84 18.4623,-34.00548,632.46 18.46235,-34.00446,632.46 18.46247,-34.00356,640.08 18.46258,-34.00232,640.08 18.4627,-34.00138,640.08 18.4628,-34.00044,640.08 18.46292,-33.99944,640.08 18.46304,-33.9985,640.08 18.46314,-33.99756,640.08 18.46327,-33.99673,640.08 18.46348,-33.99559,640.08 18.4637,-33.99445,640.08 18.46381,-33.99362,640.08 18.46404,-33.99261,640.08 18.46424,-33.99137,640.08 18.46437,-33.99051,640.08 18.46464,-33.98937,640.08 18.46481,-33.98844,640.08 18.46498,-33.98751,640.08 18.46579,-33.98351,647.7 18.46607,-33.98262,655.32 18.46645,-33.98149,655.32 18.46699,-33.98057,655.32 18.4674,-33.97998,655.32 18.46819,-33.97894,662.94 18.4688,-33.9781,662.94 18.46939,-33.97708,662.94 18.46981,-33.97623,662.94 18.4702,-33.97508,662.94 18.47043,-33.97394,662.94 18.47048,-33.97317,655.32 18.47043,-33.97215,655.32 18.47031,-33.97112,655.32 18.47009,-33.97014,655.32 18.4697,-33.9689,647.7 18.46925,-33.96776,647.7 18.46888,-33.96679,647.7 18.46847,-33.96579,640.08 18.46796,-33.96469,640.08 18.46756,-33.96381,632.46 18.46712,-33.96281,632.46 18.46659,-33.96167,632.46 18.46613,-33.96083,632.46 18.46572,-33.96002,624.84 18.46499,-33.95865,624.84 18.46443,-33.95764,624.84 18.4639,-33.95669,624.84 18.4635,-33.9559,624.84 18.46297,-33.95499,624.84 18.46241,-33.95403,624.84 18.46191,-33.9532,617.22 18.46124,-33.9521,617.22 18.46075,-33.95129,617.22 18.46011,-33.95013,609.6 18.45961,-33.94929,609.6 18.45905,-33.94826,601.98 18.4586,-33.94753,601.98 18.4581,-33.94661,601.98 18.45753,-33.9456,594.36 18.45714,-33.94496,594.36 18.45657,-33.94394,586.74 18.45602,-33.94299,579.12 18.45557,-33.94217,579.12 18.45509,-33.94133,571.5 18.45457,-33.9404,563.88 18.454,-33.93933,556.26 18.45356,-33.93855,556.26 18.453,-33.93755,548.64 18.45257,-33.93677,541.02 18.45205,-33.93575,533.4 18.45154,-33.93481,525.78 18.45115,-33.93402,525.78 18.45068,-33.93314,518.1600000000001 18.45016,-33.93216,510.54 18.44971,-33.93132,502.92 18.44913,-33.93031,495.3 18.44868,-33.9295,487.68 18.44823,-33.92876,487.68 18.4477,-33.92778,480.06 18.44719,-33.9268,464.82000000000005 18.44662,-33.92583,457.20000000000005 18.44616,-33.9248,449.58000000000004 18.44576,-33.92406,441.96000000000004 18.4453,-33.92313,434.34000000000003 18.44476,-33.92207,426.72 18.44439,-33.92126,419.1 18.44397,-33.92038,411.48 18.44352,-33.91924,403.86 18.44319,-33.91832,396.24 18.44285,-33.91736,388.62 18.44255,-33.91656,381 18.44227,-33.91554,373.38 18.4421,-33.91465,365.76 18.44193,-33.91377,358.14000000000004 18.44181,-33.91284,350.52000000000004 18.44173,-33.91196,350.52000000000004 18.44173,-33.91095,342.90000000000003 18.44167,-33.91008,335.28000000000003 18.44173,-33.90912,327.66 18.44181,-33.90828,320.04 18.44198,-33.9073,320.04 18.44212,-33.9066,312.42 18.44244,-33.90558,304.8 18.44267,-33.90488,297.18 18.44296,-33.90413,289.56 18.4433,-33.90335,289.56 18.44358,-33.90232,281.94 18.44352,-33.90152,281.94 18.4433,-33.90106,281.94 18.44274,-33.90065,274.32 18.44221,-33.90055,266.7 18.44151,-33.9006,251.46 18.44089,-33.90065,236.22 18.44004,-33.90074,228.60000000000002 18.43932,-33.90079,213.36 18.43865,-33.90083,205.74 18.43758,-33.90088,190.5 18.43678,-33.90083,175.26000000000002 18.43629,-33.90083,167.64000000000001 18.43552,-33.90078,160.02 18.43472,-33.9007,152.4 18.43403,-33.90064,137.16 18.43355,-33.9006,129.54000000000002 18.43266,-33.90051,114.30000000000001 18.43214,-33.90042,106.68 18.43163,-33.90036,99.06 18.43114,-33.90033,91.44 18.43065,-33.90022,83.82000000000001 18.43002,-33.90013,68.58 18.42957,-33.90019,60.96 18.42916,-33.90036,45.72 18.42895,-33.90047,38.1 18.42859,-33.90051,30.48 18.42833,-33.90038,30.48 18.42802,-33.90013,15.24 18.42779,-33.8999,7.62 18.42756,-33.89962,15.24 18.42728,-33.89934,15.24 18.42716,-33.89911,22.86 18.4271,-33.89882,22.86 18.4271,-33.89841,38.1 18.42733,-33.8978,45.72 18.42755,-33.89745,53.34 18.42785,-33.89701,60.96 18.42836,-33.89631,68.58 18.42872,-33.89584,68.58 18.42917,-33.8952,76.2 18.42951,-33.89473,83.82000000000001 18.43001,-33.8941,91.44 18.43041,-33.8936,99.06 18.43085,-33.89305,99.06 18.43142,-33.89236,106.68 18.43185,-33.8918,114.30000000000001 18.43237,-33.89122,121.92 18.43287,-33.89063,129.54000000000002 18.43332,-33.89008,137.16 18.43388,-33.88934,144.78 18.43427,-33.88875,152.4 18.43456,-33.88815,160.02 18.43489,-33.88737,167.64000000000001 18.43506,-33.88677,175.26000000000002 18.43512,-33.88617,182.88 18.43511,-33.88541,190.5 18.435,-33.88486,198.12 18.43489,-33.88416,205.74 18.43472,-33.88365,213.36 18.43444,-33.88312,220.98000000000002 18.43403,-33.88244,228.60000000000002 18.4336,-33.88197,236.22 18.43323,-33.8816,236.22 18.43265,-33.88115,243.84 18.43214,-33.88083,251.46 18.43158,-33.88046,259.08000000000004 18.43082,-33.88011,266.7 18.43025,-33.87988,266.7 18.42945,-33.87964,274.32 18.42878,-33.87946,281.94 18.42788,-33.87936,281.94 18.4271,-33.87932,289.56 18.4262,-33.87932,289.56 18.42545,-33.87932,289.56 18.42447,-33.87941,297.18 18.42356,-33.87946,304.8 18.42253,-33.87955,304.8 18.42172,-33.87959,312.42 18.42088,-33.87968,312.42 18.42004,-33.87978,320.04 18.41904,-33.87993,320.04 18.41795,-33.88007,327.66 18.41718,-33.88014,327.66 18.41623,-33.8803,335.28000000000003 18.41516,-33.88046,342.90000000000003 18.41446,-33.88058,350.52000000000004 18.41343,-33.88072,358.14000000000004 18.41251,-33.88086,358.14000000000004 18.41174,-33.88097,365.76 18.41073,-33.88115,365.76 18.40982,-33.88132,373.38 18.40905,-33.88147,373.38 18.40821,-33.88165,381 18.40719,-33.88184,381 18.40642,-33.88202,388.62 18.40557,-33.8822,388.62 18.40473,-33.88239,396.24 18.40387,-33.88258,403.86 18.40294,-33.8828,403.86 18.40193,-33.883,411.48 18.40115,-33.88321,419.1 18.40033,-33.88342,419.1 18.3993,-33.88374,426.72 18.39846,-33.88403,434.34000000000003 18.39773,-33.88431,434.34000000000003 18.39694,-33.88458,441.96000000000004 18.39598,-33.88491,441.96000000000004 18.39498,-33.88531,449.58000000000004 18.3942,-33.88565,449.58000000000004 18.39347,-33.88596,457.20000000000005 18.39263,-33.88641,457.20000000000005 18.39167,-33.88687,464.82000000000005 18.391,-33.88728,464.82000000000005 18.39008,-33.88779,472.44 18.38934,-33.88821,480.06 18.38865,-33.88863,480.06 18.38802,-33.889,487.68 18.38717,-33.88961,487.68 18.38636,-33.89022,495.3 18.38573,-33.89068,495.3 18.385,-33.89127,502.92 18.38439,-33.89177,502.92 18.38356,-33.89236,510.54 18.38299,-33.89287,510.54 18.3823,-33.89338,510.54 18.38158,-33.89397,502.92 18.38076,-33.89464,502.92 18.38013,-33.8952,510.54 18.37945,-33.8958,510.54 18.37873,-33.89648,518.1600000000001 18.37812,-33.89701,518.1600000000001 18.37744,-33.89762,518.1600000000001 18.37676,-33.89827,518.1600000000001 18.37609,-33.89891,525.78 18.37531,-33.89964,533.4 18.37481,-33.90013,533.4 18.374,-33.90083,533.4 18.37337,-33.90139,541.02 18.3728,-33.90195,541.02 18.37217,-33.9025,541.02 18.37137,-33.90325,541.02 18.37074,-33.90381,541.02 18.37,-33.90446,548.64 18.36937,-33.90502,548.64 18.3684,-33.90586,556.26 18.36695,-33.9072,556.26 18.36645,-33.90765,556.26 18.36451,-33.90953,571.5 18.36382,-33.91031,571.5 18.36337,-33.91086,571.5 18.36279,-33.91154,579.12 18.36213,-33.91228,579.12 18.36163,-33.91292,586.74 18.36096,-33.91374,586.74 18.36045,-33.91434,586.74 18.35981,-33.91512,586.74 18.35933,-33.91566,586.74 18.3586,-33.91658,594.36 18.3581,-33.91717,594.36 18.35759,-33.91786,594.36 18.35518,-33.92108,594.36 18.35472,-33.92178,594.36 18.35426,-33.92252,594.36 18.35381,-33.92322,594.36 18.35318,-33.92424,594.36 18.35266,-33.925,594.36 18.35221,-33.92574,594.36 18.35163,-33.92662,594.36 18.35104,-33.92752,594.36 18.35059,-33.92825,601.98 18.34997,-33.92918,601.98 18.34941,-33.93004,601.98 18.34883,-33.9309,601.98 18.34706,-33.93333,617.22 18.34631,-33.9343,617.22 18.34414,-33.93719,617.22 18.34358,-33.93791,617.22 18.34308,-33.93864,617.22 18.34208,-33.93993,609.6 18.34145,-33.9408,609.6 18.341,-33.94144,609.6 18.34042,-33.94235,609.6 18.33977,-33.94331,609.6 18.33899,-33.94445,609.6 18.33848,-33.94528,601.98 18.33796,-33.94608,601.98 18.33736,-33.94693,601.98 18.33687,-33.94775,601.98 18.33646,-33.94849,601.98 18.33607,-33.94966,609.6 18.3359,-33.95055,617.22 18.33585,-33.95155,624.84 18.33595,-33.95246,624.84 18.33618,-33.95325,624.84 18.33669,-33.95416,624.84 18.34106,-33.95595,624.84 18.34373,-33.95525,632.46 18.34599,-33.9537,624.84 18.34688,-33.95287,624.84 18.3475,-33.95224,624.84 18.34854,-33.95115,624.84 18.34919,-33.95045,632.46 18.34986,-33.94976,632.46 18.35076,-33.94876,632.46 18.3514,-33.94799,624.84 18.3522,-33.94701,624.84 18.35289,-33.9462,624.84 18.35363,-33.94524,624.84 18.35445,-33.94427,617.22 18.35513,-33.94341,617.22 18.35569,-33.94267,617.22 18.35638,-33.94165,617.22 18.35712,-33.94054,609.6 18.35771,-33.93974,609.6 18.35821,-33.93896,609.6 18.35894,-33.93782,609.6 18.35941,-33.93705,609.6 18.3601,-33.93598,601.98 18.36067,-33.93514,601.98 18.36136,-33.93411,601.98 18.36193,-33.93328,601.98 18.36258,-33.93233,601.98 18.3632,-33.93137,601.98 18.36387,-33.93036,594.36 18.3646,-33.92926,594.36 18.36519,-33.92848,594.36 18.36589,-33.92743,594.36 18.36651,-33.92661,594.36 18.36729,-33.92555,594.36 18.368,-33.92462,594.36 18.36903,-33.92331,586.74 18.36981,-33.92239,586.74 18.37046,-33.92164,586.74 18.37126,-33.9208,586.74 18.37194,-33.92001,579.12 18.3728,-33.91917,579.12 18.37372,-33.91824,571.5 18.37469,-33.91727,571.5 18.37564,-33.91635,563.88 18.3766,-33.91544,563.88 18.37744,-33.91461,556.26 18.37856,-33.91347,556.26 18.37938,-33.91261,548.64 18.38013,-33.91187,548.64 18.38116,-33.91088,541.02 18.38198,-33.91008,541.02 18.38293,-33.90916,541.02 18.38385,-33.90823,541.02 18.38461,-33.90752,541.02 18.38556,-33.90665,533.4 18.38635,-33.90591,533.4 18.38719,-33.90518,533.4 18.38837,-33.90413,533.4 18.38923,-33.90339,525.78 18.38991,-33.90283,525.78 18.39094,-33.90195,525.78 18.39209,-33.90111,525.78 18.393,-33.90046,525.78 18.39425,-33.8996,518.1600000000001 18.39535,-33.89887,518.1600000000001 18.39649,-33.89822,518.1600000000001 18.39773,-33.89758,518.1600000000001 18.39878,-33.89706,510.54 18.3998,-33.89662,510.54 18.40104,-33.89616,502.92 18.40227,-33.89571,502.92 18.40384,-33.89516,495.3 18.40501,-33.89479,495.3 18.40639,-33.89431,495.3 18.40776,-33.89384,487.68 18.40937,-33.89333,487.68 18.41056,-33.89296,480.06 18.41183,-33.89259,472.44 18.41303,-33.89223,464.82000000000005 18.41421,-33.89186,464.82000000000005 18.41533,-33.89154,457.20000000000005 18.41684,-33.89108,449.58000000000004 18.41808,-33.89072,441.96000000000004 18.42211,-33.88957,419.1 18.42562,-33.88858,396.24 18.42743,-33.88815,388.62 18.42861,-33.88788,381 18.43007,-33.88765,381 18.43158,-33.88747,373.38 18.43266,-33.88742,373.38 18.43388,-33.88747,365.76 18.43546,-33.8877,358.14000000000004 18.43629,-33.88792,358.14000000000004 18.43769,-33.8884,350.52000000000004 18.43901,-33.88896,342.90000000000003 18.43992,-33.88947,335.28000000000003 18.441,-33.89017,327.66 18.44181,-33.89087,320.04 18.4425,-33.89157,312.42 18.44313,-33.89223,304.8 18.44398,-33.89333,297.18 18.44448,-33.89415,297.18 18.44487,-33.89484,297.18 18.44501,-33.89589,304.8 18.44487,-33.89635,297.18 18.44433,-33.89687,289.56 18.44347,-33.89726,274.32 18.44261,-33.89748,259.08000000000004 18.44187,-33.89766,251.46 18.44106,-33.89786,243.84 18.44027,-33.89804,228.60000000000002 18.43941,-33.89822,220.98000000000002 18.4387,-33.89836,213.36 18.43781,-33.89854,198.12 18.43718,-33.89869,182.88 18.43635,-33.89882,175.26000000000002 18.43562,-33.89896,160.02 18.43506,-33.89911,152.4 18.43416,-33.89923,137.16 18.43366,-33.89932,129.54000000000002 18.433,-33.89939,114.30000000000001 18.43231,-33.89946,99.06 18.43163,-33.89957,91.44 18.43114,-33.89964,76.2 18.43069,-33.89969,68.58 18.43014,-33.89971,53.34 18.42962,-33.89978,45.72 18.42912,-33.89978,30.48 18.42872,-33.89983,22.86 18.42839,-33.89983,22.86 18.42816,-33.89987,15.24 18.42783,-33.89983,7.62 18.42762,-33.89981,15.24 18.42738,-33.89955,15.24 18.42727,-33.89932,15.24 18.42721,-33.89905,22.86 18.42722,-33.89883,30.48 18.42733,-33.89836,38.1 18.42751,-33.89804,38.1 18.42796,-33.89738,45.72 18.42828,-33.89694,53.34 18.42861,-33.89653,60.96 18.42905,-33.89599,68.58 18.42934,-33.89557,76.2 18.42979,-33.89497,83.82000000000001 18.43014,-33.8945,91.44 18.43042,-33.89403,91.44 18.43091,-33.89333,99.06 18.43136,-33.89268,106.68 18.43181,-33.89214,106.68 18.43225,-33.89147,114.30000000000001 18.43276,-33.89081,121.92 18.43334,-33.88998,129.54000000000002 18.43366,-33.88953,137.16 18.43409,-33.88882,144.78 18.4345,-33.88811,152.4 18.43477,-33.88747,152.4 18.43506,-33.88663,160.02 18.43523,-33.88593,167.64000000000001 18.43523,-33.88519,175.26000000000002 18.43517,-33.88445,182.88 18.435,-33.88374,190.5 18.43477,-33.88319,198.12 18.4345,-33.88266,198.12 18.43405,-33.88206,205.74 18.4336,-33.88165,213.36 18.433,-33.88123,220.98000000000002 18.43231,-33.88092,220.98000000000002 18.43174,-33.88072,228.60000000000002 18.431,-33.88053,236.22 18.43035,-33.88037,243.84 18.42962,-33.88025,243.84 18.429,-33.88014,251.46 18.42822,-33.8801,251.46 18.42743,-33.88,251.46 18.42659,-33.87996,259.08000000000004 18.42603,-33.87996,259.08000000000004 18.42516,-33.87997,259.08000000000004 18.42447,-33.87996,266.7 18.42333,-33.88002,266.7 18.42253,-33.88007,274.32 18.42196,-33.88011,274.32 18.4211,-33.88014,281.94 18.42012,-33.88025,289.56 18.41938,-33.88034,289.56 18.41863,-33.88042,297.18 18.41772,-33.88053,297.18 18.41675,-33.88067,304.8 18.41578,-33.88081,312.42 18.41492,-33.88091,312.42 18.41406,-33.88109,320.04 18.41325,-33.8812,320.04 18.41234,-33.88137,327.66 18.41154,-33.88156,327.66 18.41073,-33.8817,335.28000000000003 18.40971,-33.88193,335.28000000000003 18.40891,-33.88211,342.90000000000003 18.40816,-33.8823,350.52000000000004 18.40726,-33.88257,350.52000000000004 18.40656,-33.88277,358.14000000000004 18.40569,-33.88303,358.14000000000004 18.40473,-33.88333,358.14000000000004 18.4041,-33.88356,365.76 18.40333,-33.8838,365.76 18.40233,-33.88416,373.38 18.40165,-33.8844,373.38 18.40078,-33.88472,381 18.40003,-33.88499,388.62 18.39918,-33.88533,388.62 18.39851,-33.88564,396.24 18.39775,-33.88593,396.24 18.39677,-33.88637,403.86 18.39621,-33.88663,411.48 18.39548,-33.88696,411.48 18.39478,-33.88733,411.48 18.39386,-33.88779,419.1 18.39323,-33.88817,419.1 18.3924,-33.88861,426.72 18.39169,-33.88905,426.72 18.39088,-33.88956,426.72 18.39016,-33.89008,434.34000000000003 18.38951,-33.89054,434.34000000000003 18.38893,-33.89095,441.96000000000004 18.38803,-33.89163,449.58000000000004 18.38745,-33.89203,449.58000000000004 18.38674,-33.89255,457.20000000000005 18.38596,-33.89314,457.20000000000005 18.38516,-33.89375,464.82000000000005 18.38442,-33.89431,464.82000000000005 18.38371,-33.89488,472.44 18.38315,-33.89534,472.44 18.38254,-33.89584,472.44 18.38181,-33.89648,472.44 18.38127,-33.89697,480.06 18.38058,-33.89757,480.06 18.3799,-33.89817,480.06 18.37917,-33.89882,480.06 18.37861,-33.89928,487.68 18.37794,-33.89987,487.68 18.37721,-33.90051,487.68 18.37658,-33.90106,487.68 18.37576,-33.90184,495.3 18.37521,-33.90237,495.3 18.37441,-33.90317,495.3 18.37385,-33.90372,495.3 18.37326,-33.90437,495.3 18.37269,-33.90497,495.3 18.37206,-33.90572,495.3 18.37143,-33.90641,495.3 18.37086,-33.90707,495.3 18.37034,-33.90767,495.3 18.3696,-33.90851,495.3 18.36897,-33.90926,502.92 18.3683,-33.91003,502.92 18.3678,-33.91063,502.92 18.36724,-33.91127,502.92 18.36662,-33.91205,502.92 18.36606,-33.91278,510.54 18.36559,-33.9134,510.54 18.36508,-33.9141,510.54 18.36462,-33.91475,510.54 18.36415,-33.91534,510.54 18.36359,-33.91619,518.1600000000001 18.36309,-33.91695,518.1600000000001 18.36269,-33.91759,518.1600000000001 18.36225,-33.91827,525.78 18.36182,-33.91894,525.78 18.36136,-33.91973,525.78 18.3609,-33.92048,525.78 18.36061,-33.92103,525.78 18.3601,-33.92192,525.78 18.35967,-33.92271,525.78 18.35924,-33.92341,533.4 18.35883,-33.92413,533.4 18.35838,-33.92504,533.4 18.35793,-33.92578,525.78 18.35747,-33.92667,525.78 18.35707,-33.92736,525.78 18.35661,-33.92825,533.4 18.35609,-33.92918,533.4 18.35564,-33.92997,541.02 18.35535,-33.93059,541.02 18.35478,-33.93151,541.02 18.35434,-33.93228,548.64 18.35392,-33.933,548.64 18.3535,-33.9337,548.64 18.353,-33.93444,548.64 18.35255,-33.93517,556.26 18.35209,-33.93593,556.26 18.3518,-33.93639,556.26 18.35112,-33.93737,563.88 18.35054,-33.93826,563.88 18.35025,-33.93874,563.88 18.34969,-33.93956,563.88 18.34924,-33.94029,563.88 18.34879,-33.94093,571.5 18.34814,-33.94198,571.5 18.34763,-33.94282,571.5 18.34666,-33.94437,579.12 18.34608,-33.94533,579.12 18.34557,-33.94626,579.12 18.34511,-33.94706,579.12 18.34459,-33.94794,579.12 18.3442,-33.94862,586.74 18.34364,-33.94954,586.74 18.34319,-33.95027,586.74 18.34257,-33.95137,586.74 18.34212,-33.95224,586.74 18.34173,-33.95297,586.74 18.34116,-33.95413,586.74 18.34105,-33.95446,586.74 18.33933,-33.95813,586.74 18.33893,-33.95901,594.36 18.33853,-33.95995,594.36 18.33624,-33.96519,594.36 18.3345,-33.96936,594.36 18.33248,-33.97371,594.36 18.33143,-33.97578,594.36 18.32996,-33.97806,594.36 18.32878,-33.9798,601.98 18.32726,-33.98178,601.98 18.32594,-33.98355,601.98 18.32457,-33.98551,601.98 18.32331,-33.98742,609.6 18.322,-33.98936,609.6 18.31948,-33.9933,624.84 18.31684,-33.99766,624.84 18.3155,-34.00003,632.46 18.31478,-34.0011,632.46 18.31443,-34.00172,632.46 18.31329,-34.00343,640.08 18.31272,-34.00427,640.08 18.31226,-34.00497,647.7 18.31158,-34.0059,647.7 18.31106,-34.0066,647.7 18.31038,-34.00757,647.7 18.30978,-34.00845,655.32 18.30928,-34.00919,655.32 18.30866,-34.01001,655.32 18.30814,-34.01078,655.32 18.30754,-34.0117,655.32 18.30706,-34.01246,655.32 18.30654,-34.01325,647.7 18.30585,-34.01437,647.7 18.30494,-34.01595,647.7 18.30378,-34.01788,647.7 18.30334,-34.0187,655.32 18.30277,-34.01976,655.32 18.30231,-34.02052,655.32 18.30059,-34.02428,655.32 18.30019,-34.02568,655.32 18.30002,-34.02652,655.32 18.29992,-34.02759,655.32 18.29979,-34.02861,647.7 18.29973,-34.02941,647.7 18.29963,-34.03047,647.7 18.29956,-34.03136,647.7 18.29952,-34.03226,647.7 18.29947,-34.03304,647.7 18.29941,-34.03409,647.7 18.29941,-34.035,647.7 18.29945,-34.03588,647.7 18.29952,-34.03693,647.7 18.29958,-34.0378,647.7 18.2998,-34.03889,640.08 18.29997,-34.03972,640.08 18.30025,-34.04053,640.08 18.3007,-34.04184,640.08 18.30126,-34.04292,640.08 18.30171,-34.04379,632.46 18.30214,-34.04454,632.46 18.30272,-34.04539,632.46 18.30311,-34.04599,632.46 18.30368,-34.04677,640.08 18.30437,-34.0477,632.46 18.30488,-34.04845,632.46 18.30552,-34.04938,632.46 18.3062,-34.05035,624.84 18.30683,-34.05124,624.84 18.30746,-34.05217,624.84 18.30804,-34.05299,624.84 18.30855,-34.05377,624.84 18.30905,-34.05455,624.84 18.30969,-34.05552,624.84 18.31034,-34.05647,624.84 18.31096,-34.05739,624.84 18.31146,-34.05808,624.84 18.31219,-34.05917,624.84 18.3127,-34.05986,624.84 18.31337,-34.06078,624.84 18.31404,-34.06162,617.22 18.3146,-34.06229,617.22 18.31544,-34.0632,617.22 18.31611,-34.06389,617.22 18.31696,-34.06474,617.22 18.31774,-34.06544,617.22 18.31881,-34.06641,617.22 18.31959,-34.06707,617.22 18.32021,-34.0676,624.84 18.32133,-34.06856,624.84 18.32222,-34.06935,624.84 18.32312,-34.07016,624.84 18.32399,-34.07093,624.84 18.32479,-34.07163,624.84 18.32553,-34.07231,624.84 18.32645,-34.07302,624.84 18.32743,-34.07386,617.22 18.32817,-34.07446,617.22 18.32954,-34.07559,617.22 18.3304,-34.07629,617.22 18.33114,-34.07698,617.22 18.332,-34.07773,617.22 18.3331,-34.07877,617.22 18.33377,-34.07945,624.84 18.3345,-34.08014,624.84 18.33529,-34.08096,624.84 18.33607,-34.08183,624.84 18.33687,-34.08266,624.84 18.33769,-34.08353,624.84 18.33841,-34.08424,624.84 18.33939,-34.08508,632.46 18.34005,-34.08572,632.46 18.341,-34.08655,632.46 18.3419,-34.08736,632.46 18.34257,-34.08801,632.46 18.34345,-34.08881,632.46 18.34437,-34.08961,640.08 18.34517,-34.0902,640.08 18.34627,-34.09099,640.08 18.34711,-34.09155,640.08 18.3482,-34.09225,640.08 18.34913,-34.09282,640.08 18.35042,-34.0936,640.08 18.35126,-34.0941,640.08 18.35216,-34.0947,647.7 18.35318,-34.09528,647.7 18.35432,-34.09593,647.7 18.35535,-34.09653,640.08 18.35644,-34.09714,640.08 18.35752,-34.09774,640.08 18.35867,-34.09835,632.46 18.35967,-34.09886,632.46 18.36061,-34.09933,632.46 18.36176,-34.09989,640.08 18.36292,-34.10046,640.08 18.36421,-34.10115,640.08 18.36522,-34.1017,640.08 18.366,-34.10216,632.46 18.36725,-34.10287,632.46 18.36817,-34.10333,640.08 18.36908,-34.1038,640.08 18.37043,-34.10445,640.08 18.37144,-34.10495,640.08 18.37252,-34.10547,640.08 18.37343,-34.10594,640.08 18.37458,-34.10651,640.08 18.37566,-34.10706,640.08 18.3766,-34.10751,640.08 18.37979,-34.10907,640.08 18.38097,-34.10962,640.08 18.38453,-34.1112,632.46 18.38562,-34.11171,632.46 18.38676,-34.11227,632.46 18.38769,-34.11282,632.46 18.38898,-34.11351,640.08 18.38988,-34.11401,640.08 18.39128,-34.11479,632.46 18.39212,-34.11525,632.46 18.39324,-34.11584,632.46 18.39432,-34.11641,624.84 18.39526,-34.1169,632.46 18.39649,-34.11749,632.46 18.39758,-34.11804,632.46 18.3984,-34.11845,632.46 18.39963,-34.11909,632.46 18.40078,-34.11963,632.46 18.40187,-34.12014,632.46 18.4029,-34.1206,632.46 18.40395,-34.12106,632.46 18.40508,-34.12153,632.46 18.40658,-34.12221,640.08 18.40754,-34.12265,640.08 18.40885,-34.12326,632.46 18.41011,-34.12381,640.08 18.4112,-34.12428,640.08 18.41228,-34.12474,640.08 18.41342,-34.12527,640.08 18.41463,-34.12582,640.08 18.41566,-34.12624,640.08 18.41681,-34.12675,640.08 18.41813,-34.12733,640.08 18.41925,-34.12784,640.08 18.42035,-34.12833,640.08 18.42133,-34.1288,640.08 18.42233,-34.12926,640.08 18.42356,-34.12982,640.08 18.42458,-34.13026,632.46 18.42779,-34.13177,632.46 18.42968,-34.13266,632.46 18.4331,-34.13429,624.84 18.43409,-34.1348,624.84 18.43495,-34.13521,624.84 18.43615,-34.13573,624.84 18.43713,-34.13617,624.84 18.43809,-34.13657,617.22 18.43918,-34.13704,617.22 18.44044,-34.1375,609.6 18.44128,-34.13782,609.6 18.44255,-34.13824,609.6 18.44363,-34.1386,601.98 18.44461,-34.13894,601.98 18.44593,-34.13941,594.36 18.447,-34.13983,594.36 18.44816,-34.14029,594.36 18.44913,-34.14075,594.36 18.44999,-34.14118,601.98 18.45092,-34.14171,601.98 18.45182,-34.14235,601.98 18.45257,-34.14304,609.6 18.45308,-34.14369,609.6 18.45354,-34.14444,609.6 18.45389,-34.14519,617.22 18.45417,-34.14583,617.22 18.45434,-34.14658,617.22 18.45451,-34.14737,624.84 18.45446,-34.14811,624.84 18.45434,-34.14885,624.84 18.454,-34.14967,624.84 18.4536,-34.15054,624.84 18.45308,-34.15128,632.46 18.45257,-34.15179,632.46 18.45165,-34.15215,632.46 18.45097,-34.15216,632.46 18.45028,-34.15202,624.84 18.44935,-34.1515,624.84 18.4489,-34.15105,624.84 18.44851,-34.15022,624.84 18.44839,-34.14946,624.84 18.44868,-34.14825,624.84 18.44902,-34.14752,624.84 18.44948,-34.14676,624.84 18.44991,-34.14606,624.84 18.45053,-34.14519,624.84 18.45103,-34.14445,624.84 18.45194,-34.14332,617.22 18.45249,-34.14262,617.22 18.45348,-34.14146,617.22 18.45428,-34.14052,624.84 18.45486,-34.13978,624.84 18.45583,-34.13871,624.84 18.45652,-34.13792,624.84 18.45726,-34.13713,624.84 18.4581,-34.13617,624.84 18.45898,-34.13527,624.84 18.45978,-34.13438,624.84 18.46056,-34.13351,624.84 18.46129,-34.13274,624.84 18.46202,-34.132,624.84 18.46275,-34.13123,624.84 18.4635,-34.13047,624.84 18.46437,-34.12953,624.84 18.4651,-34.1287,624.84 18.46561,-34.12802,617.22 18.46642,-34.12707,624.84 18.46699,-34.12633,624.84 18.46762,-34.1255,617.22 18.46819,-34.12465,617.22 18.46886,-34.12363,617.22 18.46933,-34.12279,617.22 18.46987,-34.12175,617.22 18.47026,-34.12093,617.22 18.47071,-34.11992,609.6 18.47105,-34.11906,609.6 18.47134,-34.11827,609.6 18.47174,-34.11734,609.6 18.47208,-34.11641,601.98 18.47248,-34.11539,601.98 18.47282,-34.11455,601.98 18.47311,-34.11339,594.36 18.47328,-34.1125,594.36 18.4734,-34.11159,594.36 18.4734,-34.11058,594.36 18.4734,-34.10953,594.36 18.47334,-34.10864,586.74 18.47328,-34.10733,586.74 18.47322,-34.10645,586.74 18.47318,-34.10555,579.12 18.47312,-34.10468,579.12 18.47305,-34.10361,571.5 18.473,-34.10273,571.5 18.47288,-34.1017,571.5 18.47277,-34.10059,571.5 18.47265,-34.09975,563.88 18.47254,-34.09863,563.88 18.4725,-34.09767,563.88 18.47237,-34.09672,556.26 18.47225,-34.0957,556.26 18.47205,-34.0946,556.26 18.47189,-34.09373,563.88 18.47168,-34.09281,563.88 18.47151,-34.09197,571.5 18.47132,-34.0909,571.5 18.47122,-34.08988,571.5 18.47111,-34.08904,571.5 18.47105,-34.0882,571.5 18.47093,-34.08728,571.5 18.47082,-34.08627,579.12 18.47076,-34.08531,579.12 18.47065,-34.0844,586.74 18.47054,-34.08355,594.36 18.47048,-34.08271,594.36 18.47036,-34.08173,601.98 18.47026,-34.08078,601.98 18.47015,-34.07996,601.98 18.46973,-34.07642,609.6 18.46936,-34.07355,617.22 18.4688,-34.06984,640.08 18.46835,-34.06577,655.32 18.46813,-34.06283,662.94 18.4679,-34.05985,662.94 18.46779,-34.05917,662.94 18.46767,-34.05808,662.94 18.46751,-34.05693,662.94 18.4674,-34.05606,662.94 18.46729,-34.05492,655.32 18.46718,-34.05382,655.32 18.46706,-34.05276,655.32 18.46693,-34.05161,655.32 18.46687,-34.05077,655.32 18.46676,-34.04966,647.7 18.46673,-34.04874,647.7 18.46662,-34.04773,647.7 18.46656,-34.04663,647.7 18.46651,-34.04572,640.08 18.46645,-34.0448,640.08 18.46636,-34.04384,640.08 18.4663,-34.04286,640.08 18.46622,-34.04182,640.08 18.46619,-34.04067,640.08 18.46613,-34.0396,647.7 18.46611,-34.03871,647.7 18.46613,-34.03769,647.7 18.46617,-34.03683,647.7 18.46619,-34.03597,647.7 18.46617,-34.035,640.08 18.46624,-34.03411,640.08 18.46628,-34.03304,632.46 18.46634,-34.03203,632.46 18.46634,-34.03111,632.46 18.46636,-34.0302,640.08 18.46639,-34.02919,647.7 18.46642,-34.02824,647.7 18.46647,-34.02713,647.7 18.46653,-34.02605,655.32 18.46659,-34.02536,655.32 18.46662,-34.02429,655.32 18.46673,-34.02104,655.32 18.4669,-34.0183,655.32 18.4669,-34.01743,662.94 18.46693,-34.01637,662.94 18.46699,-34.01535,662.94 18.46706,-34.01445,662.94 18.46706,-34.0134,662.94 18.4671,-34.01228,662.94 18.46712,-34.01138,662.94 18.46718,-34.01047,662.94 18.46722,-34.00957,662.94 18.46722,-34.00874,662.94 18.46727,-34.0079,662.94 18.46729,-34.00699,662.94 18.46734,-34.00429,655.32 18.4674,-34.00117,655.32 18.4675,-33.99868,647.7 18.46751,-33.995,632.46 18.46756,-33.99231,624.84 18.46774,-33.9884,632.46 18.46796,-33.98532,640.08 18.46824,-33.98241,640.08 18.46836,-33.98137,632.46 18.46847,-33.98044,632.46 18.46852,-33.97961,632.46 18.46859,-33.97857,632.46 18.46863,-33.9776,632.46 18.46858,-33.9765,632.46 18.46858,-33.97568,632.46 18.46847,-33.97485,632.46 18.46836,-33.97396,632.46 18.46819,-33.97298,632.46 18.46796,-33.97196,632.46 18.46767,-33.9707,624.84 18.46751,-33.96991,624.84 18.46723,-33.9689,624.84 18.46699,-33.96796,617.22 18.4667,-33.96693,617.22 18.46651,-33.96611,609.6 18.46624,-33.96512,609.6 18.46596,-33.96428,609.6 18.46561,-33.96316,609.6 18.46533,-33.96228,609.6 18.46493,-33.96116,609.6 18.46464,-33.96028,601.98 18.46426,-33.95943,601.98 18.46384,-33.95827,601.98 18.46348,-33.95741,601.98 18.46304,-33.9565,609.6 18.46264,-33.95549,601.98 18.46224,-33.95464,601.98 18.46184,-33.9538,601.98 18.46146,-33.95297,594.36 18.46084,-33.95178,594.36 18.46045,-33.951,594.36 18.46006,-33.95023,586.74 18.45966,-33.94943,586.74 18.45927,-33.94858,594.36 18.45886,-33.94775,594.36 18.4584,-33.94682,594.36 18.45806,-33.94617,594.36 18.45766,-33.94524,594.36 18.45726,-33.94455,594.36 18.45675,-33.94352,594.36 18.45642,-33.94286,594.36 18.45594,-33.94198,594.36 18.45563,-33.9413,594.36 18.45526,-33.94044,594.36 18.4548,-33.93951,586.74 18.45445,-33.93878,579.12 18.45406,-33.93789,579.12 18.45371,-33.937,579.12 18.45333,-33.93626,571.5 18.453,-33.93558,571.5 18.45257,-33.93472,563.88 18.45222,-33.93402,556.26 18.45177,-33.93323,548.64 18.45137,-33.93242,541.02 18.45086,-33.93155,533.4 18.45058,-33.931,525.78 18.45003,-33.92995,510.54 18.44959,-33.92923,502.92 18.44919,-33.92853,495.3 18.44879,-33.92783,487.68 18.44828,-33.92694,480.06 18.44689,-33.92459,449.58000000000004 18.44593,-33.92303,434.34000000000003 18.44464,-33.92079,403.86 18.44431,-33.92006,396.24 18.44398,-33.91917,381 18.44381,-33.91847,373.38 18.44369,-33.91754,365.76 18.44353,-33.91675,358.14000000000004 18.44347,-33.9161,350.52000000000004 18.44335,-33.91507,342.90000000000003 18.44335,-33.9142,335.28000000000003 18.4433,-33.91342,327.66 18.4433,-33.91242,320.04 18.4433,-33.91191,312.42 18.44335,-33.91068,304.8 18.44347,-33.90968,297.18 18.44358,-33.90884,289.56 18.44363,-33.90811,281.94 18.44375,-33.9072,274.32 18.4438,-33.90651,266.7 18.44387,-33.90577,259.08000000000004 18.44387,-33.90497,251.46 18.4438,-33.90427,251.46 18.4437,-33.90353,243.84 18.44347,-33.9028,236.22 18.44318,-33.90223,236.22 18.44285,-33.90175,228.60000000000002 18.44234,-33.9012,228.60000000000002 18.44193,-33.90088,220.98000000000002 18.44128,-33.90051,213.36 18.44072,-33.90032,198.12 18.44004,-33.90013,190.5 18.43937,-33.90005,182.88 18.43884,-33.90004,175.26000000000002 18.43837,-33.90005,167.64000000000001 18.43769,-33.90004,160.02 18.43696,-33.90005,144.78 18.43635,-33.9001,137.16 18.43573,-33.9001,129.54000000000002 18.43523,-33.90015,121.92 18.43456,-33.90015,114.30000000000001 18.43394,-33.90019,106.68 18.43328,-33.90018,106.68 18.43271,-33.90022,99.06 18.43231,-33.90019,91.44 18.43181,-33.90019,83.82000000000001 18.43125,-33.90019,76.2 18.43074,-33.90015,68.58 18.43046,-33.90015,60.96 18.42997,-33.90013,53.34 18.42957,-33.9001,45.72 18.42922,-33.90004,45.72 18.42894,-33.89999,38.1 18.42872,-33.89996,30.48 18.42844,-33.89996,22.86 18.42822,-33.89992,22.86 18.42802,-33.8999,15.24 18.42779,-33.89985,7.62 18.42755,-33.8996,15.24 18.4271,-33.89914,15.24 18.42699,-33.89891,22.86 18.42687,-33.89859,30.48 18.42693,-33.89822,38.1 18.42704,-33.89777,53.34 18.42865,-33.89529,83.82000000000001 18.429,-33.8947,91.44 18.42939,-33.89413,99.06 18.42985,-33.89343,99.06 18.43031,-33.89287,106.68 18.43077,-33.89227,114.30000000000001 18.43119,-33.89168,114.30000000000001 18.43174,-33.89087,129.54000000000002 18.43214,-33.8903,129.54000000000002 18.4327,-33.88943,144.78 18.43304,-33.88879,152.4 18.43343,-33.88792,160.02 18.43371,-33.88724,160.02 18.43386,-33.88649,167.64000000000001 18.43391,-33.88575,175.26000000000002 18.4338,-33.88496,182.88 18.4336,-33.88431,190.5 18.43328,-33.88356,198.12 18.43304,-33.88312,198.12 18.43248,-33.88248,205.74 18.43203,-33.88202,213.36 18.43151,-33.88169,220.98000000000002 18.43074,-33.88129,228.60000000000002 18.43013,-33.88101,228.60000000000002 18.4294,-33.88078,236.22 18.42876,-33.88063,243.84 18.42796,-33.88049,251.46 18.42722,-33.88034,251.46 18.42659,-33.88025,259.08000000000004 18.42598,-33.88019,259.08000000000004 18.42508,-33.88019,266.7 18.42435,-33.88019,274.32 18.42368,-33.88023,274.32 18.42293,-33.8803,281.94 18.42217,-33.88037,289.56 18.4215,-33.88044,289.56 18.42081,-33.88053,297.18 18.41987,-33.88069,304.8 18.4192,-33.88078,304.8 18.4183,-33.88092,312.42 18.41761,-33.88105,320.04 18.41675,-33.88118,320.04 18.41606,-33.88132,327.66 18.41526,-33.88146,335.28000000000003 18.41449,-33.88156,335.28000000000003 18.41389,-33.88169,342.90000000000003 18.41297,-33.88184,350.52000000000004 18.4123,-33.88197,350.52000000000004 18.4114,-33.88216,358.14000000000004 18.41063,-33.8823,365.76 18.40994,-33.88244,373.38 18.40905,-33.88266,373.38 18.40828,-33.88281,381 18.40765,-33.88293,388.62 18.40686,-33.88312,388.62 18.40605,-33.88333,396.24 18.40525,-33.88351,403.86 18.40434,-33.88376,411.48 18.40359,-33.88398,411.48 18.40267,-33.88426,419.1 18.40193,-33.88449,419.1 18.4012,-33.88472,426.72 18.40033,-33.88505,434.34000000000003 18.39964,-33.88528,434.34000000000003 18.39896,-33.88554,441.96000000000004 18.39812,-33.88586,449.58000000000004 18.39745,-33.88614,449.58000000000004 18.39677,-33.88641,449.58000000000004 18.39586,-33.88677,457.20000000000005 18.39512,-33.88705,457.20000000000005 18.39437,-33.88737,457.20000000000005 18.39347,-33.88779,464.82000000000005 18.3928,-33.88815,464.82000000000005 18.39207,-33.88852,472.44 18.39128,-33.88896,480.06 18.3905,-33.88939,480.06 18.38971,-33.88989,487.68 18.38905,-33.89026,495.3 18.38825,-33.89073,495.3 18.38758,-33.89122,502.92 18.38688,-33.89175,502.92 18.38629,-33.89223,502.92 18.38568,-33.89273,510.54 18.38505,-33.89329,510.54 18.38433,-33.89392,510.54 18.38367,-33.89445,510.54 18.38299,-33.89501,510.54 18.38236,-33.89552,518.1600000000001 18.38167,-33.89618,518.1600000000001 18.38104,-33.89669,518.1600000000001 18.38046,-33.89726,525.78 18.37985,-33.89781,525.78 18.37927,-33.89841,525.78 18.37856,-33.89909,525.78 18.37801,-33.89967,533.4 18.37733,-33.90038,533.4 18.37675,-33.90102,533.4 18.37624,-33.90153,533.4 18.37566,-33.90218,533.4 18.37491,-33.90303,533.4 18.37435,-33.90376,533.4 18.37379,-33.9044,541.02 18.37326,-33.90506,541.02 18.37263,-33.90586,533.4 18.37223,-33.90637,541.02 18.37161,-33.9071,541.02 18.37099,-33.90788,541.02 18.37046,-33.90856,541.02 18.36988,-33.90935,548.64 18.36948,-33.90981,548.64 18.3688,-33.91065,556.26 18.36828,-33.91126,556.26 18.36785,-33.91182,556.26 18.36714,-33.91265,556.26 18.36667,-33.91328,556.26 18.36605,-33.9141,556.26 18.36555,-33.91479,556.26 18.36505,-33.91539,556.26 18.36449,-33.91612,556.26 18.36387,-33.91699,556.26 18.36342,-33.91754,556.26 18.36279,-33.91843,556.26 18.36233,-33.91912,556.26 18.36187,-33.91982,556.26 18.36124,-33.92071,556.26 18.36079,-33.92141,556.26 18.35924,-33.92369,563.88 18.3577,-33.92611,563.88 18.35574,-33.92921,563.88 18.35421,-33.93179,563.88 18.35289,-33.93411,563.88 18.35186,-33.93579,563.88 18.35137,-33.93668,571.5 18.351,-33.93728,571.5 18.35049,-33.93816,571.5 18.35008,-33.93896,571.5 18.34969,-33.93966,579.12 18.34879,-33.9413,579.12 18.3479,-33.94304,579.12 18.34739,-33.94405,579.12 18.347,-33.94482,579.12 18.34655,-33.94574,579.12 18.34614,-33.94664,579.12 18.34566,-33.94762,579.12 18.34526,-33.94844,586.74 18.34481,-33.94936,586.74 18.34442,-33.95018,586.74 18.34414,-33.95073,586.74 18.34364,-33.95183,594.36 18.34316,-33.95278,594.36 18.34268,-33.9537,594.36 18.3411,-33.95678,594.36 18.33999,-33.95892,632.46 18.37555,-33.91647,556.26 18.37777,-33.91397,556.26 18.38007,-33.91144,548.64 18.3835,-33.90805,541.02 18.38614,-33.90544,533.4 18.38682,-33.90483,533.4 18.38791,-33.9039,525.78 18.38853,-33.90335,525.78 18.38966,-33.90244,525.78 18.39055,-33.90175,518.1600000000001 18.39145,-33.90106,518.1600000000001 18.39237,-33.90046,518.1600000000001 18.39346,-33.89967,510.54 18.39437,-33.89906,510.54 18.39512,-33.89855,510.54 18.39621,-33.89785,510.54 18.39717,-33.89722,502.92 18.39812,-33.89662,502.92 18.39947,-33.8958,495.3 18.4005,-33.8952,487.68 18.40165,-33.89456,487.68 18.40266,-33.89401,480.06 18.40372,-33.89346,480.06 18.40473,-33.89296,472.44 18.40608,-33.89232,464.82000000000005 18.40708,-33.89189,464.82000000000005 18.4081,-33.8914,457.20000000000005 18.40925,-33.89096,457.20000000000005 18.41085,-33.89031,449.58000000000004 18.41194,-33.88993,449.58000000000004 18.41303,-33.88952,449.58000000000004 18.41415,-33.88907,441.96000000000004 18.41533,-33.88866,434.34000000000003 18.41658,-33.88826,426.72 18.41785,-33.88788,426.72 18.41887,-33.88756,419.1 18.42001,-33.88724,411.48 18.42138,-33.88687,403.86 18.42262,-33.8866,396.24 18.42385,-33.88632,388.62 18.42525,-33.88605,381 18.42636,-33.88584,381 18.42743,-33.88564,373.38 18.42922,-33.88542,365.76 18.43037,-33.88533,358.14000000000004 18.43136,-33.88531,358.14000000000004 18.4326,-33.88537,350.52000000000004 18.43388,-33.8855,342.90000000000003 18.43506,-33.8857,335.28000000000003 18.43635,-33.88609,335.28000000000003 18.43735,-33.88644,327.66 18.43853,-33.88696,320.04 18.43949,-33.88742,312.42 18.44027,-33.88789,312.42 18.44124,-33.88854,304.8 18.44201,-33.88916,304.8 18.44267,-33.88984,297.18 18.44324,-33.8905,289.56 18.44386,-33.89136,281.94 18.44442,-33.89223,274.32 18.44481,-33.89291,266.7 18.44513,-33.89361,259.08000000000004 18.44542,-33.89426,259.08000000000004 18.44564,-33.89515,251.46 18.4456,-33.89571,251.46 18.4453,-33.89627,243.84 18.44476,-33.89671,236.22 18.44439,-33.89692,220.98000000000002 18.44381,-33.89715,213.36 18.44313,-33.89735,198.12 18.4425,-33.89757,182.88 18.44187,-33.89776,175.26000000000002 18.44117,-33.89795,160.02 18.44055,-33.89813,152.4 18.43971,-33.89836,144.78 18.43912,-33.89855,137.16 18.43842,-33.89877,121.92 18.43758,-33.899,114.30000000000001 18.43683,-33.8992,106.68 18.43635,-33.89937,99.06 18.4354,-33.89962,91.44 18.43461,-33.89983,83.82000000000001 18.43382,-33.90001,76.2 18.43304,-33.90015,76.2 18.43248,-33.90027,76.2 18.43168,-33.90046,68.58 18.43105,-33.90051,68.58 18.43031,-33.90046,53.34 18.4299,-33.90038,45.72 18.42951,-33.90033,45.72 18.42911,-33.90022,38.1 18.42882,-33.90013,30.48 18.42861,-33.9001,30.48 18.42828,-33.90001,22.86 18.42802,-33.89994,15.24 18.42779,-33.8999,7.62 18.42721,-33.89795,45.72 18.42783,-33.89685,53.34 18.42819,-33.89631,60.96 18.42854,-33.89585,68.58 18.42894,-33.89534,68.58 18.4294,-33.8947,76.2 18.42985,-33.8941,83.82000000000001 18.43025,-33.89352,91.44 18.43063,-33.89305,91.44 18.43114,-33.89241,99.06 18.43151,-33.89185,106.68 18.43214,-33.8911,114.30000000000001 18.43276,-33.8904,121.92 18.43334,-33.88975,129.54000000000002 18.43382,-33.88911,137.16 18.4342,-33.88849,137.16 18.43461,-33.88765,144.78 18.43483,-33.88696,144.78 18.43489,-33.88609,152.4 18.43483,-33.88537,152.4 18.43467,-33.88463,152.4 18.43433,-33.8839,160.02 18.43388,-33.88321,160.02 18.43346,-33.88268,167.64000000000001 18.433,-33.88226,167.64000000000001 18.43248,-33.88184,175.26000000000002 18.43186,-33.88147,175.26000000000002 18.43111,-33.88114,182.88 18.43054,-33.88095,182.88 18.4299,-33.88083,182.88 18.42906,-33.88069,190.5 18.42828,-33.8806,198.12 18.42768,-33.88053,198.12 18.42688,-33.88049,205.74 18.42613,-33.88044,213.36 18.42545,-33.88049,213.36 18.42464,-33.88053,220.98000000000002 18.42396,-33.8806,220.98000000000002 18.42327,-33.88067,228.60000000000002 18.42239,-33.88078,228.60000000000002 18.42172,-33.88087,236.22 18.42093,-33.88097,236.22 18.42009,-33.8811,243.84 18.41942,-33.88124,251.46 18.41875,-33.88138,251.46 18.41791,-33.88152,259.08000000000004 18.41721,-33.8816,266.7 18.41658,-33.88174,274.32 18.41583,-33.88184,281.94 18.41515,-33.88193,289.56 18.41452,-33.88202,289.56 18.41376,-33.88216,297.18 18.41281,-33.88234,297.18 18.41211,-33.88244,304.8 18.41146,-33.88261,312.42 18.4108,-33.88272,312.42 18.41006,-33.88293,320.04 18.4095,-33.88303,320.04 18.40874,-33.88323,327.66 18.40793,-33.88348,327.66 18.40725,-33.88365,327.66 18.40658,-33.88385,335.28000000000003 18.4057,-33.88412,335.28000000000003 18.40485,-33.88435,335.28000000000003 18.40416,-33.88458,342.90000000000003 18.40342,-33.88486,342.90000000000003 18.40261,-33.88509,350.52000000000004 18.40199,-33.88533,350.52000000000004 18.40109,-33.88564,358.14000000000004 18.40047,-33.88586,358.14000000000004 18.39947,-33.88626,365.76 18.39872,-33.88659,365.76 18.3979,-33.88692,373.38 18.39728,-33.88724,381 18.39643,-33.88765,381 18.39581,-33.88798,381 18.39506,-33.8884,388.62 18.39425,-33.88884,388.62 18.39363,-33.88921,396.24 18.39289,-33.88961,403.86 18.39237,-33.88989,411.48 18.39156,-33.89044,419.1 18.39083,-33.89087,419.1 18.39025,-33.89128,426.72 18.38957,-33.89175,434.34000000000003 18.38888,-33.89222,434.34000000000003 18.38825,-33.89268,441.96000000000004 18.38769,-33.8931,441.96000000000004 18.38717,-33.89347,441.96000000000004 18.38648,-33.89403,449.58000000000004 18.38579,-33.89455,457.20000000000005 18.38516,-33.89506,457.20000000000005 18.38465,-33.89548,464.82000000000005 18.38411,-33.89594,464.82000000000005 18.38345,-33.89655,472.44 18.38287,-33.89703,472.44 18.38242,-33.89748,480.06 18.38167,-33.89817,480.06 18.38102,-33.89873,487.68 18.38035,-33.89932,487.68 18.37978,-33.89985,495.3 18.37921,-33.90036,495.3 18.3785,-33.90106,495.3 18.3779,-33.90162,495.3 18.37727,-33.90227,502.92 18.37676,-33.90276,510.54 18.37549,-33.90395,510.54 18.37491,-33.9045,518.1600000000001 18.37423,-33.90525,518.1600000000001 18.37366,-33.90581,518.1600000000001 18.37309,-33.90651,525.78 18.37257,-33.90711,525.78 18.37194,-33.90786,525.78 18.37149,-33.90846,533.4 18.37093,-33.90916,533.4 18.37037,-33.9099,541.02 18.36994,-33.91051,541.02 18.36937,-33.91126,548.64 18.36892,-33.91191,548.64 18.36845,-33.91261,548.64 18.36785,-33.91338,548.64 18.36742,-33.91401,548.64 18.36685,-33.91484,548.64 18.36651,-33.9153,548.64 18.36582,-33.91624,556.26 18.36531,-33.91693,556.26 18.36485,-33.91754,563.88 18.36432,-33.91827,563.88 18.36331,-33.91969,563.88 18.36273,-33.92052,563.88 18.36113,-33.92276,571.5 18.35905,-33.9256,586.74 18.35855,-33.92624,586.74 18.35781,-33.92718,594.36 18.35735,-33.92778,601.98 18.35681,-33.92844,601.98 18.35619,-33.92926,609.6 18.3558,-33.92981,609.6 18.35513,-33.93073,617.22 18.35443,-33.93165,617.22 18.35384,-33.93251,617.22 18.35335,-33.93323,617.22 18.35294,-33.93388,617.22 18.35243,-33.93458,624.84 18.35175,-33.93565,624.84 18.35135,-33.93635,624.84 18.351,-33.93686,624.84 18.35043,-33.93774,632.46 18.34997,-33.93842,632.46 18.34935,-33.93933,632.46 18.34879,-33.94011,640.08 18.34834,-33.94075,640.08 18.3479,-33.94148,647.7 18.34722,-33.94249,647.7 18.34683,-33.94308,655.32 18.34627,-33.94395,655.32 18.34588,-33.94464,662.94 18.34532,-33.94547,662.94 18.34482,-33.94622,662.94 18.34282,-33.94943,678.1800000000001 18.34133,-33.95185,685.8000000000001 18.33943,-33.95485,693.4200000000001 18.33784,-33.95744,701.0400000000001 18.33691,-33.95929,708.6600000000001 18.33657,-33.96011,708.6600000000001 18.33618,-33.96107,708.6600000000001 18.3359,-33.96195,708.6600000000001 18.33557,-33.96286,708.6600000000001 18.33456,-33.96707,723.9000000000001 18.33424,-33.9687,731.52 18.33366,-33.97151,731.52 18.33332,-33.97348,739.14 18.33271,-33.9782,746.76 18.33241,-33.98039,746.76 18.33209,-33.98264,754.38 18.33175,-33.98502,754.38 18.33109,-33.98923,762 18.33052,-33.99244,762 18.32989,-33.99547,769.62 18.32932,-33.99826,777.24 18.3288,-34.00115,784.86 18.32834,-34.00418,784.86 18.32829,-34.00525,784.86 18.32823,-34.00613,784.86 18.32817,-34.00716,784.86 18.32817,-34.00813,784.86 18.32828,-34.00891,784.86 18.32839,-34.00987,792.48 18.32851,-34.01065,792.48 18.3288,-34.01171,792.48 18.32909,-34.01265,792.48 18.32957,-34.01363,792.48 18.33007,-34.0145,800.1 18.33102,-34.01564,792.48 18.33164,-34.01619,792.48 18.33269,-34.01698,784.86 18.33372,-34.01756,784.86 18.33458,-34.018,784.86 18.33596,-34.01852,777.24 18.33697,-34.01884,777.24 18.33831,-34.01926,777.24 18.3396,-34.01962,777.24 18.34093,-34.01995,769.62 18.34224,-34.02031,769.62 18.34352,-34.02063,769.62 18.34459,-34.02089,769.62 18.34554,-34.02113,769.62 18.34694,-34.0215,769.62 18.34826,-34.02182,769.62 18.34947,-34.02209,769.62 18.35106,-34.02247,769.62 18.35233,-34.02274,769.62 18.35356,-34.02296,769.62 18.35472,-34.02322,769.62 18.35598,-34.02349,769.62 18.35718,-34.02373,769.62 18.35838,-34.02396,777.24 18.35918,-34.0241,777.24 18.36045,-34.02429,777.24 18.36142,-34.02443,777.24 18.36273,-34.02466,784.86 18.36382,-34.02484,784.86 18.36499,-34.02502,784.86 18.36639,-34.02526,777.24 18.36735,-34.02544,777.24 18.36864,-34.02567,777.24 18.36977,-34.02591,777.24 18.3711,-34.02617,769.62 18.37223,-34.02638,762 18.37368,-34.02667,762 18.37492,-34.02689,762 18.37601,-34.02708,762 18.37704,-34.02731,762 18.37824,-34.02768,762 18.37933,-34.0281,762 18.38052,-34.02878,762 18.38127,-34.02931,762 18.38214,-34.03011,762 18.38276,-34.03075,762 18.3835,-34.03159,762 18.38396,-34.03215,762 18.38453,-34.03294,762 18.38506,-34.03368,762 18.38562,-34.03455,762 18.38607,-34.03523,754.38 18.38648,-34.03597,754.38 18.38702,-34.03688,754.38 18.38757,-34.03774,754.38 18.38797,-34.03844,754.38 18.38848,-34.03937,754.38 18.38881,-34.04004,754.38 18.38921,-34.04077,754.38 18.38968,-34.04151,754.38 18.3902,-34.0423,754.38 18.39083,-34.04305,754.38 18.39146,-34.0437,754.38 18.39223,-34.04439,746.76 18.39323,-34.04505,739.14 18.39408,-34.04553,731.52 18.39518,-34.04612,723.9000000000001 18.39609,-34.04654,716.2800000000001 18.39678,-34.04691,716.2800000000001 18.39806,-34.0475,708.6600000000001 18.39896,-34.04787,701.0400000000001 18.40015,-34.04826,708.6600000000001 18.40107,-34.04845,708.6600000000001 18.40215,-34.04865,716.2800000000001 18.40324,-34.04873,731.52 18.40427,-34.04873,739.14 18.40496,-34.04868,746.76 18.40608,-34.04855,754.38 18.40714,-34.04832,754.38 18.40821,-34.048,762 18.40922,-34.04759,762 18.41005,-34.04714,762 18.41074,-34.04663,769.62 18.4114,-34.04604,769.62 18.41202,-34.04544,769.62 18.4128,-34.04454,769.62 18.41343,-34.04379,769.62 18.41387,-34.0432,769.62 18.41449,-34.04242,777.24 18.41499,-34.04173,777.24 18.4156,-34.0409,777.24 18.41612,-34.04012,777.24 18.41663,-34.03932,777.24 18.41718,-34.03844,769.62 18.41768,-34.03761,769.62 18.4183,-34.03665,762 18.41869,-34.03592,762 18.41914,-34.03519,762 18.4197,-34.03409,762 18.42018,-34.03322,762 18.42071,-34.03239,769.62 18.42121,-34.03164,769.62 18.4219,-34.03066,777.24 18.42245,-34.02997,784.86 18.42316,-34.02908,792.48 18.42379,-34.02838,792.48 18.42464,-34.02745,792.48 18.42522,-34.0268,792.48 18.42579,-34.0262,800.1 18.42648,-34.02544,800.1 18.42704,-34.0248,800.1 18.42772,-34.02402,800.1 18.42836,-34.02326,800.1 18.42894,-34.02256,800.1 18.42945,-34.02187,792.48 18.42996,-34.02122,792.48 18.43057,-34.02036,784.86 18.43111,-34.01963,784.86 18.43168,-34.01889,777.24 18.4322,-34.01809,769.62 18.43265,-34.01738,769.62 18.43321,-34.01651,762 18.43382,-34.01555,762 18.43426,-34.01484,754.38 18.43477,-34.014,754.38 18.43523,-34.01316,746.76 18.43579,-34.0123,746.76 18.43632,-34.01134,739.14 18.43674,-34.0106,731.52 18.43729,-34.00962,731.52 18.43786,-34.00859,723.9000000000001 18.43826,-34.00776,723.9000000000001 18.43866,-34.00697,723.9000000000001 18.43918,-34.00604,716.2800000000001 18.4405,-34.00346,708.6600000000001 18.44221,-34.00022,693.4200000000001 18.44375,-33.99765,685.8000000000001 18.44433,-33.99677,678.1800000000001 18.44479,-33.99607,678.1800000000001 18.44536,-33.99524,670.5600000000001 18.44587,-33.99454,670.5600000000001 18.44639,-33.99379,662.94 18.44689,-33.99312,662.94 18.44745,-33.99234,655.32 18.44812,-33.99142,647.7 18.44874,-33.99065,647.7 18.44936,-33.98974,640.08 18.45003,-33.98886,640.08 18.45057,-33.98807,632.46 18.45114,-33.98714,632.46 18.45159,-33.98643,632.46 18.45211,-33.98551,632.46 18.45251,-33.98481,632.46 18.45297,-33.98407,624.84 18.45348,-33.98323,624.84 18.454,-33.98241,624.84 18.45457,-33.98158,617.22 18.45496,-33.98099,617.22 18.45546,-33.98026,609.6 18.45606,-33.97932,609.6 18.45669,-33.97848,601.98 18.45715,-33.97783,601.98 18.45776,-33.97696,594.36 18.45838,-33.97604,594.36 18.45881,-33.97541,594.36 18.45938,-33.97449,586.74 18.45984,-33.97382,586.74 18.46034,-33.97298,579.12 18.46073,-33.97234,579.12 18.46129,-33.97137,571.5 18.46157,-33.97073,571.5 18.46201,-33.96977,571.5 18.4623,-33.96912,571.5 18.46258,-33.96826,579.12 18.4628,-33.96767,579.12 18.46309,-33.96666,586.74 18.46331,-33.96584,586.74 18.4635,-33.96493,586.74 18.46367,-33.96423,586.74 18.46376,-33.96341,586.74 18.46384,-33.9627,594.36 18.46381,-33.96176,586.74 18.46378,-33.96093,586.74 18.46373,-33.96023,586.74 18.46359,-33.95947,594.36 18.46333,-33.95851,594.36 18.46314,-33.95782,594.36 18.4628,-33.95691,594.36 18.46252,-33.95618,594.36 18.46213,-33.95531,594.36 18.4618,-33.95467,594.36 18.46132,-33.95385,594.36 18.46095,-33.9532,594.36 18.46035,-33.95222,594.36 18.45995,-33.95155,594.36 18.45944,-33.95078,594.36 18.45899,-33.94991,586.74 18.45843,-33.94899,579.12 18.45804,-33.9483,571.5 18.45749,-33.94729,563.88 18.45692,-33.94629,556.26 18.45634,-33.94519,548.64 18.45583,-33.94431,541.02 18.45541,-33.9435,533.4 18.45496,-33.94272,525.78 18.45446,-33.94165,518.1600000000001 18.454,-33.94084,510.54 18.45257,-33.93812,487.68 18.4521,-33.93723,480.06 18.45165,-33.9364,472.44 18.45019,-33.93379,457.20000000000005 18.44896,-33.93137,441.96000000000004 18.44765,-33.92862,426.72 18.44717,-33.92747,419.1 18.44685,-33.92662,411.48 18.4465,-33.92583,403.86 18.4461,-33.925,403.86 18.44571,-33.92409,396.24 18.44532,-33.92322,388.62 18.44492,-33.92226,381 18.44459,-33.92148,381 18.44419,-33.92047,365.76 18.44391,-33.91974,365.76 18.44352,-33.91864,358.14000000000004 18.44319,-33.91763,350.52000000000004 18.44301,-33.91693,342.90000000000003 18.44279,-33.91594,335.28000000000003 18.44263,-33.91512,327.66 18.44246,-33.91429,327.66 18.4424,-33.91347,320.04 18.44229,-33.91241,312.42 18.44223,-33.91145,304.8 18.44221,-33.91047,297.18 18.44223,-33.90962,289.56 18.44229,-33.90852,281.94 18.4424,-33.90756,274.32 18.44255,-33.90656,274.32 18.44279,-33.90573,266.7 18.44307,-33.90468,259.08000000000004 18.44324,-33.90381,259.08000000000004 18.44336,-33.90306,251.46 18.44341,-33.90241,243.84 18.44335,-33.90166,243.84 18.44301,-33.90092,236.22 18.44267,-33.90046,220.98000000000002 18.4419,-33.90005,213.36 18.44123,-33.89992,205.74 18.4405,-33.89987,190.5 18.43982,-33.89987,182.88 18.43898,-33.89987,167.64000000000001 18.43837,-33.89992,160.02 18.43781,-33.89994,152.4 18.43712,-33.89999,144.78 18.43655,-33.89999,137.16 18.4358,-33.90004,129.54000000000002 18.43534,-33.90009,121.92 18.43466,-33.90013,114.30000000000001 18.43414,-33.90013,106.68 18.43357,-33.90013,99.06 18.43299,-33.90015,91.44 18.43254,-33.90015,83.82000000000001 18.43191,-33.90013,76.2 18.43145,-33.90013,68.58 18.43094,-33.90009,60.96 18.43042,-33.90009,60.96 18.42997,-33.90004,53.34 18.42962,-33.89999,53.34 18.42929,-33.89996,45.72 18.429,-33.89992,38.1 18.42871,-33.8999,30.48 18.42842,-33.8999,30.48 18.42816,-33.89987,22.86 18.42794,-33.89987,22.86 18.42773,-33.89985,15.24 18.42779,-33.89534,83.82000000000001 18.42854,-33.89403,99.06 18.42895,-33.89333,106.68 18.42939,-33.89268,106.68 18.42979,-33.89195,114.30000000000001 18.43025,-33.89115,121.92 18.43063,-33.89049,129.54000000000002 18.43111,-33.88966,144.78 18.43158,-33.88889,152.4 18.43197,-33.88821,160.02 18.43248,-33.88728,167.64000000000001 18.43283,-33.88659,175.26000000000002 18.43317,-33.88575,175.26000000000002 18.43338,-33.88499,182.88 18.43343,-33.88408,190.5 18.43338,-33.88335,198.12 18.43332,-33.8828,198.12 18.43306,-33.88202,205.74 18.43271,-33.88137,213.36 18.43231,-33.88086,213.36 18.43191,-33.88039,220.98000000000002 18.43134,-33.87997,228.60000000000002 18.4308,-33.87959,228.60000000000002 18.43007,-33.87932,236.22 18.42951,-33.87909,236.22 18.42872,-33.87891,236.22 18.42791,-33.87881,243.84 18.42728,-33.87877,243.84 18.42654,-33.87872,251.46 18.4257,-33.87872,259.08000000000004 18.42475,-33.87872,266.7 18.42407,-33.87877,266.7 18.42344,-33.87886,274.32 18.42258,-33.87895,274.32 18.4219,-33.87909,281.94 18.42127,-33.87918,289.56 18.42064,-33.87932,297.18 18.41981,-33.8795,297.18 18.4192,-33.87964,304.8 18.41852,-33.87982,304.8 18.41795,-33.87997,312.42 18.41721,-33.88021,320.04 18.41667,-33.88037,320.04 18.41589,-33.88058,327.66 18.41509,-33.88076,335.28000000000003 18.41443,-33.88092,335.28000000000003 18.4137,-33.8811,342.90000000000003 18.41297,-33.88124,350.52000000000004 18.41223,-33.88142,358.14000000000004 18.41168,-33.88156,358.14000000000004 18.41084,-33.88174,365.76 18.41023,-33.88188,373.38 18.40961,-33.88206,373.38 18.40877,-33.88229,381 18.40816,-33.88249,388.62 18.40754,-33.88268,388.62 18.40692,-33.88284,396.24 18.40611,-33.88309,396.24 18.40535,-33.8833,403.86 18.40473,-33.88348,403.86 18.40401,-33.88371,411.48 18.40319,-33.88398,411.48 18.40255,-33.88422,419.1 18.40171,-33.88449,419.1 18.40115,-33.88472,426.72 18.40038,-33.88509,426.72 18.39969,-33.88541,434.34000000000003 18.39902,-33.88573,434.34000000000003 18.39844,-33.88602,434.34000000000003 18.39746,-33.88654,441.96000000000004 18.39683,-33.88687,441.96000000000004 18.39603,-33.88728,441.96000000000004 18.39543,-33.88756,441.96000000000004 18.3946,-33.88803,449.58000000000004 18.39397,-33.88834,449.58000000000004 18.3934,-33.88868,449.58000000000004 18.39243,-33.88919,457.20000000000005 18.39169,-33.88961,457.20000000000005 18.39111,-33.88998,457.20000000000005 18.39044,-33.89035,464.82000000000005 18.38982,-33.89081,464.82000000000005 18.38911,-33.89128,472.44 18.38854,-33.8917,472.44 18.38785,-33.89222,472.44 18.38736,-33.89259,472.44 18.3868,-33.89301,480.06 18.38607,-33.8936,480.06 18.38556,-33.89403,480.06 18.38488,-33.89464,480.06 18.38422,-33.8952,487.68 18.38373,-33.89566,487.68 18.38315,-33.8963,487.68 18.38264,-33.89678,487.68 18.38196,-33.89753,487.68 18.38139,-33.89813,487.68 18.38086,-33.89868,487.68 18.38013,-33.89946,495.3 18.37957,-33.90005,495.3 18.37906,-33.90065,495.3 18.37852,-33.90125,502.92 18.37794,-33.90193,502.92 18.37744,-33.9025,502.92 18.37699,-33.90308,502.92 18.37635,-33.90385,510.54 18.37592,-33.90436,510.54 18.37538,-33.90511,510.54 18.37481,-33.90581,510.54 18.37429,-33.90641,510.54 18.37385,-33.90706,510.54 18.37326,-33.90781,510.54 18.37275,-33.90846,518.1600000000001 18.37228,-33.90907,518.1600000000001 18.37177,-33.90981,518.1600000000001 18.37133,-33.91049,510.54 18.37086,-33.91116,510.54 18.3704,-33.91172,518.1600000000001 18.36977,-33.91265,518.1600000000001 18.36931,-33.91333,518.1600000000001 18.3688,-33.91405,518.1600000000001 18.36823,-33.91489,518.1600000000001 18.3678,-33.91557,525.78 18.36737,-33.91619,525.78 18.3669,-33.91685,525.78 18.36623,-33.91772,525.78 18.36578,-33.91837,525.78 18.36533,-33.91905,525.78 18.36337,-33.9218,533.4 18.36191,-33.92368,541.02 18.35989,-33.92638,548.64 18.35804,-33.9289,556.26 18.35597,-33.93173,571.5 18.35429,-33.93416,586.74 18.3539,-33.93475,586.74 18.35333,-33.93558,586.74 18.35289,-33.93621,594.36 18.35233,-33.93713,601.98 18.35193,-33.93782,601.98 18.35148,-33.93846,601.98 18.35094,-33.93937,601.98 18.35036,-33.94029,601.98 18.34997,-33.94105,609.6 18.34952,-33.9418,609.6 18.34911,-33.94245,609.6 18.34868,-33.94322,617.22 18.34722,-33.94574,624.84 18.34574,-33.94831,632.46 18.34396,-33.95134,640.08 18.34257,-33.95389,647.7 18.34095,-33.95691,647.7 18.33956,-33.95948,647.7 18.33693,-33.96423,670.5600000000001 18.33641,-33.96533,670.5600000000001 18.33495,-33.96973,670.5600000000001 18.33458,-33.97196,670.5600000000001 18.33441,-33.97424,678.1800000000001 18.33424,-33.97666,670.5600000000001 18.33418,-33.97908,678.1800000000001 18.33428,-33.98149,670.5600000000001 18.33439,-33.98383,662.94 18.33447,-33.98621,662.94 18.33452,-33.98858,662.94 18.33456,-33.9912,670.5600000000001 18.3345,-33.99358,670.5600000000001 18.33429,-33.99831,670.5600000000001 18.33406,-34.00269,678.1800000000001 18.33394,-34.00552,685.8000000000001 18.33372,-34.0085,693.4200000000001 18.33372,-34.00939,693.4200000000001 18.33377,-34.01047,693.4200000000001 18.33384,-34.0113,693.4200000000001 18.33389,-34.01213,693.4200000000001 18.33412,-34.0133,693.4200000000001 18.33433,-34.01431,693.4200000000001 18.33467,-34.01537,693.4200000000001 18.33498,-34.01619,693.4200000000001 18.33529,-34.01711,693.4200000000001 18.33572,-34.01828,693.4200000000001 18.33601,-34.01912,693.4200000000001 18.33635,-34.02003,693.4200000000001 18.33674,-34.02095,693.4200000000001 18.33725,-34.02209,693.4200000000001 18.33769,-34.02296,693.4200000000001 18.3383,-34.02396,701.0400000000001 18.33882,-34.02484,701.0400000000001 18.33939,-34.02587,708.6600000000001 18.33982,-34.02663,708.6600000000001 18.34033,-34.0275,716.2800000000001 18.34089,-34.02846,716.2800000000001 18.34139,-34.02942,716.2800000000001 18.34185,-34.03024,716.2800000000001 18.34229,-34.03116,716.2800000000001 18.34288,-34.0322,716.2800000000001 18.3433,-34.03304,716.2800000000001 18.34375,-34.03386,716.2800000000001 18.3442,-34.03477,716.2800000000001 18.3447,-34.03574,723.9000000000001 18.34509,-34.03656,723.9000000000001 18.3456,-34.03757,723.9000000000001 18.34605,-34.03853,723.9000000000001 18.34637,-34.03918,723.9000000000001 18.34682,-34.04025,723.9000000000001 18.34717,-34.04114,723.9000000000001 18.34756,-34.04224,723.9000000000001 18.34785,-34.04305,723.9000000000001 18.34823,-34.04411,723.9000000000001 18.34851,-34.04498,716.2800000000001 18.34883,-34.04598,716.2800000000001 18.34919,-34.04709,723.9000000000001 18.3494,-34.04798,723.9000000000001 18.34969,-34.04887,723.9000000000001 18.34997,-34.04993,723.9000000000001 18.35019,-34.05089,723.9000000000001 18.35042,-34.0518,731.52 18.3506,-34.05268,731.52 18.35077,-34.05371,731.52 18.35092,-34.05464,731.52 18.35104,-34.05551,731.52 18.35115,-34.05652,723.9000000000001 18.35123,-34.05743,723.9000000000001 18.35135,-34.05832,731.52 18.35143,-34.05963,723.9000000000001 18.35146,-34.06074,723.9000000000001 18.35152,-34.06167,723.9000000000001 18.35152,-34.06237,723.9000000000001 18.35154,-34.06357,723.9000000000001 18.35154,-34.06467,723.9000000000001 18.35146,-34.06581,723.9000000000001 18.3514,-34.06688,723.9000000000001 18.35129,-34.06776,723.9000000000001 18.35112,-34.06893,723.9000000000001 18.35092,-34.06998,716.2800000000001 18.35076,-34.07089,716.2800000000001 18.35059,-34.07213,716.2800000000001 18.35049,-34.07312,716.2800000000001 18.35031,-34.07419,716.2800000000001 18.35019,-34.07538,716.2800000000001 18.35003,-34.07634,723.9000000000001 18.34975,-34.07716,723.9000000000001 18.34917,-34.0781,723.9000000000001 18.3484,-34.0789,723.9000000000001 18.34763,-34.07945,723.9000000000001 18.34682,-34.07987,723.9000000000001 18.34591,-34.08006,723.9000000000001 18.34476,-34.08005,731.52 18.34385,-34.07973,731.52 18.34311,-34.07912,739.14 18.34274,-34.07822,731.52 18.34276,-34.0774,731.52 18.34313,-34.07671,731.52 18.34402,-34.07596,723.9000000000001 18.34498,-34.07556,723.9000000000001 18.34605,-34.07529,723.9000000000001 18.34728,-34.07521,723.9000000000001 18.34829,-34.07538,723.9000000000001 18.34929,-34.07573,716.2800000000001 18.35009,-34.07619,716.2800000000001 18.35104,-34.07684,716.2800000000001 18.35193,-34.07753,716.2800000000001 18.35272,-34.07813,716.2800000000001 18.35361,-34.07895,716.2800000000001 18.35434,-34.07968,716.2800000000001 18.35513,-34.08046,716.2800000000001 18.35574,-34.08115,716.2800000000001 18.35661,-34.08206,716.2800000000001 18.35731,-34.08279,716.2800000000001 18.3581,-34.08355,716.2800000000001 18.3589,-34.08438,716.2800000000001 18.35976,-34.08517,716.2800000000001 18.36039,-34.08569,716.2800000000001 18.36147,-34.08671,716.2800000000001 18.36245,-34.08755,716.2800000000001 18.36359,-34.08847,716.2800000000001 18.36438,-34.08911,716.2800000000001 18.36531,-34.08983,716.2800000000001 18.36622,-34.09048,708.6600000000001 18.3672,-34.09123,708.6600000000001 18.36808,-34.09186,708.6600000000001 18.36903,-34.09254,708.6600000000001 18.37004,-34.09328,708.6600000000001 18.37091,-34.09388,708.6600000000001 18.37183,-34.09447,701.0400000000001 18.37256,-34.09497,701.0400000000001 18.37368,-34.09575,693.4200000000001 18.37475,-34.09644,693.4200000000001 18.37578,-34.09709,693.4200000000001 18.37665,-34.09767,693.4200000000001 18.37788,-34.0984,693.4200000000001 18.37889,-34.099,693.4200000000001 18.37973,-34.0995,693.4200000000001 18.3807,-34.10012,693.4200000000001 18.38192,-34.10078,685.8000000000001 18.38299,-34.10142,685.8000000000001 18.384,-34.10202,685.8000000000001 18.38493,-34.10258,685.8000000000001 18.38602,-34.10324,678.1800000000001 18.38728,-34.10403,678.1800000000001 18.38831,-34.10463,678.1800000000001 18.3894,-34.10529,678.1800000000001 18.39055,-34.10591,670.5600000000001 18.39186,-34.10668,670.5600000000001 18.39283,-34.10724,670.5600000000001 18.3938,-34.1078,670.5600000000001 18.39512,-34.10855,670.5600000000001 18.39633,-34.10925,670.5600000000001 18.39711,-34.10971,662.94 18.39844,-34.11045,662.94 18.39941,-34.11101,662.94 18.40033,-34.11153,662.94 18.40164,-34.11227,662.94 18.40244,-34.11269,662.94 18.40367,-34.11337,662.94 18.40473,-34.11395,662.94 18.40899,-34.11617,655.32 18.41017,-34.11679,655.32 18.41125,-34.11734,655.32 18.41234,-34.1179,655.32 18.4136,-34.11851,655.32 18.41463,-34.11902,655.32 18.41566,-34.11953,647.7 18.41673,-34.12006,647.7 18.4178,-34.12061,647.7 18.41898,-34.12116,647.7 18.42026,-34.1218,647.7 18.4215,-34.12242,647.7 18.42276,-34.12302,647.7 18.42356,-34.12339,647.7 18.42487,-34.12405,647.7 18.42615,-34.12463,647.7 18.42739,-34.12526,655.32 18.42842,-34.12572,655.32 18.42962,-34.12628,655.32 18.43065,-34.12675,655.32 18.43203,-34.1274,655.32 18.43306,-34.12791,647.7 18.43422,-34.12852,647.7 18.43557,-34.12917,640.08 18.43781,-34.13028,640.08 18.43889,-34.1308,640.08 18.44005,-34.13136,632.46 18.44117,-34.13187,632.46 18.44238,-34.13238,624.84 18.44363,-34.13297,624.84 18.44484,-34.1335,617.22 18.44627,-34.1342,609.6 18.44761,-34.13484,601.98 18.44868,-34.13531,601.98 18.45025,-34.13617,594.36 18.45126,-34.13681,594.36 18.45227,-34.13759,586.74 18.45308,-34.13839,586.74 18.45356,-34.1391,594.36 18.45406,-34.14016,594.36 18.45417,-34.1409,594.36 18.454,-34.14188,601.98 18.45356,-34.14253,609.6 18.45271,-34.14299,609.6 18.45182,-34.14304,609.6 18.45109,-34.14272,601.98 18.45057,-34.1422,594.36 18.45022,-34.14141,594.36 18.45034,-34.1402,586.74 18.45081,-34.13937,586.74 18.45142,-34.13866,594.36 18.45227,-34.13786,594.36 18.45333,-34.13699,594.36 18.45417,-34.13629,594.36 18.45507,-34.13557,594.36 18.45594,-34.1349,594.36 18.45675,-34.13425,594.36 18.45778,-34.1334,594.36 18.45881,-34.13261,594.36 18.45966,-34.13196,601.98 18.46075,-34.13108,601.98 18.46157,-34.13045,601.98 18.46292,-34.1294,601.98 18.4639,-34.12856,601.98 18.46493,-34.12777,601.98 18.46624,-34.1267,601.98 18.46722,-34.12586,601.98 18.46819,-34.12505,601.98 18.46928,-34.12395,601.98 18.47009,-34.12312,601.98 18.47088,-34.12218,601.98 18.47132,-34.12157,609.6 18.47208,-34.12046,609.6 18.4725,-34.11964,609.6 18.47289,-34.11877,609.6 18.47334,-34.11744,609.6 18.47351,-34.11674,609.6 18.47368,-34.11576,609.6 18.47391,-34.1146,609.6 18.47396,-34.1136,617.22 18.47403,-34.11269,624.84 18.47401,-34.11182,632.46 18.47403,-34.11078,632.46 18.47401,-34.10994,632.46 18.47397,-34.10901,624.84 18.4739,-34.10806,617.22 18.4738,-34.10715,609.6 18.47362,-34.10605,609.6 18.47351,-34.105,601.98 18.4734,-34.10431,601.98 18.47322,-34.10315,601.98 18.47306,-34.10216,594.36 18.47288,-34.10124,594.36 18.47271,-34.1004,601.98 18.4725,-34.09932,601.98 18.47233,-34.09818,601.98 18.47214,-34.09714,601.98 18.47197,-34.09626,601.98 18.47174,-34.09523,601.98 18.47155,-34.0941,601.98 18.47138,-34.09341,609.6 18.47111,-34.09235,609.6 18.47088,-34.09131,617.22 18.47071,-34.09062,617.22 18.47048,-34.0896,624.84 18.47032,-34.08879,624.84 18.47015,-34.08769,624.84 18.46998,-34.08682,632.46 18.46962,-34.0848,640.08 18.46947,-34.08366,640.08 18.46928,-34.08276,640.08 18.46908,-34.08165,647.7 18.46897,-34.08078,647.7 18.4688,-34.07991,655.32 18.46869,-34.07877,655.32 18.46858,-34.0779,655.32 18.46847,-34.07684,655.32 18.46841,-34.07593,655.32 18.4683,-34.07498,655.32 18.4683,-34.07368,655.32 18.46824,-34.07268,655.32 18.46819,-34.07177,655.32 18.46819,-34.07107,655.32 18.46819,-34.06991,662.94 18.46813,-34.06911,662.94 18.46813,-34.06795,662.94 18.46807,-34.06697,655.32 18.46807,-34.06599,655.32 18.46807,-34.06488,647.7 18.46813,-34.06367,647.7 18.46819,-34.06274,640.08 18.46825,-34.06181,640.08 18.46835,-34.06046,640.08 18.46842,-34.05967,640.08 18.46848,-34.05855,640.08 18.46853,-34.05743,640.08 18.46859,-34.05673,640.08 18.46858,-34.05565,640.08 18.46859,-34.0545,640.08 18.46865,-34.05375,632.46 18.46863,-34.05263,632.46 18.46863,-34.05144,632.46 18.46863,-34.05057,632.46 18.46865,-34.04942,632.46 18.46863,-34.0464,632.46 18.46859,-34.04361,624.84 18.46853,-34.04002,624.84 18.46841,-34.03693,617.22 18.4683,-34.03387,617.22 18.46819,-34.03001,601.98 18.46807,-34.02599,601.98 18.4679,-34.02289,601.98 18.46785,-34.0201,601.98 18.46774,-34.01894,594.36 18.46767,-34.01796,601.98 18.46757,-34.01692,601.98 18.46745,-34.01586,609.6 18.46739,-34.01474,617.22 18.46734,-34.01372,617.22 18.46733,-34.01255,617.22 18.46727,-34.01153,624.84 18.46727,-34.01069,624.84 18.46727,-34.00967,624.84 18.46723,-34.00859,632.46 18.46718,-34.00557,640.08 18.4671,-34.00278,640.08 18.46701,-33.9993,647.7 18.4669,-33.99619,655.32 18.46684,-33.99243,655.32 18.46687,-33.99044,655.32 18.46687,-33.98965,655.32 18.4669,-33.98859,655.32 18.46695,-33.98772,655.32 18.46716,-33.98667,655.32 18.46729,-33.98589,655.32 18.4675,-33.9849,655.32 18.46768,-33.98401,647.7 18.46791,-33.98291,647.7 18.46802,-33.98204,647.7 18.46813,-33.98103,647.7 18.46824,-33.98016,647.7 18.46836,-33.97913,655.32 18.46848,-33.97843,655.32 18.46858,-33.97733,655.32 18.46869,-33.97618,655.32 18.4688,-33.97531,655.32 18.46891,-33.97444,655.32 18.46908,-33.97339,662.94 18.46919,-33.97247,662.94 18.46928,-33.97168,670.5600000000001 18.46936,-33.97046,678.1800000000001 18.46942,-33.96982,685.8000000000001 18.46939,-33.96889,685.8000000000001 18.46925,-33.9679,693.4200000000001 18.4691,-33.96703,693.4200000000001 18.46886,-33.96602,685.8000000000001 18.46865,-33.96516,685.8000000000001 18.4683,-33.96423,678.1800000000001 18.46802,-33.96363,670.5600000000001 18.46756,-33.96251,670.5600000000001 18.46716,-33.96177,662.94 18.46659,-33.96079,655.32 18.46611,-33.96007,655.32 18.46561,-33.95924,662.94 18.46504,-33.95837,655.32 18.46449,-33.95746,647.7 18.46401,-33.95669,647.7 18.46344,-33.95581,640.08 18.46304,-33.95515,640.08 18.46252,-33.95432,640.08 18.46196,-33.95348,640.08 18.46155,-33.95278,640.08 18.46109,-33.95204,632.46 18.46058,-33.95124,632.46 18.45995,-33.95027,624.84 18.45938,-33.94948,617.22 18.45894,-33.94881,609.6 18.45827,-33.9478,601.98 18.45776,-33.94707,601.98 18.4572,-33.94626,594.36 18.45664,-33.94542,586.74 18.45617,-33.94468,586.74 18.45569,-33.94395,579.12 18.45509,-33.943,571.5 18.45462,-33.94217,563.88 18.45412,-33.94144,563.88 18.45348,-33.94035,563.88 18.45297,-33.93961,556.26 18.45245,-33.93867,556.26 18.452,-33.93793,556.26 18.45148,-33.93709,556.26 18.45102,-33.93621,556.26 18.45053,-33.93535,548.64 18.44997,-33.93434,548.64 18.44954,-33.93346,548.64 18.44913,-33.93265,541.02 18.44873,-33.93183,533.4 18.44834,-33.93095,525.78 18.44788,-33.92997,525.78 18.44745,-33.92903,518.1600000000001 18.44707,-33.92834,510.54 18.44667,-33.92746,502.92 18.44627,-33.9267,495.3 18.44593,-33.9261,487.68 18.44537,-33.925,480.06 18.44498,-33.92427,472.44 18.44461,-33.92345,457.20000000000005 18.44427,-33.92271,449.58000000000004 18.44393,-33.92183,441.96000000000004 18.4437,-33.92103,434.34000000000003 18.44341,-33.92006,426.72 18.44318,-33.91922,419.1 18.44296,-33.91818,403.86 18.44278,-33.91735,403.86 18.44268,-33.91653,396.24 18.44257,-33.91576,388.62 18.44251,-33.9147,381 18.44251,-33.91388,373.38 18.44251,-33.91324,365.76 18.44255,-33.91228,358.14000000000004 18.44255,-33.9113,342.90000000000003 18.44263,-33.91031,327.66 18.44267,-33.90949,312.42 18.44273,-33.9086,304.8 18.44285,-33.90784,297.18 18.44301,-33.90683,281.94 18.44313,-33.90623,274.32 18.44341,-33.90516,259.08000000000004 18.44364,-33.90437,251.46 18.4438,-33.90358,243.84 18.44387,-33.90269,243.84 18.44387,-33.90195,236.22 18.44369,-33.90125,236.22 18.44324,-33.90056,228.60000000000002 18.44274,-33.90005,220.98000000000002 18.4421,-33.89971,205.74 18.4413,-33.89952,198.12 18.44061,-33.89946,182.88 18.43999,-33.89937,175.26000000000002 18.43929,-33.89934,167.64000000000001 18.43843,-33.89934,152.4 18.43763,-33.89934,144.78 18.43689,-33.89934,137.16 18.43618,-33.89937,129.54000000000002 18.43557,-33.89939,121.92 18.43489,-33.89943,114.30000000000001 18.43414,-33.89943,106.68 18.43357,-33.89948,99.06 18.43317,-33.89952,99.06 18.43243,-33.89957,91.44 18.43191,-33.89962,83.82000000000001 18.43122,-33.89962,76.2 18.43082,-33.89962,68.58 18.43013,-33.89964,60.96 18.42973,-33.89964,53.34 18.42934,-33.89971,45.72 18.42912,-33.89969,38.1 18.42889,-33.89973,38.1 18.42861,-33.89973,30.48 18.42833,-33.89978,22.86 18.42805,-33.89983,22.86 18.42779,-33.89985,15.24 18.42756,-33.89976,15.24 18.42693,-33.89932,15.24 18.42665,-33.899,22.86 18.42648,-33.89864,30.48 18.42648,-33.89841,30.48 18.42643,-33.89818,30.48 18.42654,-33.89767,38.1 18.42688,-33.89687,45.72 18.42715,-33.89635,53.34 18.42762,-33.89561,60.96 18.42811,-33.89488,76.2 18.42836,-33.89445,83.82000000000001 18.42888,-33.89361,91.44 18.42934,-33.89301,99.06 18.42968,-33.89245,99.06 18.43024,-33.89159,106.68 18.43057,-33.8909,121.92 18.43105,-33.89003,129.54000000000002 18.4314,-33.88924,137.16 18.43168,-33.88854,144.78 18.43191,-33.88784,152.4 18.43208,-33.88705,160.02 18.4322,-33.88609,167.64000000000001 18.43214,-33.88528,167.64000000000001 18.43198,-33.8844,175.26000000000002 18.43174,-33.88379,182.88 18.43145,-33.88314,190.5 18.43111,-33.88258,198.12 18.43046,-33.88184,205.74 18.42985,-33.88133,213.36 18.42917,-33.88092,220.98000000000002 18.42854,-33.88067,228.60000000000002 18.42791,-33.88049,236.22 18.42705,-33.8803,236.22 18.42648,-33.88023,243.84 18.42573,-33.88016,243.84 18.42493,-33.88016,243.84 18.42402,-33.88023,251.46 18.42334,-33.88028,259.08000000000004 18.42256,-33.88033,266.7 18.4219,-33.88044,266.7 18.42087,-33.88053,274.32 18.42015,-33.88065,274.32 18.41931,-33.88074,281.94 18.41841,-33.88091,281.94 18.41768,-33.88101,289.56 18.41679,-33.88115,297.18 18.41589,-33.88132,297.18 18.41532,-33.88146,304.8 18.41438,-33.88174,304.8 18.4137,-33.88197,312.42 18.41281,-33.88239,320.04 18.41217,-33.88268,327.66 18.41168,-33.88289,335.28000000000003 18.41091,-33.88323,335.28000000000003 18.41011,-33.88358,335.28000000000003 18.40944,-33.88385,335.28000000000003 18.40883,-33.88412,342.90000000000003 18.40787,-33.88449,350.52000000000004 18.40731,-33.88477,350.52000000000004 18.40653,-33.88509,358.14000000000004 18.40569,-33.88545,365.76 18.40502,-33.88575,365.76 18.4044,-33.886,373.38 18.40378,-33.88628,373.38 18.40302,-33.88663,373.38 18.40233,-33.88696,373.38 18.40165,-33.88728,373.38 18.4007,-33.88783,381 18.40004,-33.88821,381 18.3993,-33.88863,388.62 18.39851,-33.88907,388.62 18.39778,-33.88948,396.24 18.39712,-33.88993,396.24 18.39655,-33.8903,403.86 18.39577,-33.89081,403.86 18.39506,-33.89128,411.48 18.39449,-33.89166,411.48 18.3938,-33.89212,411.48 18.39308,-33.89264,419.1 18.39246,-33.89305,419.1 18.39174,-33.89361,419.1 18.39111,-33.89403,426.72 18.39043,-33.89459,426.72 18.38985,-33.89506,426.72 18.38928,-33.89552,426.72 18.38853,-33.89607,426.72 18.38791,-33.89659,434.34000000000003 18.38717,-33.89715,434.34000000000003 18.3864,-33.89772,426.72 18.38585,-33.89822,426.72 18.38512,-33.89882,426.72 18.38453,-33.89929,426.72 18.38383,-33.89983,426.72 18.3831,-33.90047,434.34000000000003 18.38253,-33.90092,434.34000000000003 18.38184,-33.90153,434.34000000000003 18.38136,-33.90198,434.34000000000003 18.38074,-33.90253,441.96000000000004 18.38018,-33.90306,441.96000000000004 18.3794,-33.90385,441.96000000000004 18.37887,-33.90442,441.96000000000004 18.37833,-33.905,441.96000000000004 18.37778,-33.90558,441.96000000000004 18.37721,-33.90618,449.58000000000004 18.37669,-33.90674,449.58000000000004 18.37606,-33.90744,449.58000000000004 18.37555,-33.908,449.58000000000004 18.37497,-33.90866,457.20000000000005 18.37446,-33.90926,457.20000000000005 18.37395,-33.90986,464.82000000000005 18.37332,-33.91051,464.82000000000005 18.37273,-33.91118,472.44 18.37211,-33.91187,472.44 18.37161,-33.91241,472.44 18.37099,-33.9131,472.44 18.37057,-33.91359,480.06 18.36988,-33.91433,480.06 18.36931,-33.91494,480.06 18.3688,-33.91558,472.44 18.36828,-33.91619,472.44 18.36763,-33.91695,472.44 18.36714,-33.9175,472.44 18.36651,-33.91824,472.44 18.36589,-33.91901,480.06 18.36382,-33.92152,487.68 18.36336,-33.92206,495.3 18.36275,-33.92285,495.3 18.36219,-33.92354,502.92 18.36176,-33.92411,502.92 18.36118,-33.92491,510.54 18.36085,-33.92542,510.54 18.36028,-33.92624,518.1600000000001 18.35989,-33.92683,518.1600000000001 18.35953,-33.92736,518.1600000000001 18.35896,-33.92811,525.78 18.35838,-33.9288,525.78 18.35787,-33.92935,525.78 18.35724,-33.93002,525.78 18.35667,-33.93062,533.4 18.35615,-33.93109,533.4 18.35546,-33.93179,541.02 18.3549,-33.93251,541.02 18.35455,-33.93309,548.64 18.35409,-33.93383,541.02 18.35375,-33.93444,541.02 18.35335,-33.93533,541.02 18.353,-33.93608,541.02 18.3526,-33.93677,541.02 18.35232,-33.93742,548.64 18.35188,-33.93828,548.64 18.35152,-33.93905,548.64 18.35106,-33.93993,556.26 18.3507,-33.94066,556.26 18.35019,-33.94167,563.88 18.34974,-33.94249,563.88 18.3493,-33.94331,571.5 18.34885,-33.94405,571.5 18.3484,-33.94487,571.5 18.34791,-33.94561,571.5 18.34757,-33.94617,571.5 18.347,-33.9471,579.12 18.34644,-33.94794,579.12 18.34593,-33.94876,579.12 18.34551,-33.94948,586.74 18.34494,-33.95031,586.74 18.34453,-33.95096,586.74 18.34396,-33.95181,586.74 18.34356,-33.95241,586.74 18.34299,-33.95329,586.74 18.34053,-33.95702,586.74 18.33932,-33.95901,594.36 18.33769,-33.96126,678.1800000000001 18.37481,-33.91615,480.06 18.37704,-33.91335,472.44 18.37955,-33.91047,457.20000000000005 18.38116,-33.90874,441.96000000000004 18.38214,-33.9077,434.34000000000003 18.3831,-33.90674,426.72 18.38402,-33.90581,419.1 18.38488,-33.90497,419.1 18.38585,-33.90409,411.48 18.38663,-33.90335,411.48 18.38769,-33.90244,403.86 18.38842,-33.90179,403.86 18.38923,-33.90115,403.86 18.39014,-33.90041,403.86 18.39123,-33.89964,403.86 18.39223,-33.89896,403.86 18.39306,-33.89841,396.24 18.39449,-33.89753,396.24 18.39554,-33.8969,396.24 18.39649,-33.89639,388.62 18.39784,-33.89571,388.62 18.39907,-33.89516,381 18.40021,-33.89473,381 18.4012,-33.89433,373.38 18.40232,-33.89397,373.38 18.40344,-33.8936,373.38 18.40485,-33.89315,365.76 18.40619,-33.89278,365.76 18.40754,-33.89241,365.76 18.40851,-33.89217,365.76 18.40989,-33.89182,358.14000000000004 18.41131,-33.89143,358.14000000000004 18.41258,-33.89108,358.14000000000004 18.41377,-33.89077,358.14000000000004 18.41499,-33.89044,350.52000000000004 18.41629,-33.89012,350.52000000000004 18.41729,-33.88985,350.52000000000004 18.41869,-33.88947,342.90000000000003 18.41987,-33.88916,342.90000000000003 18.42087,-33.88891,342.90000000000003 18.42228,-33.88857,342.90000000000003 18.4259,-33.88761,335.28000000000003 18.42705,-33.88733,335.28000000000003 18.42822,-33.8871,335.28000000000003 18.42973,-33.88683,335.28000000000003 18.43114,-33.88673,327.66 18.43248,-33.88673,327.66 18.43386,-33.88682,335.28000000000003 18.43529,-33.88705,327.66 18.43646,-33.88733,327.66 18.43775,-33.88775,327.66 18.43881,-33.88815,327.66 18.43981,-33.88858,320.04 18.44067,-33.88905,320.04 18.4417,-33.88966,320.04 18.44268,-33.8904,320.04 18.4433,-33.89099,312.42 18.44404,-33.8917,312.42 18.44461,-33.89231,304.8 18.44524,-33.8931,304.8 18.44559,-33.89375,304.8 18.44582,-33.89447,304.8 18.44571,-33.89502,297.18 18.44519,-33.89571,281.94 18.44476,-33.89598,266.7 18.44419,-33.89626,259.08000000000004 18.44335,-33.89658,243.84 18.44274,-33.8968,228.60000000000002 18.44204,-33.89706,213.36 18.44134,-33.89726,198.12 18.44061,-33.89753,182.88 18.43999,-33.89777,175.26000000000002 18.43941,-33.89794,167.64000000000001 18.43866,-33.89817,152.4 18.43809,-33.89836,144.78 18.43752,-33.8985,144.78 18.43685,-33.89877,129.54000000000002 18.43632,-33.89892,121.92 18.43552,-33.8992,114.30000000000001 18.43483,-33.89943,106.68 18.4342,-33.89962,99.06 18.43369,-33.89981,91.44 18.4331,-33.89996,83.82000000000001 18.43259,-33.9001,76.2 18.43191,-33.90032,68.58 18.43151,-33.90046,68.58 18.43108,-33.90065,60.96 18.43042,-33.90092,45.72 18.43007,-33.90106,45.72 18.42974,-33.9012,38.1 18.42945,-33.90134,38.1 18.42905,-33.90153,30.48 18.42872,-33.90161,30.48 18.42825,-33.90171,22.86 18.428,-33.9017,22.86 18.42777,-33.90166,22.86 18.42755,-33.90157,15.24 18.42732,-33.90138,7.62
        </coordinates>
      </LineString>
    </Placemark>
  </Document>
</kml>