<?xml version="1.0" encoding="UTF-8"?>
<kml xmlns="http://www.opengis.net/kml/2.2">
  <Document>
    <name>FR24 ZSHIM 3df4cdae - Optimised</name>
    <description><![CDATA[Optimised flight path with 1 points (decimated from 1 original points). Source format: Standard KML]]></description>
    
    <Style id="flightPath">
      <LineStyle>
        <color>ff0000ff</color>
        <width>3</width>
      </LineStyle>
    </Style>
    
    <Placemark>
      <name>Flight Path</name>
      <description><![CDATA[Source: ADS-B
Start (SAST): 2026-01-18 12:48:44
End (SAST): 2026-01-18 13:37:48
Points: 970]]></description>
      <styleUrl>#flightPath</styleUrl>
      <LineString>
        <extrude>1</extrude>
        <tessellate>1</tessellate>
        <altitudeMode>absolute</altitudeMode>
        <coordinates>
          18.42753,-33.90075,0 18.42773,-33.90078,0 18.42856,-33.90092,0 18.42878,-33.90097,0 18.42917,-33.90102,0 18.42962,-33.90111,0 18.43019,-33.9012,7.62 18.43048,-33.90125,7.62 18.43071,-33.90129,7.62 18.43147,-33.90138,22.86 18.43174,-33.90144,22.86 18.43197,-33.90144,22.86 18.43231,-33.90147,30.48 18.43282,-33.90152,38.1 18.43338,-33.90157,45.72 18.4342,-33.90153,53.34 18.435,-33.90143,60.96 18.43573,-33.90125,68.58 18.4364,-33.90088,76.2 18.43683,-33.90064,83.82000000000001 18.43758,-33.89996,91.44 18.43803,-33.89939,99.06 18.43849,-33.89859,106.68 18.43872,-33.89785,106.68 18.43878,-33.89724,114.30000000000001 18.43878,-33.89613,121.92 18.43872,-33.8952,129.54000000000002 18.43859,-33.89433,137.16 18.43838,-33.89333,144.78 18.43821,-33.89227,152.4 18.43809,-33.8914,160.02 18.43792,-33.89044,167.64000000000001 18.43775,-33.88942,175.26000000000002 18.43752,-33.88858,182.88 18.43729,-33.88789,182.88 18.43685,-33.88701,190.5 18.43629,-33.886,198.12 18.43534,-33.88482,213.36 18.43466,-33.88407,213.36 18.43391,-33.88346,220.98000000000002 18.43315,-33.88289,228.60000000000002 18.43214,-33.88216,228.60000000000002 18.43128,-33.88169,236.22 18.43041,-33.88129,243.84 18.42923,-33.88083,251.46 18.42825,-33.88049,259.08000000000004 18.42699,-33.88016,274.32 18.42603,-33.87996,281.94 18.4248,-33.87973,297.18 18.42379,-33.8796,304.8 18.4229,-33.8795,304.8 18.42167,-33.87941,312.42 18.42075,-33.87941,320.04 18.41953,-33.87941,327.66 18.41858,-33.87941,335.28000000000003 18.41774,-33.87946,342.90000000000003 18.41658,-33.87946,342.90000000000003 18.41555,-33.87955,350.52000000000004 18.41463,-33.8796,358.14000000000004 18.41366,-33.8797,365.76 18.41246,-33.87979,365.76 18.41154,-33.87993,365.76 18.41056,-33.88005,373.38 18.40944,-33.88028,373.38 18.40828,-33.88049,381 18.40742,-33.88067,381 18.40633,-33.88091,388.62 18.40529,-33.8812,396.24 18.40422,-33.88151,396.24 18.40328,-33.88179,403.86 18.40239,-33.88211,403.86 18.40153,-33.88239,411.48 18.4005,-33.88277,411.48 18.39958,-33.88312,419.1 18.39874,-33.88344,419.1 18.39767,-33.8839,426.72 18.39666,-33.8843,426.72 18.39582,-33.88472,434.34000000000003 18.39487,-33.88513,441.96000000000004 18.39408,-33.88554,441.96000000000004 18.39319,-33.88596,449.58000000000004 18.39223,-33.88646,457.20000000000005 18.39156,-33.88683,457.20000000000005 18.39048,-33.88742,464.82000000000005 18.38963,-33.88789,472.44 18.3887,-33.88843,472.44 18.38781,-33.88889,480.06 18.38711,-33.88933,487.68 18.38625,-33.8898,487.68 18.38534,-33.89035,495.3 18.38459,-33.89082,502.92 18.38373,-33.89133,502.92 18.38293,-33.8918,510.54 18.38198,-33.89232,518.1600000000001 18.38104,-33.89287,525.78 18.38024,-33.89337,533.4 18.37934,-33.89388,541.02 18.37861,-33.89433,541.02 18.3779,-33.89478,541.02 18.37692,-33.89538,548.64 18.37626,-33.89575,556.26 18.37538,-33.89631,556.26 18.37458,-33.89687,563.88 18.37374,-33.89749,563.88 18.37309,-33.89794,571.5 18.37223,-33.89869,579.12 18.37155,-33.89928,579.12 18.37105,-33.89973,579.12 18.37017,-33.90051,586.74 18.36953,-33.90111,594.36 18.36891,-33.90171,594.36 18.3683,-33.9023,594.36 18.36768,-33.90294,601.98 18.36697,-33.90367,601.98 18.36628,-33.90442,601.98 18.36571,-33.90502,609.6 18.36519,-33.90562,609.6 18.36443,-33.90646,609.6 18.36388,-33.90711,617.22 18.36325,-33.90786,617.22 18.36273,-33.90846,617.22 18.36205,-33.90926,624.84 18.36153,-33.90986,624.84 18.36084,-33.9107,624.84 18.3604,-33.91122,624.84 18.35799,-33.91406,640.08 18.35558,-33.91693,647.7 18.35318,-33.92001,647.7 18.35109,-33.92271,647.7 18.34935,-33.92496,647.7 18.347,-33.92789,640.08 18.34437,-33.93086,632.46 18.34207,-33.93338,632.46 18.3415,-33.93402,632.46 18.34005,-33.93562,632.46 18.33801,-33.93789,632.46 18.33579,-33.94038,640.08 18.33366,-33.94277,640.08 18.33153,-33.94524,655.32 18.32903,-33.94827,662.94 18.32731,-33.95031,662.94 18.32531,-33.95278,662.94 18.32268,-33.95609,655.32 18.31879,-33.96093,647.7 18.3157,-33.96502,655.32 18.31297,-33.96881,662.94 18.31026,-33.9728,678.1800000000001 18.30769,-33.97647,685.8000000000001 18.30631,-33.97857,685.8000000000001 18.30454,-33.98132,678.1800000000001 18.30282,-33.98425,670.5600000000001 18.3007,-33.98795,662.94 18.29905,-33.99114,662.94 18.29865,-33.99198,662.94 18.29823,-33.9928,662.94 18.2971,-33.99538,662.94 18.29681,-33.99607,662.94 18.29647,-33.99701,662.94 18.2961,-33.99788,662.94 18.29588,-33.99861,662.94 18.29554,-33.99948,662.94 18.29532,-34.00017,662.94 18.29504,-34.00113,662.94 18.29475,-34.00194,662.94 18.29447,-34.00292,662.94 18.29425,-34.00369,662.94 18.29407,-34.00446,662.94 18.29386,-34.0052,670.5600000000001 18.29375,-34.00571,670.5600000000001 18.2935,-34.00674,670.5600000000001 18.2933,-34.00754,670.5600000000001 18.29315,-34.00832,670.5600000000001 18.29296,-34.00923,670.5600000000001 18.2928,-34.01015,670.5600000000001 18.29268,-34.01088,670.5600000000001 18.29252,-34.01181,670.5600000000001 18.29241,-34.0127,670.5600000000001 18.29229,-34.01353,670.5600000000001 18.29212,-34.01436,670.5600000000001 18.29201,-34.0153,670.5600000000001 18.2919,-34.01624,670.5600000000001 18.29184,-34.01707,662.94 18.29173,-34.01784,662.94 18.29168,-34.0188,662.94 18.29168,-34.01939,662.94 18.29162,-34.02054,655.32 18.29166,-34.02205,655.32 18.29172,-34.02335,647.7 18.29172,-34.02433,647.7 18.29184,-34.02526,647.7 18.2919,-34.02608,640.08 18.29201,-34.02703,640.08 18.29212,-34.02796,640.08 18.29229,-34.02892,632.46 18.29241,-34.02964,632.46 18.29264,-34.03057,624.84 18.29287,-34.03141,624.84 18.29302,-34.03217,624.84 18.29332,-34.03308,617.22 18.29358,-34.03395,617.22 18.29381,-34.03473,609.6 18.29414,-34.03574,601.98 18.29437,-34.03647,601.98 18.29465,-34.03748,594.36 18.29498,-34.03839,586.74 18.29527,-34.03923,579.12 18.29544,-34.03983,579.12 18.29577,-34.04077,571.5 18.29607,-34.04146,571.5 18.2963,-34.04221,571.5 18.29667,-34.0432,571.5 18.29706,-34.04407,563.88 18.29779,-34.04589,563.88 18.29818,-34.04681,563.88 18.29847,-34.04752,556.26 18.29896,-34.0486,556.26 18.29941,-34.04951,556.26 18.29973,-34.05026,556.26 18.30014,-34.05103,556.26 18.30053,-34.05185,556.26 18.30093,-34.05273,556.26 18.30133,-34.05343,556.26 18.30171,-34.05414,556.26 18.3021,-34.05487,556.26 18.30339,-34.05734,548.64 18.30378,-34.05803,548.64 18.3042,-34.05878,548.64 18.30462,-34.05959,548.64 18.30585,-34.06157,548.64 18.30723,-34.06372,556.26 18.30771,-34.06444,556.26 18.3082,-34.06516,556.26 18.3086,-34.06572,556.26 18.30905,-34.06636,556.26 18.30956,-34.06705,556.26 18.31017,-34.06783,556.26 18.3106,-34.06846,556.26 18.31101,-34.06902,556.26 18.31158,-34.06972,556.26 18.31208,-34.07048,548.64 18.31253,-34.07108,548.64 18.31306,-34.07172,548.64 18.31484,-34.07401,541.02 18.31645,-34.07597,541.02 18.31696,-34.07652,541.02 18.31753,-34.07712,541.02 18.31816,-34.07782,541.02 18.31881,-34.07858,541.02 18.31948,-34.07922,541.02 18.3201,-34.07991,533.4 18.32067,-34.08052,533.4 18.3213,-34.08117,533.4 18.32193,-34.08178,533.4 18.32245,-34.08234,533.4 18.32306,-34.08293,541.02 18.32359,-34.08345,533.4 18.32424,-34.08412,541.02 18.32479,-34.08466,541.02 18.32531,-34.08517,541.02 18.32598,-34.08582,541.02 18.32657,-34.08648,533.4 18.3272,-34.08709,533.4 18.32783,-34.08769,533.4 18.3284,-34.0882,533.4 18.32884,-34.0887,533.4 18.32943,-34.08918,533.4 18.33,-34.08979,533.4 18.33069,-34.09035,525.78 18.33138,-34.09095,525.78 18.33215,-34.09154,525.78 18.33286,-34.09207,525.78 18.33349,-34.09253,525.78 18.33428,-34.09309,525.78 18.33509,-34.09365,525.78 18.33578,-34.09411,525.78 18.33647,-34.09458,525.78 18.3371,-34.095,518.1600000000001 18.3379,-34.09551,525.78 18.33859,-34.09598,525.78 18.33933,-34.09639,525.78 18.34022,-34.09694,533.4 18.34078,-34.09726,533.4 18.34179,-34.09784,541.02 18.34263,-34.09831,548.64 18.34339,-34.09867,548.64 18.34403,-34.09904,548.64 18.34499,-34.09956,556.26 18.34571,-34.09991,556.26 18.34671,-34.10044,556.26 18.34757,-34.10091,563.88 18.34829,-34.10133,563.88 18.34919,-34.10175,563.88 18.34997,-34.10216,563.88 18.35072,-34.10254,571.5 18.35176,-34.10307,571.5 18.35249,-34.10347,571.5 18.35339,-34.1039,571.5 18.35409,-34.10417,571.5 18.35501,-34.10458,571.5 18.35574,-34.1049,571.5 18.35658,-34.10532,579.12 18.3573,-34.10561,579.12 18.35804,-34.10596,579.12 18.35894,-34.10637,579.12 18.35964,-34.10668,579.12 18.36073,-34.1072,571.5 18.36153,-34.10757,571.5 18.36247,-34.10802,571.5 18.36331,-34.10838,571.5 18.36421,-34.10884,571.5 18.36505,-34.10925,571.5 18.36588,-34.10966,563.88 18.36657,-34.11003,563.88 18.36737,-34.11041,556.26 18.36824,-34.11081,556.26 18.36897,-34.11113,548.64 18.36992,-34.11159,548.64 18.37065,-34.11191,541.02 18.37143,-34.11222,541.02 18.3725,-34.11273,533.4 18.37318,-34.11305,533.4 18.37406,-34.11343,533.4 18.37486,-34.11378,533.4 18.3757,-34.11415,525.78 18.37635,-34.11446,525.78 18.37709,-34.11478,525.78 18.37801,-34.11515,525.78 18.37878,-34.11552,525.78 18.37955,-34.11581,518.1600000000001 18.38013,-34.11609,518.1600000000001 18.38102,-34.11644,518.1600000000001 18.38158,-34.11667,518.1600000000001 18.38243,-34.11699,510.54 18.38333,-34.11744,510.54 18.38419,-34.11776,510.54 18.38506,-34.11813,510.54 18.38585,-34.11845,510.54 18.38665,-34.11879,510.54 18.38751,-34.11911,510.54 18.38825,-34.11942,510.54 18.38893,-34.11964,510.54 18.3898,-34.12,510.54 18.39071,-34.12032,518.1600000000001 18.39145,-34.12061,518.1600000000001 18.39201,-34.12079,518.1600000000001 18.39274,-34.12106,518.1600000000001 18.39352,-34.12134,510.54 18.3942,-34.12158,510.54 18.39504,-34.12189,510.54 18.39592,-34.12223,510.54 18.39695,-34.1226,510.54 18.39764,-34.12288,510.54 18.39846,-34.12321,502.92 18.39913,-34.12349,502.92 18.39998,-34.12381,502.92 18.4009,-34.12419,495.3 18.4017,-34.12451,495.3 18.40244,-34.12484,487.68 18.40333,-34.12518,487.68 18.40417,-34.12546,487.68 18.40496,-34.12578,487.68 18.40574,-34.12605,495.3 18.4063,-34.12624,487.68 18.4072,-34.12656,487.68 18.40816,-34.12693,487.68 18.40911,-34.12724,487.68 18.40988,-34.12754,487.68 18.41068,-34.12786,487.68 18.41143,-34.12814,487.68 18.41211,-34.12838,487.68 18.41286,-34.12866,487.68 18.41381,-34.12903,495.3 18.4146,-34.1293,495.3 18.41712,-34.13026,502.92 18.41959,-34.13118,502.92 18.42194,-34.1321,502.92 18.4243,-34.13297,502.92 18.42749,-34.13416,502.92 18.43013,-34.13512,510.54 18.43254,-34.13594,510.54 18.43321,-34.13612,510.54 18.43397,-34.13634,510.54 18.43495,-34.13649,510.54 18.4358,-34.13662,510.54 18.43689,-34.13666,510.54 18.43781,-34.13671,510.54 18.4387,-34.13663,518.1600000000001 18.4396,-34.13654,518.1600000000001 18.44067,-34.13634,518.1600000000001 18.44147,-34.13615,518.1600000000001 18.44238,-34.13592,518.1600000000001 18.44319,-34.13562,518.1600000000001 18.44414,-34.13525,525.78 18.44498,-34.13493,525.78 18.44599,-34.13443,518.1600000000001 18.4469,-34.13391,518.1600000000001 18.44767,-34.13351,518.1600000000001 18.44857,-34.13292,510.54 18.44946,-34.13237,510.54 18.45025,-34.13187,510.54 18.45103,-34.13141,518.1600000000001 18.452,-34.13075,518.1600000000001 18.45288,-34.13022,525.78 18.45383,-34.12959,525.78 18.45462,-34.12907,525.78 18.45552,-34.12852,525.78 18.45629,-34.12801,525.78 18.45698,-34.12752,525.78 18.45789,-34.12689,525.78 18.45877,-34.12628,525.78 18.46129,-34.12459,533.4 18.46404,-34.12267,533.4 18.46481,-34.12204,533.4 18.46567,-34.1213,533.4 18.46651,-34.12061,541.02 18.46716,-34.12,541.02 18.46802,-34.11916,541.02 18.46865,-34.11851,533.4 18.46947,-34.11768,541.02 18.47015,-34.11685,533.4 18.4706,-34.1163,533.4 18.47127,-34.11548,533.4 18.47194,-34.11461,533.4 18.47245,-34.11388,533.4 18.47323,-34.11287,533.4 18.47391,-34.11194,525.78 18.47446,-34.11113,525.78 18.47494,-34.11031,525.78 18.47551,-34.10938,525.78 18.47603,-34.1085,525.78 18.47649,-34.10761,525.78 18.477,-34.10654,525.78 18.47738,-34.10555,525.78 18.47763,-34.10482,525.78 18.47799,-34.10376,525.78 18.47832,-34.10287,525.78 18.47856,-34.10188,525.78 18.47884,-34.10078,525.78 18.479,-34.09998,518.1600000000001 18.47923,-34.09854,518.1600000000001 18.47934,-34.09763,510.54 18.47946,-34.09639,510.54 18.47956,-34.09538,510.54 18.47963,-34.09453,502.92 18.47975,-34.0936,502.92 18.4798,-34.09244,502.92 18.4799,-34.09131,502.92 18.48003,-34.0903,502.92 18.48015,-34.08927,495.3 18.48024,-34.0881,495.3 18.48038,-34.08704,495.3 18.48046,-34.08604,495.3 18.48057,-34.08513,495.3 18.48069,-34.08389,495.3 18.48085,-34.08284,495.3 18.48101,-34.08164,495.3 18.48119,-34.08069,495.3 18.48136,-34.07959,495.3 18.48147,-34.07881,502.92 18.48164,-34.07768,502.92 18.48175,-34.07671,502.92 18.48192,-34.07561,495.3 18.48209,-34.07461,495.3 18.48232,-34.07354,495.3 18.48248,-34.07254,495.3 18.4827,-34.0713,495.3 18.48287,-34.07048,495.3 18.48307,-34.06939,495.3 18.48335,-34.06818,487.68 18.48366,-34.06691,487.68 18.48388,-34.06599,487.68 18.48415,-34.06479,487.68 18.48438,-34.06366,487.68 18.48455,-34.06288,487.68 18.48478,-34.06171,487.68 18.48495,-34.06078,487.68 18.48513,-34.05981,487.68 18.48541,-34.05836,487.68 18.48562,-34.05725,487.68 18.48581,-34.05631,480.06 18.4861,-34.05492,480.06 18.48635,-34.05396,480.06 18.48656,-34.05296,480.06 18.4868,-34.0519,472.44 18.48701,-34.05073,472.44 18.48719,-34.04989,464.82000000000005 18.48741,-34.04892,464.82000000000005 18.48759,-34.04775,464.82000000000005 18.48776,-34.04659,464.82000000000005 18.48782,-34.04565,464.82000000000005 18.48797,-34.04457,472.44 18.48804,-34.04374,472.44 18.48814,-34.04256,464.82000000000005 18.48822,-34.04169,464.82000000000005 18.48839,-34.04067,457.20000000000005 18.48848,-34.03972,457.20000000000005 18.48856,-34.03872,457.20000000000005 18.48862,-34.03783,457.20000000000005 18.48873,-34.03672,449.58000000000004 18.48879,-34.03583,449.58000000000004 18.48898,-34.03404,441.96000000000004 18.48909,-34.03313,434.34000000000003 18.48915,-34.03189,434.34000000000003 18.48919,-34.03076,426.72 18.48921,-34.02983,426.72 18.48925,-34.02894,419.1 18.48925,-34.02773,411.48 18.48926,-34.02686,411.48 18.48925,-34.02568,411.48 18.48921,-34.0247,411.48 18.48921,-34.02361,411.48 18.48913,-34.02252,411.48 18.48915,-34.02145,411.48 18.48913,-34.02037,403.86 18.48913,-34.01944,403.86 18.48907,-34.01833,403.86 18.48909,-34.01624,403.86 18.48909,-34.01532,396.24 18.48907,-34.01414,396.24 18.48907,-34.01325,388.62 18.48904,-34.0123,388.62 18.48898,-34.01129,388.62 18.48896,-34.01004,381 18.48887,-34.009,381 18.48881,-34.00809,381 18.48879,-34.00711,373.38 18.48873,-34.00566,373.38 18.4887,-34.0047,373.38 18.48862,-34.00371,373.38 18.48856,-34.00254,373.38 18.4885,-34.00068,365.76 18.4885,-33.99957,365.76 18.4885,-33.99854,358.14000000000004 18.48853,-33.99756,358.14000000000004 18.48853,-33.99664,358.14000000000004 18.48859,-33.99554,350.52000000000004 18.48862,-33.99459,350.52000000000004 18.48867,-33.99366,350.52000000000004 18.48873,-33.99249,350.52000000000004 18.48879,-33.99151,350.52000000000004 18.48887,-33.99037,350.52000000000004 18.48898,-33.98946,350.52000000000004 18.48902,-33.98835,350.52000000000004 18.48907,-33.98742,358.14000000000004 18.48915,-33.98648,358.14000000000004 18.48919,-33.98532,358.14000000000004 18.48932,-33.98222,358.14000000000004 18.48932,-33.9792,365.76 18.4893,-33.97792,365.76 18.48926,-33.97595,365.76 18.48926,-33.97504,365.76 18.48921,-33.9738,365.76 18.48907,-33.97266,365.76 18.48902,-33.97192,358.14000000000004 18.48887,-33.97073,358.14000000000004 18.48879,-33.96982,358.14000000000004 18.48859,-33.96863,358.14000000000004 18.48848,-33.96771,358.14000000000004 18.48825,-33.96657,358.14000000000004 18.4881,-33.96549,358.14000000000004 18.48782,-33.96405,358.14000000000004 18.48759,-33.96302,358.14000000000004 18.48736,-33.96185,358.14000000000004 18.48713,-33.96071,358.14000000000004 18.4869,-33.95981,358.14000000000004 18.48667,-33.95869,358.14000000000004 18.48646,-33.95773,358.14000000000004 18.48627,-33.95688,358.14000000000004 18.48584,-33.95471,358.14000000000004 18.48558,-33.95357,350.52000000000004 18.48507,-33.95134,342.90000000000003 18.48427,-33.94803,335.28000000000003 18.48349,-33.94505,320.04 18.48326,-33.94432,320.04 18.48287,-33.94299,320.04 18.48259,-33.94208,320.04 18.48227,-33.94101,320.04 18.48186,-33.93988,312.42 18.48158,-33.93901,312.42 18.48119,-33.93787,312.42 18.48085,-33.93695,304.8 18.48043,-33.93584,297.18 18.4798,-33.93411,289.56 18.4794,-33.93295,289.56 18.47856,-33.93082,274.32 18.47816,-33.92986,274.32 18.47769,-33.92871,266.7 18.47729,-33.92783,266.7 18.47687,-33.92693,259.08000000000004 18.47649,-33.9262,266.7 18.47603,-33.92528,266.7 18.4753,-33.92404,266.7 18.47488,-33.92313,266.7 18.47429,-33.92212,259.08000000000004 18.4738,-33.92126,259.08000000000004 18.47334,-33.92033,251.46 18.47282,-33.91954,251.46 18.47231,-33.91856,243.84 18.47179,-33.91773,243.84 18.47121,-33.91672,236.22 18.4706,-33.91585,228.60000000000002 18.47008,-33.91498,228.60000000000002 18.46939,-33.91405,228.60000000000002 18.46888,-33.91326,228.60000000000002 18.46819,-33.91228,220.98000000000002 18.46751,-33.91132,213.36 18.46673,-33.91026,205.74 18.46624,-33.90958,198.12 18.4655,-33.90856,190.5 18.46481,-33.90772,182.88 18.46418,-33.90683,182.88 18.46361,-33.90604,182.88 18.46286,-33.90509,182.88 18.46235,-33.90442,182.88 18.46178,-33.90367,190.5 18.46101,-33.90262,190.5 18.46029,-33.90171,182.88 18.45978,-33.90102,182.88 18.45938,-33.90046,182.88 18.45866,-33.89955,175.26000000000002 18.45815,-33.89886,175.26000000000002 18.45742,-33.89795,175.26000000000002 18.45681,-33.89722,167.64000000000001 18.45613,-33.89644,160.02 18.45549,-33.89576,160.02 18.45485,-33.8952,160.02 18.45394,-33.89445,152.4 18.4532,-33.89394,144.78 18.4524,-33.89338,137.16 18.45142,-33.89282,129.54000000000002 18.45039,-33.89236,121.92 18.44963,-33.89204,114.30000000000001 18.44851,-33.89172,106.68 18.44765,-33.89157,99.06 18.44672,-33.8914,91.44 18.44582,-33.89133,83.82000000000001 18.44504,-33.89131,76.2 18.44421,-33.89138,68.58 18.44347,-33.89143,60.96 18.44238,-33.89161,53.34 18.44135,-33.8918,45.72 18.4405,-33.892,45.72 18.44009,-33.89212,38.1 18.43969,-33.89222,38.1 18.43918,-33.89236,38.1 18.43887,-33.89241,38.1 18.43825,-33.89259,30.48 18.43798,-33.89268,30.48 18.43764,-33.89278,30.48 18.43712,-33.89296,30.48 18.4366,-33.89315,22.86 18.43632,-33.89329,22.86 18.43584,-33.89351,22.86 18.4354,-33.89375,15.24 18.43483,-33.89408,15.24 18.43443,-33.89426,15.24 18.4341,-33.89447,15.24 18.4334,-33.89487,15.24 18.4331,-33.89507,15.24 18.43277,-33.89524,7.62 18.43237,-33.89548,7.62 18.43198,-33.89575,7.62 18.43158,-33.89603,7.62 18.43122,-33.89631,0 18.43094,-33.8965,0 18.43057,-33.89676,0 18.43035,-33.89694,0 18.43001,-33.89717,0 18.42979,-33.89738,0 18.42945,-33.89762,0 18.42923,-33.89781,0 18.42895,-33.89804,0 18.42867,-33.89836,0 18.42842,-33.89864,0 18.42825,-33.89887,0 18.42808,-33.89915,0 18.428,-33.89937,0 18.42788,-33.89964,0 18.42785,-33.89994,0 18.42777,-33.90015,0 18.42773,-33.90036,0 18.42768,-33.9006,0 18.42766,-33.90083,0 18.42811,-33.90102,0 18.42872,-33.90115,0 18.429,-33.9012,0 18.42928,-33.90125,7.62 18.42951,-33.90129,7.62 18.42979,-33.90134,15.24 18.43007,-33.90138,15.24 18.43037,-33.90144,22.86 18.4306,-33.90144,22.86 18.43085,-33.90143,30.48 18.43114,-33.90147,30.48 18.43153,-33.90143,38.1 18.43186,-33.90143,38.1 18.43248,-33.90129,53.34 18.43304,-33.90115,60.96 18.43391,-33.90083,76.2 18.4346,-33.90046,83.82000000000001 18.43517,-33.90015,91.44 18.43584,-33.89964,106.68 18.43632,-33.8992,114.30000000000001 18.43695,-33.8985,129.54000000000002 18.43735,-33.89794,137.16 18.43781,-33.89722,152.4 18.43826,-33.89641,160.02 18.43865,-33.89566,167.64000000000001 18.43901,-33.89492,175.26000000000002 18.43924,-33.89422,182.88 18.43952,-33.89329,190.5 18.43964,-33.89245,198.12 18.43971,-33.89168,198.12 18.43977,-33.89072,205.74 18.43971,-33.88994,213.36 18.43964,-33.8891,220.98000000000002 18.43949,-33.88811,228.60000000000002 18.43918,-33.88714,236.22 18.43895,-33.8864,236.22 18.43849,-33.88542,243.84 18.43809,-33.88472,251.46 18.43758,-33.88398,251.46 18.43691,-33.88312,259.08000000000004 18.43637,-33.88249,266.7 18.43563,-33.88179,274.32 18.43489,-33.88115,281.94 18.4341,-33.88051,289.56 18.43311,-33.87979,297.18 18.43226,-33.87927,304.8 18.43145,-33.87881,304.8 18.43037,-33.87825,312.42 18.42945,-33.87785,320.04 18.42859,-33.87751,327.66 18.42743,-33.87712,335.28000000000003 18.4263,-33.87676,342.90000000000003 18.42539,-33.87653,342.90000000000003 18.42424,-33.87634,350.52000000000004 18.42316,-33.8762,358.14000000000004 18.42233,-33.87611,358.14000000000004 18.4211,-33.87602,373.38 18.42015,-33.87598,381 18.41921,-33.87597,388.62 18.41824,-33.87597,396.24 18.41692,-33.87606,403.86 18.41612,-33.87611,403.86 18.41497,-33.8762,411.48 18.41398,-33.87634,419.1 18.41258,-33.87657,426.72 18.4116,-33.87676,434.34000000000003 18.41068,-33.87694,441.96000000000004 18.4095,-33.87726,449.58000000000004 18.40838,-33.87753,449.58000000000004 18.40725,-33.87783,457.20000000000005 18.40633,-33.87811,464.82000000000005 18.40536,-33.87839,472.44 18.40422,-33.87877,472.44 18.40328,-33.87909,480.06 18.40232,-33.87941,487.68 18.40148,-33.87968,487.68 18.40038,-33.88007,495.3 18.39952,-33.88037,502.92 18.39851,-33.88074,502.92 18.39741,-33.88118,510.54 18.39672,-33.88146,518.1600000000001 18.39569,-33.88193,525.78 18.39481,-33.88229,525.78 18.3938,-33.88275,533.4 18.39272,-33.88323,541.02 18.39184,-33.88362,541.02 18.391,-33.88398,541.02 18.38985,-33.88454,548.64 18.38888,-33.88496,548.64 18.38814,-33.88531,548.64 18.38711,-33.88579,548.64 18.38629,-33.88618,548.64 18.38562,-33.88655,548.64 18.38472,-33.88701,548.64 18.38373,-33.88756,556.26 18.38304,-33.88797,556.26 18.38203,-33.88852,563.88 18.38121,-33.889,563.88 18.38041,-33.88952,563.88 18.37978,-33.88989,563.88 18.37884,-33.89049,563.88 18.37807,-33.89091,563.88 18.37732,-33.89138,563.88 18.37637,-33.892,563.88 18.37553,-33.89255,563.88 18.37475,-33.89305,563.88 18.37407,-33.89351,556.26 18.37315,-33.89417,556.26 18.37223,-33.89478,556.26 18.37133,-33.89543,556.26 18.37065,-33.89598,556.26 18.37,-33.89645,563.88 18.36903,-33.89722,556.26 18.36823,-33.89785,556.26 18.36746,-33.89841,556.26 18.36668,-33.89901,563.88 18.366,-33.89955,563.88 18.36531,-33.90013,571.5 18.36456,-33.90074,571.5 18.3637,-33.90147,571.5 18.36303,-33.90202,579.12 18.36236,-33.90257,579.12 18.36146,-33.90331,579.12 18.36079,-33.90385,586.74 18.36017,-33.90436,586.74 18.3595,-33.90486,594.36 18.35884,-33.90544,594.36 18.3581,-33.90604,601.98 18.35535,-33.9082,617.22 18.3539,-33.90935,617.22 18.35328,-33.90985,617.22 18.35266,-33.91037,617.22 18.35193,-33.911,617.22 18.35137,-33.9115,617.22 18.35077,-33.91209,617.22 18.35019,-33.9126,617.22 18.34951,-33.91326,617.22 18.34896,-33.91383,617.22 18.34829,-33.91457,609.6 18.34763,-33.91526,609.6 18.34717,-33.91577,609.6 18.34648,-33.91661,601.98 18.34591,-33.91726,601.98 18.34539,-33.91792,601.98 18.34494,-33.91847,601.98 18.34431,-33.91928,601.98 18.34379,-33.92001,601.98 18.34351,-33.92057,601.98 18.34319,-33.92143,601.98 18.34311,-33.9222,609.6 18.34319,-33.92303,609.6 18.34358,-33.9239,609.6 18.34408,-33.92448,601.98 18.34476,-33.92504,601.98 18.34574,-33.9255,594.36 18.34654,-33.92569,594.36 18.34763,-33.92583,586.74 18.34877,-33.92574,579.12 18.3498,-33.9255,579.12 18.35115,-33.925,586.74 18.3521,-33.92455,586.74 18.353,-33.92401,594.36 18.35401,-33.92336,601.98 18.35478,-33.92285,601.98 18.35569,-33.92215,601.98 18.35664,-33.92139,601.98 18.35758,-33.92066,601.98 18.35833,-33.92001,601.98 18.35933,-33.91928,601.98 18.36017,-33.91864,594.36 18.36096,-33.91805,594.36 18.36205,-33.91726,586.74 18.3629,-33.9167,586.74 18.36387,-33.91599,586.74 18.36468,-33.91545,586.74 18.36559,-33.91479,594.36 18.36679,-33.91397,594.36 18.36774,-33.91333,594.36 18.36851,-33.91279,586.74 18.36937,-33.91219,586.74 18.37037,-33.9115,586.74 18.37114,-33.91093,586.74 18.37211,-33.91026,586.74 18.3732,-33.90949,586.74 18.37389,-33.90902,579.12 18.3748,-33.90843,579.12 18.37598,-33.90765,579.12 18.37698,-33.90702,571.5 18.37783,-33.90646,571.5 18.37887,-33.90581,563.88 18.37979,-33.90527,563.88 18.38087,-33.90465,556.26 18.38219,-33.9039,556.26 18.38299,-33.90344,556.26 18.38396,-33.90292,548.64 18.38505,-33.90237,541.02 18.38607,-33.90184,541.02 18.38671,-33.90148,533.4 18.38769,-33.90097,525.78 18.38865,-33.90051,518.1600000000001 18.38974,-33.8999,510.54 18.39083,-33.89939,510.54 18.39173,-33.89896,502.92 18.39272,-33.8985,502.92 18.39357,-33.89808,495.3 18.3946,-33.89762,487.68 18.3954,-33.89724,480.06 18.39655,-33.89671,472.44 18.39764,-33.89627,457.20000000000005 18.39846,-33.89589,457.20000000000005 18.39941,-33.89548,449.58000000000004 18.4005,-33.89501,441.96000000000004 18.40154,-33.89456,434.34000000000003 18.40249,-33.89415,419.1 18.40359,-33.89371,411.48 18.40462,-33.89328,403.86 18.40557,-33.89291,388.62 18.40658,-33.8925,388.62 18.40776,-33.89204,381 18.40866,-33.89168,381 18.40977,-33.89124,381 18.41084,-33.89076,373.38 18.4118,-33.89035,373.38 18.41258,-33.89003,365.76 18.41376,-33.88953,365.76 18.41463,-33.88919,358.14000000000004 18.41578,-33.88875,342.90000000000003 18.4169,-33.88834,335.28000000000003 18.41789,-33.88794,327.66 18.41886,-33.8876,320.04 18.41978,-33.88728,320.04 18.42071,-33.88696,312.42 18.42167,-33.88663,297.18 18.42295,-33.88623,281.94 18.42379,-33.88596,274.32 18.42516,-33.88547,266.7 18.42603,-33.88522,251.46 18.42699,-33.88499,243.84 18.42811,-33.88477,236.22 18.42906,-33.88458,220.98000000000002 18.43025,-33.88449,213.36 18.43111,-33.88449,205.74 18.43231,-33.88467,190.5 18.43317,-33.88496,175.26000000000002 18.43377,-33.88527,167.64000000000001 18.43443,-33.88579,152.4 18.43477,-33.88621,144.78 18.43512,-33.88696,129.54000000000002 18.43517,-33.88742,129.54000000000002 18.43512,-33.88821,114.30000000000001 18.43483,-33.88893,99.06 18.43443,-33.88942,91.44 18.43366,-33.89003,76.2 18.433,-33.8904,68.58 18.43208,-33.89077,53.34 18.43117,-33.89115,45.72 18.43052,-33.89136,45.72 18.43018,-33.89149,38.1 18.42968,-33.89168,38.1 18.42934,-33.89185,30.48 18.42906,-33.892,30.48 18.42871,-33.89217,30.48 18.4285,-33.89232,22.86 18.42813,-33.89264,22.86 18.42785,-33.89291,22.86 18.42755,-33.89333,22.86 18.42739,-33.89371,15.24 18.42733,-33.89394,15.24 18.42728,-33.89417,15.24 18.42727,-33.89438,7.62 18.42727,-33.8947,7.62 18.42728,-33.89496,7.62 18.42727,-33.89525,7.62 18.42728,-33.89566,7.62 18.42733,-33.89589,7.62 18.42738,-33.8963,0 18.42739,-33.89673,0 18.42743,-33.89699,0 18.42745,-33.89738,0 18.42749,-33.89763,0 18.42755,-33.89786,0 18.4276,-33.89818,0 18.42773,-33.89841,0 18.42785,-33.89878,0 18.42796,-33.89906,0 18.42811,-33.89928,0 18.42831,-33.89952,0
        </coordinates>
      </LineString>
    </Placemark>
  </Document>
</kml>