<?xml version="1.0" encoding="UTF-8"?>
<kml xmlns="http://www.opengis.net/kml/2.2" xmlns:gx="http://www.google.com/kml/ext/2.2"><Folder ><Folder ><name >ZT-RNW track</name>
<Placemark ><name >ZT-RNW</name>
<Style ><LineStyle ><color >ff1c1ae3</color>
<width >4</width>
</LineStyle>
<IconStyle ><Icon ><href >http://maps.google.com/mapfiles/kml/shapes/airports.png</href>
</Icon>
</IconStyle>
</Style>
<gx:Track ><altitudeMode >absolute</altitudeMode>
<extrude >1</extrude>
<when >2025-11-18T14:41:44.850Z</when>
<when >2025-11-18T14:41:44.850Z</when>
<when >2025-11-18T14:41:48.910Z</when>
<when >2025-11-18T14:41:50.840Z</when>
<when >2025-11-18T14:41:52.940Z</when>
<when >2025-11-18T14:41:54.910Z</when>
<when >2025-11-18T14:41:58.510Z</when>
<when >2025-11-18T14:42:09.350Z</when>
<when >2025-11-18T14:42:11.230Z</when>
<when >2025-11-18T14:42:13.240Z</when>
<when >2025-11-18T14:42:15.370Z</when>
<when >2025-11-18T14:42:17.340Z</when>
<when >2025-11-18T14:42:17.340Z</when>
<when >2025-11-18T14:42:19.190Z</when>
<when >2025-11-18T14:42:21.010Z</when>
<when >2025-11-18T14:42:22.850Z</when>
<when >2025-11-18T14:42:26.300Z</when>
<when >2025-11-18T14:42:27.840Z</when>
<when >2025-11-18T14:42:29.200Z</when>
<when >2025-11-18T14:42:32.520Z</when>
<when >2025-11-18T14:42:34.260Z</when>
<when >2025-11-18T14:42:38.000Z</when>
<when >2025-11-18T14:42:41.970Z</when>
<when >2025-11-18T14:42:44.080Z</when>
<when >2025-11-18T14:42:46.090Z</when>
<when >2025-11-18T14:42:49.920Z</when>
<when >2025-11-18T14:42:53.080Z</when>
<when >2025-11-18T14:42:54.920Z</when>
<when >2025-11-18T14:42:59.180Z</when>
<when >2025-11-18T14:43:06.250Z</when>
<when >2025-11-18T14:43:08.250Z</when>
<when >2025-11-18T14:43:10.110Z</when>
<when >2025-11-18T14:43:10.270Z</when>
<when >2025-11-18T14:43:12.150Z</when>
<when >2025-11-18T14:43:12.150Z</when>
<when >2025-11-18T14:43:14.260Z</when>
<when >2025-11-18T14:43:14.260Z</when>
<when >2025-11-18T14:43:16.210Z</when>
<when >2025-11-18T14:43:18.000Z</when>
<when >2025-11-18T14:43:18.010Z</when>
<when >2025-11-18T14:43:19.680Z</when>
<when >2025-11-18T14:43:21.940Z</when>
<when >2025-11-18T14:43:26.950Z</when>
<when >2025-11-18T14:43:29.040Z</when>
<when >2025-11-18T14:43:31.120Z</when>
<when >2025-11-18T14:43:34.970Z</when>
<when >2025-11-18T14:43:37.090Z</when>
<when >2025-11-18T14:43:40.890Z</when>
<when >2025-11-18T14:43:42.810Z</when>
<when >2025-11-18T14:43:46.490Z</when>
<when >2025-11-18T14:43:51.590Z</when>
<when >2025-11-18T14:43:53.890Z</when>
<when >2025-11-18T14:43:55.890Z</when>
<when >2025-11-18T14:43:59.330Z</when>
<when >2025-11-18T14:44:03.910Z</when>
<when >2025-11-18T14:44:06.130Z</when>
<when >2025-11-18T14:44:09.320Z</when>
<when >2025-11-18T14:44:12.860Z</when>
<when >2025-11-18T14:44:16.590Z</when>
<when >2025-11-18T14:44:20.830Z</when>
<when >2025-11-18T14:44:24.130Z</when>
<when >2025-11-18T14:44:29.030Z</when>
<when >2025-11-18T14:44:32.980Z</when>
<when >2025-11-18T14:44:38.720Z</when>
<when >2025-11-18T14:44:42.610Z</when>
<when >2025-11-18T14:44:46.220Z</when>
<when >2025-11-18T14:44:51.290Z</when>
<when >2025-11-18T14:44:57.110Z</when>
<when >2025-11-18T14:45:00.810Z</when>
<when >2025-11-18T14:45:06.870Z</when>
<when >2025-11-18T14:45:12.110Z</when>
<when >2025-11-18T14:45:15.960Z</when>
<when >2025-11-18T14:45:24.170Z</when>
<when >2025-11-18T14:45:29.920Z</when>
<when >2025-11-18T14:45:36.310Z</when>
<when >2025-11-18T14:45:40.120Z</when>
<when >2025-11-18T14:45:46.930Z</when>
<when >2025-11-18T14:45:53.590Z</when>
<when >2025-11-18T14:46:05.220Z</when>
<when >2025-11-18T14:46:12.680Z</when>
<when >2025-11-18T14:46:24.040Z</when>
<when >2025-11-18T14:46:35.880Z</when>
<when >2025-11-18T14:46:48.990Z</when>
<when >2025-11-18T14:46:58.470Z</when>
<when >2025-11-18T14:47:06.520Z</when>
<when >2025-11-18T14:47:16.900Z</when>
<when >2025-11-18T14:47:28.760Z</when>
<when >2025-11-18T14:47:37.950Z</when>
<when >2025-11-18T14:47:46.760Z</when>
<when >2025-11-18T14:47:58.060Z</when>
<when >2025-11-18T14:48:04.070Z</when>
<when >2025-11-18T14:48:18.710Z</when>
<when >2025-11-18T14:48:24.550Z</when>
<when >2025-11-18T14:48:35.040Z</when>
<when >2025-11-18T14:48:48.650Z</when>
<when >2025-11-18T14:48:52.820Z</when>
<when >2025-11-18T14:48:58.510Z</when>
<when >2025-11-18T14:49:05.480Z</when>
<when >2025-11-18T14:49:13.820Z</when>
<when >2025-11-18T14:49:22.480Z</when>
<when >2025-11-18T14:49:26.530Z</when>
<when >2025-11-18T14:49:34.770Z</when>
<when >2025-11-18T14:49:50.510Z</when>
<when >2025-11-18T14:50:05.640Z</when>
<when >2025-11-18T14:50:25.470Z</when>
<when >2025-11-18T14:50:36.690Z</when>
<when >2025-11-18T14:50:39.240Z</when>
<when >2025-11-18T14:50:43.250Z</when>
<when >2025-11-18T14:50:43.250Z</when>
<when >2025-11-18T14:50:44.660Z</when>
<when >2025-11-18T14:50:47.240Z</when>
<when >2025-11-18T14:50:48.240Z</when>
<when >2025-11-18T14:50:49.860Z</when>
<when >2025-11-18T14:50:52.150Z</when>
<when >2025-11-18T14:50:53.330Z</when>
<when >2025-11-18T14:50:55.780Z</when>
<when >2025-11-18T14:50:56.670Z</when>
<when >2025-11-18T14:50:58.640Z</when>
<when >2025-11-18T14:50:59.440Z</when>
<when >2025-11-18T14:51:01.750Z</when>
<when >2025-11-18T14:51:02.920Z</when>
<when >2025-11-18T14:51:05.520Z</when>
<when >2025-11-18T14:51:07.480Z</when>
<when >2025-11-18T14:51:10.490Z</when>
<when >2025-11-18T14:51:14.820Z</when>
<when >2025-11-18T14:51:19.250Z</when>
<when >2025-11-18T14:51:31.880Z</when>
<when >2025-11-18T14:51:44.760Z</when>
<when >2025-11-18T14:51:51.910Z</when>
<when >2025-11-18T14:52:02.510Z</when>
<when >2025-11-18T14:52:14.910Z</when>
<when >2025-11-18T14:52:24.120Z</when>
<when >2025-11-18T14:52:33.840Z</when>
<when >2025-11-18T14:52:42.770Z</when>
<when >2025-11-18T14:52:55.360Z</when>
<when >2025-11-18T14:53:01.960Z</when>
<when >2025-11-18T14:53:06.920Z</when>
<when >2025-11-18T14:53:08.020Z</when>
<when >2025-11-18T14:53:14.330Z</when>
<when >2025-11-18T14:53:19.390Z</when>
<when >2025-11-18T14:53:28.460Z</when>
<when >2025-11-18T14:53:33.740Z</when>
<when >2025-11-18T14:53:38.500Z</when>
<when >2025-11-18T14:53:45.320Z</when>
<when >2025-11-18T14:54:00.140Z</when>
<when >2025-11-18T14:54:13.830Z</when>
<when >2025-11-18T14:54:23.890Z</when>
<when >2025-11-18T14:54:35.410Z</when>
<when >2025-11-18T14:54:42.480Z</when>
<when >2025-11-18T14:54:51.120Z</when>
<when >2025-11-18T14:54:57.150Z</when>
<when >2025-11-18T14:55:05.790Z</when>
<when >2025-11-18T14:55:11.740Z</when>
<when >2025-11-18T14:55:16.970Z</when>
<when >2025-11-18T14:55:22.460Z</when>
<when >2025-11-18T14:55:30.030Z</when>
<when >2025-11-18T14:55:35.370Z</when>
<when >2025-11-18T14:55:38.660Z</when>
<when >2025-11-18T14:55:43.830Z</when>
<when >2025-11-18T14:55:47.530Z</when>
<when >2025-11-18T14:55:51.190Z</when>
<when >2025-11-18T14:55:55.160Z</when>
<when >2025-11-18T14:55:56.980Z</when>
<when >2025-11-18T14:56:00.460Z</when>
<when >2025-11-18T14:56:04.040Z</when>
<when >2025-11-18T14:56:06.170Z</when>
<when >2025-11-18T14:56:09.150Z</when>
<when >2025-11-18T14:56:12.790Z</when>
<when >2025-11-18T14:56:16.440Z</when>
<when >2025-11-18T14:56:18.270Z</when>
<when >2025-11-18T14:56:22.010Z</when>
<when >2025-11-18T14:56:24.170Z</when>
<when >2025-11-18T14:56:25.240Z</when>
<when >2025-11-18T14:56:28.000Z</when>
<when >2025-11-18T14:56:33.390Z</when>
<when >2025-11-18T14:56:40.000Z</when>
<when >2025-11-18T14:56:45.010Z</when>
<when >2025-11-18T14:56:48.560Z</when>
<when >2025-11-18T14:56:51.630Z</when>
<when >2025-11-18T14:56:55.430Z</when>
<when >2025-11-18T14:56:57.360Z</when>
<when >2025-11-18T14:56:59.240Z</when>
<when >2025-11-18T14:57:01.090Z</when>
<when >2025-11-18T14:57:03.190Z</when>
<when >2025-11-18T14:57:05.350Z</when>
<when >2025-11-18T14:57:08.830Z</when>
<when >2025-11-18T14:57:12.250Z</when>
<when >2025-11-18T14:57:17.330Z</when>
<when >2025-11-18T14:57:20.500Z</when>
<when >2025-11-18T14:57:24.050Z</when>
<when >2025-11-18T14:57:27.710Z</when>
<when >2025-11-18T14:57:31.380Z</when>
<when >2025-11-18T14:57:33.450Z</when>
<when >2025-11-18T14:57:35.390Z</when>
<when >2025-11-18T14:57:35.520Z</when>
<when >2025-11-18T14:57:39.180Z</when>
<when >2025-11-18T14:57:43.060Z</when>
<when >2025-11-18T14:57:45.090Z</when>
<when >2025-11-18T14:57:46.850Z</when>
<when >2025-11-18T14:57:48.680Z</when>
<when >2025-11-18T14:57:51.880Z</when>
<when >2025-11-18T14:57:56.950Z</when>
<when >2025-11-18T14:57:58.420Z</when>
<when >2025-11-18T14:58:00.020Z</when>
<when >2025-11-18T14:58:03.730Z</when>
<when >2025-11-18T14:58:11.500Z</when>
<when >2025-11-18T15:04:07.750Z</when>
<when >2025-11-18T15:04:09.580Z</when>
<when >2025-11-18T15:04:12.770Z</when>
<when >2025-11-18T15:04:14.290Z</when>
<when >2025-11-18T15:04:14.290Z</when>
<when >2025-11-18T15:04:15.850Z</when>
<when >2025-11-18T15:04:18.550Z</when>
<when >2025-11-18T15:04:19.830Z</when>
<when >2025-11-18T15:04:23.330Z</when>
<when >2025-11-18T15:04:28.970Z</when>
<when >2025-11-18T15:04:33.120Z</when>
<when >2025-11-18T15:04:35.260Z</when>
<when >2025-11-18T15:04:35.260Z</when>
<when >2025-11-18T15:04:41.130Z</when>
<when >2025-11-18T15:04:43.530Z</when>
<when >2025-11-18T15:04:46.770Z</when>
<when >2025-11-18T15:04:48.100Z</when>
<when >2025-11-18T15:04:49.910Z</when>
<when >2025-11-18T15:04:52.550Z</when>
<when >2025-11-18T15:04:52.550Z</when>
<when >2025-11-18T15:04:56.250Z</when>
<when >2025-11-18T15:04:58.120Z</when>
<when >2025-11-18T15:05:01.900Z</when>
<when >2025-11-18T15:05:04.200Z</when>
<when >2025-11-18T15:05:07.040Z</when>
<when >2025-11-18T15:05:08.090Z</when>
<when >2025-11-18T15:05:11.350Z</when>
<when >2025-11-18T15:05:14.510Z</when>
<when >2025-11-18T15:05:17.280Z</when>
<when >2025-11-18T15:05:20.050Z</when>
<when >2025-11-18T15:05:23.470Z</when>
<when >2025-11-18T15:05:25.420Z</when>
<when >2025-11-18T15:05:29.130Z</when>
<when >2025-11-18T15:05:33.380Z</when>
<when >2025-11-18T15:05:35.420Z</when>
<when >2025-11-18T15:05:39.130Z</when>
<when >2025-11-18T15:05:42.610Z</when>
<when >2025-11-18T15:05:44.290Z</when>
<when >2025-11-18T15:05:47.500Z</when>
<when >2025-11-18T15:05:50.570Z</when>
<when >2025-11-18T15:05:54.320Z</when>
<when >2025-11-18T15:05:56.430Z</when>
<when >2025-11-18T15:05:58.350Z</when>
<when >2025-11-18T15:06:00.340Z</when>
<when >2025-11-18T15:06:03.180Z</when>
<when >2025-11-18T15:06:07.070Z</when>
<when >2025-11-18T15:06:11.280Z</when>
<when >2025-11-18T15:06:20.410Z</when>
<when >2025-11-18T15:06:26.740Z</when>
<when >2025-11-18T15:06:30.120Z</when>
<when >2025-11-18T15:06:35.310Z</when>
<when >2025-11-18T15:06:41.750Z</when>
<when >2025-11-18T15:06:47.360Z</when>
<when >2025-11-18T15:06:51.110Z</when>
<when >2025-11-18T15:06:53.240Z</when>
<when >2025-11-18T15:06:58.860Z</when>
<when >2025-11-18T15:07:04.540Z</when>
<when >2025-11-18T15:07:09.010Z</when>
<when >2025-11-18T15:07:18.750Z</when>
<when >2025-11-18T15:07:26.710Z</when>
<when >2025-11-18T15:07:33.960Z</when>
<when >2025-11-18T15:07:43.870Z</when>
<when >2025-11-18T15:07:51.680Z</when>
<when >2025-11-18T15:08:00.770Z</when>
<when >2025-11-18T15:08:09.130Z</when>
<when >2025-11-18T15:08:15.880Z</when>
<when >2025-11-18T15:08:22.110Z</when>
<when >2025-11-18T15:08:27.950Z</when>
<when >2025-11-18T15:08:32.000Z</when>
<when >2025-11-18T15:08:38.630Z</when>
<when >2025-11-18T15:08:48.150Z</when>
<when >2025-11-18T15:08:56.510Z</when>
<when >2025-11-18T15:09:04.370Z</when>
<when >2025-11-18T15:09:11.570Z</when>
<when >2025-11-18T15:09:18.050Z</when>
<when >2025-11-18T15:09:26.470Z</when>
<when >2025-11-18T15:09:33.800Z</when>
<when >2025-11-18T15:09:46.400Z</when>
<when >2025-11-18T15:10:01.040Z</when>
<when >2025-11-18T15:10:07.270Z</when>
<when >2025-11-18T15:10:10.340Z</when>
<when >2025-11-18T15:10:15.320Z</when>
<when >2025-11-18T15:10:22.920Z</when>
<when >2025-11-18T15:10:33.020Z</when>
<when >2025-11-18T15:10:50.040Z</when>
<when >2025-11-18T15:10:56.760Z</when>
<when >2025-11-18T15:11:01.930Z</when>
<when >2025-11-18T15:11:07.070Z</when>
<when >2025-11-18T15:11:18.680Z</when>
<when >2025-11-18T15:11:26.650Z</when>
<when >2025-11-18T15:11:35.340Z</when>
<when >2025-11-18T15:11:43.110Z</when>
<when >2025-11-18T15:11:56.080Z</when>
<when >2025-11-18T15:12:06.570Z</when>
<when >2025-11-18T15:12:24.080Z</when>
<when >2025-11-18T15:12:36.020Z</when>
<when >2025-11-18T15:12:46.910Z</when>
<when >2025-11-18T15:12:55.330Z</when>
<when >2025-11-18T15:13:01.680Z</when>
<when >2025-11-18T15:13:06.060Z</when>
<when >2025-11-18T15:13:11.810Z</when>
<when >2025-11-18T15:13:15.500Z</when>
<when >2025-11-18T15:13:19.760Z</when>
<when >2025-11-18T15:13:30.420Z</when>
<when >2025-11-18T15:13:34.580Z</when>
<when >2025-11-18T15:13:40.000Z</when>
<when >2025-11-18T15:13:47.910Z</when>
<when >2025-11-18T15:13:53.390Z</when>
<when >2025-11-18T15:13:59.910Z</when>
<when >2025-11-18T15:14:05.510Z</when>
<when >2025-11-18T15:14:11.560Z</when>
<when >2025-11-18T15:14:20.040Z</when>
<when >2025-11-18T15:14:26.840Z</when>
<when >2025-11-18T15:14:35.270Z</when>
<when >2025-11-18T15:14:42.170Z</when>
<when >2025-11-18T15:14:50.650Z</when>
<when >2025-11-18T15:14:59.660Z</when>
<when >2025-11-18T15:15:08.070Z</when>
<when >2025-11-18T15:15:17.140Z</when>
<when >2025-11-18T15:15:25.810Z</when>
<when >2025-11-18T15:15:37.090Z</when>
<when >2025-11-18T15:15:42.540Z</when>
<when >2025-11-18T15:15:53.250Z</when>
<when >2025-11-18T15:16:13.330Z</when>
<when >2025-11-18T15:16:19.630Z</when>
<when >2025-11-18T15:16:29.740Z</when>
<when >2025-11-18T15:16:40.000Z</when>
<when >2025-11-18T15:16:54.210Z</when>
<when >2025-11-18T15:17:24.740Z</when>
<when >2025-11-18T15:17:27.970Z</when>
<when >2025-11-18T15:18:14.600Z</when>
<when >2025-11-18T15:18:33.500Z</when>
<when >2025-11-18T15:18:45.840Z</when>
<when >2025-11-18T15:19:04.490Z</when>
<when >2025-11-18T15:19:11.220Z</when>
<when >2025-11-18T15:19:21.380Z</when>
<when >2025-11-18T15:19:35.790Z</when>
<when >2025-11-18T15:19:55.510Z</when>
<when >2025-11-18T15:20:06.160Z</when>
<when >2025-11-18T15:20:15.110Z</when>
<when >2025-11-18T15:20:28.360Z</when>
<when >2025-11-18T15:20:43.580Z</when>
<when >2025-11-18T15:20:49.410Z</when>
<when >2025-11-18T15:20:54.970Z</when>
<when >2025-11-18T15:20:59.010Z</when>
<when >2025-11-18T15:21:03.420Z</when>
<when >2025-11-18T15:21:05.490Z</when>
<when >2025-11-18T15:21:09.170Z</when>
<when >2025-11-18T15:21:12.540Z</when>
<when >2025-11-18T15:21:16.860Z</when>
<when >2025-11-18T15:21:19.630Z</when>
<when >2025-11-18T15:21:22.990Z</when>
<when >2025-11-18T15:21:27.110Z</when>
<when >2025-11-18T15:21:31.130Z</when>
<when >2025-11-18T15:21:36.050Z</when>
<when >2025-11-18T15:21:40.670Z</when>
<when >2025-11-18T15:21:46.450Z</when>
<when >2025-11-18T15:21:50.870Z</when>
<when >2025-11-18T15:21:56.580Z</when>
<when >2025-11-18T15:22:00.450Z</when>
<when >2025-11-18T15:22:03.720Z</when>
<when >2025-11-18T15:22:06.110Z</when>
<when >2025-11-18T15:22:09.720Z</when>
<when >2025-11-18T15:22:13.230Z</when>
<when >2025-11-18T15:22:17.720Z</when>
<when >2025-11-18T15:22:20.940Z</when>
<when >2025-11-18T15:22:24.830Z</when>
<when >2025-11-18T15:22:29.160Z</when>
<when >2025-11-18T15:22:34.660Z</when>
<when >2025-11-18T15:22:43.950Z</when>
<when >2025-11-18T15:23:03.340Z</when>
<when >2025-11-18T15:23:13.200Z</when>
<when >2025-11-18T15:23:32.890Z</when>
<when >2025-11-18T15:23:41.630Z</when>
<when >2025-11-18T15:23:50.250Z</when>
<when >2025-11-18T15:23:59.000Z</when>
<when >2025-11-18T15:24:08.190Z</when>
<when >2025-11-18T15:24:16.600Z</when>
<when >2025-11-18T15:24:25.210Z</when>
<when >2025-11-18T15:24:36.870Z</when>
<when >2025-11-18T15:24:46.440Z</when>
<when >2025-11-18T15:24:51.920Z</when>
<when >2025-11-18T15:24:58.390Z</when>
<when >2025-11-18T15:25:08.950Z</when>
<when >2025-11-18T15:25:17.340Z</when>
<when >2025-11-18T15:25:26.490Z</when>
<when >2025-11-18T15:25:37.060Z</when>
<when >2025-11-18T15:25:51.410Z</when>
<when >2025-11-18T15:25:58.240Z</when>
<when >2025-11-18T15:26:05.300Z</when>
<when >2025-11-18T15:26:10.700Z</when>
<when >2025-11-18T15:26:15.890Z</when>
<when >2025-11-18T15:26:19.540Z</when>
<when >2025-11-18T15:26:23.380Z</when>
<when >2025-11-18T15:26:27.180Z</when>
<when >2025-11-18T15:26:31.570Z</when>
<when >2025-11-18T15:26:37.050Z</when>
<when >2025-11-18T15:26:41.100Z</when>
<when >2025-11-18T15:26:46.240Z</when>
<when >2025-11-18T15:26:51.530Z</when>
<when >2025-11-18T15:26:58.940Z</when>
<when >2025-11-18T15:27:10.580Z</when>
<when >2025-11-18T15:27:19.180Z</when>
<when >2025-11-18T15:27:22.850Z</when>
<when >2025-11-18T15:27:26.170Z</when>
<when >2025-11-18T15:27:26.730Z</when>
<when >2025-11-18T15:27:28.160Z</when>
<when >2025-11-18T15:27:32.330Z</when>
<when >2025-11-18T15:27:35.060Z</when>
<when >2025-11-18T15:27:40.190Z</when>
<when >2025-11-18T15:27:45.290Z</when>
<when >2025-11-18T15:27:46.180Z</when>
<when >2025-11-18T15:27:59.150Z</when>
<when >2025-11-18T15:28:01.330Z</when>
<when >2025-11-18T15:28:03.850Z</when>
<when >2025-11-18T15:28:04.480Z</when>
<when >2025-11-18T15:28:10.640Z</when>
<when >2025-11-18T15:28:12.840Z</when>
<when >2025-11-18T15:28:15.960Z</when>
<when >2025-11-18T15:28:16.840Z</when>
<when >2025-11-18T15:28:17.850Z</when>
<when >2025-11-18T15:28:19.340Z</when>
<when >2025-11-18T15:28:19.570Z</when>
<when >2025-11-18T15:28:22.490Z</when>
<when >2025-11-18T15:28:23.650Z</when>
<when >2025-11-18T15:28:25.520Z</when>
<when >2025-11-18T15:28:26.250Z</when>
<when >2025-11-18T15:28:28.380Z</when>
<when >2025-11-18T15:28:29.790Z</when>
<when >2025-11-18T15:28:31.990Z</when>
<when >2025-11-18T15:28:36.540Z</when>
<when >2025-11-18T15:28:41.150Z</when>
<when >2025-11-18T15:28:43.020Z</when>
<when >2025-11-18T15:28:44.480Z</when>
<when >2025-11-18T15:28:45.810Z</when>
<when >2025-11-18T15:28:47.050Z</when>
<when >2025-11-18T15:28:49.360Z</when>
<when >2025-11-18T15:28:52.520Z</when>
<when >2025-11-18T15:28:55.630Z</when>
<when >2025-11-18T15:28:57.660Z</when>
<when >2025-11-18T15:29:00.410Z</when>
<when >2025-11-18T15:29:04.260Z</when>
<when >2025-11-18T15:29:11.200Z</when>
<when >2025-11-18T15:29:17.830Z</when>
<when >2025-11-18T15:29:23.020Z</when>
<when >2025-11-18T15:29:30.990Z</when>
<when >2025-11-18T15:29:36.280Z</when>
<when >2025-11-18T15:29:39.540Z</when>
<when >2025-11-18T15:29:41.910Z</when>
<when >2025-11-18T15:29:43.810Z</when>
<when >2025-11-18T15:29:44.680Z</when>
<when >2025-11-18T15:29:46.390Z</when>
<when >2025-11-18T15:29:48.600Z</when>
<when >2025-11-18T15:29:51.420Z</when>
<when >2025-11-18T15:29:55.420Z</when>
<when >2025-11-18T15:30:03.460Z</when>
<when >2025-11-18T15:30:07.120Z</when>
<when >2025-11-18T15:30:10.320Z</when>
<when >2025-11-18T15:30:13.230Z</when>
<when >2025-11-18T15:30:32.440Z</when>
<when >2025-11-18T15:30:50.350Z</when>
<when >2025-11-18T15:31:09.010Z</when>
<when >2025-11-18T15:31:28.560Z</when>
<when >2025-11-18T15:31:45.520Z</when>
<when >2025-11-18T15:32:03.070Z</when>
<when >2025-11-18T15:32:21.040Z</when>
<when >2025-11-18T15:32:40.240Z</when>
<when >2025-11-18T15:32:59.450Z</when>
<when >2025-11-18T15:33:16.860Z</when>
<when >2025-11-18T15:33:33.930Z</when>
<when >2025-11-18T15:33:53.790Z</when>
<when >2025-11-18T15:34:13.090Z</when>
<when >2025-11-18T15:34:31.110Z</when>
<when >2025-11-18T15:34:49.170Z</when>
<when >2025-11-18T15:35:08.630Z</when>
<when >2025-11-18T15:35:26.920Z</when>
<when >2025-11-18T15:35:45.450Z</when>
<when >2025-11-18T15:36:03.180Z</when>
<when >2025-11-18T15:36:21.320Z</when>
<when >2025-11-18T15:36:40.650Z</when>
<when >2025-11-18T15:36:43.710Z</when>
<when >2025-11-18T15:36:53.170Z</when>
<when >2025-11-18T15:36:55.500Z</when>
<when >2025-11-18T15:36:57.690Z</when>
<when >2025-11-18T15:36:59.520Z</when>
<when >2025-11-18T15:36:59.530Z</when>
<when >2025-11-18T15:37:01.440Z</when>
<when >2025-11-18T15:37:03.310Z</when>
<when >2025-11-18T15:37:05.010Z</when>
<when >2025-11-18T15:37:06.550Z</when>
<when >2025-11-18T15:37:10.680Z</when>
<when >2025-11-18T15:37:13.980Z</when>
<when >2025-11-18T15:37:14.160Z</when>
<when >2025-11-18T15:37:15.890Z</when>
<when >2025-11-18T15:37:17.960Z</when>
<when >2025-11-18T15:37:20.040Z</when>
<when >2025-11-18T15:37:22.710Z</when>
<when >2025-11-18T15:37:25.020Z</when>
<when >2025-11-18T15:37:26.970Z</when>
<when >2025-11-18T15:37:28.490Z</when>
<when >2025-11-18T15:37:31.100Z</when>
<when >2025-11-18T15:37:33.240Z</when>
<when >2025-11-18T15:37:36.310Z</when>
<when >2025-11-18T15:37:41.670Z</when>
<when >2025-11-18T15:37:45.490Z</when>
<when >2025-11-18T15:37:49.790Z</when>
<when >2025-11-18T15:37:52.100Z</when>
<when >2025-11-18T15:37:54.570Z</when>
<when >2025-11-18T15:37:54.570Z</when>
<when >2025-11-18T15:37:56.440Z</when>
<when >2025-11-18T15:37:58.020Z</when>
<when >2025-11-18T15:37:59.330Z</when>
<when >2025-11-18T15:38:00.590Z</when>
<when >2025-11-18T15:38:03.040Z</when>
<when >2025-11-18T15:38:04.290Z</when>
<when >2025-11-18T15:38:06.690Z</when>
<when >2025-11-18T15:38:09.220Z</when>
<when >2025-11-18T15:38:09.220Z</when>
<when >2025-11-18T15:38:10.840Z</when>
<when >2025-11-18T15:38:10.840Z</when>
<when >2025-11-18T15:38:14.850Z</when>
<when >2025-11-18T15:38:19.280Z</when>
<when >2025-11-18T15:38:21.510Z</when>
<when >2025-11-18T15:38:23.690Z</when>
<when >2025-11-18T15:38:25.680Z</when>
<when >2025-11-18T15:38:28.810Z</when>
<when >2025-11-18T15:38:31.830Z</when>
<when >2025-11-18T15:38:36.460Z</when>
<when >2025-11-18T15:38:40.000Z</when>
<when >2025-11-18T15:38:42.390Z</when>
<when >2025-11-18T15:38:46.790Z</when>
<when >2025-11-18T15:38:48.810Z</when>
<when >2025-11-18T15:38:52.330Z</when>
<when >2025-11-18T15:38:54.090Z</when>
<when >2025-11-18T15:38:56.880Z</when>
<when >2025-11-18T15:38:59.690Z</when>
<when >2025-11-18T15:39:03.180Z</when>
<when >2025-11-18T15:39:07.740Z</when>
<when >2025-11-18T15:39:10.010Z</when>
<when >2025-11-18T15:39:12.190Z</when>
<when >2025-11-18T15:39:14.210Z</when>
<when >2025-11-18T15:39:17.250Z</when>
<when >2025-11-18T15:39:19.930Z</when>
<when >2025-11-18T15:39:22.960Z</when>
<when >2025-11-18T15:39:25.970Z</when>
<when >2025-11-18T15:39:29.320Z</when>
<when >2025-11-18T15:39:33.370Z</when>
<when >2025-11-18T15:39:35.780Z</when>
<when >2025-11-18T15:39:38.090Z</when>
<when >2025-11-18T15:39:41.700Z</when>
<when >2025-11-18T15:39:54.770Z</when>
<when >2025-11-18T15:40:01.010Z</when>
<when >2025-11-18T15:40:07.670Z</when>
<when >2025-11-18T15:40:11.560Z</when>
<when >2025-11-18T15:40:20.830Z</when>
<when >2025-11-18T15:40:27.060Z</when>
<when >2025-11-18T15:40:33.730Z</when>
<when >2025-11-18T15:40:41.810Z</when>
<when >2025-11-18T15:40:46.330Z</when>
<when >2025-11-18T15:40:47.850Z</when>
<when >2025-11-18T15:40:53.730Z</when>
<when >2025-11-18T15:40:53.940Z</when>
<when >2025-11-18T15:40:57.890Z</when>
<when >2025-11-18T15:40:58.260Z</when>
<when >2025-11-18T15:41:05.790Z</when>
<when >2025-11-18T15:41:06.960Z</when>
<when >2025-11-18T15:41:14.190Z</when>
<when >2025-11-18T15:41:15.940Z</when>
<when >2025-11-18T15:41:20.080Z</when>
<when >2025-11-18T15:41:25.390Z</when>
<when >2025-11-18T15:41:35.760Z</when>
<when >2025-11-18T15:41:40.440Z</when>
<when >2025-11-18T15:41:43.890Z</when>
<when >2025-11-18T15:41:50.930Z</when>
<when >2025-11-18T15:41:56.300Z</when>
<when >2025-11-18T15:42:02.060Z</when>
<when >2025-11-18T15:42:10.340Z</when>
<when >2025-11-18T15:42:21.130Z</when>
<when >2025-11-18T15:42:30.280Z</when>
<when >2025-11-18T15:42:48.070Z</when>
<when >2025-11-18T15:42:53.250Z</when>
<when >2025-11-18T15:42:54.670Z</when>
<when >2025-11-18T15:42:55.850Z</when>
<when >2025-11-18T15:42:57.820Z</when>
<when >2025-11-18T15:42:59.130Z</when>
<when >2025-11-18T15:43:00.680Z</when>
<when >2025-11-18T15:43:02.600Z</when>
<when >2025-11-18T15:43:04.280Z</when>
<when >2025-11-18T15:43:06.980Z</when>
<when >2025-11-18T15:43:08.890Z</when>
<when >2025-11-18T15:43:08.890Z</when>
<when >2025-11-18T15:43:11.320Z</when>
<when >2025-11-18T15:43:11.320Z</when>
<when >2025-11-18T15:43:12.880Z</when>
<when >2025-11-18T15:43:13.350Z</when>
<when >2025-11-18T15:43:15.090Z</when>
<when >2025-11-18T15:43:16.580Z</when>
<when >2025-11-18T15:43:17.610Z</when>
<when >2025-11-18T15:43:19.170Z</when>
<when >2025-11-18T15:43:23.320Z</when>
<when >2025-11-18T15:43:31.970Z</when>
<when >2025-11-18T15:43:37.400Z</when>
<when >2025-11-18T15:43:39.020Z</when>
<when >2025-11-18T15:43:39.170Z</when>
<when >2025-11-18T15:43:41.850Z</when>
<when >2025-11-18T15:43:41.850Z</when>
<when >2025-11-18T15:43:43.330Z</when>
<when >2025-11-18T15:43:44.460Z</when>
<when >2025-11-18T15:43:45.370Z</when>
<when >2025-11-18T15:43:55.020Z</when>
<when >2025-11-18T15:43:56.960Z</when>
<when >2025-11-18T15:43:58.460Z</when>
<when >2025-11-18T15:44:07.210Z</when>
<when >2025-11-18T15:44:13.040Z</when>
<when >2025-11-18T15:44:18.340Z</when>
<when >2025-11-18T15:44:24.210Z</when>
<when >2025-11-18T15:44:32.770Z</when>
<when >2025-11-18T15:44:45.890Z</when>
<when >2025-11-18T15:44:51.040Z</when>
<when >2025-11-18T15:44:52.920Z</when>
<when >2025-11-18T15:44:55.040Z</when>
<when >2025-11-18T15:44:57.210Z</when>
<when >2025-11-18T15:44:59.530Z</when>
<when >2025-11-18T15:45:03.810Z</when>
<when >2025-11-18T15:45:03.810Z</when>
<gx:coord >18.426875 -33.90097 -1</gx:coord>
<gx:coord >18.426875 -33.90097 -1</gx:coord>
<gx:coord >18.426819 -33.900969 7</gx:coord>
<gx:coord >18.426875 -33.90097 7</gx:coord>
<gx:coord >18.426875 -33.90097 7</gx:coord>
<gx:coord >18.426933 -33.900922 7</gx:coord>
<gx:coord >18.426987 -33.900833 7</gx:coord>
<gx:coord >18.427379 -33.900558 -1</gx:coord>
<gx:coord >18.427391 -33.90055 15</gx:coord>
<gx:coord >18.427435 -33.900558 22</gx:coord>
<gx:coord >18.427491 -33.900558 15</gx:coord>
<gx:coord >18.42762 -33.900596 22</gx:coord>
<gx:coord >18.427716 -33.900604 22</gx:coord>
<gx:coord >18.428164 -33.90065 38</gx:coord>
<gx:coord >18.428364 -33.90069 30</gx:coord>
<gx:coord >18.42865 -33.900783 22</gx:coord>
<gx:coord >18.429341 -33.90097 38</gx:coord>
<gx:coord >18.429623 -33.901062 60</gx:coord>
<gx:coord >18.429678 -33.901062 68</gx:coord>
<gx:coord >18.430182 -33.901108 106</gx:coord>
<gx:coord >18.430367 -33.901155 99</gx:coord>
<gx:coord >18.430967 -33.901199 114</gx:coord>
<gx:coord >18.431583 -33.901291 137</gx:coord>
<gx:coord >18.431683 -33.901295 144</gx:coord>
<gx:coord >18.432026 -33.901341 175</gx:coord>
<gx:coord >18.432541 -33.901388 213</gx:coord>
<gx:coord >18.43276 -33.901382 220</gx:coord>
<gx:coord >18.433097 -33.901382 251</gx:coord>
<gx:coord >18.433628 -33.901388 251</gx:coord>
<gx:coord >18.434274 -33.901474 281</gx:coord>
<gx:coord >18.434834 -33.901474 289</gx:coord>
<gx:coord >18.434946 -33.901474 289</gx:coord>
<gx:coord >18.435287 -33.901388 289</gx:coord>
<gx:coord >18.435451 -33.901337 297</gx:coord>
<gx:coord >18.435574 -33.901248 297</gx:coord>
<gx:coord >18.435955 -33.901016 297</gx:coord>
<gx:coord >18.436089 -33.900922 297</gx:coord>
<gx:coord >18.436718 -33.900317 297</gx:coord>
<gx:coord >18.437189 -33.89978 297</gx:coord>
<gx:coord >18.437462 -33.899293 297</gx:coord>
<gx:coord >18.437861 -33.898361 297</gx:coord>
<gx:coord >18.438263 -33.897477 297</gx:coord>
<gx:coord >18.439375 -33.894333 304</gx:coord>
<gx:coord >18.439655 -33.893051 304</gx:coord>
<gx:coord >18.439751 -33.891891 312</gx:coord>
<gx:coord >18.439711 -33.890442 312</gx:coord>
<gx:coord >18.439236 -33.888167 320</gx:coord>
<gx:coord >18.438492 -33.886398 327</gx:coord>
<gx:coord >18.437748 -33.885048 327</gx:coord>
<gx:coord >18.436089 -33.882488 327</gx:coord>
<gx:coord >18.434315 -33.88016 342</gx:coord>
<gx:coord >18.432369 -33.878112 342</gx:coord>
<gx:coord >18.431471 -33.877396 358</gx:coord>
<gx:coord >18.429966 -33.876343 365</gx:coord>
<gx:coord >18.427391 -33.874946 365</gx:coord>
<gx:coord >18.425388 -33.874155 373</gx:coord>
<gx:coord >18.422783 -33.873367 380</gx:coord>
<gx:coord >18.42041 -33.872851 388</gx:coord>
<gx:coord >18.417606 -33.872386 396</gx:coord>
<gx:coord >18.415089 -33.8722 403</gx:coord>
<gx:coord >18.41275 -33.872131 411</gx:coord>
<gx:coord >18.410454 -33.8722 419</gx:coord>
<gx:coord >18.407764 -33.872386 419</gx:coord>
<gx:coord >18.404331 -33.872898 419</gx:coord>
<gx:coord >18.4025 -33.873317 419</gx:coord>
<gx:coord >18.40025 -33.873917 426</gx:coord>
<gx:coord >18.397465 -33.874853 426</gx:coord>
<gx:coord >18.394813 -33.875885 441</gx:coord>
<gx:coord >18.392372 -33.876948 434</gx:coord>
<gx:coord >18.38974 -33.878345 457</gx:coord>
<gx:coord >18.387394 -33.879648 449</gx:coord>
<gx:coord >18.38534 -33.881012 449</gx:coord>
<gx:coord >18.381865 -33.883484 472</gx:coord>
<gx:coord >18.379903 -33.88504 480</gx:coord>
<gx:coord >18.377549 -33.8871 487</gx:coord>
<gx:coord >18.375755 -33.88884 495</gx:coord>
<gx:coord >18.373289 -33.891357 518</gx:coord>
<gx:coord >18.370972 -33.893986 518</gx:coord>
<gx:coord >18.367882 -33.89785 541</gx:coord>
<gx:coord >18.365161 -33.901382 548</gx:coord>
<gx:coord >18.361405 -33.906372 579</gx:coord>
<gx:coord >18.357762 -33.911087 594</gx:coord>
<gx:coord >18.354231 -33.915802 617</gx:coord>
<gx:coord >18.35126 -33.919876 640</gx:coord>
<gx:coord >18.348962 -33.923035 640</gx:coord>
<gx:coord >18.346081 -33.926805 655</gx:coord>
<gx:coord >18.343048 -33.930995 685</gx:coord>
<gx:coord >18.340302 -33.934999 685</gx:coord>
<gx:coord >18.338256 -33.937912 670</gx:coord>
<gx:coord >18.334668 -33.94281 693</gx:coord>
<gx:coord >18.333092 -33.945287 708</gx:coord>
<gx:coord >18.329007 -33.951416 701</gx:coord>
<gx:coord >18.327269 -33.953888 701</gx:coord>
<gx:coord >18.32428 -33.957716 731</gx:coord>
<gx:coord >18.320711 -33.96254 731</gx:coord>
<gx:coord >18.319478 -33.964142 754</gx:coord>
<gx:coord >18.318021 -33.966202 777</gx:coord>
<gx:coord >18.316326 -33.968656 815</gx:coord>
<gx:coord >18.314321 -33.971649 838</gx:coord>
<gx:coord >18.312378 -33.974521 845</gx:coord>
<gx:coord >18.310902 -33.97673 845</gx:coord>
<gx:coord >18.308604 -33.980255 861</gx:coord>
<gx:coord >18.304848 -33.986435 861</gx:coord>
<gx:coord >18.301037 -33.992981 876</gx:coord>
<gx:coord >18.296471 -34.001242 868</gx:coord>
<gx:coord >18.293781 -34.006549 861</gx:coord>
<gx:coord >18.293495 -34.007294 861</gx:coord>
<gx:coord >18.293245 -34.00882 861</gx:coord>
<gx:coord >18.293266 -34.009063 861</gx:coord>
<gx:coord >18.293469 -34.009827 861</gx:coord>
<gx:coord >18.293896 -34.010599 868</gx:coord>
<gx:coord >18.294353 -34.011018 868</gx:coord>
<gx:coord >18.294983 -34.011484 868</gx:coord>
<gx:coord >18.295656 -34.011749 868</gx:coord>
<gx:coord >18.296496 -34.011932 861</gx:coord>
<gx:coord >18.297443 -34.011949 853</gx:coord>
<gx:coord >18.298187 -34.01181 853</gx:coord>
<gx:coord >18.299019 -34.011566 845</gx:coord>
<gx:coord >18.299789 -34.011205 845</gx:coord>
<gx:coord >18.300362 -34.010879 838</gx:coord>
<gx:coord >18.301392 -34.010087 838</gx:coord>
<gx:coord >18.301989 -34.009506 830</gx:coord>
<gx:coord >18.30328 -34.007899 830</gx:coord>
<gx:coord >18.304138 -34.006642 822</gx:coord>
<gx:coord >18.305577 -34.004196 807</gx:coord>
<gx:coord >18.306922 -34.001724 792</gx:coord>
<gx:coord >18.310397 -33.994949 769</gx:coord>
<gx:coord >18.313648 -33.988495 754</gx:coord>
<gx:coord >18.315947 -33.984146 746</gx:coord>
<gx:coord >18.319588 -33.978106 731</gx:coord>
<gx:coord >18.323514 -33.971832 723</gx:coord>
<gx:coord >18.327084 -33.966561 723</gx:coord>
<gx:coord >18.330576 -33.961533 731</gx:coord>
<gx:coord >18.333435 -33.95753 723</gx:coord>
<gx:coord >18.338368 -33.950592 708</gx:coord>
<gx:coord >18.340946 -33.947067 693</gx:coord>
<gx:coord >18.342476 -33.944961 693</gx:coord>
<gx:coord >18.343105 -33.944123 701</gx:coord>
<gx:coord >18.345222 -33.941376 716</gx:coord>
<gx:coord >18.347397 -33.938583 708</gx:coord>
<gx:coord >18.350531 -33.93457 701</gx:coord>
<gx:coord >18.352203 -33.932112 670</gx:coord>
<gx:coord >18.353782 -33.929901 647</gx:coord>
<gx:coord >18.355923 -33.926945 624</gx:coord>
<gx:coord >18.361405 -33.91983 609</gx:coord>
<gx:coord >18.365946 -33.914154 586</gx:coord>
<gx:coord >18.370342 -33.908929 571</gx:coord>
<gx:coord >18.37429 -33.904553 556</gx:coord>
<gx:coord >18.377438 -33.901202 541</gx:coord>
<gx:coord >18.380527 -33.898083 525</gx:coord>
<gx:coord >18.383217 -33.895755 510</gx:coord>
<gx:coord >18.386936 -33.892683 510</gx:coord>
<gx:coord >18.390141 -33.890262 510</gx:coord>
<gx:coord >18.392122 -33.88884 510</gx:coord>
<gx:coord >18.394813 -33.887238 510</gx:coord>
<gx:coord >18.398724 -33.885001 510</gx:coord>
<gx:coord >18.401651 -33.883575 510</gx:coord>
<gx:coord >18.40353 -33.882767 502</gx:coord>
<gx:coord >18.406334 -33.881789 502</gx:coord>
<gx:coord >18.409023 -33.881045 502</gx:coord>
<gx:coord >18.410797 -33.880672 510</gx:coord>
<gx:coord >18.413029 -33.880346 502</gx:coord>
<gx:coord >18.413646 -33.88028 426</gx:coord>
<gx:coord >18.415664 -33.880188 556</gx:coord>
<gx:coord >18.417435 -33.88016 525</gx:coord>
<gx:coord >18.419252 -33.880234 472</gx:coord>
<gx:coord >18.420597 -33.880371 472</gx:coord>
<gx:coord >18.421998 -33.880646 457</gx:coord>
<gx:coord >18.423568 -33.881104 441</gx:coord>
<gx:coord >18.424358 -33.88151 434</gx:coord>
<gx:coord >18.425446 -33.882301 403</gx:coord>
<gx:coord >18.426189 -33.883139 388</gx:coord>
<gx:coord >18.426651 -33.883896 365</gx:coord>
<gx:coord >18.427162 -33.884676 350</gx:coord>
<gx:coord >18.428052 -33.886368 320</gx:coord>
<gx:coord >18.429117 -33.88829 281</gx:coord>
<gx:coord >18.429958 -33.889801 259</gx:coord>
<gx:coord >18.430595 -33.891146 228</gx:coord>
<gx:coord >18.430911 -33.891815 228</gx:coord>
<gx:coord >18.431191 -33.892776 198</gx:coord>
<gx:coord >18.431282 -33.893195 205</gx:coord>
<gx:coord >18.431247 -33.893692 190</gx:coord>
<gx:coord >18.431168 -33.894033 190</gx:coord>
<gx:coord >18.430996 -33.894498 182</gx:coord>
<gx:coord >18.430574 -33.895294 152</gx:coord>
<gx:coord >18.430252 -33.895802 137</gx:coord>
<gx:coord >18.42968 -33.896546 106</gx:coord>
<gx:coord >18.428936 -33.897338 76</gx:coord>
<gx:coord >18.428388 -33.897995 60</gx:coord>
<gx:coord >18.427963 -33.898595 45</gx:coord>
<gx:coord >18.42766 -33.899094 38</gx:coord>
<gx:coord >18.427448 -33.899526 22</gx:coord>
<gx:coord >18.427334 -33.899712 22</gx:coord>
<gx:coord >18.427219 -33.899898 15</gx:coord>
<gx:coord >18.427162 -33.899991 15</gx:coord>
<gx:coord >18.426987 -33.900192 15</gx:coord>
<gx:coord >18.426819 -33.90033 7</gx:coord>
<gx:coord >18.426707 -33.900513 7</gx:coord>
<gx:coord >18.426763 -33.900604 7</gx:coord>
<gx:coord >18.426819 -33.900643 7</gx:coord>
<gx:coord >18.426876 -33.900736 7</gx:coord>
<gx:coord >18.426991 -33.900876 7</gx:coord>
<gx:coord >18.426933 -33.900876 7</gx:coord>
<gx:coord >18.426931 -33.900925 7</gx:coord>
<gx:coord >18.426875 -33.90097 7</gx:coord>
<gx:coord >18.426819 -33.901016 -1</gx:coord>
<gx:coord >18.427043 -33.900879 15</gx:coord>
<gx:coord >18.427155 -33.900879 22</gx:coord>
<gx:coord >18.427435 -33.90097 22</gx:coord>
<gx:coord >18.42762 -33.901062 22</gx:coord>
<gx:coord >18.427828 -33.901062 22</gx:coord>
<gx:coord >18.42802 -33.901109 30</gx:coord>
<gx:coord >18.428535 -33.901109 22</gx:coord>
<gx:coord >18.428822 -33.901109 38</gx:coord>
<gx:coord >18.429451 -33.900969 53</gx:coord>
<gx:coord >18.430911 -33.90065 60</gx:coord>
<gx:coord >18.432026 -33.900317 76</gx:coord>
<gx:coord >18.432536 -33.900192 91</gx:coord>
<gx:coord >18.432655 -33.900131 91</gx:coord>
<gx:coord >18.434666 -33.899368 106</gx:coord>
<gx:coord >18.435339 -33.899048 106</gx:coord>
<gx:coord >18.436124 -33.898544 121</gx:coord>
<gx:coord >18.436546 -33.898222 129</gx:coord>
<gx:coord >18.437245 -33.897629 144</gx:coord>
<gx:coord >18.437581 -33.897217 144</gx:coord>
<gx:coord >18.43792 -33.896733 144</gx:coord>
<gx:coord >18.438478 -33.895935 160</gx:coord>
<gx:coord >18.438926 -33.894974 167</gx:coord>
<gx:coord >18.439293 -33.893893 198</gx:coord>
<gx:coord >18.439579 -33.892543 213</gx:coord>
<gx:coord >18.439711 -33.89122 220</gx:coord>
<gx:coord >18.439693 -33.890402 213</gx:coord>
<gx:coord >18.439543 -33.888748 228</gx:coord>
<gx:coord >18.439293 -33.887795 236</gx:coord>
<gx:coord >18.438702 -33.886047 251</gx:coord>
<gx:coord >18.437977 -33.884489 266</gx:coord>
<gx:coord >18.437405 -33.883558 266</gx:coord>
<gx:coord >18.436432 -33.882115 274</gx:coord>
<gx:coord >18.43489 -33.88028 281</gx:coord>
<gx:coord >18.433743 -33.879089 297</gx:coord>
<gx:coord >18.432541 -33.878112 312</gx:coord>
<gx:coord >18.43111 -33.877088 327</gx:coord>
<gx:coord >18.428936 -33.875924 350</gx:coord>
<gx:coord >18.427792 -33.875412 358</gx:coord>
<gx:coord >18.42609 -33.874924 380</gx:coord>
<gx:coord >18.424409 -33.874557 388</gx:coord>
<gx:coord >18.423007 -33.874329 403</gx:coord>
<gx:coord >18.421942 -33.874237 411</gx:coord>
<gx:coord >18.420765 -33.874237 419</gx:coord>
<gx:coord >18.419552 -33.874294 426</gx:coord>
<gx:coord >18.418293 -33.874434 426</gx:coord>
<gx:coord >18.416001 -33.874786 434</gx:coord>
<gx:coord >18.414655 -33.875061 441</gx:coord>
<gx:coord >18.410568 -33.876017 457</gx:coord>
<gx:coord >18.407481 -33.876755 480</gx:coord>
<gx:coord >18.405647 -33.877274 495</gx:coord>
<gx:coord >18.402716 -33.878082 510</gx:coord>
<gx:coord >18.400326 -33.87881 533</gx:coord>
<gx:coord >18.398064 -33.879639 556</gx:coord>
<gx:coord >18.396662 -33.880188 563</gx:coord>
<gx:coord >18.395634 -33.880579 571</gx:coord>
<gx:coord >18.393574 -33.881603 594</gx:coord>
<gx:coord >18.391914 -33.882441 601</gx:coord>
<gx:coord >18.389936 -33.883621 632</gx:coord>
<gx:coord >18.387134 -33.885269 662</gx:coord>
<gx:coord >18.384418 -33.88691 693</gx:coord>
<gx:coord >18.3815 -33.888819 716</gx:coord>
<gx:coord >18.378525 -33.890774 754</gx:coord>
<gx:coord >18.37532 -33.893055 777</gx:coord>
<gx:coord >18.37256 -33.895157 807</gx:coord>
<gx:coord >18.369701 -33.8974 830</gx:coord>
<gx:coord >18.367367 -33.899386 853</gx:coord>
<gx:coord >18.365721 -33.900833 876</gx:coord>
<gx:coord >18.363984 -33.902573 891</gx:coord>
<gx:coord >18.362675 -33.904088 906</gx:coord>
<gx:coord >18.360901 -33.906281 922</gx:coord>
<gx:coord >18.358612 -33.909116 937</gx:coord>
<gx:coord >18.356209 -33.912467 975</gx:coord>
<gx:coord >18.354492 -33.914935 998</gx:coord>
<gx:coord >18.352604 -33.918007 1013</gx:coord>
<gx:coord >18.351316 -33.920242 1021</gx:coord>
<gx:coord >18.349571 -33.923686 1036</gx:coord>
<gx:coord >18.348121 -33.926743 1051</gx:coord>
<gx:coord >18.345767 -33.932098 1082</gx:coord>
<gx:coord >18.343188 -33.938416 1089</gx:coord>
<gx:coord >18.342018 -33.94119 1082</gx:coord>
<gx:coord >18.341389 -33.9424 1097</gx:coord>
<gx:coord >18.340473 -33.943937 1097</gx:coord>
<gx:coord >18.33847 -33.947102 1112</gx:coord>
<gx:coord >18.335781 -33.950919 1120</gx:coord>
<gx:coord >18.330975 -33.957251 1112</gx:coord>
<gx:coord >18.329029 -33.959671 1112</gx:coord>
<gx:coord >18.32755 -33.961441 1120</gx:coord>
<gx:coord >18.325768 -33.963442 1120</gx:coord>
<gx:coord >18.321832 -33.968033 1135</gx:coord>
<gx:coord >18.319416 -33.971123 1135</gx:coord>
<gx:coord >18.316898 -33.974521 1135</gx:coord>
<gx:coord >18.314781 -33.977687 1127</gx:coord>
<gx:coord >18.312092 -33.981877 1112</gx:coord>
<gx:coord >18.309116 -33.986858 1104</gx:coord>
<gx:coord >18.305054 -33.993794 1097</gx:coord>
<gx:coord >18.302438 -33.998611 1074</gx:coord>
<gx:coord >18.300084 -34.003189 1066</gx:coord>
<gx:coord >18.298302 -34.007061 1066</gx:coord>
<gx:coord >18.297169 -34.009872 1066</gx:coord>
<gx:coord >18.296585 -34.01167 1066</gx:coord>
<gx:coord >18.29588 -34.014359 1066</gx:coord>
<gx:coord >18.295599 -34.015778 1066</gx:coord>
<gx:coord >18.295319 -34.017746 1074</gx:coord>
<gx:coord >18.294868 -34.021865 1082</gx:coord>
<gx:coord >18.294759 -34.024017 1074</gx:coord>
<gx:coord >18.294871 -34.02594 1066</gx:coord>
<gx:coord >18.295155 -34.029453 1043</gx:coord>
<gx:coord >18.295543 -34.032028 1021</gx:coord>
<gx:coord >18.29616 -34.034958 1013</gx:coord>
<gx:coord >18.296757 -34.037088 1005</gx:coord>
<gx:coord >18.297561 -34.039627 998</gx:coord>
<gx:coord >18.298514 -34.042236 982</gx:coord>
<gx:coord >18.299803 -34.045166 975</gx:coord>
<gx:coord >18.301105 -34.048074 960</gx:coord>
<gx:coord >18.302193 -34.050169 937</gx:coord>
<gx:coord >18.303909 -34.053241 914</gx:coord>
<gx:coord >18.305857 -34.056381 891</gx:coord>
<gx:coord >18.307972 -34.059526 868</gx:coord>
<gx:coord >18.310032 -34.062366 845</gx:coord>
<gx:coord >18.312035 -34.065159 815</gx:coord>
<gx:coord >18.314953 -34.069069 784</gx:coord>
<gx:coord >18.316154 -34.070512 777</gx:coord>
<gx:coord >18.318787 -34.073538 746</gx:coord>
<gx:coord >18.324298 -34.079315 746</gx:coord>
<gx:coord >18.325812 -34.080734 678</gx:coord>
<gx:coord >18.329175 -34.083572 640</gx:coord>
<gx:coord >18.330402 -34.084617 624</gx:coord>
<gx:coord >18.336353 -34.089319 609</gx:coord>
<gx:coord >18.347054 -34.095883 601</gx:coord>
<gx:coord >18.348121 -34.096436 601</gx:coord>
<gx:coord >18.367067 -34.103119 624</gx:coord>
<gx:coord >18.375475 -34.105728 624</gx:coord>
<gx:coord >18.380407 -34.107422 632</gx:coord>
<gx:coord >18.388596 -34.110221 640</gx:coord>
<gx:coord >18.391399 -34.111292 624</gx:coord>
<gx:coord >18.395317 -34.112869 632</gx:coord>
<gx:coord >18.400955 -34.115389 640</gx:coord>
<gx:coord >18.408966 -34.118973 640</gx:coord>
<gx:coord >18.412862 -34.120789 624</gx:coord>
<gx:coord >18.416748 -34.122744 624</gx:coord>
<gx:coord >18.421783 -34.125351 640</gx:coord>
<gx:coord >18.427379 -34.128204 632</gx:coord>
<gx:coord >18.43008 -34.129447 632</gx:coord>
<gx:coord >18.432032 -34.130219 632</gx:coord>
<gx:coord >18.433994 -34.130814 624</gx:coord>
<gx:coord >18.436292 -34.131271 632</gx:coord>
<gx:coord >18.437805 -34.131454 624</gx:coord>
<gx:coord >18.439375 -34.1315 632</gx:coord>
<gx:coord >18.441112 -34.131454 624</gx:coord>
<gx:coord >18.443859 -34.131134 640</gx:coord>
<gx:coord >18.44553 -34.130797 640</gx:coord>
<gx:coord >18.447418 -34.130285 632</gx:coord>
<gx:coord >18.449306 -34.129587 632</gx:coord>
<gx:coord >18.451482 -34.128662 632</gx:coord>
<gx:coord >18.454914 -34.126933 632</gx:coord>
<gx:coord >18.457489 -34.125444 632</gx:coord>
<gx:coord >18.460293 -34.123582 640</gx:coord>
<gx:coord >18.462696 -34.121813 640</gx:coord>
<gx:coord >18.465385 -34.119671 640</gx:coord>
<gx:coord >18.467102 -34.118089 632</gx:coord>
<gx:coord >18.468361 -34.116785 632</gx:coord>
<gx:coord >18.469906 -34.11497 632</gx:coord>
<gx:coord >18.471157 -34.11319 632</gx:coord>
<gx:coord >18.47239 -34.11113 632</gx:coord>
<gx:coord >18.473511 -34.108592 632</gx:coord>
<gx:coord >18.474312 -34.106218 632</gx:coord>
<gx:coord >18.474941 -34.103844 632</gx:coord>
<gx:coord >18.475456 -34.101237 624</gx:coord>
<gx:coord >18.476028 -34.096814 624</gx:coord>
<gx:coord >18.476538 -34.090439 624</gx:coord>
<gx:coord >18.477573 -34.077029 617</gx:coord>
<gx:coord >18.477917 -34.070093 617</gx:coord>
<gx:coord >18.478107 -34.056335 601</gx:coord>
<gx:coord >18.478219 -34.050888 571</gx:coord>
<gx:coord >18.478387 -34.044022 548</gx:coord>
<gx:coord >18.478499 -34.037842 525</gx:coord>
<gx:coord >18.478718 -34.031455 502</gx:coord>
<gx:coord >18.478947 -34.025031 472</gx:coord>
<gx:coord >18.479172 -34.019348 449</gx:coord>
<gx:coord >18.479576 -34.011112 434</gx:coord>
<gx:coord >18.479919 -34.004501 403</gx:coord>
<gx:coord >18.480148 -33.999986 403</gx:coord>
<gx:coord >18.480434 -33.99561 388</gx:coord>
<gx:coord >18.480949 -33.988487 373</gx:coord>
<gx:coord >18.48135 -33.983227 358</gx:coord>
<gx:coord >18.481979 -33.976896 335</gx:coord>
<gx:coord >18.48278 -33.970192 289</gx:coord>
<gx:coord >18.483824 -33.961029 304</gx:coord>
<gx:coord >18.484097 -33.957111 297</gx:coord>
<gx:coord >18.484211 -33.952828 297</gx:coord>
<gx:coord >18.484097 -33.949523 281</gx:coord>
<gx:coord >18.483753 -33.946497 289</gx:coord>
<gx:coord >18.483295 -33.944123 281</gx:coord>
<gx:coord >18.482647 -33.941803 274</gx:coord>
<gx:coord >18.481865 -33.9397 281</gx:coord>
<gx:coord >18.480835 -33.937512 274</gx:coord>
<gx:coord >18.479404 -33.935045 274</gx:coord>
<gx:coord >18.477859 -33.932764 274</gx:coord>
<gx:coord >18.475809 -33.930038 274</gx:coord>
<gx:coord >18.473969 -33.927876 266</gx:coord>
<gx:coord >18.470592 -33.924245 266</gx:coord>
<gx:coord >18.466224 -33.919647 259</gx:coord>
<gx:coord >18.462076 -33.915527 251</gx:coord>
<gx:coord >18.460751 -33.914236 251</gx:coord>
<gx:coord >18.459492 -33.912933 259</gx:coord>
<gx:coord >18.459034 -33.912514 312</gx:coord>
<gx:coord >18.458633 -33.912095 251</gx:coord>
<gx:coord >18.457146 -33.910512 251</gx:coord>
<gx:coord >18.456471 -33.909714 320</gx:coord>
<gx:coord >18.453724 -33.906509 266</gx:coord>
<gx:coord >18.451482 -33.9039 213</gx:coord>
<gx:coord >18.451309 -33.903669 335</gx:coord>
<gx:coord >18.446903 -33.898269 259</gx:coord>
<gx:coord >18.445587 -33.896593 259</gx:coord>
<gx:coord >18.44498 -33.895844 205</gx:coord>
<gx:coord >18.444386 -33.89515 289</gx:coord>
<gx:coord >18.442065 -33.892548 289</gx:coord>
<gx:coord >18.440952 -33.891565 243</gx:coord>
<gx:coord >18.43935 -33.890495 228</gx:coord>
<gx:coord >18.439121 -33.890402 228</gx:coord>
<gx:coord >18.43832 -33.890076 228</gx:coord>
<gx:coord >18.437861 -33.889938 228</gx:coord>
<gx:coord >18.437357 -33.889801 228</gx:coord>
<gx:coord >18.436146 -33.889657 220</gx:coord>
<gx:coord >18.435899 -33.889618 220</gx:coord>
<gx:coord >18.435001 -33.889703 205</gx:coord>
<gx:coord >18.434601 -33.88975 205</gx:coord>
<gx:coord >18.433713 -33.89003 205</gx:coord>
<gx:coord >18.433342 -33.890169 198</gx:coord>
<gx:coord >18.432941 -33.890355 198</gx:coord>
<gx:coord >18.431625 -33.891007 182</gx:coord>
<gx:coord >18.430367 -33.891705 160</gx:coord>
<gx:coord >18.429852 -33.892031 152</gx:coord>
<gx:coord >18.429621 -33.892136 152</gx:coord>
<gx:coord >18.429279 -33.892403 144</gx:coord>
<gx:coord >18.429061 -33.892593 137</gx:coord>
<gx:coord >18.428837 -33.892822 137</gx:coord>
<gx:coord >18.4285 -33.893326 129</gx:coord>
<gx:coord >18.428307 -33.893614 114</gx:coord>
<gx:coord >18.428192 -33.89394 114</gx:coord>
<gx:coord >18.42802 -33.894498 99</gx:coord>
<gx:coord >18.427906 -33.895057 91</gx:coord>
<gx:coord >18.427734 -33.896127 76</gx:coord>
<gx:coord >18.427505 -33.897338 53</gx:coord>
<gx:coord >18.427448 -33.897943 45</gx:coord>
<gx:coord >18.427277 -33.898874 38</gx:coord>
<gx:coord >18.427211 -33.899643 22</gx:coord>
<gx:coord >18.427099 -33.899918 22</gx:coord>
<gx:coord >18.427048 -33.900131 22</gx:coord>
<gx:coord >18.427043 -33.900284 15</gx:coord>
<gx:coord >18.427048 -33.900317 15</gx:coord>
<gx:coord >18.427048 -33.900457 15</gx:coord>
<gx:coord >18.427105 -33.90055 15</gx:coord>
<gx:coord >18.427211 -33.90065 15</gx:coord>
<gx:coord >18.427323 -33.900696 7</gx:coord>
<gx:coord >18.427491 -33.900696 -1</gx:coord>
<gx:coord >18.427491 -33.900696 7</gx:coord>
<gx:coord >18.427491 -33.900696 7</gx:coord>
<gx:coord >18.427491 -33.900696 7</gx:coord>
<gx:coord >18.427491 -33.900696 7</gx:coord>
<gx:coord >18.427505 -33.90069 7</gx:coord>
<gx:coord >18.427505 -33.90069 7</gx:coord>
<gx:coord >18.427505 -33.90069 7</gx:coord>
<gx:coord >18.427505 -33.90069 7</gx:coord>
<gx:coord >18.427505 -33.90069 7</gx:coord>
<gx:coord >18.427491 -33.900696 7</gx:coord>
<gx:coord >18.427505 -33.90069 7</gx:coord>
<gx:coord >18.427491 -33.900696 7</gx:coord>
<gx:coord >18.427505 -33.90069 7</gx:coord>
<gx:coord >18.427505 -33.90069 7</gx:coord>
<gx:coord >18.427505 -33.90069 7</gx:coord>
<gx:coord >18.427505 -33.90069 7</gx:coord>
<gx:coord >18.427505 -33.90069 -1</gx:coord>
<gx:coord >18.427505 -33.90069 7</gx:coord>
<gx:coord >18.427491 -33.900696 7</gx:coord>
<gx:coord >18.427491 -33.900696 7</gx:coord>
<gx:coord >18.427505 -33.90069 7</gx:coord>
<gx:coord >18.427491 -33.900696 7</gx:coord>
<gx:coord >18.427505 -33.90069 7</gx:coord>
<gx:coord >18.427491 -33.900696 -1</gx:coord>
<gx:coord >18.427491 -33.900696 -1</gx:coord>
<gx:coord >18.427505 -33.90069 7</gx:coord>
<gx:coord >18.427505 -33.90069 7</gx:coord>
<gx:coord >18.427491 -33.900696 15</gx:coord>
<gx:coord >18.427604 -33.900696 15</gx:coord>
<gx:coord >18.427677 -33.900736 15</gx:coord>
<gx:coord >18.427772 -33.900742 22</gx:coord>
<gx:coord >18.42802 -33.900829 15</gx:coord>
<gx:coord >18.428364 -33.900969 22</gx:coord>
<gx:coord >18.428556 -33.901016 15</gx:coord>
<gx:coord >18.429734 -33.90152 38</gx:coord>
<gx:coord >18.43008 -33.901621 60</gx:coord>
<gx:coord >18.430238 -33.901703 68</gx:coord>
<gx:coord >18.43035 -33.901703 83</gx:coord>
<gx:coord >18.430653 -33.901714 114</gx:coord>
<gx:coord >18.430967 -33.901657 129</gx:coord>
<gx:coord >18.431583 -33.901428 152</gx:coord>
<gx:coord >18.431683 -33.901388 160</gx:coord>
<gx:coord >18.432088 -33.901291 167</gx:coord>
<gx:coord >18.432424 -33.901291 175</gx:coord>
<gx:coord >18.432873 -33.901245 190</gx:coord>
<gx:coord >18.433041 -33.901245 213</gx:coord>
<gx:coord >18.433342 -33.901155 228</gx:coord>
<gx:coord >18.433769 -33.901108 259</gx:coord>
<gx:coord >18.433994 -33.901062 274</gx:coord>
<gx:coord >18.434274 -33.901062 297</gx:coord>
<gx:coord >18.434442 -33.901062 304</gx:coord>
<gx:coord >18.434715 -33.900969 320</gx:coord>
<gx:coord >18.434946 -33.900833 320</gx:coord>
<gx:coord >18.435173 -33.900643 320</gx:coord>
<gx:coord >18.435631 -33.900084 320</gx:coord>
<gx:coord >18.435917 -33.899479 312</gx:coord>
<gx:coord >18.436089 -33.898967 312</gx:coord>
<gx:coord >18.436236 -33.897858 312</gx:coord>
<gx:coord >18.436236 -33.896759 320</gx:coord>
<gx:coord >18.436146 -33.895522 373</gx:coord>
<gx:coord >18.436089 -33.894312 342</gx:coord>
<gx:coord >18.436068 -33.894012 342</gx:coord>
<gx:coord >18.436031 -33.893241 320</gx:coord>
<gx:coord >18.435955 -33.892914 320</gx:coord>
<gx:coord >18.435787 -33.890991 312</gx:coord>
<gx:coord >18.435459 -33.888446 320</gx:coord>
<gx:coord >18.435001 -33.886352 320</gx:coord>
<gx:coord >18.434315 -33.884443 327</gx:coord>
<gx:coord >18.433713 -33.883209 335</gx:coord>
<gx:coord >18.432999 -33.881929 342</gx:coord>
<gx:coord >18.431415 -33.879639 358</gx:coord>
<gx:coord >18.429737 -33.8776 365</gx:coord>
<gx:coord >18.427448 -33.875132 373</gx:coord>
<gx:coord >18.426018 -33.873829 373</gx:coord>
<gx:coord >18.424759 -33.872758 373</gx:coord>
<gx:coord >18.422985 -33.871455 380</gx:coord>
<gx:coord >18.421097 -33.870291 388</gx:coord>
<gx:coord >18.419437 -33.869406 388</gx:coord>
<gx:coord >18.417435 -33.868522 388</gx:coord>
<gx:coord >18.415496 -33.867874 396</gx:coord>
<gx:coord >18.413703 -33.867416 403</gx:coord>
<gx:coord >18.410797 -33.866846 403</gx:coord>
<gx:coord >18.409218 -33.866684 342</gx:coord>
<gx:coord >18.407822 -33.866567 457</gx:coord>
<gx:coord >18.406416 -33.866501 419</gx:coord>
<gx:coord >18.404174 -33.866547 419</gx:coord>
<gx:coord >18.401928 -33.8668 419</gx:coord>
<gx:coord >18.399868 -33.867172 419</gx:coord>
<gx:coord >18.398094 -33.867684 426</gx:coord>
<gx:coord >18.396206 -33.868382 419</gx:coord>
<gx:coord >18.395261 -33.86879 419</gx:coord>
<gx:coord >18.39426 -33.869267 419</gx:coord>
<gx:coord >18.392601 -33.870244 411</gx:coord>
<gx:coord >18.390777 -33.87149 403</gx:coord>
<gx:coord >18.385676 -33.875336 388</gx:coord>
<gx:coord >18.38316 -33.87732 388</gx:coord>
<gx:coord >18.380407 -33.879776 396</gx:coord>
<gx:coord >18.378468 -33.881696 396</gx:coord>
<gx:coord >18.375607 -33.884908 411</gx:coord>
<gx:coord >18.373569 -33.887283 419</gx:coord>
<gx:coord >18.371159 -33.890305 419</gx:coord>
<gx:coord >18.368524 -33.893875 426</gx:coord>
<gx:coord >18.367023 -33.896034 365</gx:coord>
<gx:coord >18.366506 -33.896805 365</gx:coord>
<gx:coord >18.36525 -33.898781 426</gx:coord>
<gx:coord >18.364677 -33.899712 434</gx:coord>
<gx:coord >18.36376 -33.901154 441</gx:coord>
<gx:coord >18.363647 -33.901388 449</gx:coord>
<gx:coord >18.361416 -33.904972 449</gx:coord>
<gx:coord >18.360958 -33.905717 457</gx:coord>
<gx:coord >18.359163 -33.908798 518</gx:coord>
<gx:coord >18.358547 -33.909851 457</gx:coord>
<gx:coord >18.357762 -33.911224 518</gx:coord>
<gx:coord >18.355968 -33.914703 464</gx:coord>
<gx:coord >18.353502 -33.919876 472</gx:coord>
<gx:coord >18.352489 -33.921731 472</gx:coord>
<gx:coord >18.351596 -33.923264 495</gx:coord>
<gx:coord >18.350139 -33.925735 502</gx:coord>
<gx:coord >18.348513 -33.928436 495</gx:coord>
<gx:coord >18.346882 -33.930809 502</gx:coord>
<gx:coord >18.344479 -33.934393 495</gx:coord>
<gx:coord >18.34156 -33.938583 502</gx:coord>
<gx:coord >18.338704 -33.942398 510</gx:coord>
<gx:coord >18.333721 -33.949244 518</gx:coord>
<gx:coord >18.332034 -33.951736 518</gx:coord>
<gx:coord >18.331922 -33.952057 525</gx:coord>
<gx:coord >18.33181 -33.952606 525</gx:coord>
<gx:coord >18.331776 -33.953433 533</gx:coord>
<gx:coord >18.331866 -33.953613 533</gx:coord>
<gx:coord >18.33209 -33.954071 541</gx:coord>
<gx:coord >18.332426 -33.954483 541</gx:coord>
<gx:coord >18.332875 -33.954712 556</gx:coord>
<gx:coord >18.333491 -33.954895 472</gx:coord>
<gx:coord >18.334836 -33.954803 617</gx:coord>
<gx:coord >18.335209 -33.95469 617</gx:coord>
<gx:coord >18.335733 -33.954529 541</gx:coord>
<gx:coord >18.335953 -33.954411 541</gx:coord>
<gx:coord >18.336854 -33.953888 533</gx:coord>
<gx:coord >18.337078 -33.953705 525</gx:coord>
<gx:coord >18.33744 -33.953433 525</gx:coord>
<gx:coord >18.338312 -33.952652 518</gx:coord>
<gx:coord >18.338757 -33.95213 502</gx:coord>
<gx:coord >18.339321 -33.951462 502</gx:coord>
<gx:coord >18.340588 -33.949616 487</gx:coord>
<gx:coord >18.343048 -33.945845 495</gx:coord>
<gx:coord >18.344814 -33.942902 533</gx:coord>
<gx:coord >18.345165 -33.942354 502</gx:coord>
<gx:coord >18.345318 -33.942123 495</gx:coord>
<gx:coord >18.345795 -33.941283 495</gx:coord>
<gx:coord >18.345935 -33.941071 495</gx:coord>
<gx:coord >18.346424 -33.940352 487</gx:coord>
<gx:coord >18.346539 -33.940073 487</gx:coord>
<gx:coord >18.346939 -33.939468 487</gx:coord>
<gx:coord >18.349113 -33.935837 457</gx:coord>
<gx:coord >18.349746 -33.934799 457</gx:coord>
<gx:coord >18.350086 -33.934161 449</gx:coord>
<gx:coord >18.352261 -33.930809 449</gx:coord>
<gx:coord >18.354321 -33.927783 441</gx:coord>
<gx:coord >18.355968 -33.92569 419</gx:coord>
<gx:coord >18.358042 -33.923172 419</gx:coord>
<gx:coord >18.360386 -33.920614 403</gx:coord>
<gx:coord >18.365665 -33.914978 380</gx:coord>
<gx:coord >18.36731 -33.913259 365</gx:coord>
<gx:coord >18.367851 -33.912643 342</gx:coord>
<gx:coord >18.368636 -33.911728 320</gx:coord>
<gx:coord >18.369656 -33.910605 304</gx:coord>
<gx:coord >18.371029 -33.908883 281</gx:coord>
<gx:coord >18.372116 -33.907393 266</gx:coord>
<gx:coord >18.372116 -33.907393 266</gx:coord>
</gx:Track>
</Placemark>
</Folder>
</Folder>
</kml>
