<?xml version="1.0" encoding="UTF-8"?>
<kml xmlns="http://www.opengis.net/kml/2.2" xmlns:gx="http://www.google.com/kml/ext/2.2"><Folder ><Folder ><name >ZS-HMB track</name>
<Placemark ><name >ZS-HMB</name>
<Style ><LineStyle ><color >ff1c1ae3</color>
<width >4</width>
</LineStyle>
<IconStyle ><Icon ><href >http://maps.google.com/mapfiles/kml/shapes/airports.png</href>
</Icon>
</IconStyle>
</Style>
<gx:Track ><altitudeMode >absolute</altitudeMode>
<extrude >1</extrude>
<when >2025-09-30T15:51:04.825Z</when>
<when >2025-09-30T15:51:04.825Z</when>
<when >2025-09-30T15:51:12.885Z</when>
<when >2025-09-30T15:51:15.925Z</when>
<when >2025-09-30T15:51:18.675Z</when>
<when >2025-09-30T15:51:20.995Z</when>
<when >2025-09-30T15:51:40.405Z</when>
<when >2025-09-30T15:51:48.735Z</when>
<when >2025-09-30T15:51:50.355Z</when>
<when >2025-09-30T15:51:52.315Z</when>
<when >2025-09-30T15:51:54.415Z</when>
<when >2025-09-30T15:51:55.004Z</when>
<when >2025-09-30T15:51:56.305Z</when>
<when >2025-09-30T15:51:56.785Z</when>
<when >2025-09-30T15:51:59.485Z</when>
<when >2025-09-30T15:52:01.295Z</when>
<when >2025-09-30T15:52:07.445Z</when>
<when >2025-09-30T15:52:10.925Z</when>
<when >2025-09-30T15:52:17.875Z</when>
<when >2025-09-30T15:52:23.725Z</when>
<when >2025-09-30T15:52:29.235Z</when>
<when >2025-09-30T15:52:37.875Z</when>
<when >2025-09-30T15:52:43.075Z</when>
<when >2025-09-30T15:52:46.235Z</when>
<when >2025-09-30T15:52:49.415Z</when>
<when >2025-09-30T15:52:51.855Z</when>
<when >2025-09-30T15:52:54.735Z</when>
<when >2025-09-30T15:52:56.465Z</when>
<when >2025-09-30T15:52:58.535Z</when>
<when >2025-09-30T15:53:00.115Z</when>
<when >2025-09-30T15:53:02.325Z</when>
<when >2025-09-30T15:53:05.465Z</when>
<when >2025-09-30T15:53:07.595Z</when>
<when >2025-09-30T15:53:10.265Z</when>
<when >2025-09-30T15:53:12.615Z</when>
<when >2025-09-30T15:53:15.425Z</when>
<when >2025-09-30T15:53:18.595Z</when>
<when >2025-09-30T15:53:21.875Z</when>
<when >2025-09-30T15:53:25.375Z</when>
<when >2025-09-30T15:53:32.135Z</when>
<when >2025-09-30T15:53:41.945Z</when>
<when >2025-09-30T15:53:50.545Z</when>
<when >2025-09-30T15:53:55.885Z</when>
<when >2025-09-30T15:54:06.745Z</when>
<when >2025-09-30T15:54:18.955Z</when>
<when >2025-09-30T15:54:26.065Z</when>
<when >2025-09-30T15:54:32.135Z</when>
<when >2025-09-30T15:54:36.635Z</when>
<when >2025-09-30T15:54:38.865Z</when>
<when >2025-09-30T15:54:42.775Z</when>
<when >2025-09-30T15:54:46.495Z</when>
<when >2025-09-30T15:54:52.355Z</when>
<when >2025-09-30T15:54:59.105Z</when>
<when >2025-09-30T15:55:06.825Z</when>
<when >2025-09-30T15:55:14.605Z</when>
<when >2025-09-30T15:55:20.405Z</when>
<when >2025-09-30T15:55:25.485Z</when>
<when >2025-09-30T15:55:30.975Z</when>
<when >2025-09-30T15:55:39.665Z</when>
<when >2025-09-30T15:55:45.625Z</when>
<when >2025-09-30T15:55:53.975Z</when>
<when >2025-09-30T15:56:04.095Z</when>
<when >2025-09-30T15:56:10.835Z</when>
<when >2025-09-30T15:56:22.845Z</when>
<when >2025-09-30T15:56:33.045Z</when>
<when >2025-09-30T15:56:40.685Z</when>
<when >2025-09-30T15:56:49.575Z</when>
<when >2025-09-30T15:56:57.945Z</when>
<when >2025-09-30T15:57:04.995Z</when>
<when >2025-09-30T15:57:09.475Z</when>
<when >2025-09-30T15:57:13.215Z</when>
<when >2025-09-30T15:57:20.455Z</when>
<when >2025-09-30T15:57:31.825Z</when>
<when >2025-09-30T15:57:37.325Z</when>
<when >2025-09-30T15:57:41.025Z</when>
<when >2025-09-30T15:57:43.105Z</when>
<when >2025-09-30T15:57:45.754Z</when>
<when >2025-09-30T15:57:52.325Z</when>
<when >2025-09-30T15:57:59.205Z</when>
<when >2025-09-30T15:58:04.405Z</when>
<when >2025-09-30T15:58:12.495Z</when>
<when >2025-09-30T15:58:16.675Z</when>
<when >2025-09-30T15:58:19.275Z</when>
<when >2025-09-30T15:58:22.335Z</when>
<when >2025-09-30T15:58:25.335Z</when>
<when >2025-09-30T15:58:28.504Z</when>
<when >2025-09-30T15:58:32.525Z</when>
<when >2025-09-30T15:58:36.605Z</when>
<when >2025-09-30T15:58:40.415Z</when>
<when >2025-09-30T15:58:46.305Z</when>
<when >2025-09-30T15:58:55.585Z</when>
<when >2025-09-30T15:59:02.285Z</when>
<when >2025-09-30T15:59:21.095Z</when>
<when >2025-09-30T15:59:38.195Z</when>
<when >2025-09-30T15:59:46.815Z</when>
<when >2025-09-30T15:59:53.715Z</when>
<when >2025-09-30T16:00:00.765Z</when>
<when >2025-09-30T16:00:06.535Z</when>
<when >2025-09-30T16:00:11.125Z</when>
<when >2025-09-30T16:00:15.465Z</when>
<when >2025-09-30T16:00:18.545Z</when>
<when >2025-09-30T16:00:22.375Z</when>
<when >2025-09-30T16:00:24.835Z</when>
<when >2025-09-30T16:00:29.125Z</when>
<when >2025-09-30T16:00:30.754Z</when>
<when >2025-09-30T16:00:33.375Z</when>
<when >2025-09-30T16:00:35.085Z</when>
<when >2025-09-30T16:00:36.665Z</when>
<when >2025-09-30T16:00:39.095Z</when>
<when >2025-09-30T16:00:41.455Z</when>
<when >2025-09-30T16:00:43.045Z</when>
<when >2025-09-30T16:00:45.695Z</when>
<when >2025-09-30T16:00:49.145Z</when>
<when >2025-09-30T16:00:53.375Z</when>
<when >2025-09-30T16:00:57.875Z</when>
<when >2025-09-30T16:01:02.095Z</when>
<when >2025-09-30T16:01:06.345Z</when>
<when >2025-09-30T16:01:10.785Z</when>
<when >2025-09-30T16:01:18.825Z</when>
<when >2025-09-30T16:01:27.004Z</when>
<when >2025-09-30T16:01:36.615Z</when>
<when >2025-09-30T16:01:44.685Z</when>
<when >2025-09-30T16:02:04.575Z</when>
<when >2025-09-30T16:02:08.185Z</when>
<when >2025-09-30T16:02:12.175Z</when>
<when >2025-09-30T16:02:15.155Z</when>
<when >2025-09-30T16:02:17.865Z</when>
<when >2025-09-30T16:02:22.705Z</when>
<when >2025-09-30T16:02:26.785Z</when>
<when >2025-09-30T16:02:28.885Z</when>
<when >2025-09-30T16:02:30.665Z</when>
<when >2025-09-30T16:02:33.965Z</when>
<when >2025-09-30T16:02:36.895Z</when>
<when >2025-09-30T16:02:39.254Z</when>
<when >2025-09-30T16:02:44.955Z</when>
<when >2025-09-30T16:02:48.605Z</when>
<when >2025-09-30T16:02:54.025Z</when>
<when >2025-09-30T16:02:57.915Z</when>
<when >2025-09-30T16:03:01.625Z</when>
<when >2025-09-30T16:03:04.815Z</when>
<when >2025-09-30T16:03:09.675Z</when>
<when >2025-09-30T16:03:17.915Z</when>
<when >2025-09-30T16:03:29.635Z</when>
<when >2025-09-30T16:03:36.445Z</when>
<when >2025-09-30T16:03:42.145Z</when>
<when >2025-09-30T16:03:48.955Z</when>
<when >2025-09-30T16:03:53.915Z</when>
<when >2025-09-30T16:04:03.985Z</when>
<when >2025-09-30T16:04:13.765Z</when>
<when >2025-09-30T16:04:20.905Z</when>
<when >2025-09-30T16:04:25.555Z</when>
<when >2025-09-30T16:04:29.825Z</when>
<when >2025-09-30T16:04:33.765Z</when>
<when >2025-09-30T16:04:38.335Z</when>
<when >2025-09-30T16:04:47.025Z</when>
<when >2025-09-30T16:04:54.445Z</when>
<when >2025-09-30T16:05:02.985Z</when>
<when >2025-09-30T16:05:17.235Z</when>
<when >2025-09-30T16:05:23.305Z</when>
<when >2025-09-30T16:05:29.905Z</when>
<when >2025-09-30T16:05:34.845Z</when>
<when >2025-09-30T16:05:35.745Z</when>
<when >2025-09-30T16:05:40.754Z</when>
<when >2025-09-30T16:05:46.215Z</when>
<when >2025-09-30T16:05:53.605Z</when>
<when >2025-09-30T16:05:59.705Z</when>
<when >2025-09-30T16:06:02.605Z</when>
<when >2025-09-30T16:06:07.675Z</when>
<when >2025-09-30T16:06:10.295Z</when>
<when >2025-09-30T16:06:13.295Z</when>
<when >2025-09-30T16:06:16.935Z</when>
<when >2025-09-30T16:06:20.435Z</when>
<when >2025-09-30T16:06:25.085Z</when>
<when >2025-09-30T16:06:29.265Z</when>
<when >2025-09-30T16:06:34.905Z</when>
<when >2025-09-30T16:06:39.555Z</when>
<when >2025-09-30T16:06:46.545Z</when>
<when >2025-09-30T16:06:51.695Z</when>
<when >2025-09-30T16:06:57.825Z</when>
<when >2025-09-30T16:07:03.145Z</when>
<when >2025-09-30T16:07:10.085Z</when>
<when >2025-09-30T16:07:18.575Z</when>
<when >2025-09-30T16:07:26.465Z</when>
<when >2025-09-30T16:07:32.195Z</when>
<when >2025-09-30T16:07:44.095Z</when>
<when >2025-09-30T16:07:53.045Z</when>
<when >2025-09-30T16:07:55.465Z</when>
<when >2025-09-30T16:07:59.135Z</when>
<when >2025-09-30T16:08:05.475Z</when>
<when >2025-09-30T16:08:12.825Z</when>
<when >2025-09-30T16:08:17.715Z</when>
<when >2025-09-30T16:08:24.085Z</when>
<when >2025-09-30T16:08:27.275Z</when>
<when >2025-09-30T16:08:30.504Z</when>
<when >2025-09-30T16:08:33.415Z</when>
<when >2025-09-30T16:08:36.525Z</when>
<when >2025-09-30T16:08:40.525Z</when>
<when >2025-09-30T16:08:45.675Z</when>
<when >2025-09-30T16:08:53.254Z</when>
<when >2025-09-30T16:08:57.125Z</when>
<when >2025-09-30T16:09:01.945Z</when>
<when >2025-09-30T16:09:05.835Z</when>
<when >2025-09-30T16:09:10.345Z</when>
<when >2025-09-30T16:09:14.915Z</when>
<when >2025-09-30T16:09:17.305Z</when>
<when >2025-09-30T16:09:19.495Z</when>
<when >2025-09-30T16:09:21.485Z</when>
<when >2025-09-30T16:09:24.855Z</when>
<when >2025-09-30T16:09:27.885Z</when>
<when >2025-09-30T16:09:29.295Z</when>
<when >2025-09-30T16:09:30.075Z</when>
<when >2025-09-30T16:09:31.995Z</when>
<when >2025-09-30T16:09:33.055Z</when>
<when >2025-09-30T16:09:34.075Z</when>
<when >2025-09-30T16:09:35.315Z</when>
<when >2025-09-30T16:09:36.515Z</when>
<when >2025-09-30T16:09:38.145Z</when>
<when >2025-09-30T16:09:39.425Z</when>
<when >2025-09-30T16:09:41.105Z</when>
<when >2025-09-30T16:09:48.795Z</when>
<when >2025-09-30T16:09:52.235Z</when>
<when >2025-09-30T16:09:55.425Z</when>
<when >2025-09-30T16:09:56.915Z</when>
<when >2025-09-30T16:09:59.825Z</when>
<when >2025-09-30T16:10:01.765Z</when>
<when >2025-09-30T16:10:03.965Z</when>
<when >2025-09-30T16:10:08.395Z</when>
<when >2025-09-30T16:10:14.775Z</when>
<when >2025-09-30T16:10:20.025Z</when>
<when >2025-09-30T16:10:28.515Z</when>
<when >2025-09-30T16:10:32.015Z</when>
<when >2025-09-30T16:10:32.955Z</when>
<when >2025-09-30T16:10:37.125Z</when>
<when >2025-09-30T16:10:38.425Z</when>
<when >2025-09-30T16:10:41.004Z</when>
<when >2025-09-30T16:10:45.825Z</when>
<when >2025-09-30T16:10:46.905Z</when>
<when >2025-09-30T16:10:47.675Z</when>
<when >2025-09-30T16:10:50.215Z</when>
<when >2025-09-30T16:10:50.995Z</when>
<when >2025-09-30T16:10:52.565Z</when>
<when >2025-09-30T16:11:10.485Z</when>
<when >2025-09-30T16:11:30.205Z</when>
<when >2025-09-30T16:11:48.645Z</when>
<when >2025-09-30T16:12:07.645Z</when>
<when >2025-09-30T16:12:25.745Z</when>
<when >2025-09-30T16:12:39.485Z</when>
<when >2025-09-30T16:12:40.225Z</when>
<when >2025-09-30T16:12:42.675Z</when>
<when >2025-09-30T16:12:43.325Z</when>
<when >2025-09-30T16:12:45.004Z</when>
<when >2025-09-30T16:12:45.845Z</when>
<when >2025-09-30T16:12:47.465Z</when>
<when >2025-09-30T16:12:49.085Z</when>
<when >2025-09-30T16:12:49.865Z</when>
<when >2025-09-30T16:12:50.945Z</when>
<when >2025-09-30T16:12:51.955Z</when>
<when >2025-09-30T16:12:53.254Z</when>
<when >2025-09-30T16:12:56.235Z</when>
<when >2025-09-30T16:13:04.805Z</when>
<when >2025-09-30T16:13:09.265Z</when>
<when >2025-09-30T16:13:15.004Z</when>
<when >2025-09-30T16:13:22.325Z</when>
<when >2025-09-30T16:13:29.185Z</when>
<when >2025-09-30T16:13:35.615Z</when>
<when >2025-09-30T16:13:41.655Z</when>
<when >2025-09-30T16:13:44.335Z</when>
<when >2025-09-30T16:13:46.395Z</when>
<when >2025-09-30T16:13:48.625Z</when>
<when >2025-09-30T16:13:49.995Z</when>
<when >2025-09-30T16:13:52.895Z</when>
<when >2025-09-30T16:13:55.655Z</when>
<when >2025-09-30T16:13:58.015Z</when>
<when >2025-09-30T16:13:59.995Z</when>
<when >2025-09-30T16:14:02.754Z</when>
<when >2025-09-30T16:14:04.535Z</when>
<when >2025-09-30T16:14:06.935Z</when>
<when >2025-09-30T16:14:09.995Z</when>
<when >2025-09-30T16:14:11.945Z</when>
<when >2025-09-30T16:14:13.995Z</when>
<when >2025-09-30T16:14:20.735Z</when>
<when >2025-09-30T16:14:28.265Z</when>
<when >2025-09-30T16:14:37.075Z</when>
<when >2025-09-30T16:14:43.105Z</when>
<when >2025-09-30T16:14:52.365Z</when>
<when >2025-09-30T16:15:02.335Z</when>
<when >2025-09-30T16:15:10.115Z</when>
<when >2025-09-30T16:15:14.225Z</when>
<when >2025-09-30T16:15:20.305Z</when>
<when >2025-09-30T16:15:24.995Z</when>
<when >2025-09-30T16:15:29.765Z</when>
<when >2025-09-30T16:15:34.985Z</when>
<when >2025-09-30T16:15:40.455Z</when>
<when >2025-09-30T16:15:44.065Z</when>
<when >2025-09-30T16:15:47.365Z</when>
<when >2025-09-30T16:15:53.375Z</when>
<when >2025-09-30T16:15:59.645Z</when>
<when >2025-09-30T16:16:05.965Z</when>
<when >2025-09-30T16:16:11.095Z</when>
<when >2025-09-30T16:16:17.135Z</when>
<when >2025-09-30T16:16:28.595Z</when>
<when >2025-09-30T16:16:40.175Z</when>
<when >2025-09-30T16:16:46.665Z</when>
<when >2025-09-30T16:16:53.775Z</when>
<when >2025-09-30T16:17:05.385Z</when>
<when >2025-09-30T16:17:24.545Z</when>
<when >2025-09-30T16:17:30.525Z</when>
<when >2025-09-30T16:17:35.435Z</when>
<when >2025-09-30T16:17:42.035Z</when>
<when >2025-09-30T16:17:50.575Z</when>
<when >2025-09-30T16:17:59.485Z</when>
<when >2025-09-30T16:18:05.615Z</when>
<when >2025-09-30T16:18:18.285Z</when>
<when >2025-09-30T16:18:19.385Z</when>
<when >2025-09-30T16:18:20.395Z</when>
<when >2025-09-30T16:18:22.735Z</when>
<when >2025-09-30T16:18:22.975Z</when>
<when >2025-09-30T16:18:24.685Z</when>
<when >2025-09-30T16:18:26.105Z</when>
<when >2025-09-30T16:18:27.615Z</when>
<when >2025-09-30T16:18:29.875Z</when>
<when >2025-09-30T16:18:31.935Z</when>
<when >2025-09-30T16:18:32.875Z</when>
<when >2025-09-30T16:18:34.705Z</when>
<when >2025-09-30T16:18:35.765Z</when>
<when >2025-09-30T16:18:36.545Z</when>
<when >2025-09-30T16:18:37.945Z</when>
<when >2025-09-30T16:18:38.915Z</when>
<when >2025-09-30T16:18:42.215Z</when>
<when >2025-09-30T16:18:46.375Z</when>
<when >2025-09-30T16:18:50.265Z</when>
<when >2025-09-30T16:18:55.345Z</when>
<when >2025-09-30T16:19:04.065Z</when>
<when >2025-09-30T16:19:16.655Z</when>
<when >2025-09-30T16:19:25.625Z</when>
<when >2025-09-30T16:19:31.585Z</when>
<when >2025-09-30T16:19:37.115Z</when>
<when >2025-09-30T16:19:42.805Z</when>
<when >2025-09-30T16:19:49.925Z</when>
<when >2025-09-30T16:20:00.765Z</when>
<when >2025-09-30T16:20:13.375Z</when>
<when >2025-09-30T16:20:27.985Z</when>
<when >2025-09-30T16:20:40.625Z</when>
<when >2025-09-30T16:20:50.365Z</when>
<when >2025-09-30T16:20:54.405Z</when>
<when >2025-09-30T16:20:57.415Z</when>
<when >2025-09-30T16:20:59.945Z</when>
<when >2025-09-30T16:21:02.015Z</when>
<when >2025-09-30T16:21:04.754Z</when>
<when >2025-09-30T16:21:07.775Z</when>
<when >2025-09-30T16:21:09.085Z</when>
<when >2025-09-30T16:21:11.485Z</when>
<when >2025-09-30T16:21:12.635Z</when>
<when >2025-09-30T16:21:14.745Z</when>
<when >2025-09-30T16:21:17.515Z</when>
<when >2025-09-30T16:21:20.754Z</when>
<when >2025-09-30T16:21:24.115Z</when>
<when >2025-09-30T16:21:27.725Z</when>
<when >2025-09-30T16:21:32.605Z</when>
<when >2025-09-30T16:21:37.335Z</when>
<when >2025-09-30T16:21:42.075Z</when>
<when >2025-09-30T16:21:45.035Z</when>
<when >2025-09-30T16:21:48.495Z</when>
<when >2025-09-30T16:21:51.795Z</when>
<when >2025-09-30T16:21:55.285Z</when>
<when >2025-09-30T16:21:58.075Z</when>
<when >2025-09-30T16:22:00.155Z</when>
<when >2025-09-30T16:22:03.105Z</when>
<when >2025-09-30T16:22:04.695Z</when>
<when >2025-09-30T16:22:06.165Z</when>
<when >2025-09-30T16:22:07.465Z</when>
<when >2025-09-30T16:22:08.655Z</when>
<when >2025-09-30T16:22:09.645Z</when>
<when >2025-09-30T16:22:10.815Z</when>
<when >2025-09-30T16:22:11.765Z</when>
<when >2025-09-30T16:22:13.625Z</when>
<when >2025-09-30T16:22:14.555Z</when>
<when >2025-09-30T16:22:15.415Z</when>
<when >2025-09-30T16:22:16.235Z</when>
<when >2025-09-30T16:22:17.715Z</when>
<when >2025-09-30T16:22:19.105Z</when>
<when >2025-09-30T16:22:20.745Z</when>
<when >2025-09-30T16:22:21.565Z</when>
<when >2025-09-30T16:22:23.375Z</when>
<when >2025-09-30T16:22:25.575Z</when>
<when >2025-09-30T16:22:27.965Z</when>
<when >2025-09-30T16:22:30.725Z</when>
<when >2025-09-30T16:22:33.485Z</when>
<when >2025-09-30T16:22:37.075Z</when>
<when >2025-09-30T16:22:42.285Z</when>
<when >2025-09-30T16:22:48.975Z</when>
<when >2025-09-30T16:22:55.485Z</when>
<when >2025-09-30T16:23:01.045Z</when>
<when >2025-09-30T16:23:05.715Z</when>
<when >2025-09-30T16:23:09.254Z</when>
<when >2025-09-30T16:23:25.825Z</when>
<when >2025-09-30T16:23:30.875Z</when>
<when >2025-09-30T16:23:32.035Z</when>
<when >2025-09-30T16:23:37.795Z</when>
<when >2025-09-30T16:23:37.795Z</when>
<gx:coord >18.427435 -33.90097 7</gx:coord>
<gx:coord >18.427435 -33.90097 7</gx:coord>
<gx:coord >18.427448 -33.900969 7</gx:coord>
<gx:coord >18.427448 -33.900969 7</gx:coord>
<gx:coord >18.427491 -33.90097 7</gx:coord>
<gx:coord >18.427448 -33.900969 7</gx:coord>
<gx:coord >18.427448 -33.900969 7</gx:coord>
<gx:coord >18.427435 -33.900879 7</gx:coord>
<gx:coord >18.427448 -33.900876 15</gx:coord>
<gx:coord >18.427391 -33.900596 22</gx:coord>
<gx:coord >18.427448 -33.900224 22</gx:coord>
<gx:coord >18.427491 -33.900146 15</gx:coord>
<gx:coord >18.42766 -33.899734 15</gx:coord>
<gx:coord >18.427792 -33.899433 15</gx:coord>
<gx:coord >18.428078 -33.898921 30</gx:coord>
<gx:coord >18.428556 -33.89827 30</gx:coord>
<gx:coord >18.429509 -33.897079 68</gx:coord>
<gx:coord >18.43035 -33.895981 91</gx:coord>
<gx:coord >18.431396 -33.894498 129</gx:coord>
<gx:coord >18.432541 -33.893008 167</gx:coord>
<gx:coord >18.433743 -33.891379 190</gx:coord>
<gx:coord >18.434887 -33.889703 220</gx:coord>
<gx:coord >18.435802 -33.888214 243</gx:coord>
<gx:coord >18.436292 -33.887146 251</gx:coord>
<gx:coord >18.436628 -33.886368 259</gx:coord>
<gx:coord >18.436775 -33.8857 266</gx:coord>
<gx:coord >18.436796 -33.88504 281</gx:coord>
<gx:coord >18.43674 -33.884491 281</gx:coord>
<gx:coord >18.436572 -33.884033 289</gx:coord>
<gx:coord >18.436348 -33.883575 297</gx:coord>
<gx:coord >18.436031 -33.883093 304</gx:coord>
<gx:coord >18.435619 -33.88266 312</gx:coord>
<gx:coord >18.435402 -33.882488 312</gx:coord>
<gx:coord >18.434778 -33.882111 327</gx:coord>
<gx:coord >18.433971 -33.881836 335</gx:coord>
<gx:coord >18.433265 -33.881653 350</gx:coord>
<gx:coord >18.43277 -33.881557 365</gx:coord>
<gx:coord >18.431808 -33.881424 373</gx:coord>
<gx:coord >18.430882 -33.881417 380</gx:coord>
<gx:coord >18.429005 -33.881378 403</gx:coord>
<gx:coord >18.426247 -33.881417 434</gx:coord>
<gx:coord >18.423214 -33.88137 457</gx:coord>
<gx:coord >18.421497 -33.881417 464</gx:coord>
<gx:coord >18.417794 -33.881653 480</gx:coord>
<gx:coord >18.412971 -33.881836 495</gx:coord>
<gx:coord >18.410397 -33.882022 502</gx:coord>
<gx:coord >18.408108 -33.882255 510</gx:coord>
<gx:coord >18.406752 -33.882523 518</gx:coord>
<gx:coord >18.405519 -33.882889 525</gx:coord>
<gx:coord >18.404454 -33.883301 533</gx:coord>
<gx:coord >18.402786 -33.884024 548</gx:coord>
<gx:coord >18.40081 -33.884995 563</gx:coord>
<gx:coord >18.398666 -33.886165 579</gx:coord>
<gx:coord >18.39655 -33.887421 601</gx:coord>
<gx:coord >18.393745 -33.889191 617</gx:coord>
<gx:coord >18.391743 -33.890541 624</gx:coord>
<gx:coord >18.390385 -33.891541 640</gx:coord>
<gx:coord >18.388538 -33.893102 662</gx:coord>
<gx:coord >18.385792 -33.895522 693</gx:coord>
<gx:coord >18.384361 -33.896919 716</gx:coord>
<gx:coord >18.382645 -33.898734 754</gx:coord>
<gx:coord >18.379847 -33.901703 777</gx:coord>
<gx:coord >18.377829 -33.903946 807</gx:coord>
<gx:coord >18.374977 -33.906974 830</gx:coord>
<gx:coord >18.372231 -33.909907 861</gx:coord>
<gx:coord >18.369701 -33.912781 883</gx:coord>
<gx:coord >18.367596 -33.915354 899</gx:coord>
<gx:coord >18.365553 -33.918228 914</gx:coord>
<gx:coord >18.363247 -33.921498 922</gx:coord>
<gx:coord >18.36219 -33.923309 929</gx:coord>
<gx:coord >18.361473 -33.924757 929</gx:coord>
<gx:coord >18.36034 -33.927612 944</gx:coord>
<gx:coord >18.358322 -33.933105 960</gx:coord>
<gx:coord >18.357538 -33.935669 967</gx:coord>
<gx:coord >18.357296 -33.936861 975</gx:coord>
<gx:coord >18.357182 -33.938024 990</gx:coord>
<gx:coord >18.357201 -33.939423 990</gx:coord>
<gx:coord >18.35741 -33.942633 1013</gx:coord>
<gx:coord >18.357706 -33.945511 1028</gx:coord>
<gx:coord >18.358266 -33.948715 1043</gx:coord>
<gx:coord >18.358955 -33.952595 1059</gx:coord>
<gx:coord >18.359163 -33.954437 1066</gx:coord>
<gx:coord >18.359219 -33.955948 1066</gx:coord>
<gx:coord >18.359107 -33.957275 1066</gx:coord>
<gx:coord >18.358841 -33.958833 1066</gx:coord>
<gx:coord >18.358435 -33.96048 1066</gx:coord>
<gx:coord >18.357754 -33.962511 1074</gx:coord>
<gx:coord >18.356977 -33.964188 1082</gx:coord>
<gx:coord >18.356037 -33.965956 1089</gx:coord>
<gx:coord >18.354721 -33.96819 1097</gx:coord>
<gx:coord >18.352089 -33.972287 1104</gx:coord>
<gx:coord >18.350195 -33.974991 1104</gx:coord>
<gx:coord >18.344421 -33.982808 1104</gx:coord>
<gx:coord >18.3395 -33.989744 1104</gx:coord>
<gx:coord >18.336525 -33.994213 1104</gx:coord>
<gx:coord >18.334668 -33.99733 1104</gx:coord>
<gx:coord >18.33292 -34.000591 1104</gx:coord>
<gx:coord >18.331641 -34.003372 1104</gx:coord>
<gx:coord >18.330631 -34.005944 1104</gx:coord>
<gx:coord >18.330002 -34.008318 1097</gx:coord>
<gx:coord >18.32968 -34.009918 1089</gx:coord>
<gx:coord >18.329455 -34.012161 1089</gx:coord>
<gx:coord >18.32943 -34.01302 1089</gx:coord>
<gx:coord >18.329601 -34.015627 1104</gx:coord>
<gx:coord >18.329773 -34.016372 1104</gx:coord>
<gx:coord >18.330173 -34.017489 1104</gx:coord>
<gx:coord >18.331089 -34.019118 1112</gx:coord>
<gx:coord >18.331604 -34.019817 1112</gx:coord>
<gx:coord >18.332594 -34.020813 1120</gx:coord>
<gx:coord >18.33395 -34.021865 1120</gx:coord>
<gx:coord >18.334444 -34.022186 1120</gx:coord>
<gx:coord >18.336013 -34.023056 1127</gx:coord>
<gx:coord >18.338184 -34.0241 1127</gx:coord>
<gx:coord >18.340666 -34.025116 1127</gx:coord>
<gx:coord >18.343735 -34.026148 1135</gx:coord>
<gx:coord >18.346215 -34.026764 1135</gx:coord>
<gx:coord >18.348598 -34.027219 1135</gx:coord>
<gx:coord >18.352045 -34.027771 1135</gx:coord>
<gx:coord >18.356809 -34.028275 1127</gx:coord>
<gx:coord >18.362022 -34.028732 1127</gx:coord>
<gx:coord >18.36886 -34.029099 1120</gx:coord>
<gx:coord >18.373401 -34.029144 1104</gx:coord>
<gx:coord >18.387246 -34.029144 1089</gx:coord>
<gx:coord >18.390369 -34.029267 1082</gx:coord>
<gx:coord >18.392544 -34.0295 1082</gx:coord>
<gx:coord >18.395233 -34.030012 1074</gx:coord>
<gx:coord >18.397111 -34.030518 1074</gx:coord>
<gx:coord >18.399241 -34.031158 1082</gx:coord>
<gx:coord >18.402828 -34.032166 1082</gx:coord>
<gx:coord >18.404118 -34.032394 1082</gx:coord>
<gx:coord >18.405743 -34.032578 1082</gx:coord>
<gx:coord >18.407364 -34.032619 1074</gx:coord>
<gx:coord >18.410003 -34.03244 1066</gx:coord>
<gx:coord >18.411292 -34.032303 1059</gx:coord>
<gx:coord >18.413486 -34.03192 1051</gx:coord>
<gx:coord >18.417149 -34.031129 1036</gx:coord>
<gx:coord >18.420124 -34.030291 1021</gx:coord>
<gx:coord >18.422527 -34.029453 1013</gx:coord>
<gx:coord >18.424587 -34.028615 998</gx:coord>
<gx:coord >18.426202 -34.027817 982</gx:coord>
<gx:coord >18.428764 -34.026427 975</gx:coord>
<gx:coord >18.432541 -34.024193 952</gx:coord>
<gx:coord >18.438085 -34.02095 914</gx:coord>
<gx:coord >18.441168 -34.018936 906</gx:coord>
<gx:coord >18.443699 -34.017024 906</gx:coord>
<gx:coord >18.446445 -34.014836 883</gx:coord>
<gx:coord >18.448677 -34.01288 853</gx:coord>
<gx:coord >18.452267 -34.009552 830</gx:coord>
<gx:coord >18.455294 -34.006622 807</gx:coord>
<gx:coord >18.458118 -34.003617 792</gx:coord>
<gx:coord >18.459498 -34.001999 777</gx:coord>
<gx:coord >18.460619 -34.000488 754</gx:coord>
<gx:coord >18.461723 -33.998682 731</gx:coord>
<gx:coord >18.46258 -33.996918 708</gx:coord>
<gx:coord >18.464262 -33.993393 685</gx:coord>
<gx:coord >18.465832 -33.990463 662</gx:coord>
<gx:coord >18.467849 -33.98703 662</gx:coord>
<gx:coord >18.471222 -33.981551 662</gx:coord>
<gx:coord >18.472502 -33.979202 632</gx:coord>
<gx:coord >18.473911 -33.976523 647</gx:coord>
<gx:coord >18.474941 -33.974568 655</gx:coord>
<gx:coord >18.475113 -33.974149 647</gx:coord>
<gx:coord >18.4762 -33.971915 640</gx:coord>
<gx:coord >18.47683 -33.970425 640</gx:coord>
<gx:coord >18.478203 -33.96684 601</gx:coord>
<gx:coord >18.478948 -33.964828 586</gx:coord>
<gx:coord >18.479284 -33.963364 571</gx:coord>
<gx:coord >18.479404 -33.962371 571</gx:coord>
<gx:coord >18.479396 -33.960663 563</gx:coord>
<gx:coord >18.479233 -33.959159 556</gx:coord>
<gx:coord >18.479004 -33.958099 548</gx:coord>
<gx:coord >18.478603 -33.956785 541</gx:coord>
<gx:coord >18.477995 -33.955261 533</gx:coord>
<gx:coord >18.477287 -33.953759 525</gx:coord>
<gx:coord >18.476315 -33.952037 510</gx:coord>
<gx:coord >18.475399 -33.950547 502</gx:coord>
<gx:coord >18.473854 -33.948452 495</gx:coord>
<gx:coord >18.47267 -33.947067 487</gx:coord>
<gx:coord >18.471165 -33.945473 480</gx:coord>
<gx:coord >18.469811 -33.944138 472</gx:coord>
<gx:coord >18.467789 -33.9424 464</gx:coord>
<gx:coord >18.465214 -33.940306 457</gx:coord>
<gx:coord >18.462582 -33.938304 449</gx:coord>
<gx:coord >18.460899 -33.937134 441</gx:coord>
<gx:coord >18.456751 -33.934341 426</gx:coord>
<gx:coord >18.453999 -33.932205 426</gx:coord>
<gx:coord >18.453556 -33.931824 419</gx:coord>
<gx:coord >18.452379 -33.930679 411</gx:coord>
<gx:coord >18.450753 -33.928848 411</gx:coord>
<gx:coord >18.448849 -33.92648 411</gx:coord>
<gx:coord >18.447819 -33.925036 411</gx:coord>
<gx:coord >18.446503 -33.922895 403</gx:coord>
<gx:coord >18.445873 -33.921685 396</gx:coord>
<gx:coord >18.445358 -33.920288 380</gx:coord>
<gx:coord >18.445148 -33.919281 373</gx:coord>
<gx:coord >18.444924 -33.917908 358</gx:coord>
<gx:coord >18.444843 -33.916191 350</gx:coord>
<gx:coord >18.444924 -33.914017 335</gx:coord>
<gx:coord >18.445187 -33.910372 304</gx:coord>
<gx:coord >18.445129 -33.908743 281</gx:coord>
<gx:coord >18.444901 -33.906695 266</gx:coord>
<gx:coord >18.444672 -33.905066 259</gx:coord>
<gx:coord >18.444363 -33.903076 243</gx:coord>
<gx:coord >18.444083 -33.90184 243</gx:coord>
<gx:coord >18.443747 -33.900742 243</gx:coord>
<gx:coord >18.44341 -33.899963 236</gx:coord>
<gx:coord >18.443186 -33.89946 228</gx:coord>
<gx:coord >18.442514 -33.898132 220</gx:coord>
<gx:coord >18.442097 -33.897431 220</gx:coord>
<gx:coord >18.441953 -33.897217 220</gx:coord>
<gx:coord >18.441729 -33.896896 220</gx:coord>
<gx:coord >18.441561 -33.896667 228</gx:coord>
<gx:coord >18.44128 -33.896439 228</gx:coord>
<gx:coord >18.441181 -33.896407 236</gx:coord>
<gx:coord >18.440832 -33.896301 236</gx:coord>
<gx:coord >18.44072 -33.896347 243</gx:coord>
<gx:coord >18.440552 -33.896407 243</gx:coord>
<gx:coord >18.440328 -33.896576 243</gx:coord>
<gx:coord >18.440151 -33.896826 243</gx:coord>
<gx:coord >18.43895 -33.898222 205</gx:coord>
<gx:coord >18.43832 -33.898828 182</gx:coord>
<gx:coord >18.43792 -33.899107 167</gx:coord>
<gx:coord >18.437405 -33.899386 160</gx:coord>
<gx:coord >18.436908 -33.899597 144</gx:coord>
<gx:coord >18.436292 -33.899734 137</gx:coord>
<gx:coord >18.435899 -33.899826 129</gx:coord>
<gx:coord >18.434778 -33.899963 106</gx:coord>
<gx:coord >18.432929 -33.900238 83</gx:coord>
<gx:coord >18.431527 -33.900513 60</gx:coord>
<gx:coord >18.429678 -33.900925 38</gx:coord>
<gx:coord >18.429108 -33.901062 38</gx:coord>
<gx:coord >18.429005 -33.901108 30</gx:coord>
<gx:coord >18.428388 -33.901199 22</gx:coord>
<gx:coord >18.428108 -33.901199 22</gx:coord>
<gx:coord >18.427849 -33.901202 15</gx:coord>
<gx:coord >18.427604 -33.901199 7</gx:coord>
<gx:coord >18.427548 -33.901199 7</gx:coord>
<gx:coord >18.427491 -33.901199 -1</gx:coord>
<gx:coord >18.427491 -33.901199 -1</gx:coord>
<gx:coord >18.427505 -33.901202 7</gx:coord>
<gx:coord >18.427491 -33.901199 7</gx:coord>
<gx:coord >18.427491 -33.901199 7</gx:coord>
<gx:coord >18.427491 -33.901199 7</gx:coord>
<gx:coord >18.427505 -33.901202 7</gx:coord>
<gx:coord >18.427505 -33.901202 7</gx:coord>
<gx:coord >18.427505 -33.901202 7</gx:coord>
<gx:coord >18.427505 -33.901202 7</gx:coord>
<gx:coord >18.427491 -33.901154 7</gx:coord>
<gx:coord >18.427379 -33.901108 15</gx:coord>
<gx:coord >18.427391 -33.901109 15</gx:coord>
<gx:coord >18.427211 -33.90097 15</gx:coord>
<gx:coord >18.427162 -33.900922 7</gx:coord>
<gx:coord >18.427043 -33.90065 15</gx:coord>
<gx:coord >18.427048 -33.90055 15</gx:coord>
<gx:coord >18.427048 -33.900457 15</gx:coord>
<gx:coord >18.427211 -33.900055 15</gx:coord>
<gx:coord >18.427219 -33.899945 15</gx:coord>
<gx:coord >18.427491 -33.899597 15</gx:coord>
<gx:coord >18.427996 -33.898819 15</gx:coord>
<gx:coord >18.42979 -33.896072 45</gx:coord>
<gx:coord >18.430518 -33.894928 68</gx:coord>
<gx:coord >18.431396 -33.893567 99</gx:coord>
<gx:coord >18.432426 -33.892031 129</gx:coord>
<gx:coord >18.433628 -33.890308 167</gx:coord>
<gx:coord >18.434601 -33.888819 198</gx:coord>
<gx:coord >18.435283 -33.88765 220</gx:coord>
<gx:coord >18.435574 -33.886957 228</gx:coord>
<gx:coord >18.435688 -33.886491 236</gx:coord>
<gx:coord >18.435688 -33.885979 243</gx:coord>
<gx:coord >18.435688 -33.885653 243</gx:coord>
<gx:coord >18.435507 -33.88504 251</gx:coord>
<gx:coord >18.435171 -33.884445 266</gx:coord>
<gx:coord >18.43489 -33.884125 266</gx:coord>
<gx:coord >18.434429 -33.883605 274</gx:coord>
<gx:coord >18.433914 -33.883233 289</gx:coord>
<gx:coord >18.433601 -33.88298 297</gx:coord>
<gx:coord >18.433153 -33.882797 304</gx:coord>
<gx:coord >18.432426 -33.882627 320</gx:coord>
<gx:coord >18.431976 -33.882568 327</gx:coord>
<gx:coord >18.431359 -33.882523 327</gx:coord>
<gx:coord >18.429902 -33.882477 350</gx:coord>
<gx:coord >18.427906 -33.882395 380</gx:coord>
<gx:coord >18.425642 -33.882385 411</gx:coord>
<gx:coord >18.424072 -33.882301 419</gx:coord>
<gx:coord >18.421555 -33.882208 441</gx:coord>
<gx:coord >18.418411 -33.882111 457</gx:coord>
<gx:coord >18.416119 -33.882069 480</gx:coord>
<gx:coord >18.415031 -33.882115 487</gx:coord>
<gx:coord >18.413086 -33.882294 502</gx:coord>
<gx:coord >18.411741 -33.882477 518</gx:coord>
<gx:coord >18.410225 -33.882767 525</gx:coord>
<gx:coord >18.408451 -33.883186 541</gx:coord>
<gx:coord >18.406906 -33.883605 541</gx:coord>
<gx:coord >18.405876 -33.883977 548</gx:coord>
<gx:coord >18.404398 -33.884674 548</gx:coord>
<gx:coord >18.402328 -33.885746 556</gx:coord>
<gx:coord >18.400383 -33.886864 563</gx:coord>
<gx:coord >18.397952 -33.888428 563</gx:coord>
<gx:coord >18.396606 -33.889343 571</gx:coord>
<gx:coord >18.394432 -33.891007 586</gx:coord>
<gx:coord >18.39077 -33.89394 601</gx:coord>
<gx:coord >18.38719 -33.896988 632</gx:coord>
<gx:coord >18.385277 -33.898641 632</gx:coord>
<gx:coord >18.382988 -33.900829 640</gx:coord>
<gx:coord >18.379269 -33.904693 640</gx:coord>
<gx:coord >18.373661 -33.910512 640</gx:coord>
<gx:coord >18.371551 -33.912872 640</gx:coord>
<gx:coord >18.370113 -33.914748 640</gx:coord>
<gx:coord >18.368397 -33.917169 640</gx:coord>
<gx:coord >18.366108 -33.920661 640</gx:coord>
<gx:coord >18.363991 -33.924152 640</gx:coord>
<gx:coord >18.362617 -33.926805 647</gx:coord>
<gx:coord >18.360043 -33.931973 655</gx:coord>
<gx:coord >18.359928 -33.932392 662</gx:coord>
<gx:coord >18.35978 -33.932693 670</gx:coord>
<gx:coord >18.35978 -33.932693 678</gx:coord>
<gx:coord >18.3595 -33.933701 708</gx:coord>
<gx:coord >18.3595 -33.933975 716</gx:coord>
<gx:coord >18.359612 -33.934525 739</gx:coord>
<gx:coord >18.359756 -33.934766 746</gx:coord>
<gx:coord >18.360228 -33.935211 769</gx:coord>
<gx:coord >18.360958 -33.935371 754</gx:coord>
<gx:coord >18.361588 -33.935324 754</gx:coord>
<gx:coord >18.362331 -33.935045 731</gx:coord>
<gx:coord >18.362526 -33.934937 708</gx:coord>
<gx:coord >18.363031 -33.93457 701</gx:coord>
<gx:coord >18.363591 -33.934113 685</gx:coord>
<gx:coord >18.363762 -33.933928 678</gx:coord>
<gx:coord >18.364825 -33.932739 662</gx:coord>
<gx:coord >18.36589 -33.931412 655</gx:coord>
<gx:coord >18.367067 -33.92981 647</gx:coord>
<gx:coord >18.36834 -33.92783 640</gx:coord>
<gx:coord >18.370285 -33.92485 617</gx:coord>
<gx:coord >18.373681 -33.919785 601</gx:coord>
<gx:coord >18.376259 -33.915939 571</gx:coord>
<gx:coord >18.378165 -33.91333 541</gx:coord>
<gx:coord >18.380013 -33.911071 518</gx:coord>
<gx:coord >18.381958 -33.908929 495</gx:coord>
<gx:coord >18.384876 -33.906043 480</gx:coord>
<gx:coord >18.389151 -33.901932 464</gx:coord>
<gx:coord >18.394203 -33.897338 449</gx:coord>
<gx:coord >18.399914 -33.892227 441</gx:coord>
<gx:coord >18.404789 -33.888027 426</gx:coord>
<gx:coord >18.409081 -33.884536 419</gx:coord>
<gx:coord >18.410683 -33.883419 419</gx:coord>
<gx:coord >18.412285 -33.882441 411</gx:coord>
<gx:coord >18.413315 -33.881929 411</gx:coord>
<gx:coord >18.414711 -33.881424 411</gx:coord>
<gx:coord >18.416176 -33.881045 411</gx:coord>
<gx:coord >18.417664 -33.880812 403</gx:coord>
<gx:coord >18.418859 -33.880692 403</gx:coord>
<gx:coord >18.420353 -33.880765 396</gx:coord>
<gx:coord >18.421214 -33.880875 388</gx:coord>
<gx:coord >18.422756 -33.881231 388</gx:coord>
<gx:coord >18.424244 -33.881696 380</gx:coord>
<gx:coord >18.426304 -33.882488 373</gx:coord>
<gx:coord >18.428364 -33.883512 365</gx:coord>
<gx:coord >18.430309 -33.884676 358</gx:coord>
<gx:coord >18.432985 -33.886459 335</gx:coord>
<gx:coord >18.435115 -33.88797 327</gx:coord>
<gx:coord >18.437462 -33.889889 320</gx:coord>
<gx:coord >18.438814 -33.891174 304</gx:coord>
<gx:coord >18.440159 -33.892593 289</gx:coord>
<gx:coord >18.441296 -33.894126 274</gx:coord>
<gx:coord >18.442065 -33.89534 251</gx:coord>
<gx:coord >18.442955 -33.897105 236</gx:coord>
<gx:coord >18.44347 -33.898409 243</gx:coord>
<gx:coord >18.443871 -33.899246 243</gx:coord>
<gx:coord >18.444195 -33.899872 251</gx:coord>
<gx:coord >18.444386 -33.900178 266</gx:coord>
<gx:coord >18.444557 -33.900457 274</gx:coord>
<gx:coord >18.445015 -33.900829 304</gx:coord>
<gx:coord >18.445644 -33.901109 304</gx:coord>
<gx:coord >18.446159 -33.901109 320</gx:coord>
<gx:coord >18.446274 -33.901109 327</gx:coord>
<gx:coord >18.446732 -33.900876 312</gx:coord>
<gx:coord >18.446846 -33.900783 312</gx:coord>
<gx:coord >18.44696 -33.900503 297</gx:coord>
<gx:coord >18.446903 -33.900224 289</gx:coord>
<gx:coord >18.446732 -33.899991 274</gx:coord>
<gx:coord >18.446549 -33.899826 259</gx:coord>
<gx:coord >18.446045 -33.899479 236</gx:coord>
<gx:coord >18.445644 -33.899293 228</gx:coord>
<gx:coord >18.445148 -33.899139 220</gx:coord>
<gx:coord >18.444443 -33.898921 213</gx:coord>
<gx:coord >18.443747 -33.898773 205</gx:coord>
<gx:coord >18.442898 -33.898641 182</gx:coord>
<gx:coord >18.441982 -33.898595 182</gx:coord>
<gx:coord >18.440552 -33.898544 167</gx:coord>
<gx:coord >18.438663 -33.898595 144</gx:coord>
<gx:coord >18.436516 -33.898682 114</gx:coord>
<gx:coord >18.434498 -33.898819 99</gx:coord>
<gx:coord >18.432873 -33.899002 83</gx:coord>
<gx:coord >18.431568 -33.8992 68</gx:coord>
<gx:coord >18.430824 -33.89934 60</gx:coord>
<gx:coord >18.427884 -33.90065 22</gx:coord>
<gx:coord >18.427448 -33.901015 15</gx:coord>
<gx:coord >18.427379 -33.901108 15</gx:coord>
<gx:coord >18.427267 -33.901291 -1</gx:coord>
<gx:coord >18.427267 -33.901291 -1</gx:coord>
</gx:Track>
</Placemark>
</Folder>
</Folder>
</kml>
