<?xml version="1.0" encoding="UTF-8"?>
<kml xmlns="http://www.opengis.net/kml/2.2" xmlns:gx="http://www.google.com/kml/ext/2.2"><Folder ><Folder ><name >ZS-RTG track</name>
<Placemark ><name >ZS-RTG</name>
<Style ><LineStyle ><color >ff1c1ae3</color>
<width >4</width>
</LineStyle>
<IconStyle ><Icon ><href >http://maps.google.com/mapfiles/kml/shapes/airports.png</href>
</Icon>
</IconStyle>
</Style>
<gx:Track ><altitudeMode >absolute</altitudeMode>
<extrude >1</extrude>
<when >2025-11-19T07:40:13.910Z</when>
<when >2025-11-19T07:40:13.910Z</when>
<when >2025-11-19T07:40:15.820Z</when>
<when >2025-11-19T07:40:17.570Z</when>
<when >2025-11-19T07:40:18.950Z</when>
<when >2025-11-19T07:40:21.660Z</when>
<when >2025-11-19T07:40:26.040Z</when>
<when >2025-11-19T07:40:33.020Z</when>
<when >2025-11-19T07:40:43.320Z</when>
<when >2025-11-19T07:40:49.630Z</when>
<when >2025-11-19T07:40:54.610Z</when>
<when >2025-11-19T07:40:58.530Z</when>
<when >2025-11-19T07:41:04.760Z</when>
<when >2025-11-19T07:41:12.700Z</when>
<when >2025-11-19T07:41:18.240Z</when>
<when >2025-11-19T07:41:25.290Z</when>
<when >2025-11-19T07:41:27.680Z</when>
<when >2025-11-19T07:41:29.170Z</when>
<when >2025-11-19T07:41:30.870Z</when>
<when >2025-11-19T07:41:31.850Z</when>
<when >2025-11-19T07:41:32.970Z</when>
<when >2025-11-19T07:41:33.920Z</when>
<when >2025-11-19T07:41:34.890Z</when>
<when >2025-11-19T07:41:35.830Z</when>
<when >2025-11-19T07:41:36.660Z</when>
<when >2025-11-19T07:41:37.440Z</when>
<when >2025-11-19T07:41:38.220Z</when>
<when >2025-11-19T07:41:39.260Z</when>
<when >2025-11-19T07:41:40.430Z</when>
<when >2025-11-19T07:41:41.280Z</when>
<when >2025-11-19T07:41:42.810Z</when>
<when >2025-11-19T07:41:44.680Z</when>
<when >2025-11-19T07:41:47.130Z</when>
<when >2025-11-19T07:41:51.030Z</when>
<when >2025-11-19T07:41:58.470Z</when>
<when >2025-11-19T07:42:04.830Z</when>
<when >2025-11-19T07:42:12.010Z</when>
<when >2025-11-19T07:42:18.550Z</when>
<when >2025-11-19T07:42:25.380Z</when>
<when >2025-11-19T07:42:32.710Z</when>
<when >2025-11-19T07:42:38.470Z</when>
<when >2025-11-19T07:42:45.120Z</when>
<when >2025-11-19T07:42:49.010Z</when>
<when >2025-11-19T07:42:51.570Z</when>
<when >2025-11-19T07:42:53.480Z</when>
<when >2025-11-19T07:42:54.940Z</when>
<when >2025-11-19T07:42:56.900Z</when>
<when >2025-11-19T07:42:58.310Z</when>
<when >2025-11-19T07:42:59.690Z</when>
<when >2025-11-19T07:43:01.280Z</when>
<when >2025-11-19T07:43:03.020Z</when>
<when >2025-11-19T07:43:04.930Z</when>
<when >2025-11-19T07:43:06.810Z</when>
<when >2025-11-19T07:43:08.600Z</when>
<when >2025-11-19T07:43:10.950Z</when>
<when >2025-11-19T07:43:13.790Z</when>
<when >2025-11-19T07:43:17.080Z</when>
<when >2025-11-19T07:43:21.190Z</when>
<when >2025-11-19T07:43:27.150Z</when>
<when >2025-11-19T07:43:30.880Z</when>
<when >2025-11-19T07:43:35.190Z</when>
<when >2025-11-19T07:43:39.170Z</when>
<when >2025-11-19T07:43:42.720Z</when>
<when >2025-11-19T07:43:46.140Z</when>
<when >2025-11-19T07:43:52.730Z</when>
<when >2025-11-19T07:43:58.620Z</when>
<when >2025-11-19T07:44:02.520Z</when>
<when >2025-11-19T07:44:08.200Z</when>
<when >2025-11-19T07:44:17.710Z</when>
<when >2025-11-19T07:44:21.750Z</when>
<when >2025-11-19T07:44:24.870Z</when>
<when >2025-11-19T07:44:27.450Z</when>
<when >2025-11-19T07:44:32.100Z</when>
<when >2025-11-19T07:44:37.530Z</when>
<when >2025-11-19T07:44:46.940Z</when>
<when >2025-11-19T07:44:55.640Z</when>
<when >2025-11-19T07:45:01.240Z</when>
<when >2025-11-19T07:45:09.810Z</when>
<when >2025-11-19T07:45:21.130Z</when>
<when >2025-11-19T07:45:28.000Z</when>
<when >2025-11-19T07:45:32.040Z</when>
<when >2025-11-19T07:45:36.510Z</when>
<when >2025-11-19T07:45:38.480Z</when>
<when >2025-11-19T07:49:41.450Z</when>
<when >2025-11-19T07:49:43.320Z</when>
<when >2025-11-19T07:49:44.900Z</when>
<when >2025-11-19T07:49:46.260Z</when>
<when >2025-11-19T07:49:48.170Z</when>
<when >2025-11-19T07:49:49.250Z</when>
<when >2025-11-19T07:49:50.780Z</when>
<when >2025-11-19T07:49:51.940Z</when>
<when >2025-11-19T07:49:52.540Z</when>
<when >2025-11-19T07:49:53.370Z</when>
<when >2025-11-19T07:49:54.730Z</when>
<when >2025-11-19T07:49:55.910Z</when>
<when >2025-11-19T07:49:56.940Z</when>
<when >2025-11-19T07:49:58.470Z</when>
<when >2025-11-19T07:50:00.080Z</when>
<when >2025-11-19T07:50:01.560Z</when>
<when >2025-11-19T07:50:03.270Z</when>
<when >2025-11-19T07:50:05.420Z</when>
<when >2025-11-19T07:50:08.260Z</when>
<when >2025-11-19T07:50:11.950Z</when>
<when >2025-11-19T07:50:16.420Z</when>
<when >2025-11-19T07:50:22.340Z</when>
<when >2025-11-19T07:50:30.670Z</when>
<when >2025-11-19T07:50:36.420Z</when>
<when >2025-11-19T07:50:44.290Z</when>
<when >2025-11-19T07:50:48.310Z</when>
<when >2025-11-19T07:50:51.850Z</when>
<when >2025-11-19T07:50:55.940Z</when>
<when >2025-11-19T07:51:00.670Z</when>
<when >2025-11-19T07:51:08.110Z</when>
<when >2025-11-19T07:51:17.850Z</when>
<when >2025-11-19T07:51:30.510Z</when>
<when >2025-11-19T07:51:37.830Z</when>
<when >2025-11-19T07:51:42.680Z</when>
<when >2025-11-19T07:51:55.760Z</when>
<when >2025-11-19T07:52:05.130Z</when>
<when >2025-11-19T07:52:24.610Z</when>
<when >2025-11-19T07:52:35.110Z</when>
<when >2025-11-19T07:52:46.220Z</when>
<when >2025-11-19T07:52:54.090Z</when>
<when >2025-11-19T07:53:01.470Z</when>
<when >2025-11-19T07:53:13.940Z</when>
<when >2025-11-19T07:53:24.640Z</when>
<when >2025-11-19T07:53:34.500Z</when>
<when >2025-11-19T07:53:52.550Z</when>
<when >2025-11-19T07:54:07.030Z</when>
<when >2025-11-19T07:54:16.580Z</when>
<when >2025-11-19T07:54:26.220Z</when>
<when >2025-11-19T07:54:45.170Z</when>
<when >2025-11-19T07:54:57.000Z</when>
<when >2025-11-19T07:55:01.260Z</when>
<when >2025-11-19T07:55:03.850Z</when>
<when >2025-11-19T07:55:06.180Z</when>
<when >2025-11-19T07:55:08.350Z</when>
<when >2025-11-19T07:55:10.330Z</when>
<when >2025-11-19T07:55:12.790Z</when>
<when >2025-11-19T07:55:14.840Z</when>
<when >2025-11-19T07:55:17.260Z</when>
<when >2025-11-19T07:55:20.590Z</when>
<when >2025-11-19T07:55:23.290Z</when>
<when >2025-11-19T07:55:27.170Z</when>
<when >2025-11-19T07:55:31.620Z</when>
<when >2025-11-19T07:55:36.710Z</when>
<when >2025-11-19T07:55:44.290Z</when>
<when >2025-11-19T07:55:50.020Z</when>
<when >2025-11-19T07:55:58.370Z</when>
<when >2025-11-19T07:56:02.830Z</when>
<when >2025-11-19T07:56:04.770Z</when>
<when >2025-11-19T07:56:08.250Z</when>
<when >2025-11-19T07:56:11.260Z</when>
<when >2025-11-19T07:56:13.330Z</when>
<when >2025-11-19T07:56:14.890Z</when>
<when >2025-11-19T07:56:16.710Z</when>
<when >2025-11-19T07:56:18.080Z</when>
<when >2025-11-19T07:56:20.040Z</when>
<when >2025-11-19T07:56:21.780Z</when>
<when >2025-11-19T07:56:22.870Z</when>
<when >2025-11-19T07:56:25.770Z</when>
<when >2025-11-19T07:56:33.330Z</when>
<when >2025-11-19T07:56:36.790Z</when>
<when >2025-11-19T07:56:56.590Z</when>
<when >2025-11-19T07:57:16.280Z</when>
<when >2025-11-19T07:57:36.210Z</when>
<when >2025-11-19T07:57:55.810Z</when>
<when >2025-11-19T07:58:15.720Z</when>
<when >2025-11-19T07:58:35.560Z</when>
<when >2025-11-19T07:58:54.370Z</when>
<when >2025-11-19T07:59:01.780Z</when>
<when >2025-11-19T12:17:18.580Z</when>
<when >2025-11-19T12:17:19.920Z</when>
<when >2025-11-19T12:17:21.250Z</when>
<when >2025-11-19T12:17:22.530Z</when>
<when >2025-11-19T12:17:24.250Z</when>
<when >2025-11-19T12:17:27.360Z</when>
<when >2025-11-19T12:17:34.140Z</when>
<when >2025-11-19T12:17:37.940Z</when>
<when >2025-11-19T12:17:40.510Z</when>
<when >2025-11-19T12:17:43.430Z</when>
<when >2025-11-19T12:17:45.760Z</when>
<when >2025-11-19T12:17:48.690Z</when>
<when >2025-11-19T12:17:51.280Z</when>
<when >2025-11-19T12:17:53.820Z</when>
<when >2025-11-19T12:17:54.970Z</when>
<when >2025-11-19T12:17:56.290Z</when>
<when >2025-11-19T12:17:57.520Z</when>
<when >2025-11-19T12:17:59.150Z</when>
<when >2025-11-19T12:18:01.200Z</when>
<when >2025-11-19T12:18:02.420Z</when>
<when >2025-11-19T12:18:03.890Z</when>
<when >2025-11-19T12:18:05.280Z</when>
<when >2025-11-19T12:18:07.640Z</when>
<when >2025-11-19T12:18:09.340Z</when>
<when >2025-11-19T12:18:11.350Z</when>
<when >2025-11-19T12:18:14.510Z</when>
<when >2025-11-19T12:18:16.970Z</when>
<when >2025-11-19T12:18:23.770Z</when>
<when >2025-11-19T12:18:30.210Z</when>
<when >2025-11-19T12:18:34.490Z</when>
<when >2025-11-19T12:18:38.970Z</when>
<when >2025-11-19T12:18:44.200Z</when>
<when >2025-11-19T12:18:48.500Z</when>
<when >2025-11-19T12:18:52.140Z</when>
<when >2025-11-19T12:18:56.530Z</when>
<when >2025-11-19T12:18:59.610Z</when>
<when >2025-11-19T12:19:03.130Z</when>
<when >2025-11-19T12:19:06.290Z</when>
<when >2025-11-19T12:19:09.480Z</when>
<when >2025-11-19T12:19:13.370Z</when>
<when >2025-11-19T12:19:16.850Z</when>
<when >2025-11-19T12:19:19.980Z</when>
<when >2025-11-19T12:19:24.440Z</when>
<when >2025-11-19T12:19:29.290Z</when>
<when >2025-11-19T12:19:34.620Z</when>
<when >2025-11-19T12:19:38.780Z</when>
<when >2025-11-19T12:19:42.580Z</when>
<when >2025-11-19T12:19:47.200Z</when>
<when >2025-11-19T12:19:52.570Z</when>
<when >2025-11-19T12:19:58.700Z</when>
<when >2025-11-19T12:20:08.210Z</when>
<when >2025-11-19T12:20:16.790Z</when>
<when >2025-11-19T12:20:25.190Z</when>
<when >2025-11-19T12:20:33.550Z</when>
<when >2025-11-19T12:20:40.300Z</when>
<when >2025-11-19T12:20:49.150Z</when>
<when >2025-11-19T12:20:56.770Z</when>
<when >2025-11-19T12:21:04.200Z</when>
<when >2025-11-19T12:21:12.990Z</when>
<when >2025-11-19T12:21:18.580Z</when>
<when >2025-11-19T12:21:26.620Z</when>
<when >2025-11-19T12:21:33.580Z</when>
<when >2025-11-19T12:21:39.610Z</when>
<when >2025-11-19T12:21:48.670Z</when>
<when >2025-11-19T12:21:57.620Z</when>
<when >2025-11-19T12:22:06.250Z</when>
<when >2025-11-19T12:22:18.190Z</when>
<when >2025-11-19T12:22:27.390Z</when>
<when >2025-11-19T12:22:46.480Z</when>
<when >2025-11-19T12:22:51.470Z</when>
<when >2025-11-19T12:23:10.930Z</when>
<when >2025-11-19T12:23:20.830Z</when>
<when >2025-11-19T12:23:26.010Z</when>
<when >2025-11-19T12:23:30.280Z</when>
<when >2025-11-19T12:23:34.080Z</when>
<when >2025-11-19T12:23:47.420Z</when>
<when >2025-11-19T12:23:50.740Z</when>
<when >2025-11-19T12:23:55.970Z</when>
<when >2025-11-19T12:24:03.270Z</when>
<when >2025-11-19T12:24:15.230Z</when>
<when >2025-11-19T12:24:23.440Z</when>
<when >2025-11-19T12:24:31.840Z</when>
<when >2025-11-19T12:24:42.550Z</when>
<when >2025-11-19T12:24:58.250Z</when>
<when >2025-11-19T12:25:11.010Z</when>
<when >2025-11-19T12:25:23.820Z</when>
<when >2025-11-19T12:25:36.920Z</when>
<when >2025-11-19T12:25:45.850Z</when>
<when >2025-11-19T12:25:54.330Z</when>
<when >2025-11-19T12:26:04.700Z</when>
<when >2025-11-19T12:26:11.880Z</when>
<when >2025-11-19T12:26:29.490Z</when>
<when >2025-11-19T12:26:36.600Z</when>
<when >2025-11-19T12:26:45.650Z</when>
<when >2025-11-19T12:26:54.260Z</when>
<when >2025-11-19T12:27:00.490Z</when>
<when >2025-11-19T12:27:06.960Z</when>
<when >2025-11-19T12:27:11.820Z</when>
<when >2025-11-19T12:27:18.540Z</when>
<when >2025-11-19T12:27:25.140Z</when>
<when >2025-11-19T12:27:34.210Z</when>
<when >2025-11-19T12:27:39.870Z</when>
<when >2025-11-19T12:27:44.470Z</when>
<when >2025-11-19T12:27:48.860Z</when>
<when >2025-11-19T12:27:55.810Z</when>
<when >2025-11-19T12:28:14.560Z</when>
<when >2025-11-19T12:28:23.560Z</when>
<when >2025-11-19T12:28:33.250Z</when>
<when >2025-11-19T12:28:39.360Z</when>
<when >2025-11-19T12:28:48.770Z</when>
<when >2025-11-19T12:28:56.240Z</when>
<when >2025-11-19T12:29:00.720Z</when>
<when >2025-11-19T12:29:10.790Z</when>
<when >2025-11-19T12:29:23.650Z</when>
<when >2025-11-19T12:29:32.340Z</when>
<when >2025-11-19T12:29:45.260Z</when>
<when >2025-11-19T12:29:57.480Z</when>
<when >2025-11-19T12:30:05.870Z</when>
<when >2025-11-19T12:30:22.280Z</when>
<when >2025-11-19T12:30:23.200Z</when>
<when >2025-11-19T12:34:06.890Z</when>
<when >2025-11-19T12:34:26.560Z</when>
<when >2025-11-19T12:34:45.560Z</when>
<when >2025-11-19T12:35:05.390Z</when>
<when >2025-11-19T12:35:13.580Z</when>
<when >2025-11-19T12:35:26.320Z</when>
<when >2025-11-19T12:35:45.600Z</when>
<when >2025-11-19T12:35:58.290Z</when>
<when >2025-11-19T12:36:03.970Z</when>
<when >2025-11-19T12:36:23.010Z</when>
<when >2025-11-19T12:36:33.610Z</when>
<when >2025-11-19T12:36:39.250Z</when>
<when >2025-11-19T12:36:44.610Z</when>
<when >2025-11-19T12:36:48.950Z</when>
<when >2025-11-19T12:36:52.580Z</when>
<when >2025-11-19T12:36:55.740Z</when>
<when >2025-11-19T12:36:59.250Z</when>
<when >2025-11-19T12:37:03.060Z</when>
<when >2025-11-19T12:37:06.420Z</when>
<when >2025-11-19T12:37:09.380Z</when>
<when >2025-11-19T12:37:12.370Z</when>
<when >2025-11-19T12:37:15.480Z</when>
<when >2025-11-19T12:37:19.630Z</when>
<when >2025-11-19T12:37:24.400Z</when>
<when >2025-11-19T12:37:30.750Z</when>
<when >2025-11-19T12:37:35.630Z</when>
<when >2025-11-19T12:37:42.590Z</when>
<when >2025-11-19T12:37:48.380Z</when>
<when >2025-11-19T12:37:55.440Z</when>
<when >2025-11-19T12:38:02.000Z</when>
<when >2025-11-19T12:38:08.330Z</when>
<when >2025-11-19T12:38:14.030Z</when>
<when >2025-11-19T12:38:19.320Z</when>
<when >2025-11-19T12:38:23.390Z</when>
<when >2025-11-19T12:38:27.610Z</when>
<when >2025-11-19T12:38:30.940Z</when>
<when >2025-11-19T12:38:34.130Z</when>
<when >2025-11-19T12:38:38.210Z</when>
<when >2025-11-19T12:38:44.810Z</when>
<when >2025-11-19T12:39:01.640Z</when>
<when >2025-11-19T12:39:13.450Z</when>
<when >2025-11-19T12:39:23.460Z</when>
<when >2025-11-19T12:39:35.840Z</when>
<when >2025-11-19T12:39:52.630Z</when>
<when >2025-11-19T12:40:02.790Z</when>
<when >2025-11-19T12:40:22.740Z</when>
<when >2025-11-19T12:40:30.530Z</when>
<when >2025-11-19T12:40:42.930Z</when>
<when >2025-11-19T12:40:48.520Z</when>
<when >2025-11-19T12:40:53.170Z</when>
<when >2025-11-19T12:40:58.000Z</when>
<when >2025-11-19T12:41:06.700Z</when>
<when >2025-11-19T12:41:12.240Z</when>
<when >2025-11-19T12:41:25.470Z</when>
<when >2025-11-19T12:41:36.250Z</when>
<when >2025-11-19T12:41:47.230Z</when>
<when >2025-11-19T12:41:51.710Z</when>
<when >2025-11-19T12:41:56.130Z</when>
<when >2025-11-19T12:42:00.450Z</when>
<when >2025-11-19T12:42:05.140Z</when>
<when >2025-11-19T12:42:09.920Z</when>
<when >2025-11-19T12:42:16.260Z</when>
<when >2025-11-19T12:42:23.130Z</when>
<when >2025-11-19T12:42:31.830Z</when>
<when >2025-11-19T12:42:45.070Z</when>
<when >2025-11-19T12:42:53.140Z</when>
<when >2025-11-19T12:43:01.500Z</when>
<when >2025-11-19T12:43:06.100Z</when>
<when >2025-11-19T12:43:10.650Z</when>
<when >2025-11-19T12:43:15.020Z</when>
<when >2025-11-19T12:43:20.060Z</when>
<when >2025-11-19T12:43:25.550Z</when>
<when >2025-11-19T12:43:33.760Z</when>
<when >2025-11-19T12:43:49.180Z</when>
<when >2025-11-19T12:44:01.050Z</when>
<when >2025-11-19T12:44:07.900Z</when>
<when >2025-11-19T12:44:11.800Z</when>
<when >2025-11-19T12:44:13.200Z</when>
<when >2025-11-19T12:44:15.090Z</when>
<when >2025-11-19T12:44:17.240Z</when>
<when >2025-11-19T12:44:18.440Z</when>
<when >2025-11-19T12:44:20.190Z</when>
<when >2025-11-19T12:44:21.800Z</when>
<when >2025-11-19T12:44:23.320Z</when>
<when >2025-11-19T12:44:23.980Z</when>
<when >2025-11-19T12:44:25.300Z</when>
<when >2025-11-19T12:44:26.020Z</when>
<when >2025-11-19T12:44:27.890Z</when>
<when >2025-11-19T12:44:28.990Z</when>
<when >2025-11-19T12:44:30.930Z</when>
<when >2025-11-19T12:44:33.510Z</when>
<when >2025-11-19T12:44:36.050Z</when>
<when >2025-11-19T12:44:39.880Z</when>
<when >2025-11-19T12:44:44.460Z</when>
<when >2025-11-19T12:44:51.710Z</when>
<when >2025-11-19T12:44:58.920Z</when>
<when >2025-11-19T12:45:05.100Z</when>
<when >2025-11-19T12:45:13.710Z</when>
<when >2025-11-19T12:45:16.400Z</when>
<when >2025-11-19T12:45:18.950Z</when>
<when >2025-11-19T12:45:20.480Z</when>
<when >2025-11-19T12:45:21.920Z</when>
<when >2025-11-19T12:45:23.440Z</when>
<when >2025-11-19T12:45:25.750Z</when>
<when >2025-11-19T12:45:27.640Z</when>
<when >2025-11-19T12:45:29.430Z</when>
<when >2025-11-19T12:45:31.390Z</when>
<when >2025-11-19T12:45:33.850Z</when>
<when >2025-11-19T14:13:48.290Z</when>
<when >2025-11-19T14:13:49.680Z</when>
<when >2025-11-19T14:13:51.190Z</when>
<when >2025-11-19T14:13:52.890Z</when>
<when >2025-11-19T14:13:54.840Z</when>
<when >2025-11-19T14:13:55.510Z</when>
<when >2025-11-19T14:13:57.500Z</when>
<when >2025-11-19T14:13:58.740Z</when>
<when >2025-11-19T14:14:03.200Z</when>
<when >2025-11-19T14:14:09.250Z</when>
<when >2025-11-19T14:14:14.460Z</when>
<when >2025-11-19T14:14:22.990Z</when>
<when >2025-11-19T14:14:26.920Z</when>
<when >2025-11-19T14:14:32.160Z</when>
<when >2025-11-19T14:14:36.310Z</when>
<when >2025-11-19T14:14:40.360Z</when>
<when >2025-11-19T14:14:44.160Z</when>
<when >2025-11-19T14:14:50.420Z</when>
<when >2025-11-19T14:14:56.250Z</when>
<when >2025-11-19T14:15:01.040Z</when>
<when >2025-11-19T14:15:08.350Z</when>
<when >2025-11-19T14:15:21.870Z</when>
<when >2025-11-19T14:15:28.730Z</when>
<when >2025-11-19T14:15:35.220Z</when>
<when >2025-11-19T14:15:48.000Z</when>
<when >2025-11-19T14:15:56.840Z</when>
<when >2025-11-19T14:16:05.620Z</when>
<when >2025-11-19T14:16:14.460Z</when>
<when >2025-11-19T14:16:19.520Z</when>
<when >2025-11-19T14:16:28.910Z</when>
<when >2025-11-19T14:16:43.960Z</when>
<when >2025-11-19T14:16:50.800Z</when>
<when >2025-11-19T14:16:54.710Z</when>
<when >2025-11-19T14:17:01.610Z</when>
<when >2025-11-19T14:17:06.280Z</when>
<when >2025-11-19T14:17:11.310Z</when>
<when >2025-11-19T14:17:17.230Z</when>
<when >2025-11-19T14:17:23.240Z</when>
<when >2025-11-19T14:17:27.390Z</when>
<when >2025-11-19T14:17:31.350Z</when>
<when >2025-11-19T14:17:40.200Z</when>
<when >2025-11-19T14:17:49.960Z</when>
<when >2025-11-19T14:17:58.460Z</when>
<when >2025-11-19T14:18:06.240Z</when>
<when >2025-11-19T14:18:16.540Z</when>
<when >2025-11-19T14:18:22.340Z</when>
<when >2025-11-19T14:18:29.970Z</when>
<when >2025-11-19T14:18:35.010Z</when>
<when >2025-11-19T14:18:46.140Z</when>
<when >2025-11-19T14:18:49.500Z</when>
<when >2025-11-19T14:19:00.460Z</when>
<when >2025-11-19T14:19:13.010Z</when>
<when >2025-11-19T14:19:21.500Z</when>
<when >2025-11-19T14:19:30.030Z</when>
<when >2025-11-19T14:19:38.450Z</when>
<when >2025-11-19T14:19:51.270Z</when>
<when >2025-11-19T14:20:04.460Z</when>
<when >2025-11-19T14:20:17.300Z</when>
<when >2025-11-19T14:20:33.360Z</when>
<when >2025-11-19T14:20:48.860Z</when>
<when >2025-11-19T14:20:59.030Z</when>
<when >2025-11-19T14:21:14.000Z</when>
<when >2025-11-19T14:21:21.740Z</when>
<when >2025-11-19T14:21:32.230Z</when>
<when >2025-11-19T14:21:41.780Z</when>
<when >2025-11-19T14:21:53.950Z</when>
<when >2025-11-19T14:22:11.100Z</when>
<when >2025-11-19T14:22:19.090Z</when>
<when >2025-11-19T14:22:38.740Z</when>
<when >2025-11-19T14:22:52.750Z</when>
<when >2025-11-19T14:23:11.950Z</when>
<when >2025-11-19T14:23:31.480Z</when>
<when >2025-11-19T14:23:46.160Z</when>
<when >2025-11-19T14:24:01.500Z</when>
<when >2025-11-19T14:24:18.500Z</when>
<when >2025-11-19T14:24:27.910Z</when>
<when >2025-11-19T14:24:38.700Z</when>
<when >2025-11-19T14:24:46.940Z</when>
<when >2025-11-19T14:25:00.150Z</when>
<when >2025-11-19T14:25:12.330Z</when>
<when >2025-11-19T14:25:22.740Z</when>
<when >2025-11-19T14:25:34.830Z</when>
<when >2025-11-19T14:25:40.710Z</when>
<when >2025-11-19T14:25:53.000Z</when>
<when >2025-11-19T14:26:03.210Z</when>
<when >2025-11-19T14:26:10.560Z</when>
<when >2025-11-19T14:26:18.000Z</when>
<when >2025-11-19T14:26:28.070Z</when>
<when >2025-11-19T14:26:40.950Z</when>
<when >2025-11-19T14:26:56.580Z</when>
<when >2025-11-19T14:27:08.620Z</when>
<when >2025-11-19T14:27:15.900Z</when>
<when >2025-11-19T14:27:24.010Z</when>
<when >2025-11-19T14:27:38.050Z</when>
<when >2025-11-19T14:27:48.470Z</when>
<when >2025-11-19T14:28:02.180Z</when>
<when >2025-11-19T14:28:14.820Z</when>
<when >2025-11-19T14:28:27.410Z</when>
<when >2025-11-19T14:28:39.950Z</when>
<when >2025-11-19T14:28:53.460Z</when>
<when >2025-11-19T14:29:04.590Z</when>
<when >2025-11-19T14:29:18.700Z</when>
<when >2025-11-19T14:29:31.560Z</when>
<when >2025-11-19T14:29:45.460Z</when>
<when >2025-11-19T14:30:05.250Z</when>
<when >2025-11-19T14:30:17.770Z</when>
<when >2025-11-19T14:30:25.600Z</when>
<when >2025-11-19T14:30:33.980Z</when>
<when >2025-11-19T14:30:43.240Z</when>
<when >2025-11-19T14:30:48.550Z</when>
<when >2025-11-19T14:30:56.720Z</when>
<when >2025-11-19T14:31:05.600Z</when>
<when >2025-11-19T14:31:16.490Z</when>
<when >2025-11-19T14:31:30.070Z</when>
<when >2025-11-19T14:31:49.290Z</when>
<when >2025-11-19T14:32:06.040Z</when>
<when >2025-11-19T14:32:17.140Z</when>
<when >2025-11-19T14:32:25.620Z</when>
<when >2025-11-19T14:32:40.470Z</when>
<when >2025-11-19T14:32:51.200Z</when>
<when >2025-11-19T14:33:06.790Z</when>
<when >2025-11-19T14:33:18.830Z</when>
<when >2025-11-19T14:33:27.770Z</when>
<when >2025-11-19T14:33:37.570Z</when>
<when >2025-11-19T14:33:46.130Z</when>
<when >2025-11-19T14:33:59.600Z</when>
<when >2025-11-19T14:34:08.750Z</when>
<when >2025-11-19T14:34:25.460Z</when>
<when >2025-11-19T14:34:30.290Z</when>
<when >2025-11-19T14:34:38.370Z</when>
<when >2025-11-19T14:34:44.250Z</when>
<when >2025-11-19T14:34:47.710Z</when>
<when >2025-11-19T14:34:50.710Z</when>
<when >2025-11-19T14:34:52.680Z</when>
<when >2025-11-19T14:34:55.740Z</when>
<when >2025-11-19T14:34:57.680Z</when>
<when >2025-11-19T14:34:59.560Z</when>
<when >2025-11-19T14:35:01.490Z</when>
<when >2025-11-19T14:35:03.910Z</when>
<when >2025-11-19T14:35:06.150Z</when>
<when >2025-11-19T14:35:09.400Z</when>
<when >2025-11-19T14:35:10.830Z</when>
<when >2025-11-19T14:35:13.290Z</when>
<when >2025-11-19T14:35:16.440Z</when>
<when >2025-11-19T14:35:19.040Z</when>
<when >2025-11-19T14:35:23.460Z</when>
<when >2025-11-19T14:35:28.200Z</when>
<when >2025-11-19T14:35:32.800Z</when>
<when >2025-11-19T14:35:37.110Z</when>
<when >2025-11-19T14:35:41.150Z</when>
<when >2025-11-19T14:35:46.240Z</when>
<when >2025-11-19T14:35:47.250Z</when>
<when >2025-11-19T14:35:49.260Z</when>
<when >2025-11-19T14:35:50.480Z</when>
<when >2025-11-19T14:35:51.750Z</when>
<when >2025-11-19T14:35:53.280Z</when>
<when >2025-11-19T14:35:55.070Z</when>
<when >2025-11-19T14:35:55.150Z</when>
<when >2025-11-19T14:35:56.900Z</when>
<when >2025-11-19T14:35:56.900Z</when>
<when >2025-11-19T14:35:58.660Z</when>
<when >2025-11-19T14:36:00.660Z</when>
<when >2025-11-19T14:36:02.850Z</when>
<when >2025-11-19T14:36:04.990Z</when>
<when >2025-11-19T14:36:04.990Z</when>
<when >2025-11-19T14:36:07.060Z</when>
<when >2025-11-19T14:36:08.900Z</when>
<when >2025-11-19T14:36:10.530Z</when>
<when >2025-11-19T14:36:12.190Z</when>
<when >2025-11-19T14:36:15.400Z</when>
<when >2025-11-19T14:36:20.060Z</when>
<when >2025-11-19T14:36:24.810Z</when>
<when >2025-11-19T14:36:32.950Z</when>
<when >2025-11-19T14:36:47.040Z</when>
<when >2025-11-19T14:37:00.340Z</when>
<when >2025-11-19T14:37:06.780Z</when>
<when >2025-11-19T14:37:10.290Z</when>
<when >2025-11-19T14:37:14.850Z</when>
<when >2025-11-19T14:37:16.440Z</when>
<when >2025-11-19T14:37:19.250Z</when>
<when >2025-11-19T14:37:22.470Z</when>
<when >2025-11-19T14:37:24.480Z</when>
<when >2025-11-19T14:37:26.530Z</when>
<when >2025-11-19T14:37:28.400Z</when>
<when >2025-11-19T14:37:32.540Z</when>
<when >2025-11-19T14:37:34.440Z</when>
<when >2025-11-19T14:37:46.140Z</when>
<when >2025-11-19T14:37:49.100Z</when>
<when >2025-11-19T14:37:52.990Z</when>
<when >2025-11-19T14:37:55.210Z</when>
<when >2025-11-19T14:37:57.160Z</when>
<when >2025-11-19T14:37:59.070Z</when>
<when >2025-11-19T14:38:01.460Z</when>
<when >2025-11-19T14:38:03.270Z</when>
<when >2025-11-19T14:38:04.830Z</when>
<when >2025-11-19T14:38:07.180Z</when>
<when >2025-11-19T14:38:08.660Z</when>
<when >2025-11-19T14:38:10.580Z</when>
<when >2025-11-19T14:38:12.250Z</when>
<when >2025-11-19T14:38:13.780Z</when>
<when >2025-11-19T14:38:16.080Z</when>
<when >2025-11-19T14:38:18.110Z</when>
<when >2025-11-19T14:38:20.010Z</when>
<when >2025-11-19T14:38:22.260Z</when>
<when >2025-11-19T14:38:24.690Z</when>
<when >2025-11-19T14:38:27.160Z</when>
<when >2025-11-19T14:38:28.850Z</when>
<when >2025-11-19T14:38:31.200Z</when>
<when >2025-11-19T14:38:33.880Z</when>
<when >2025-11-19T14:38:36.120Z</when>
<when >2025-11-19T14:38:38.130Z</when>
<when >2025-11-19T14:38:40.570Z</when>
<when >2025-11-19T14:38:43.540Z</when>
<when >2025-11-19T14:38:45.450Z</when>
<when >2025-11-19T14:38:47.350Z</when>
<when >2025-11-19T14:38:51.370Z</when>
<when >2025-11-19T14:38:53.710Z</when>
<when >2025-11-19T14:38:55.660Z</when>
<when >2025-11-19T14:38:57.420Z</when>
<when >2025-11-19T14:38:58.970Z</when>
<when >2025-11-19T14:39:00.360Z</when>
<when >2025-11-19T14:39:03.500Z</when>
<when >2025-11-19T14:39:04.790Z</when>
<when >2025-11-19T14:39:06.820Z</when>
<when >2025-11-19T14:39:09.180Z</when>
<when >2025-11-19T14:39:14.510Z</when>
<when >2025-11-19T14:39:19.220Z</when>
<when >2025-11-19T14:39:24.720Z</when>
<when >2025-11-19T14:39:34.300Z</when>
<when >2025-11-19T14:39:52.150Z</when>
<when >2025-11-19T14:40:11.790Z</when>
<when >2025-11-19T14:40:26.460Z</when>
<when >2025-11-19T14:40:37.970Z</when>
<when >2025-11-19T14:40:57.030Z</when>
<when >2025-11-19T14:41:08.130Z</when>
<when >2025-11-19T14:41:18.740Z</when>
<when >2025-11-19T14:41:27.750Z</when>
<when >2025-11-19T14:41:46.440Z</when>
<when >2025-11-19T14:41:57.610Z</when>
<when >2025-11-19T14:42:15.720Z</when>
<when >2025-11-19T14:42:24.430Z</when>
<when >2025-11-19T14:42:30.230Z</when>
<when >2025-11-19T14:42:35.580Z</when>
<when >2025-11-19T14:42:41.480Z</when>
<when >2025-11-19T14:42:49.140Z</when>
<when >2025-11-19T14:43:02.940Z</when>
<when >2025-11-19T14:43:14.570Z</when>
<when >2025-11-19T14:43:21.310Z</when>
<when >2025-11-19T14:43:26.270Z</when>
<when >2025-11-19T14:43:29.820Z</when>
<when >2025-11-19T14:43:34.250Z</when>
<when >2025-11-19T14:43:38.130Z</when>
<when >2025-11-19T14:43:42.860Z</when>
<when >2025-11-19T14:43:47.310Z</when>
<when >2025-11-19T14:43:53.610Z</when>
<when >2025-11-19T14:44:02.120Z</when>
<when >2025-11-19T14:44:12.070Z</when>
<when >2025-11-19T14:44:23.480Z</when>
<when >2025-11-19T14:44:33.340Z</when>
<when >2025-11-19T14:44:45.920Z</when>
<when >2025-11-19T14:44:55.890Z</when>
<when >2025-11-19T14:45:12.590Z</when>
<when >2025-11-19T14:45:18.240Z</when>
<when >2025-11-19T14:45:31.200Z</when>
<when >2025-11-19T14:45:44.050Z</when>
<when >2025-11-19T14:45:52.960Z</when>
<when >2025-11-19T14:46:05.490Z</when>
<when >2025-11-19T14:46:11.240Z</when>
<when >2025-11-19T14:46:16.700Z</when>
<when >2025-11-19T14:46:20.530Z</when>
<when >2025-11-19T14:46:27.210Z</when>
<when >2025-11-19T14:46:32.180Z</when>
<when >2025-11-19T14:46:46.480Z</when>
<when >2025-11-19T14:46:54.760Z</when>
<when >2025-11-19T14:47:09.390Z</when>
<when >2025-11-19T14:47:28.870Z</when>
<when >2025-11-19T14:47:48.620Z</when>
<when >2025-11-19T14:48:04.200Z</when>
<when >2025-11-19T14:48:11.780Z</when>
<when >2025-11-19T14:48:22.440Z</when>
<when >2025-11-19T14:48:34.950Z</when>
<when >2025-11-19T14:48:42.760Z</when>
<when >2025-11-19T14:48:55.670Z</when>
<when >2025-11-19T14:49:06.520Z</when>
<when >2025-11-19T14:49:18.000Z</when>
<when >2025-11-19T14:49:37.400Z</when>
<when >2025-11-19T14:49:46.760Z</when>
<when >2025-11-19T14:49:59.510Z</when>
<when >2025-11-19T14:50:09.170Z</when>
<when >2025-11-19T14:50:17.090Z</when>
<when >2025-11-19T14:50:24.150Z</when>
<when >2025-11-19T14:50:29.060Z</when>
<when >2025-11-19T14:50:34.490Z</when>
<when >2025-11-19T14:50:39.520Z</when>
<when >2025-11-19T14:50:43.450Z</when>
<when >2025-11-19T14:50:48.100Z</when>
<when >2025-11-19T14:50:52.520Z</when>
<when >2025-11-19T14:50:57.550Z</when>
<when >2025-11-19T14:51:03.350Z</when>
<when >2025-11-19T14:51:13.300Z</when>
<when >2025-11-19T14:51:26.250Z</when>
<when >2025-11-19T14:51:37.030Z</when>
<when >2025-11-19T14:51:50.310Z</when>
<when >2025-11-19T14:51:59.530Z</when>
<when >2025-11-19T14:52:06.210Z</when>
<when >2025-11-19T14:52:12.040Z</when>
<when >2025-11-19T14:52:18.150Z</when>
<when >2025-11-19T14:52:22.660Z</when>
<when >2025-11-19T14:52:29.090Z</when>
<when >2025-11-19T14:52:33.120Z</when>
<when >2025-11-19T14:52:37.440Z</when>
<when >2025-11-19T14:52:41.200Z</when>
<when >2025-11-19T14:52:45.210Z</when>
<when >2025-11-19T14:52:48.430Z</when>
<when >2025-11-19T14:52:49.840Z</when>
<when >2025-11-19T14:52:52.930Z</when>
<when >2025-11-19T14:52:56.390Z</when>
<when >2025-11-19T14:52:59.860Z</when>
<when >2025-11-19T14:53:02.690Z</when>
<when >2025-11-19T14:53:06.400Z</when>
<when >2025-11-19T14:53:10.150Z</when>
<when >2025-11-19T14:53:13.330Z</when>
<when >2025-11-19T14:53:15.960Z</when>
<when >2025-11-19T14:53:17.180Z</when>
<when >2025-11-19T14:53:18.700Z</when>
<when >2025-11-19T14:53:20.800Z</when>
<when >2025-11-19T14:53:22.860Z</when>
<when >2025-11-19T14:53:24.700Z</when>
<when >2025-11-19T14:53:27.890Z</when>
<when >2025-11-19T14:53:30.170Z</when>
<when >2025-11-19T14:53:32.150Z</when>
<when >2025-11-19T14:53:36.590Z</when>
<when >2025-11-19T14:53:38.400Z</when>
<when >2025-11-19T14:53:40.720Z</when>
<when >2025-11-19T14:53:43.480Z</when>
<when >2025-11-19T14:53:46.390Z</when>
<when >2025-11-19T14:53:49.040Z</when>
<when >2025-11-19T14:53:50.500Z</when>
<when >2025-11-19T14:53:52.140Z</when>
<when >2025-11-19T14:53:54.250Z</when>
<when >2025-11-19T14:53:56.290Z</when>
<when >2025-11-19T14:53:58.270Z</when>
<when >2025-11-19T14:54:00.400Z</when>
<when >2025-11-19T14:54:03.120Z</when>
<when >2025-11-19T14:54:05.210Z</when>
<when >2025-11-19T14:54:07.500Z</when>
<when >2025-11-19T14:54:08.880Z</when>
<when >2025-11-19T14:54:10.210Z</when>
<when >2025-11-19T14:54:12.820Z</when>
<when >2025-11-19T14:54:13.900Z</when>
<when >2025-11-19T14:54:15.010Z</when>
<when >2025-11-19T14:54:16.900Z</when>
<when >2025-11-19T14:54:19.730Z</when>
<when >2025-11-19T14:54:21.170Z</when>
<when >2025-11-19T14:54:22.750Z</when>
<when >2025-11-19T14:54:24.600Z</when>
<when >2025-11-19T14:54:26.250Z</when>
<when >2025-11-19T14:54:28.150Z</when>
<when >2025-11-19T14:54:30.370Z</when>
<when >2025-11-19T14:54:33.160Z</when>
<when >2025-11-19T14:54:35.390Z</when>
<when >2025-11-19T14:54:38.490Z</when>
<when >2025-11-19T14:54:39.930Z</when>
<when >2025-11-19T14:54:41.860Z</when>
<when >2025-11-19T14:54:45.080Z</when>
<when >2025-11-19T14:54:46.870Z</when>
<when >2025-11-19T14:54:48.950Z</when>
<when >2025-11-19T14:54:51.350Z</when>
<when >2025-11-19T14:54:54.040Z</when>
<when >2025-11-19T14:54:57.230Z</when>
<when >2025-11-19T14:55:00.350Z</when>
<when >2025-11-19T14:55:04.400Z</when>
<when >2025-11-19T14:55:06.060Z</when>
<when >2025-11-19T14:55:07.670Z</when>
<when >2025-11-19T14:55:08.840Z</when>
<when >2025-11-19T14:55:11.050Z</when>
<when >2025-11-19T14:55:12.390Z</when>
<when >2025-11-19T14:55:13.610Z</when>
<when >2025-11-19T14:55:14.820Z</when>
<when >2025-11-19T14:55:16.860Z</when>
<when >2025-11-19T14:55:18.070Z</when>
<when >2025-11-19T14:55:20.440Z</when>
<when >2025-11-19T14:55:21.760Z</when>
<when >2025-11-19T14:55:23.700Z</when>
<when >2025-11-19T14:55:25.650Z</when>
<when >2025-11-19T14:55:27.530Z</when>
<when >2025-11-19T14:55:29.610Z</when>
<when >2025-11-19T14:55:31.810Z</when>
<when >2025-11-19T14:55:33.960Z</when>
<when >2025-11-19T14:55:36.130Z</when>
<when >2025-11-19T14:55:37.920Z</when>
<when >2025-11-19T14:55:39.750Z</when>
<when >2025-11-19T14:55:43.060Z</when>
<when >2025-11-19T14:55:44.390Z</when>
<when >2025-11-19T14:55:46.020Z</when>
<when >2025-11-19T14:55:48.820Z</when>
<when >2025-11-19T14:55:50.250Z</when>
<when >2025-11-19T14:55:52.460Z</when>
<when >2025-11-19T14:55:54.320Z</when>
<when >2025-11-19T14:55:56.570Z</when>
<when >2025-11-19T14:55:58.270Z</when>
<when >2025-11-19T14:56:00.670Z</when>
<when >2025-11-19T14:56:05.090Z</when>
<when >2025-11-19T14:56:06.820Z</when>
<when >2025-11-19T14:56:08.640Z</when>
<when >2025-11-19T14:56:09.900Z</when>
<when >2025-11-19T14:56:11.600Z</when>
<when >2025-11-19T14:56:13.420Z</when>
<when >2025-11-19T14:56:16.210Z</when>
<when >2025-11-19T14:56:20.210Z</when>
<when >2025-11-19T14:56:24.730Z</when>
<when >2025-11-19T14:56:35.260Z</when>
<when >2025-11-19T14:56:39.590Z</when>
<when >2025-11-19T14:56:43.460Z</when>
<when >2025-11-19T14:56:47.800Z</when>
<when >2025-11-19T14:56:52.030Z</when>
<when >2025-11-19T14:56:54.970Z</when>
<when >2025-11-19T14:56:59.520Z</when>
<when >2025-11-19T14:57:01.880Z</when>
<when >2025-11-19T14:57:04.940Z</when>
<when >2025-11-19T14:57:08.140Z</when>
<when >2025-11-19T14:57:11.280Z</when>
<when >2025-11-19T14:57:14.010Z</when>
<when >2025-11-19T14:57:16.590Z</when>
<when >2025-11-19T14:57:19.780Z</when>
<when >2025-11-19T14:57:23.290Z</when>
<when >2025-11-19T14:57:26.870Z</when>
<when >2025-11-19T14:57:28.290Z</when>
<when >2025-11-19T14:57:29.580Z</when>
<when >2025-11-19T14:57:30.890Z</when>
<when >2025-11-19T14:57:32.740Z</when>
<when >2025-11-19T14:57:33.680Z</when>
<when >2025-11-19T14:57:35.310Z</when>
<when >2025-11-19T14:57:37.140Z</when>
<when >2025-11-19T14:57:40.160Z</when>
<when >2025-11-19T14:57:42.100Z</when>
<when >2025-11-19T14:57:43.680Z</when>
<when >2025-11-19T14:57:45.300Z</when>
<when >2025-11-19T14:57:47.260Z</when>
<when >2025-11-19T14:57:49.700Z</when>
<when >2025-11-19T14:57:53.690Z</when>
<when >2025-11-19T14:57:59.250Z</when>
<when >2025-11-19T14:58:04.840Z</when>
<when >2025-11-19T14:58:08.180Z</when>
<when >2025-11-19T14:58:10.860Z</when>
<when >2025-11-19T14:58:13.960Z</when>
<when >2025-11-19T14:58:17.320Z</when>
<when >2025-11-19T14:58:19.650Z</when>
<when >2025-11-19T14:58:23.860Z</when>
<when >2025-11-19T14:58:28.100Z</when>
<when >2025-11-19T14:58:30.610Z</when>
<when >2025-11-19T14:58:33.580Z</when>
<when >2025-11-19T14:58:36.110Z</when>
<when >2025-11-19T14:58:39.300Z</when>
<when >2025-11-19T14:58:43.820Z</when>
<when >2025-11-19T14:58:45.820Z</when>
<when >2025-11-19T14:58:49.420Z</when>
<when >2025-11-19T14:58:52.130Z</when>
<when >2025-11-19T14:58:54.610Z</when>
<when >2025-11-19T14:58:56.490Z</when>
<when >2025-11-19T14:58:56.490Z</when>
<gx:coord >18.595818 -33.978653 60</gx:coord>
<gx:coord >18.595818 -33.978653 60</gx:coord>
<gx:coord >18.59593 -33.979019 60</gx:coord>
<gx:coord >18.59593 -33.97934 68</gx:coord>
<gx:coord >18.595848 -33.979642 76</gx:coord>
<gx:coord >18.595734 -33.980201 83</gx:coord>
<gx:coord >18.59539 -33.981178 91</gx:coord>
<gx:coord >18.594704 -33.982854 121</gx:coord>
<gx:coord >18.593674 -33.985368 137</gx:coord>
<gx:coord >18.592987 -33.987044 152</gx:coord>
<gx:coord >18.5923 -33.988347 175</gx:coord>
<gx:coord >18.591671 -33.989418 190</gx:coord>
<gx:coord >18.590755 -33.990954 198</gx:coord>
<gx:coord >18.589668 -33.993142 228</gx:coord>
<gx:coord >18.588867 -33.994675 243</gx:coord>
<gx:coord >18.587723 -33.996448 251</gx:coord>
<gx:coord >18.587242 -33.997101 259</gx:coord>
<gx:coord >18.586864 -33.997472 251</gx:coord>
<gx:coord >18.586349 -33.997798 259</gx:coord>
<gx:coord >18.586006 -33.997984 251</gx:coord>
<gx:coord >18.585548 -33.99817 251</gx:coord>
<gx:coord >18.585091 -33.998263 259</gx:coord>
<gx:coord >18.584551 -33.998337 259</gx:coord>
<gx:coord >18.584118 -33.998356 259</gx:coord>
<gx:coord >18.583598 -33.998337 259</gx:coord>
<gx:coord >18.583317 -33.99831 259</gx:coord>
<gx:coord >18.582745 -33.99817 251</gx:coord>
<gx:coord >18.582085 -33.997971 243</gx:coord>
<gx:coord >18.581543 -33.997798 243</gx:coord>
<gx:coord >18.580964 -33.997467 243</gx:coord>
<gx:coord >18.580179 -33.996964 236</gx:coord>
<gx:coord >18.579254 -33.996168 228</gx:coord>
<gx:coord >18.578167 -33.995051 236</gx:coord>
<gx:coord >18.57648 -33.992981 236</gx:coord>
<gx:coord >18.573733 -33.989136 251</gx:coord>
<gx:coord >18.571435 -33.985794 266</gx:coord>
<gx:coord >18.569241 -33.982016 281</gx:coord>
<gx:coord >18.567399 -33.978561 304</gx:coord>
<gx:coord >18.565661 -33.974899 312</gx:coord>
<gx:coord >18.564148 -33.971054 327</gx:coord>
<gx:coord >18.563083 -33.96785 335</gx:coord>
<gx:coord >18.562186 -33.964462 342</gx:coord>
<gx:coord >18.561738 -33.962311 342</gx:coord>
<gx:coord >18.561687 -33.961021 350</gx:coord>
<gx:coord >18.561745 -33.959997 350</gx:coord>
<gx:coord >18.561962 -33.95929 358</gx:coord>
<gx:coord >18.562354 -33.958466 358</gx:coord>
<gx:coord >18.562691 -33.957916 350</gx:coord>
<gx:coord >18.563139 -33.957458 350</gx:coord>
<gx:coord >18.56369 -33.957064 342</gx:coord>
<gx:coord >18.564377 -33.956645 335</gx:coord>
<gx:coord >18.565121 -33.956366 327</gx:coord>
<gx:coord >18.565979 -33.956133 327</gx:coord>
<gx:coord >18.566723 -33.95604 320</gx:coord>
<gx:coord >18.567696 -33.95604 320</gx:coord>
<gx:coord >18.568726 -33.956087 320</gx:coord>
<gx:coord >18.570033 -33.956268 320</gx:coord>
<gx:coord >18.571379 -33.956543 320</gx:coord>
<gx:coord >18.573341 -33.957001 320</gx:coord>
<gx:coord >18.574518 -33.957367 320</gx:coord>
<gx:coord >18.575751 -33.957825 320</gx:coord>
<gx:coord >18.576851 -33.958321 312</gx:coord>
<gx:coord >18.577709 -33.958787 312</gx:coord>
<gx:coord >18.578568 -33.959345 304</gx:coord>
<gx:coord >18.580011 -33.960342 312</gx:coord>
<gx:coord >18.581257 -33.961301 312</gx:coord>
<gx:coord >18.581944 -33.961906 312</gx:coord>
<gx:coord >18.582926 -33.962906 297</gx:coord>
<gx:coord >18.584551 -33.964554 281</gx:coord>
<gx:coord >18.585056 -33.965149 243</gx:coord>
<gx:coord >18.585504 -33.965652 213</gx:coord>
<gx:coord >18.585784 -33.965973 182</gx:coord>
<gx:coord >18.586349 -33.966654 152</gx:coord>
<gx:coord >18.587186 -33.967529 137</gx:coord>
<gx:coord >18.588753 -33.969028 129</gx:coord>
<gx:coord >18.590044 -33.970505 129</gx:coord>
<gx:coord >18.590941 -33.971466 129</gx:coord>
<gx:coord >18.59195 -33.972794 106</gx:coord>
<gx:coord >18.593183 -33.974396 83</gx:coord>
<gx:coord >18.593903 -33.97522 83</gx:coord>
<gx:coord >18.594246 -33.975685 68</gx:coord>
<gx:coord >18.594532 -33.976104 60</gx:coord>
<gx:coord >18.594697 -33.976273 53</gx:coord>
<gx:coord >18.59593 -33.979248 83</gx:coord>
<gx:coord >18.595848 -33.979596 106</gx:coord>
<gx:coord >18.595734 -33.979875 114</gx:coord>
<gx:coord >18.595594 -33.980118 114</gx:coord>
<gx:coord >18.595369 -33.980484 129</gx:coord>
<gx:coord >18.595161 -33.980666 129</gx:coord>
<gx:coord >18.594761 -33.980946 137</gx:coord>
<gx:coord >18.594475 -33.981132 129</gx:coord>
<gx:coord >18.59436 -33.981216 129</gx:coord>
<gx:coord >18.594024 -33.9814 129</gx:coord>
<gx:coord >18.59352 -33.981583 137</gx:coord>
<gx:coord >18.593015 -33.981674 137</gx:coord>
<gx:coord >18.592644 -33.981737 144</gx:coord>
<gx:coord >18.59195 -33.98172 152</gx:coord>
<gx:coord >18.591156 -33.981597 160</gx:coord>
<gx:coord >18.590412 -33.981365 160</gx:coord>
<gx:coord >18.589611 -33.981039 167</gx:coord>
<gx:coord >18.588696 -33.980573 167</gx:coord>
<gx:coord >18.58741 -33.979752 175</gx:coord>
<gx:coord >18.585952 -33.978561 182</gx:coord>
<gx:coord >18.584175 -33.976942 205</gx:coord>
<gx:coord >18.582085 -33.974899 236</gx:coord>
<gx:coord >18.579025 -33.972054 274</gx:coord>
<gx:coord >18.576704 -33.970001 274</gx:coord>
<gx:coord >18.573397 -33.967255 289</gx:coord>
<gx:coord >18.571603 -33.965881 297</gx:coord>
<gx:coord >18.56987 -33.964839 297</gx:coord>
<gx:coord >18.567791 -33.96373 297</gx:coord>
<gx:coord >18.56535 -33.962651 297</gx:coord>
<gx:coord >18.56123 -33.960975 304</gx:coord>
<gx:coord >18.55574 -33.958969 312</gx:coord>
<gx:coord >18.548677 -33.956451 327</gx:coord>
<gx:coord >18.544473 -33.954941 327</gx:coord>
<gx:coord >18.541895 -33.953796 350</gx:coord>
<gx:coord >18.534966 -33.95064 365</gx:coord>
<gx:coord >18.52993 -33.94808 365</gx:coord>
<gx:coord >18.519802 -33.942819 365</gx:coord>
<gx:coord >18.514373 -33.939835 373</gx:coord>
<gx:coord >18.508936 -33.936676 380</gx:coord>
<gx:coord >18.505293 -33.934387 388</gx:coord>
<gx:coord >18.501873 -33.932007 396</gx:coord>
<gx:coord >18.496212 -33.927933 380</gx:coord>
<gx:coord >18.491192 -33.924385 358</gx:coord>
<gx:coord >18.486459 -33.921387 350</gx:coord>
<gx:coord >18.478203 -33.916005 327</gx:coord>
<gx:coord >18.471605 -33.911591 327</gx:coord>
<gx:coord >18.467345 -33.908569 312</gx:coord>
<gx:coord >18.463085 -33.905273 304</gx:coord>
<gx:coord >18.454789 -33.898727 297</gx:coord>
<gx:coord >18.449913 -33.894836 281</gx:coord>
<gx:coord >18.448105 -33.893567 274</gx:coord>
<gx:coord >18.446942 -33.892914 274</gx:coord>
<gx:coord >18.446045 -33.892496 259</gx:coord>
<gx:coord >18.445036 -33.892181 251</gx:coord>
<gx:coord >18.444157 -33.891984 243</gx:coord>
<gx:coord >18.443241 -33.891891 236</gx:coord>
<gx:coord >18.442401 -33.891907 228</gx:coord>
<gx:coord >18.441467 -33.891984 220</gx:coord>
<gx:coord >18.440384 -33.892181 205</gx:coord>
<gx:coord >18.439407 -33.89245 190</gx:coord>
<gx:coord >18.438141 -33.892868 182</gx:coord>
<gx:coord >18.436832 -33.893381 167</gx:coord>
<gx:coord >18.435395 -33.894104 144</gx:coord>
<gx:coord >18.433377 -33.895203 121</gx:coord>
<gx:coord >18.43192 -33.895981 99</gx:coord>
<gx:coord >18.430023 -33.897245 76</gx:coord>
<gx:coord >18.429108 -33.89785 60</gx:coord>
<gx:coord >18.428725 -33.898132 53</gx:coord>
<gx:coord >18.42822 -33.898636 38</gx:coord>
<gx:coord >18.427828 -33.899094 30</gx:coord>
<gx:coord >18.427677 -33.89934 30</gx:coord>
<gx:coord >18.427491 -33.899597 22</gx:coord>
<gx:coord >18.427391 -33.899805 22</gx:coord>
<gx:coord >18.427334 -33.899991 22</gx:coord>
<gx:coord >18.427277 -33.900178 22</gx:coord>
<gx:coord >18.427267 -33.90033 15</gx:coord>
<gx:coord >18.427277 -33.90041 15</gx:coord>
<gx:coord >18.427391 -33.900596 7</gx:coord>
<gx:coord >18.427563 -33.900736 -1</gx:coord>
<gx:coord >18.427548 -33.900742 7</gx:coord>
<gx:coord >18.427563 -33.900736 7</gx:coord>
<gx:coord >18.427548 -33.900742 7</gx:coord>
<gx:coord >18.427563 -33.900736 7</gx:coord>
<gx:coord >18.427548 -33.900742 7</gx:coord>
<gx:coord >18.427548 -33.900742 7</gx:coord>
<gx:coord >18.427548 -33.900742 -1</gx:coord>
<gx:coord >18.427548 -33.900742 7</gx:coord>
<gx:coord >18.427505 -33.900736 -1</gx:coord>
<gx:coord >18.427563 -33.901062 22</gx:coord>
<gx:coord >18.427716 -33.901062 7</gx:coord>
<gx:coord >18.427849 -33.901062 15</gx:coord>
<gx:coord >18.428108 -33.901108 15</gx:coord>
<gx:coord >18.4285 -33.901108 22</gx:coord>
<gx:coord >18.429108 -33.901155 22</gx:coord>
<gx:coord >18.430538 -33.901202 60</gx:coord>
<gx:coord >18.431339 -33.901248 76</gx:coord>
<gx:coord >18.432026 -33.901202 83</gx:coord>
<gx:coord >18.432816 -33.901062 91</gx:coord>
<gx:coord >18.433342 -33.900922 99</gx:coord>
<gx:coord >18.434143 -33.900596 106</gx:coord>
<gx:coord >18.434834 -33.900284 114</gx:coord>
<gx:coord >18.435507 -33.899826 121</gx:coord>
<gx:coord >18.435675 -33.899689 121</gx:coord>
<gx:coord >18.436203 -33.899246 129</gx:coord>
<gx:coord >18.436432 -33.898967 129</gx:coord>
<gx:coord >18.436832 -33.898502 129</gx:coord>
<gx:coord >18.437233 -33.897757 137</gx:coord>
<gx:coord >18.437413 -33.897308 144</gx:coord>
<gx:coord >18.437576 -33.89664 144</gx:coord>
<gx:coord >18.437634 -33.895941 152</gx:coord>
<gx:coord >18.437634 -33.89501 160</gx:coord>
<gx:coord >18.437462 -33.894079 167</gx:coord>
<gx:coord >18.437189 -33.893143 175</gx:coord>
<gx:coord >18.436684 -33.891907 175</gx:coord>
<gx:coord >18.436124 -33.890854 182</gx:coord>
<gx:coord >18.434442 -33.888016 205</gx:coord>
<gx:coord >18.432655 -33.885281 228</gx:coord>
<gx:coord >18.431225 -33.883372 243</gx:coord>
<gx:coord >18.429623 -33.881557 259</gx:coord>
<gx:coord >18.42766 -33.879593 274</gx:coord>
<gx:coord >18.425903 -33.878065 297</gx:coord>
<gx:coord >18.424409 -33.876892 297</gx:coord>
<gx:coord >18.422298 -33.875551 304</gx:coord>
<gx:coord >18.420765 -33.874695 312</gx:coord>
<gx:coord >18.41898 -33.873922 320</gx:coord>
<gx:coord >18.417492 -33.873363 335</gx:coord>
<gx:coord >18.415718 -33.872851 342</gx:coord>
<gx:coord >18.413871 -33.872406 358</gx:coord>
<gx:coord >18.411965 -33.872131 365</gx:coord>
<gx:coord >18.410282 -33.872013 373</gx:coord>
<gx:coord >18.408153 -33.871948 388</gx:coord>
<gx:coord >18.405911 -33.87204 396</gx:coord>
<gx:coord >18.403244 -33.872246 403</gx:coord>
<gx:coord >18.401356 -33.872525 403</gx:coord>
<gx:coord >18.399633 -33.872864 411</gx:coord>
<gx:coord >18.397615 -33.873367 419</gx:coord>
<gx:coord >18.395205 -33.8741 426</gx:coord>
<gx:coord >18.392315 -33.875132 441</gx:coord>
<gx:coord >18.388481 -33.876669 464</gx:coord>
<gx:coord >18.385048 -33.878112 487</gx:coord>
<gx:coord >18.381865 -33.879593 510</gx:coord>
<gx:coord >18.378525 -33.881091 533</gx:coord>
<gx:coord >18.375867 -33.882202 563</gx:coord>
<gx:coord >18.372231 -33.883791 586</gx:coord>
<gx:coord >18.369312 -33.885188 624</gx:coord>
<gx:coord >18.366282 -33.886734 640</gx:coord>
<gx:coord >18.363031 -33.888519 662</gx:coord>
<gx:coord >18.360786 -33.889889 678</gx:coord>
<gx:coord >18.357754 -33.891938 708</gx:coord>
<gx:coord >18.355293 -33.8938 723</gx:coord>
<gx:coord >18.353004 -33.895709 739</gx:coord>
<gx:coord >18.350027 -33.898361 754</gx:coord>
<gx:coord >18.34672 -33.901199 784</gx:coord>
<gx:coord >18.343678 -33.903902 807</gx:coord>
<gx:coord >18.339489 -33.907928 807</gx:coord>
<gx:coord >18.336353 -33.911024 815</gx:coord>
<gx:coord >18.33024 -33.917358 815</gx:coord>
<gx:coord >18.328615 -33.919098 800</gx:coord>
<gx:coord >18.32222 -33.926014 792</gx:coord>
<gx:coord >18.318901 -33.929552 815</gx:coord>
<gx:coord >18.317348 -33.93132 845</gx:coord>
<gx:coord >18.316283 -33.932739 853</gx:coord>
<gx:coord >18.315442 -33.934021 876</gx:coord>
<gx:coord >18.312378 -33.939049 876</gx:coord>
<gx:coord >18.311631 -33.940063 891</gx:coord>
<gx:coord >18.310061 -33.941895 906</gx:coord>
<gx:coord >18.308029 -33.944356 914</gx:coord>
<gx:coord >18.304736 -33.948578 899</gx:coord>
<gx:coord >18.302708 -33.951385 883</gx:coord>
<gx:coord >18.300705 -33.954225 868</gx:coord>
<gx:coord >18.298016 -33.957995 845</gx:coord>
<gx:coord >18.294067 -33.963489 830</gx:coord>
<gx:coord >18.291092 -33.967911 807</gx:coord>
<gx:coord >18.288088 -33.972336 792</gx:coord>
<gx:coord >18.285084 -33.976942 815</gx:coord>
<gx:coord >18.283268 -33.980072 815</gx:coord>
<gx:coord >18.281642 -33.983139 822</gx:coord>
<gx:coord >18.279762 -33.986904 838</gx:coord>
<gx:coord >18.278675 -33.989372 830</gx:coord>
<gx:coord >18.276215 -33.995703 822</gx:coord>
<gx:coord >18.275356 -33.998077 815</gx:coord>
<gx:coord >18.274384 -34.001429 807</gx:coord>
<gx:coord >18.27364 -34.004408 807</gx:coord>
<gx:coord >18.273182 -34.006642 807</gx:coord>
<gx:coord >18.272842 -34.00914 807</gx:coord>
<gx:coord >18.27273 -34.010834 815</gx:coord>
<gx:coord >18.272674 -34.013351 822</gx:coord>
<gx:coord >18.272781 -34.015813 822</gx:coord>
<gx:coord >18.27301 -34.018932 822</gx:coord>
<gx:coord >18.273296 -34.02112 830</gx:coord>
<gx:coord >18.273627 -34.02269 822</gx:coord>
<gx:coord >18.27404 -34.024286 815</gx:coord>
<gx:coord >18.274804 -34.026718 807</gx:coord>
<gx:coord >18.27713 -34.033317 784</gx:coord>
<gx:coord >18.278223 -34.036285 784</gx:coord>
<gx:coord >18.279591 -34.039695 761</gx:coord>
<gx:coord >18.280521 -34.041687 754</gx:coord>
<gx:coord >18.282147 -34.0448 731</gx:coord>
<gx:coord >18.283539 -34.047283 716</gx:coord>
<gx:coord >18.284501 -34.048645 708</gx:coord>
<gx:coord >18.286687 -34.051575 693</gx:coord>
<gx:coord >18.289546 -34.055328 678</gx:coord>
<gx:coord >18.291664 -34.057897 662</gx:coord>
<gx:coord >18.294703 -34.061371 647</gx:coord>
<gx:coord >18.297672 -34.064647 640</gx:coord>
<gx:coord >18.299618 -34.066648 632</gx:coord>
<gx:coord >18.303615 -34.070847 617</gx:coord>
<gx:coord >18.303727 -34.070938 617</gx:coord>
<gx:coord >18.373457 -34.113235 495</gx:coord>
<gx:coord >18.380699 -34.115807 502</gx:coord>
<gx:coord >18.388142 -34.118591 502</gx:coord>
<gx:coord >18.395805 -34.121347 510</gx:coord>
<gx:coord >18.399073 -34.122437 510</gx:coord>
<gx:coord >18.40423 -34.124039 495</gx:coord>
<gx:coord >18.411713 -34.126282 487</gx:coord>
<gx:coord >18.416576 -34.127725 472</gx:coord>
<gx:coord >18.418751 -34.12847 464</gx:coord>
<gx:coord >18.42553 -34.130951 457</gx:coord>
<gx:coord >18.429565 -34.132416 449</gx:coord>
<gx:coord >18.431625 -34.132985 449</gx:coord>
<gx:coord >18.433938 -34.13356 434</gx:coord>
<gx:coord >18.435745 -34.133916 434</gx:coord>
<gx:coord >18.437301 -34.134109 426</gx:coord>
<gx:coord >18.438835 -34.134196 419</gx:coord>
<gx:coord >18.440776 -34.134155 419</gx:coord>
<gx:coord >18.442177 -34.134018 426</gx:coord>
<gx:coord >18.443928 -34.133777 426</gx:coord>
<gx:coord >18.445415 -34.133404 426</gx:coord>
<gx:coord >18.446846 -34.132939 426</gx:coord>
<gx:coord >18.448287 -34.132324 426</gx:coord>
<gx:coord >18.450222 -34.131402 419</gx:coord>
<gx:coord >18.452435 -34.130219 411</gx:coord>
<gx:coord >18.455182 -34.128571 411</gx:coord>
<gx:coord >18.457661 -34.126933 403</gx:coord>
<gx:coord >18.460675 -34.124634 396</gx:coord>
<gx:coord >18.463497 -34.122325 388</gx:coord>
<gx:coord >18.466473 -34.119625 388</gx:coord>
<gx:coord >18.469048 -34.117018 396</gx:coord>
<gx:coord >18.471493 -34.114288 396</gx:coord>
<gx:coord >18.473625 -34.111711 396</gx:coord>
<gx:coord >18.475342 -34.109244 396</gx:coord>
<gx:coord >18.476715 -34.106963 403</gx:coord>
<gx:coord >18.477802 -34.104681 396</gx:coord>
<gx:coord >18.478546 -34.102587 403</gx:coord>
<gx:coord >18.47906 -34.100739 411</gx:coord>
<gx:coord >18.479508 -34.098129 419</gx:coord>
<gx:coord >18.479901 -34.093964 426</gx:coord>
<gx:coord >18.480549 -34.083128 419</gx:coord>
<gx:coord >18.481134 -34.075287 411</gx:coord>
<gx:coord >18.481979 -34.06865 396</gx:coord>
<gx:coord >18.482928 -34.06041 388</gx:coord>
<gx:coord >18.48388 -34.049881 365</gx:coord>
<gx:coord >18.48444 -34.04286 358</gx:coord>
<gx:coord >18.485126 -34.029686 350</gx:coord>
<gx:coord >18.485298 -34.024006 350</gx:coord>
<gx:coord >18.485338 -34.015686 342</gx:coord>
<gx:coord >18.485641 -34.012275 335</gx:coord>
<gx:coord >18.486123 -34.009232 335</gx:coord>
<gx:coord >18.486843 -34.006084 327</gx:coord>
<gx:coord >18.488197 -34.000626 327</gx:coord>
<gx:coord >18.488757 -33.997192 320</gx:coord>
<gx:coord >18.489934 -33.988495 312</gx:coord>
<gx:coord >18.491135 -33.981458 304</gx:coord>
<gx:coord >18.492344 -33.974762 304</gx:coord>
<gx:coord >18.492622 -33.971775 312</gx:coord>
<gx:coord >18.492681 -33.969086 320</gx:coord>
<gx:coord >18.492508 -33.966189 312</gx:coord>
<gx:coord >18.492008 -33.963181 304</gx:coord>
<gx:coord >18.491249 -33.960044 297</gx:coord>
<gx:coord >18.490158 -33.95636 297</gx:coord>
<gx:coord >18.48856 -33.952037 289</gx:coord>
<gx:coord >18.486403 -33.946609 266</gx:coord>
<gx:coord >18.48332 -33.938324 251</gx:coord>
<gx:coord >18.481302 -33.933426 236</gx:coord>
<gx:coord >18.478889 -33.928109 243</gx:coord>
<gx:coord >18.477573 -33.925688 243</gx:coord>
<gx:coord >18.476028 -33.923314 243</gx:coord>
<gx:coord >18.47414 -33.920893 243</gx:coord>
<gx:coord >18.471966 -33.918473 243</gx:coord>
<gx:coord >18.469448 -33.916052 251</gx:coord>
<gx:coord >18.465775 -33.912643 251</gx:coord>
<gx:coord >18.458096 -33.905869 251</gx:coord>
<gx:coord >18.452547 -33.900558 236</gx:coord>
<gx:coord >18.449364 -33.897384 243</gx:coord>
<gx:coord >18.447727 -33.895844 243</gx:coord>
<gx:coord >18.446903 -33.895057 243</gx:coord>
<gx:coord >18.446274 -33.894545 236</gx:coord>
<gx:coord >18.445316 -33.893829 236</gx:coord>
<gx:coord >18.4447 -33.893463 228</gx:coord>
<gx:coord >18.443985 -33.893055 236</gx:coord>
<gx:coord >18.443298 -33.892776 228</gx:coord>
<gx:coord >18.442458 -33.892502 220</gx:coord>
<gx:coord >18.441982 -33.892403 220</gx:coord>
<gx:coord >18.44141 -33.89231 213</gx:coord>
<gx:coord >18.441 -33.892319 205</gx:coord>
<gx:coord >18.44038 -33.89231 198</gx:coord>
<gx:coord >18.439823 -33.89241 190</gx:coord>
<gx:coord >18.439064 -33.89259 182</gx:coord>
<gx:coord >18.438148 -33.892915 160</gx:coord>
<gx:coord >18.437347 -33.893241 160</gx:coord>
<gx:coord >18.436236 -33.893875 144</gx:coord>
<gx:coord >18.435115 -33.894608 129</gx:coord>
<gx:coord >18.433321 -33.895706 106</gx:coord>
<gx:coord >18.431695 -33.896759 76</gx:coord>
<gx:coord >18.43035 -33.897629 53</gx:coord>
<gx:coord >18.42865 -33.898874 30</gx:coord>
<gx:coord >18.428135 -33.899246 22</gx:coord>
<gx:coord >18.427716 -33.899597 22</gx:coord>
<gx:coord >18.427563 -33.899759 15</gx:coord>
<gx:coord >18.427391 -33.899945 15</gx:coord>
<gx:coord >18.427277 -33.900084 15</gx:coord>
<gx:coord >18.427155 -33.90033 7</gx:coord>
<gx:coord >18.427105 -33.900503 7</gx:coord>
<gx:coord >18.427099 -33.900696 15</gx:coord>
<gx:coord >18.427099 -33.900787 15</gx:coord>
<gx:coord >18.427105 -33.900969 15</gx:coord>
<gx:coord >18.427099 -33.901154 15</gx:coord>
<gx:coord >18.427155 -33.901154 15</gx:coord>
<gx:coord >18.427219 -33.901202 15</gx:coord>
<gx:coord >18.427334 -33.901202 15</gx:coord>
<gx:coord >18.42762 -33.901248 15</gx:coord>
<gx:coord >18.427772 -33.901291 15</gx:coord>
<gx:coord >18.42822 -33.901382 15</gx:coord>
<gx:coord >18.428444 -33.901428 15</gx:coord>
<gx:coord >18.429337 -33.901481 22</gx:coord>
<gx:coord >18.431396 -33.901574 45</gx:coord>
<gx:coord >18.43277 -33.901667 76</gx:coord>
<gx:coord >18.435227 -33.90184 99</gx:coord>
<gx:coord >18.436404 -33.901932 99</gx:coord>
<gx:coord >18.437634 -33.902086 114</gx:coord>
<gx:coord >18.439178 -33.902365 121</gx:coord>
<gx:coord >18.44044 -33.902664 144</gx:coord>
<gx:coord >18.441393 -33.902939 144</gx:coord>
<gx:coord >18.442955 -33.903483 167</gx:coord>
<gx:coord >18.4445 -33.904088 175</gx:coord>
<gx:coord >18.445877 -33.904678 175</gx:coord>
<gx:coord >18.447361 -33.905391 198</gx:coord>
<gx:coord >18.450794 -33.90716 213</gx:coord>
<gx:coord >18.452771 -33.908249 228</gx:coord>
<gx:coord >18.454514 -33.909348 236</gx:coord>
<gx:coord >18.457704 -33.911362 259</gx:coord>
<gx:coord >18.460121 -33.912979 274</gx:coord>
<gx:coord >18.462296 -33.914469 297</gx:coord>
<gx:coord >18.464298 -33.915912 312</gx:coord>
<gx:coord >18.465832 -33.916992 312</gx:coord>
<gx:coord >18.467846 -33.918659 327</gx:coord>
<gx:coord >18.471451 -33.921638 335</gx:coord>
<gx:coord >18.473006 -33.923035 335</gx:coord>
<gx:coord >18.473903 -33.92395 335</gx:coord>
<gx:coord >18.47536 -33.925552 335</gx:coord>
<gx:coord >18.476257 -33.926651 335</gx:coord>
<gx:coord >18.477116 -33.927876 342</gx:coord>
<gx:coord >18.477995 -33.929398 342</gx:coord>
<gx:coord >18.478836 -33.931 358</gx:coord>
<gx:coord >18.47934 -33.932098 358</gx:coord>
<gx:coord >18.479691 -33.933183 358</gx:coord>
<gx:coord >18.480461 -33.935623 358</gx:coord>
<gx:coord >18.481178 -33.938397 373</gx:coord>
<gx:coord >18.48175 -33.940933 373</gx:coord>
<gx:coord >18.482208 -33.943238 380</gx:coord>
<gx:coord >18.482591 -33.946381 388</gx:coord>
<gx:coord >18.482723 -33.948266 388</gx:coord>
<gx:coord >18.482759 -33.950546 396</gx:coord>
<gx:coord >18.482723 -33.95213 396</gx:coord>
<gx:coord >18.482423 -33.955582 411</gx:coord>
<gx:coord >18.482323 -33.956692 411</gx:coord>
<gx:coord >18.481975 -33.960663 419</gx:coord>
<gx:coord >18.481807 -33.964737 441</gx:coord>
<gx:coord >18.481636 -33.968283 464</gx:coord>
<gx:coord >18.481414 -33.971375 472</gx:coord>
<gx:coord >18.481078 -33.974487 495</gx:coord>
<gx:coord >18.480629 -33.979111 510</gx:coord>
<gx:coord >18.480034 -33.983925 525</gx:coord>
<gx:coord >18.479564 -33.989182 541</gx:coord>
<gx:coord >18.478836 -33.995544 548</gx:coord>
<gx:coord >18.478203 -34.001987 563</gx:coord>
<gx:coord >18.477995 -34.006165 579</gx:coord>
<gx:coord >18.477688 -34.012089 594</gx:coord>
<gx:coord >18.477345 -34.015162 601</gx:coord>
<gx:coord >18.476818 -34.01944 624</gx:coord>
<gx:coord >18.476257 -34.023448 632</gx:coord>
<gx:coord >18.475585 -34.028595 640</gx:coord>
<gx:coord >18.474688 -34.036194 632</gx:coord>
<gx:coord >18.474369 -34.039648 624</gx:coord>
<gx:coord >18.473797 -34.048214 609</gx:coord>
<gx:coord >18.473282 -34.054219 594</gx:coord>
<gx:coord >18.472614 -34.062286 586</gx:coord>
<gx:coord >18.472109 -34.070847 571</gx:coord>
<gx:coord >18.471605 -34.077072 548</gx:coord>
<gx:coord >18.471165 -34.08364 541</gx:coord>
<gx:coord >18.470652 -34.090805 525</gx:coord>
<gx:coord >18.470192 -34.094812 518</gx:coord>
<gx:coord >18.46962 -34.098909 518</gx:coord>
<gx:coord >18.46897 -34.102707 525</gx:coord>
<gx:coord >18.467846 -34.107987 548</gx:coord>
<gx:coord >18.466988 -34.113247 563</gx:coord>
<gx:coord >18.466112 -34.117676 586</gx:coord>
<gx:coord >18.465159 -34.122894 617</gx:coord>
<gx:coord >18.46487 -34.125397 624</gx:coord>
<gx:coord >18.464298 -34.130006 640</gx:coord>
<gx:coord >18.463497 -34.134754 655</gx:coord>
<gx:coord >18.463085 -34.137772 647</gx:coord>
<gx:coord >18.462868 -34.140992 647</gx:coord>
<gx:coord >18.462696 -34.145228 655</gx:coord>
<gx:coord >18.462639 -34.150349 670</gx:coord>
<gx:coord >18.462693 -34.157318 670</gx:coord>
<gx:coord >18.462811 -34.162592 670</gx:coord>
<gx:coord >18.463029 -34.165741 655</gx:coord>
<gx:coord >18.463497 -34.169343 640</gx:coord>
<gx:coord >18.464355 -34.174975 624</gx:coord>
<gx:coord >18.465271 -34.180023 609</gx:coord>
<gx:coord >18.466415 -34.18545 594</gx:coord>
<gx:coord >18.467789 -34.191501 579</gx:coord>
<gx:coord >18.46897 -34.196457 563</gx:coord>
<gx:coord >18.470249 -34.20151 541</gx:coord>
<gx:coord >18.471622 -34.20691 518</gx:coord>
<gx:coord >18.473006 -34.211792 502</gx:coord>
<gx:coord >18.474541 -34.217431 480</gx:coord>
<gx:coord >18.476028 -34.222552 464</gx:coord>
<gx:coord >18.477573 -34.228091 449</gx:coord>
<gx:coord >18.479677 -34.235596 464</gx:coord>
<gx:coord >18.48091 -34.240677 472</gx:coord>
<gx:coord >18.481582 -34.243835 472</gx:coord>
<gx:coord >18.482255 -34.246902 495</gx:coord>
<gx:coord >18.483067 -34.25025 525</gx:coord>
<gx:coord >18.48341 -34.252485 541</gx:coord>
<gx:coord >18.483768 -34.255646 548</gx:coord>
<gx:coord >18.483982 -34.259281 563</gx:coord>
<gx:coord >18.484268 -34.263471 571</gx:coord>
<gx:coord >18.484889 -34.269424 586</gx:coord>
<gx:coord >18.485842 -34.277618 586</gx:coord>
<gx:coord >18.486515 -34.285263 579</gx:coord>
<gx:coord >18.486963 -34.290024 571</gx:coord>
<gx:coord >18.487301 -34.293823 563</gx:coord>
<gx:coord >18.48786 -34.299866 579</gx:coord>
<gx:coord >18.488388 -34.304716 594</gx:coord>
<gx:coord >18.489361 -34.311141 609</gx:coord>
<gx:coord >18.490219 -34.316215 624</gx:coord>
<gx:coord >18.490887 -34.319321 632</gx:coord>
<gx:coord >18.491896 -34.323441 640</gx:coord>
<gx:coord >18.492961 -34.327286 632</gx:coord>
<gx:coord >18.494643 -34.332825 609</gx:coord>
<gx:coord >18.495932 -34.336624 601</gx:coord>
<gx:coord >18.498344 -34.343774 609</gx:coord>
<gx:coord >18.499127 -34.345596 601</gx:coord>
<gx:coord >18.500347 -34.348476 594</gx:coord>
<gx:coord >18.50132 -34.351455 586</gx:coord>
<gx:coord >18.501663 -34.352851 579</gx:coord>
<gx:coord >18.501817 -34.354111 586</gx:coord>
<gx:coord >18.501649 -34.355118 586</gx:coord>
<gx:coord >18.501425 -34.35585 586</gx:coord>
<gx:coord >18.500921 -34.356812 586</gx:coord>
<gx:coord >18.500528 -34.357407 586</gx:coord>
<gx:coord >18.499519 -34.358414 579</gx:coord>
<gx:coord >18.498566 -34.359146 579</gx:coord>
<gx:coord >18.496604 -34.360245 571</gx:coord>
<gx:coord >18.494531 -34.361069 548</gx:coord>
<gx:coord >18.493858 -34.361252 548</gx:coord>
<gx:coord >18.49184 -34.361755 548</gx:coord>
<gx:coord >18.490105 -34.361976 541</gx:coord>
<gx:coord >18.487804 -34.362122 533</gx:coord>
<gx:coord >18.484889 -34.362122 533</gx:coord>
<gx:coord >18.481919 -34.361984 525</gx:coord>
<gx:coord >18.477939 -34.361618 525</gx:coord>
<gx:coord >18.475399 -34.361138 525</gx:coord>
<gx:coord >18.47271 -34.360533 525</gx:coord>
<gx:coord >18.469162 -34.359741 533</gx:coord>
<gx:coord >18.468475 -34.359695 541</gx:coord>
<gx:coord >18.467457 -34.359695 548</gx:coord>
<gx:coord >18.46693 -34.359741 556</gx:coord>
<gx:coord >18.466112 -34.359924 563</gx:coord>
<gx:coord >18.4655 -34.360114 571</gx:coord>
<gx:coord >18.464928 -34.360486 579</gx:coord>
<gx:coord >18.464767 -34.360611 579</gx:coord>
<gx:coord >18.46447 -34.360952 586</gx:coord>
<gx:coord >18.464318 -34.361206 586</gx:coord>
<gx:coord >18.464206 -34.361618 586</gx:coord>
<gx:coord >18.464184 -34.361883 579</gx:coord>
<gx:coord >18.464374 -34.362488 571</gx:coord>
<gx:coord >18.464935 -34.363083 556</gx:coord>
<gx:coord >18.465099 -34.363233 556</gx:coord>
<gx:coord >18.465663 -34.363541 548</gx:coord>
<gx:coord >18.466244 -34.363745 533</gx:coord>
<gx:coord >18.467274 -34.364024 518</gx:coord>
<gx:coord >18.467905 -34.364136 518</gx:coord>
<gx:coord >18.469906 -34.36435 502</gx:coord>
<gx:coord >18.472109 -34.364456 480</gx:coord>
<gx:coord >18.473911 -34.36449 472</gx:coord>
<gx:coord >18.478331 -34.36441 457</gx:coord>
<gx:coord >18.485114 -34.364319 449</gx:coord>
<gx:coord >18.491111 -34.364365 441</gx:coord>
<gx:coord >18.493938 -34.36421 434</gx:coord>
<gx:coord >18.49638 -34.363998 434</gx:coord>
<gx:coord >18.498573 -34.363605 449</gx:coord>
<gx:coord >18.499203 -34.363419 449</gx:coord>
<gx:coord >18.500248 -34.362991 457</gx:coord>
<gx:coord >18.501313 -34.362442 464</gx:coord>
<gx:coord >18.502178 -34.361883 464</gx:coord>
<gx:coord >18.503094 -34.360998 472</gx:coord>
<gx:coord >18.503667 -34.360245 472</gx:coord>
<gx:coord >18.504238 -34.359369 480</gx:coord>
<gx:coord >18.5049 -34.358093 487</gx:coord>
<gx:coord >18.507367 -34.352737 487</gx:coord>
<gx:coord >18.507786 -34.351781 487</gx:coord>
<gx:coord >18.508129 -34.350291 510</gx:coord>
<gx:coord >18.508039 -34.348892 525</gx:coord>
<gx:coord >18.507671 -34.347731 533</gx:coord>
<gx:coord >18.507142 -34.346786 541</gx:coord>
<gx:coord >18.506413 -34.345822 556</gx:coord>
<gx:coord >18.505573 -34.345047 563</gx:coord>
<gx:coord >18.504788 -34.344589 571</gx:coord>
<gx:coord >18.504116 -34.344269 586</gx:coord>
<gx:coord >18.502979 -34.34396 594</gx:coord>
<gx:coord >18.501873 -34.343903 601</gx:coord>
<gx:coord >18.501089 -34.343994 609</gx:coord>
<gx:coord >18.500576 -34.344146 617</gx:coord>
<gx:coord >18.499889 -34.344472 617</gx:coord>
<gx:coord >18.499071 -34.345139 617</gx:coord>
<gx:coord >18.49851 -34.346054 609</gx:coord>
<gx:coord >18.498454 -34.346191 609</gx:coord>
<gx:coord >18.498174 -34.347427 594</gx:coord>
<gx:coord >18.498062 -34.348801 594</gx:coord>
<gx:coord >18.498116 -34.349546 594</gx:coord>
<gx:coord >18.498174 -34.349991 594</gx:coord>
<gx:coord >18.498688 -34.351222 594</gx:coord>
<gx:coord >18.499031 -34.351781 594</gx:coord>
<gx:coord >18.499575 -34.352325 594</gx:coord>
<gx:coord >18.500347 -34.352945 594</gx:coord>
<gx:coord >18.501313 -34.35347 586</gx:coord>
<gx:coord >18.502121 -34.353783 586</gx:coord>
<gx:coord >18.503107 -34.353973 594</gx:coord>
<gx:coord >18.504353 -34.353922 601</gx:coord>
<gx:coord >18.505517 -34.353516 601</gx:coord>
<gx:coord >18.506133 -34.353104 601</gx:coord>
<gx:coord >18.506862 -34.352325 601</gx:coord>
<gx:coord >18.507367 -34.351456 601</gx:coord>
<gx:coord >18.507614 -34.350757 601</gx:coord>
<gx:coord >18.507703 -34.349854 601</gx:coord>
<gx:coord >18.507614 -34.348569 594</gx:coord>
<gx:coord >18.507271 -34.347405 594</gx:coord>
<gx:coord >18.50703 -34.346695 594</gx:coord>
<gx:coord >18.505461 -34.343536 579</gx:coord>
<gx:coord >18.504228 -34.340881 563</gx:coord>
<gx:coord >18.503094 -34.338001 556</gx:coord>
<gx:coord >18.501033 -34.332275 541</gx:coord>
<gx:coord >18.497601 -34.321475 525</gx:coord>
<gx:coord >18.494194 -34.31012 518</gx:coord>
<gx:coord >18.49165 -34.301039 518</gx:coord>
<gx:coord >18.489933 -34.293963 518</gx:coord>
<gx:coord >18.487412 -34.282745 518</gx:coord>
<gx:coord >18.486179 -34.27652 502</gx:coord>
<gx:coord >18.484945 -34.269653 487</gx:coord>
<gx:coord >18.48381 -34.263983 464</gx:coord>
<gx:coord >18.481246 -34.252213 464</gx:coord>
<gx:coord >18.479633 -34.245642 464</gx:coord>
<gx:coord >18.476874 -34.234589 464</gx:coord>
<gx:coord >18.47517 -34.228836 449</gx:coord>
<gx:coord >18.473969 -34.225205 441</gx:coord>
<gx:coord >18.47271 -34.22204 441</gx:coord>
<gx:coord >18.47105 -34.218548 441</gx:coord>
<gx:coord >18.468634 -34.213943 449</gx:coord>
<gx:coord >18.46471 -34.207169 464</gx:coord>
<gx:coord >18.460675 -34.200165 457</gx:coord>
<gx:coord >18.458405 -34.195691 457</gx:coord>
<gx:coord >18.457375 -34.193177 449</gx:coord>
<gx:coord >18.456688 -34.190989 441</gx:coord>
<gx:coord >18.456001 -34.188196 434</gx:coord>
<gx:coord >18.455686 -34.185883 426</gx:coord>
<gx:coord >18.455462 -34.182587 419</gx:coord>
<gx:coord >18.455462 -34.180389 411</gx:coord>
<gx:coord >18.455658 -34.176465 403</gx:coord>
<gx:coord >18.456287 -34.170972 396</gx:coord>
<gx:coord >18.457088 -34.165386 388</gx:coord>
<gx:coord >18.45832 -34.158737 396</gx:coord>
<gx:coord >18.45932 -34.154167 396</gx:coord>
<gx:coord >18.461235 -34.146469 396</gx:coord>
<gx:coord >18.462582 -34.141597 403</gx:coord>
<gx:coord >18.465443 -34.132287 403</gx:coord>
<gx:coord >18.46656 -34.129166 403</gx:coord>
<gx:coord >18.469505 -34.122139 419</gx:coord>
<gx:coord >18.472366 -34.115575 441</gx:coord>
<gx:coord >18.474464 -34.110397 441</gx:coord>
<gx:coord >18.477058 -34.103378 449</gx:coord>
<gx:coord >18.478051 -34.100418 457</gx:coord>
<gx:coord >18.478836 -34.097443 457</gx:coord>
<gx:coord >18.479233 -34.095138 449</gx:coord>
<gx:coord >18.47962 -34.091309 449</gx:coord>
<gx:coord >18.479789 -34.08783 441</gx:coord>
<gx:coord >18.479901 -34.078812 426</gx:coord>
<gx:coord >18.480125 -34.073502 426</gx:coord>
<gx:coord >18.480778 -34.064647 426</gx:coord>
<gx:coord >18.481975 -34.052765 426</gx:coord>
<gx:coord >18.483376 -34.040222 426</gx:coord>
<gx:coord >18.484154 -34.030524 419</gx:coord>
<gx:coord >18.484383 -34.025589 419</gx:coord>
<gx:coord >18.484385 -34.018799 419</gx:coord>
<gx:coord >18.484329 -34.010513 411</gx:coord>
<gx:coord >18.484553 -34.005981 403</gx:coord>
<gx:coord >18.485226 -33.997375 380</gx:coord>
<gx:coord >18.485618 -33.99028 380</gx:coord>
<gx:coord >18.485699 -33.982715 365</gx:coord>
<gx:coord >18.485562 -33.970596 373</gx:coord>
<gx:coord >18.485282 -33.964417 380</gx:coord>
<gx:coord >18.484726 -33.956506 396</gx:coord>
<gx:coord >18.484105 -33.949997 403</gx:coord>
<gx:coord >18.48341 -33.945147 403</gx:coord>
<gx:coord >18.48238 -33.940492 411</gx:coord>
<gx:coord >18.481522 -33.93728 411</gx:coord>
<gx:coord >18.48032 -33.933881 411</gx:coord>
<gx:coord >18.47906 -33.930862 411</gx:coord>
<gx:coord >18.477827 -33.928574 411</gx:coord>
<gx:coord >18.475971 -33.925642 411</gx:coord>
<gx:coord >18.474197 -33.923174 419</gx:coord>
<gx:coord >18.471997 -33.920563 426</gx:coord>
<gx:coord >18.469363 -33.917679 426</gx:coord>
<gx:coord >18.464654 -33.912827 434</gx:coord>
<gx:coord >18.458545 -33.906693 449</gx:coord>
<gx:coord >18.45274 -33.900736 464</gx:coord>
<gx:coord >18.446445 -33.894591 487</gx:coord>
<gx:coord >18.441336 -33.889709 495</gx:coord>
<gx:coord >18.437917 -33.88678 495</gx:coord>
<gx:coord >18.434778 -33.884308 502</gx:coord>
<gx:coord >18.431695 -33.882019 502</gx:coord>
<gx:coord >18.428135 -33.879695 510</gx:coord>
<gx:coord >18.42453 -33.8776 518</gx:coord>
<gx:coord >18.421841 -33.876203 525</gx:coord>
<gx:coord >18.41914 -33.874969 533</gx:coord>
<gx:coord >18.416673 -33.874054 533</gx:coord>
<gx:coord >18.414039 -33.873276 541</gx:coord>
<gx:coord >18.411965 -33.872772 556</gx:coord>
<gx:coord >18.410395 -33.872543 548</gx:coord>
<gx:coord >18.408394 -33.872386 541</gx:coord>
<gx:coord >18.406416 -33.87236 541</gx:coord>
<gx:coord >18.403781 -33.872498 533</gx:coord>
<gx:coord >18.401642 -33.872758 533</gx:coord>
<gx:coord >18.399239 -33.873177 525</gx:coord>
<gx:coord >18.397335 -33.873734 525</gx:coord>
<gx:coord >18.396046 -33.874237 518</gx:coord>
<gx:coord >18.394489 -33.875039 518</gx:coord>
<gx:coord >18.393974 -33.875365 518</gx:coord>
<gx:coord >18.393173 -33.87597 518</gx:coord>
<gx:coord >18.392487 -33.876622 510</gx:coord>
<gx:coord >18.391914 -33.87732 502</gx:coord>
<gx:coord >18.391457 -33.878019 495</gx:coord>
<gx:coord >18.391169 -33.878769 487</gx:coord>
<gx:coord >18.390942 -33.880067 480</gx:coord>
<gx:coord >18.390945 -33.880463 480</gx:coord>
<gx:coord >18.391057 -33.881882 449</gx:coord>
<gx:coord >18.391562 -33.883163 441</gx:coord>
<gx:coord >18.39201 -33.883804 434</gx:coord>
<gx:coord >18.392402 -33.884262 426</gx:coord>
<gx:coord >18.393355 -33.884995 434</gx:coord>
<gx:coord >18.394476 -33.885498 419</gx:coord>
<gx:coord >18.39529 -33.885653 426</gx:coord>
<gx:coord >18.395822 -33.885681 426</gx:coord>
<gx:coord >18.396664 -33.8857 411</gx:coord>
<gx:coord >18.397671 -33.885544 411</gx:coord>
<gx:coord >18.398781 -33.885234 411</gx:coord>
<gx:coord >18.399639 -33.884862 411</gx:coord>
<gx:coord >18.40044 -33.884443 411</gx:coord>
<gx:coord >18.401035 -33.884033 411</gx:coord>
<gx:coord >18.402212 -33.882751 434</gx:coord>
<gx:coord >18.402604 -33.881882 434</gx:coord>
<gx:coord >18.402786 -33.88137 441</gx:coord>
<gx:coord >18.402996 -33.880051 449</gx:coord>
<gx:coord >18.40294 -33.879547 449</gx:coord>
<gx:coord >18.402772 -33.87854 449</gx:coord>
<gx:coord >18.402386 -33.8776 457</gx:coord>
<gx:coord >18.401763 -33.876663 464</gx:coord>
<gx:coord >18.401184 -33.876063 464</gx:coord>
<gx:coord >18.40025 -33.875336 472</gx:coord>
<gx:coord >18.399467 -33.874993 472</gx:coord>
<gx:coord >18.398952 -33.874807 472</gx:coord>
<gx:coord >18.397522 -33.87462 472</gx:coord>
<gx:coord >18.396494 -33.874649 472</gx:coord>
<gx:coord >18.395519 -33.874853 472</gx:coord>
<gx:coord >18.393748 -33.875381 472</gx:coord>
<gx:coord >18.393002 -33.875784 464</gx:coord>
<gx:coord >18.392066 -33.87648 464</gx:coord>
<gx:coord >18.391685 -33.876901 457</gx:coord>
<gx:coord >18.391057 -33.877899 449</gx:coord>
<gx:coord >18.390884 -33.878391 441</gx:coord>
<gx:coord >18.390713 -33.879276 434</gx:coord>
<gx:coord >18.390721 -33.879959 426</gx:coord>
<gx:coord >18.390884 -33.880998 411</gx:coord>
<gx:coord >18.391113 -33.881699 403</gx:coord>
<gx:coord >18.391571 -33.88272 388</gx:coord>
<gx:coord >18.392234 -33.883575 388</gx:coord>
<gx:coord >18.393075 -33.884262 388</gx:coord>
<gx:coord >18.393748 -33.884674 373</gx:coord>
<gx:coord >18.39442 -33.884995 373</gx:coord>
<gx:coord >18.395233 -33.885281 365</gx:coord>
<gx:coord >18.395485 -33.885315 365</gx:coord>
<gx:coord >18.396214 -33.885406 365</gx:coord>
<gx:coord >18.396943 -33.885406 358</gx:coord>
<gx:coord >18.397636 -33.885327 365</gx:coord>
<gx:coord >18.398232 -33.885178 365</gx:coord>
<gx:coord >18.399073 -33.884811 365</gx:coord>
<gx:coord >18.399633 -33.884491 365</gx:coord>
<gx:coord >18.400306 -33.883896 373</gx:coord>
<gx:coord >18.400898 -33.883139 380</gx:coord>
<gx:coord >18.401299 -33.882162 396</gx:coord>
<gx:coord >18.401427 -33.881653 403</gx:coord>
<gx:coord >18.40147 -33.880998 403</gx:coord>
<gx:coord >18.401091 -33.879868 411</gx:coord>
<gx:coord >18.400326 -33.878857 403</gx:coord>
<gx:coord >18.399296 -33.878251 396</gx:coord>
<gx:coord >18.398176 -33.877899 388</gx:coord>
<gx:coord >18.396943 -33.877853 388</gx:coord>
<gx:coord >18.396149 -33.877972 396</gx:coord>
<gx:coord >18.395348 -33.878251 396</gx:coord>
<gx:coord >18.394252 -33.87886 403</gx:coord>
<gx:coord >18.393636 -33.879501 411</gx:coord>
<gx:coord >18.393636 -33.879501 411</gx:coord>
<gx:coord >18.393243 -33.880417 411</gx:coord>
<gx:coord >18.393173 -33.880905 403</gx:coord>
<gx:coord >18.393243 -33.881699 403</gx:coord>
<gx:coord >18.393574 -33.882441 403</gx:coord>
<gx:coord >18.394318 -33.883372 388</gx:coord>
<gx:coord >18.394718 -33.883698 396</gx:coord>
<gx:coord >18.395654 -33.884125 396</gx:coord>
<gx:coord >18.396435 -33.884303 380</gx:coord>
<gx:coord >18.397111 -33.884354 380</gx:coord>
<gx:coord >18.398008 -33.884399 380</gx:coord>
<gx:coord >18.399465 -33.884262 380</gx:coord>
<gx:coord >18.401241 -33.883977 380</gx:coord>
<gx:coord >18.403389 -33.88353 380</gx:coord>
<gx:coord >18.408041 -33.882339 365</gx:coord>
<gx:coord >18.410053 -33.882022 358</gx:coord>
<gx:coord >18.411655 -33.881836 350</gx:coord>
<gx:coord >18.413258 -33.881743 342</gx:coord>
<gx:coord >18.415216 -33.88179 342</gx:coord>
<gx:coord >18.416462 -33.881929 335</gx:coord>
<gx:coord >18.418075 -33.882156 327</gx:coord>
<gx:coord >18.419094 -33.882395 312</gx:coord>
<gx:coord >18.420261 -33.882751 304</gx:coord>
<gx:coord >18.42127 -33.883163 297</gx:coord>
<gx:coord >18.422223 -33.883667 281</gx:coord>
<gx:coord >18.423007 -33.884171 274</gx:coord>
<gx:coord >18.423729 -33.884722 266</gx:coord>
<gx:coord >18.424416 -33.885327 266</gx:coord>
<gx:coord >18.425217 -33.886165 259</gx:coord>
<gx:coord >18.425789 -33.886864 251</gx:coord>
<gx:coord >18.425978 -33.887146 251</gx:coord>
<gx:coord >18.426146 -33.887558 251</gx:coord>
<gx:coord >18.426202 -33.888062 251</gx:coord>
<gx:coord >18.426132 -33.8884 251</gx:coord>
<gx:coord >18.426075 -33.888586 251</gx:coord>
<gx:coord >18.42581 -33.888977 259</gx:coord>
<gx:coord >18.42553 -33.889343 259</gx:coord>
<gx:coord >18.425217 -33.889796 251</gx:coord>
<gx:coord >18.425102 -33.890122 251</gx:coord>
<gx:coord >18.425081 -33.890305 243</gx:coord>
<gx:coord >18.425137 -33.890671 228</gx:coord>
<gx:coord >18.425249 -33.890945 220</gx:coord>
<gx:coord >18.425642 -33.891541 205</gx:coord>
<gx:coord >18.425978 -33.891998 190</gx:coord>
<gx:coord >18.426819 -33.893051 152</gx:coord>
<gx:coord >18.427548 -33.894104 144</gx:coord>
<gx:coord >18.427884 -33.894745 129</gx:coord>
<gx:coord >18.428052 -33.895203 106</gx:coord>
<gx:coord >18.428164 -33.895523 99</gx:coord>
<gx:coord >18.428249 -33.896174 83</gx:coord>
<gx:coord >18.428249 -33.896965 68</gx:coord>
<gx:coord >18.42822 -33.897491 53</gx:coord>
<gx:coord >18.428052 -33.898315 45</gx:coord>
<gx:coord >18.427849 -33.898967 30</gx:coord>
<gx:coord >18.427677 -33.89934 30</gx:coord>
<gx:coord >18.427505 -33.899712 22</gx:coord>
<gx:coord >18.427277 -33.900084 15</gx:coord>
<gx:coord >18.427043 -33.900421 15</gx:coord>
<gx:coord >18.426991 -33.90055 15</gx:coord>
<gx:coord >18.426933 -33.900783 7</gx:coord>
<gx:coord >18.426933 -33.900922 7</gx:coord>
<gx:coord >18.426931 -33.901016 7</gx:coord>
<gx:coord >18.426933 -33.901015 7</gx:coord>
<gx:coord >18.426933 -33.901015 7</gx:coord>
</gx:Track>
</Placemark>
</Folder>
</Folder>
</kml>
