<?xml version="1.0" encoding="UTF-8"?>
<kml xmlns="http://www.opengis.net/kml/2.2">
  <Document>
    <name>FR24 ZTREG 3e0cfe05</name>
    <Placemark>
      <name>FR24 ZTREG 3e0cfe05</name>
      <description><![CDATA[Source: ADS-B
Start (SAST): 2026-01-25 12:06:02
End (SAST): 2026-01-25 17:03:13
Points: 1019]]></description>
      <Style><LineStyle><color>ff0000ff</color><width>4</width></LineStyle></Style>
      <LineString>
        <tessellate>1</tessellate>
        <altitudeMode>absolute</altitudeMode>
        <coordinates>18.38987,-33.88365,304.8 18.3735,-33.8864,365.76 18.3699,-33.89396,396.24 18.3731,-33.90099,396.24 18.36347,-33.90335,426.72 18.36707,-33.90613,426.72 18.36232,-33.91298,457.20000000000005 18.35008,-33.91251,457.20000000000005 18.34981,-33.91441,457.20000000000005 18.33133,-34.01361,701.0400000000001 18.33257,-34.01623,701.0400000000001 18.33315,-34.01732,701.0400000000001 18.33352,-34.01858,701.0400000000001 18.33378,-34.01944,701.0400000000001 18.33476,-34.02076,701.0400000000001 18.33539,-34.02244,701.0400000000001 18.33595,-34.02357,701.0400000000001 18.33641,-34.02448,701.0400000000001 18.33706,-34.02607,701.0400000000001 18.33769,-34.02728,701.0400000000001 18.33773,-34.02836,701.0400000000001 18.3382,-34.02949,701.0400000000001 18.33871,-34.0306,701.0400000000001 18.33926,-34.03187,701.0400000000001 18.33973,-34.03327,701.0400000000001 18.34011,-34.0345,701.0400000000001 18.34048,-34.03569,701.0400000000001 18.34085,-34.03692,701.0400000000001 18.33961,-34.03907,701.0400000000001 18.3421,-34.04117,731.52 18.34275,-34.04247,731.52 18.34311,-34.04333,731.52 18.34383,-34.04509,731.52 18.34348,-34.04643,731.52 18.34377,-34.04757,731.52 18.34411,-34.0487,731.52 18.34523,-34.05014,731.52 18.34606,-34.05178,731.52 18.34637,-34.05263,731.52 18.34678,-34.05368,731.52 18.34726,-34.05536,731.52 18.34811,-34.05702,731.52 18.34877,-34.05802,731.52 18.34954,-34.05927,762 18.35025,-34.06036,762 18.35065,-34.06127,762 18.35172,-34.06282,762 18.35332,-34.06468,762 18.35412,-34.0656,762 18.35543,-34.06697,762 18.35617,-34.06799,762 18.35709,-34.06865,792.48 18.35888,-34.06999,792.48 18.36026,-34.07144,792.48 18.36178,-34.07291,792.48 18.3625,-34.07366,792.48 18.36321,-34.07455,792.48 18.36407,-34.07552,792.48 18.36487,-34.07647,792.48 18.36585,-34.07763,822.96 18.36649,-34.07841,822.96 18.36758,-34.07958,822.96 18.3685,-34.08038,822.96 18.36946,-34.08142,822.96 18.37043,-34.08248,822.96 18.37126,-34.08358,822.96 18.37203,-34.08442,822.96 18.37285,-34.08531,822.96 18.37369,-34.08627,822.96 18.37472,-34.08749,822.96 18.37556,-34.08844,822.96 18.37647,-34.08962,822.96 18.3772,-34.09049,822.96 18.37818,-34.09164,822.96 18.37895,-34.09253,822.96 18.38006,-34.09367,822.96 18.38082,-34.09443,822.96 18.38165,-34.09533,792.48 18.38287,-34.09655,792.48 18.38417,-34.09784,792.48 18.38486,-34.09862,792.48 18.38617,-34.09969,792.48 18.38736,-34.10086,792.48 18.38837,-34.10181,762 18.38891,-34.10259,762 18.38968,-34.10343,762 18.39078,-34.10441,762 18.39229,-34.10567,731.52 18.39364,-34.10658,731.52 18.39474,-34.10747,731.52 18.39598,-34.10845,701.0400000000001 18.39708,-34.1093,701.0400000000001 18.39783,-34.11013,701.0400000000001 18.39876,-34.11086,701.0400000000001 18.39987,-34.11165,670.5600000000001 18.40097,-34.11244,670.5600000000001 18.40225,-34.11333,670.5600000000001 18.40322,-34.11401,670.5600000000001 18.40445,-34.11483,640.08 18.40614,-34.11592,640.08 18.40717,-34.11658,640.08 18.40819,-34.11729,640.08 18.40922,-34.11794,609.6 18.411,-34.11892,609.6 18.41198,-34.11954,609.6 18.41338,-34.12039,579.12 18.41446,-34.12103,579.12 18.41547,-34.12163,579.12 18.41699,-34.12255,579.12 18.41768,-34.123,579.12 18.41919,-34.1239,548.64 18.42061,-34.12471,548.64 18.42181,-34.12544,548.64 18.42328,-34.12639,548.64 18.42372,-34.12668,548.64 18.42548,-34.12789,548.64 18.42672,-34.12871,548.64 18.42833,-34.12967,518.1600000000001 18.42928,-34.13029,518.1600000000001 18.43058,-34.13105,518.1600000000001 18.43147,-34.13157,518.1600000000001 18.43276,-34.13232,518.1600000000001 18.43432,-34.13324,548.64 18.43538,-34.1338,518.1600000000001 18.43683,-34.13443,548.64 18.43785,-34.13483,548.64 18.43947,-34.13548,548.64 18.44079,-34.13584,548.64 18.44241,-34.13623,548.64 18.44405,-34.13644,548.64 18.44522,-34.13641,548.64 18.44946,-34.13591,548.64 18.45038,-34.1357,548.64 18.45212,-34.13498,548.64 18.45338,-34.13463,548.64 18.45485,-34.13411,548.64 18.45648,-34.13343,548.64 18.45827,-34.13246,548.64 18.45901,-34.13184,548.64 18.46045,-34.13062,548.64 18.46188,-34.12946,548.64 18.46268,-34.12875,548.64 18.46418,-34.12717,548.64 18.46505,-34.12614,548.64 18.46603,-34.12497,548.64 18.4674,-34.12343,548.64 18.4686,-34.12193,548.64 18.46949,-34.12049,548.64 18.47014,-34.11927,548.64 18.47098,-34.11793,548.64 18.47183,-34.11657,548.64 18.47252,-34.11523,548.64 18.47323,-34.11377,548.64 18.47389,-34.11228,548.64 18.47429,-34.11134,548.64 18.47478,-34.10987,548.64 18.47523,-34.10836,548.64 18.47553,-34.10715,548.64 18.47569,-34.10619,548.64 18.47605,-34.10476,548.64 18.47643,-34.10331,548.64 18.47662,-34.10214,548.64 18.47685,-34.10097,579.12 18.477,-34.0996,579.12 18.47723,-34.09826,579.12 18.47722,-34.09686,579.12 18.47716,-34.09583,579.12 18.47713,-34.09435,579.12 18.4773,-34.09309,579.12 18.47745,-34.09177,579.12 18.47748,-34.09037,579.12 18.47737,-34.08916,579.12 18.47727,-34.08799,579.12 18.4773,-34.08702,579.12 18.47735,-34.08567,579.12 18.4775,-34.08445,579.12 18.4775,-34.08316,579.12 18.47744,-34.08171,579.12 18.47729,-34.0807,579.12 18.4772,-34.07907,579.12 18.47709,-34.07753,579.12 18.47704,-34.07649,579.12 18.477,-34.07497,579.12 18.47696,-34.07356,579.12 18.47695,-34.07232,579.12 18.47707,-34.07119,579.12 18.47715,-34.06995,579.12 18.47729,-34.06851,579.12 18.47758,-34.06733,609.6 18.47771,-34.06579,609.6 18.47792,-34.0644,609.6 18.47797,-34.06335,579.12 18.47786,-34.06194,579.12 18.47827,-34.06032,579.12 18.47838,-34.0591,579.12 18.47844,-34.05744,579.12 18.47836,-34.05609,579.12 18.47835,-34.05468,579.12 18.47854,-34.05315,579.12 18.47884,-34.05201,579.12 18.4788,-34.05071,579.12 18.47868,-34.04907,579.12 18.47893,-34.04768,579.12 18.47896,-34.04668,579.12 18.47912,-34.04517,579.12 18.47938,-34.04364,579.12 18.47959,-34.04214,579.12 18.4796,-34.04099,579.12 18.47959,-34.03973,579.12 18.47962,-34.03853,579.12 18.4797,-34.03724,579.12 18.47957,-34.036,579.12 18.47983,-34.0345,579.12 18.48008,-34.03318,579.12 18.48038,-34.03162,579.12 18.48013,-34.03012,579.12 18.48017,-34.02878,579.12 18.4802,-34.02727,579.12 18.48039,-34.02609,579.12 18.48058,-34.02464,579.12 18.48063,-34.02314,579.12 18.48067,-34.02176,579.12 18.48098,-34.02032,579.12 18.48097,-34.01896,579.12 18.48105,-34.01791,579.12 18.48104,-34.01623,579.12 18.48113,-34.01455,579.12 18.48122,-34.01326,579.12 18.48111,-34.01216,579.12 18.48103,-34.01086,579.12 18.48101,-34.00942,579.12 18.48117,-34.00812,579.12 18.48128,-34.00698,579.12 18.48138,-34.00556,579.12 18.48194,-34.00377,548.64 18.48233,-34.00218,548.64 18.48244,-34.00108,548.64 18.48248,-33.9996,548.64 18.48251,-33.9986,548.64 18.48295,-33.99715,548.64 18.4829,-33.99587,548.64 18.48275,-33.99441,548.64 18.48289,-33.9931,518.1600000000001 18.48266,-33.99186,518.1600000000001 18.48248,-33.99065,487.68 18.48272,-33.98909,487.68 18.48323,-33.98793,487.68 18.48347,-33.98615,487.68 18.48345,-33.98506,457.20000000000005 18.48328,-33.98357,457.20000000000005 18.4834,-33.98246,457.20000000000005 18.4836,-33.9809,457.20000000000005 18.48365,-33.97938,457.20000000000005 18.48328,-33.97826,457.20000000000005 18.48314,-33.97697,426.72 18.48321,-33.97521,426.72 18.4835,-33.97245,426.72 18.48402,-33.97124,426.72 18.48434,-33.96959,426.72 18.48457,-33.96866,426.72 18.48496,-33.96724,426.72 18.48504,-33.96517,396.24 18.48485,-33.96384,396.24 18.4843,-33.96237,396.24 18.48402,-33.96111,396.24 18.48363,-33.96043,396.24 18.48381,-33.95903,396.24 18.48278,-33.95787,396.24 18.48271,-33.95662,396.24 18.48279,-33.95542,396.24 18.48293,-33.95416,365.76 18.483,-33.95288,365.76 18.48296,-33.95131,365.76 18.48306,-33.95004,365.76 18.48298,-33.94863,365.76 18.48289,-33.94621,365.76 18.48282,-33.94522,365.76 18.48003,-33.94045,365.76 18.47972,-33.93958,365.76 18.48031,-33.93573,365.76 18.48042,-33.93496,365.76 18.47864,-33.93386,365.76 18.47882,-33.93266,335.28000000000003 18.47996,-33.93168,335.28000000000003 18.47801,-33.9305,335.28000000000003 18.4752,-33.92828,304.8 18.46586,-33.92313,304.8 18.46433,-33.91792,243.84 18.46092,-33.91689,243.84 18.46625,-33.91686,243.84 18.46279,-33.91532,213.36 18.4551,-33.91201,213.36 18.45148,-33.90746,182.88 18.44858,-33.90348,182.88 18.44631,-33.9014,152.4 18.4371,-33.89864,152.4 18.40679,-33.86836,182.88 18.39734,-33.86465,213.36 18.4195,-33.87199,243.84 18.41445,-33.87195,274.32 18.41044,-33.871,274.32 18.41534,-33.87344,274.32 18.41324,-33.88144,335.28000000000003 18.37974,-33.88671,396.24 18.36715,-33.90694,487.68 18.35733,-33.91494,518.1600000000001 18.31338,-33.99264,792.48 18.31434,-33.99965,792.48 18.29392,-33.9995,792.48 18.2928,-34.00175,792.48 18.29308,-34.00351,792.48 18.33856,-34.00913,822.96 18.33883,-34.01182,822.96 18.33947,-34.0138,822.96 18.3391,-34.01454,822.96 18.33936,-34.01595,822.96 18.33951,-34.01705,792.48 18.33973,-34.01822,792.48 18.34006,-34.01956,792.48 18.34025,-34.02066,792.48 18.34063,-34.02209,792.48 18.34087,-34.023,792.48 18.34123,-34.02424,792.48 18.34167,-34.02539,792.48 18.34208,-34.02651,792.48 18.34248,-34.02783,762 18.34287,-34.02906,762 18.34327,-34.03059,762 18.3439,-34.0318,762 18.34451,-34.03296,762 18.34477,-34.03424,762 18.34492,-34.03532,762 18.34561,-34.03679,762 18.34624,-34.03815,762 18.34629,-34.03948,762 18.34623,-34.04054,762 18.3466,-34.04165,762 18.34717,-34.04291,762 18.34768,-34.04417,731.52 18.34819,-34.04589,731.52 18.34839,-34.04677,731.52 18.34882,-34.04834,731.52 18.3493,-34.04937,731.52 18.34963,-34.05074,731.52 18.34974,-34.05218,731.52 18.34978,-34.05309,701.0400000000001 18.34969,-34.0544,701.0400000000001 18.34941,-34.0556,701.0400000000001 18.34943,-34.05695,701.0400000000001 18.34922,-34.05869,701.0400000000001 18.34871,-34.06001,701.0400000000001 18.34439,-34.06317,701.0400000000001 18.34175,-34.06686,701.0400000000001 18.34385,-34.06586,670.5600000000001 18.32892,-34.07186,670.5600000000001 18.32776,-34.07235,670.5600000000001 18.32348,-34.07049,640.08 18.32193,-34.06986,640.08 18.32079,-34.06931,640.08 18.31522,-34.06682,640.08 18.31282,-34.06321,609.6 18.313,-34.0626,609.6 18.30714,-34.05526,609.6 18.30416,-34.05122,609.6 18.30223,-34.04935,609.6 18.30192,-34.02768,640.08 18.30422,-34.0228,670.5600000000001 18.30645,-34.0206,670.5600000000001 18.30809,-34.01822,670.5600000000001 18.33017,-34.01655,701.0400000000001 18.33443,-34.01246,670.5600000000001 18.34629,-34.01514,670.5600000000001 18.36863,-33.92116,609.6 18.36466,-33.91642,609.6 18.36659,-33.91465,609.6 18.36572,-33.91402,640.08 18.37664,-33.91312,640.08 18.38415,-33.91291,640.08 18.37396,-33.91038,640.08 18.37567,-33.90893,609.6 18.36874,-33.90644,609.6 18.37325,-33.90602,640.08 18.38218,-33.90176,609.6 18.38553,-33.90165,609.6 18.37998,-33.89917,609.6 18.3862,-33.89645,609.6 18.39279,-33.89547,579.12 18.39456,-33.89265,579.12 18.39279,-33.89026,548.64 18.39796,-33.88894,548.64 18.40323,-33.88765,518.1600000000001 18.40481,-33.885,487.68 18.40983,-33.88507,487.68 18.41287,-33.88519,457.20000000000005 18.41226,-33.88018,426.72 18.42262,-33.87352,243.84 18.36924,-33.90767,548.64 18.35747,-33.91112,579.12 18.35722,-33.91519,579.12 18.35019,-33.91431,579.12 18.35268,-33.91696,579.12 18.31632,-33.98531,792.48 18.3216,-33.99367,822.96 18.34344,-33.99851,822.96 18.33916,-34.00072,822.96 18.33852,-34.0016,822.96 18.33796,-34.00297,822.96 18.33834,-34.00459,822.96 18.33854,-34.00621,822.96 18.33842,-34.00771,822.96 18.33834,-34.00949,822.96 18.33855,-34.01125,822.96 18.33839,-34.01236,822.96 18.33859,-34.01443,822.96 18.33872,-34.01513,822.96 18.33918,-34.01712,822.96 18.33934,-34.01791,822.96 18.33936,-34.01904,822.96 18.33943,-34.02007,792.48 18.33974,-34.02131,792.48 18.34012,-34.02284,792.48 18.34052,-34.02416,792.48 18.34121,-34.02529,792.48 18.34199,-34.02684,792.48 18.34202,-34.02787,792.48 18.34235,-34.02911,792.48 18.34269,-34.03021,792.48 18.34369,-34.03204,792.48 18.34416,-34.03355,792.48 18.34434,-34.03418,792.48 18.34485,-34.03583,792.48 18.34553,-34.03751,792.48 18.34577,-34.03872,792.48 18.34592,-34.04002,792.48 18.34595,-34.04101,762 18.34643,-34.04215,762 18.34691,-34.04345,762 18.3474,-34.04467,762 18.34766,-34.04605,762 18.34801,-34.04713,762 18.34821,-34.04849,762 18.3485,-34.04948,762 18.34875,-34.05059,731.52 18.34909,-34.05209,731.52 18.34896,-34.05296,731.52 18.34896,-34.0541,731.52 18.34884,-34.0556,731.52 18.34881,-34.05732,701.0400000000001 18.34832,-34.05816,701.0400000000001 18.34806,-34.05954,701.0400000000001 18.34323,-34.06421,701.0400000000001 18.33556,-34.06167,670.5600000000001 18.34236,-34.06642,701.0400000000001 18.3404,-34.06741,701.0400000000001 18.33923,-34.06872,670.5600000000001 18.33968,-34.0669,670.5600000000001 18.33675,-34.06725,670.5600000000001 18.33116,-34.06944,640.08 18.33092,-34.06967,640.08 18.32752,-34.06916,640.08 18.32656,-34.06892,640.08 18.32459,-34.06828,640.08 18.32333,-34.06781,640.08 18.32143,-34.06675,609.6 18.31436,-34.06511,609.6 18.31429,-34.06477,609.6 18.31249,-34.06247,579.12 18.31234,-34.06113,579.12 18.30802,-34.05748,579.12 18.30553,-34.05632,579.12 18.30389,-34.0551,579.12 18.30243,-34.05352,579.12 18.302,-34.05233,579.12 18.30209,-34.05016,609.6 18.30055,-34.02941,609.6 18.30229,-34.02756,609.6 18.30271,-34.02514,609.6 18.31644,-34.01321,640.08 18.32961,-34.00922,609.6 18.32729,-34.00245,609.6 18.36834,-33.92216,609.6 18.37501,-33.91782,579.12 18.35935,-33.91269,579.12 18.3676,-33.91238,579.12 18.3753,-33.91216,579.12 18.36923,-33.90942,579.12 18.37024,-33.90808,548.64 18.37241,-33.90684,548.64 18.36807,-33.90349,548.64 18.38093,-33.9002,518.1600000000001 18.37058,-33.897,518.1600000000001 18.38573,-33.90748,457.20000000000005 18.39667,-33.89275,457.20000000000005 18.39656,-33.88729,396.24 18.40915,-33.88548,365.76 18.38951,-33.88146,365.76 18.38047,-33.88612,396.24 18.38357,-33.88883,426.72 18.37711,-33.88935,426.72 18.37999,-33.89037,457.20000000000005 18.37578,-33.89689,457.20000000000005 18.36766,-33.89975,487.68 18.35309,-33.90194,518.1600000000001 18.36125,-33.90571,518.1600000000001 18.36708,-33.90766,518.1600000000001 18.35386,-33.90969,548.64 18.35564,-33.91343,579.12 18.35945,-33.92058,609.6 18.36635,-33.91856,609.6 18.37472,-33.91146,609.6 18.37133,-33.90973,609.6 18.36779,-33.90794,609.6 18.37323,-33.9072,609.6 18.36803,-33.90532,609.6 18.3657,-33.90332,609.6 18.37287,-33.90306,609.6 18.37495,-33.90157,609.6 18.37943,-33.89975,579.12 18.37893,-33.89633,579.12 18.39006,-33.89283,548.64 18.40252,-33.88891,487.68 18.4087,-33.88686,457.20000000000005 18.41379,-33.88113,457.20000000000005 18.4085,-33.87044,213.36 18.39169,-33.8759,274.32 18.39048,-33.88303,304.8 18.38924,-33.88694,365.76 18.38174,-33.88973,396.24 18.38138,-33.89177,396.24 18.36558,-33.9001,457.20000000000005 18.36179,-33.90201,457.20000000000005 18.36625,-33.90468,487.68 18.36358,-33.90621,487.68 18.36317,-33.90735,487.68 18.35689,-33.91306,518.1600000000001 18.32053,-33.99265,731.52 18.33785,-34.00415,762 18.33307,-34.00626,762 18.33308,-34.00779,762 18.33278,-34.00925,762 18.33258,-34.01085,762 18.33403,-34.01234,762 18.33463,-34.01346,762 18.33491,-34.01484,762 18.33519,-34.01613,731.52 18.33571,-34.01733,762 18.33609,-34.01851,731.52 18.33689,-34.01982,762 18.33735,-34.02105,731.52 18.33778,-34.02232,731.52 18.33823,-34.0236,731.52 18.33894,-34.0251,731.52 18.33928,-34.02601,731.52 18.33967,-34.02723,731.52 18.33991,-34.02798,731.52 18.34031,-34.02912,701.0400000000001 18.34072,-34.03019,701.0400000000001 18.34121,-34.03127,701.0400000000001 18.34159,-34.03234,701.0400000000001 18.34194,-34.03347,701.0400000000001 18.34239,-34.03474,701.0400000000001 18.34284,-34.03571,701.0400000000001 18.34333,-34.03714,701.0400000000001 18.34468,-34.03898,701.0400000000001 18.34579,-34.04086,701.0400000000001 18.34528,-34.04212,701.0400000000001 18.3453,-34.04289,701.0400000000001 18.34556,-34.04432,701.0400000000001 18.34585,-34.0455,701.0400000000001 18.34636,-34.0469,701.0400000000001 18.34663,-34.04803,701.0400000000001 18.34717,-34.04909,670.5600000000001 18.34776,-34.05045,670.5600000000001 18.34807,-34.05152,670.5600000000001 18.34826,-34.05278,670.5600000000001 18.34832,-34.05396,670.5600000000001 18.34793,-34.05496,670.5600000000001 18.3444,-34.05963,670.5600000000001 18.34709,-34.05898,670.5600000000001 18.34703,-34.05995,670.5600000000001 18.34145,-34.06382,670.5600000000001 18.34191,-34.06571,670.5600000000001 18.33985,-34.0669,670.5600000000001 18.33857,-34.06771,670.5600000000001 18.33727,-34.06831,670.5600000000001 18.33475,-34.0695,670.5600000000001 18.33374,-34.06968,670.5600000000001 18.33025,-34.07043,640.08 18.32766,-34.07015,640.08 18.32449,-34.06847,640.08 18.32384,-34.06798,640.08 18.32179,-34.06736,640.08 18.32122,-34.06699,640.08 18.3195,-34.066,640.08 18.31537,-34.06418,640.08 18.31375,-34.06293,640.08 18.31299,-34.06215,640.08 18.31157,-34.06072,640.08 18.31105,-34.05975,640.08 18.30959,-34.05892,640.08 18.30361,-34.0565,640.08 18.30403,-34.05601,640.08 18.30447,-34.05517,640.08 18.30301,-34.05359,640.08 18.29956,-34.0504,640.08 18.29566,-34.04756,640.08 18.29817,-34.0457,640.08 18.30008,-34.028,640.08 18.30868,-34.01198,640.08 18.31748,-34.00886,609.6 18.35958,-33.92024,579.12 18.36255,-33.91579,579.12 18.36245,-33.91526,579.12 18.36975,-33.91414,579.12 18.37864,-33.91246,579.12 18.37536,-33.9104,579.12 18.3745,-33.90734,579.12 18.37397,-33.90643,579.12 18.37547,-33.90458,579.12 18.38452,-33.90017,548.64 18.39066,-33.89917,548.64 18.39604,-33.89563,518.1600000000001 18.39602,-33.89344,487.68 18.40113,-33.89285,487.68 18.3978,-33.88941,457.20000000000005 18.39602,-33.88779,457.20000000000005 18.4052,-33.88786,426.72 18.41503,-33.88795,396.24 18.40614,-33.88292,365.76 18.42605,-33.87061,243.84 18.41514,-33.87101,243.84 18.39084,-33.88969,335.28000000000003 18.36709,-33.90092,426.72 18.36772,-33.90473,426.72 18.36103,-33.90666,426.72 18.36526,-33.90775,426.72 18.3682,-33.90991,457.20000000000005 18.35762,-33.91167,457.20000000000005 18.36021,-33.91305,457.20000000000005 18.36142,-33.9152,457.20000000000005 18.31746,-33.99196,762 18.3338,-34.00006,762 18.33818,-34.00477,762 18.33115,-34.0044,762 18.33133,-34.0066,762 18.33189,-34.00789,762 18.33215,-34.01004,762 18.33202,-34.01115,762 18.33221,-34.0121,762 18.33228,-34.014,762 18.3325,-34.01516,762 18.33287,-34.01646,792.48 18.33323,-34.01765,792.48 18.33368,-34.01883,792.48 18.33447,-34.02039,792.48 18.33499,-34.02153,792.48 18.33542,-34.0226,792.48 18.33587,-34.0237,792.48 18.33609,-34.02468,792.48 18.33648,-34.02581,792.48 18.337,-34.02748,792.48 18.33741,-34.02872,792.48 18.33782,-34.03013,792.48 18.33823,-34.03132,792.48 18.33851,-34.03219,792.48 18.33884,-34.03365,792.48 18.33925,-34.03492,792.48 18.33971,-34.036,792.48 18.34016,-34.03711,822.96 18.34072,-34.03838,822.96 18.34074,-34.03963,822.96 18.34116,-34.04093,822.96 18.34197,-34.04239,822.96 18.34248,-34.0434,822.96 18.34282,-34.04466,822.96 18.34318,-34.04577,822.96 18.34369,-34.04702,822.96 18.34419,-34.04818,822.96 18.34474,-34.04965,822.96 18.34546,-34.05095,822.96 18.34601,-34.05198,822.96 18.34668,-34.0533,822.96 18.34728,-34.05433,822.96 18.34785,-34.0554,822.96 18.34864,-34.05659,822.96 18.3497,-34.05796,822.96 18.35034,-34.05897,853.44 18.35114,-34.06012,853.44 18.3519,-34.06145,853.44 18.35278,-34.06259,853.44 18.35329,-34.0636,853.44 18.35399,-34.06469,853.44 18.35489,-34.06581,883.9200000000001 18.35604,-34.06705,883.9200000000001 18.35705,-34.06819,883.9200000000001 18.35802,-34.06941,883.9200000000001 18.35872,-34.07007,883.9200000000001 18.35959,-34.07113,883.9200000000001 18.36028,-34.07219,883.9200000000001 18.36095,-34.0731,914.4000000000001 18.36197,-34.07411,914.4000000000001 18.36269,-34.07491,914.4000000000001 18.36374,-34.07603,914.4000000000001 18.36474,-34.07697,914.4000000000001 18.36552,-34.07793,914.4000000000001 18.36614,-34.0788,914.4000000000001 18.36728,-34.07983,914.4000000000001 18.36856,-34.08105,914.4000000000001 18.36958,-34.08202,914.4000000000001 18.37046,-34.08294,914.4000000000001 18.37146,-34.08408,914.4000000000001 18.37234,-34.08495,914.4000000000001 18.37331,-34.08595,883.9200000000001 18.37417,-34.08678,883.9200000000001 18.3752,-34.08764,883.9200000000001 18.3762,-34.08869,883.9200000000001 18.37724,-34.08973,883.9200000000001 18.37821,-34.09064,883.9200000000001 18.37916,-34.09175,883.9200000000001 18.37996,-34.09239,883.9200000000001 18.38132,-34.09335,914.4000000000001 18.3821,-34.09401,883.9200000000001 18.38327,-34.09489,883.9200000000001 18.3843,-34.0957,883.9200000000001 18.3853,-34.09663,883.9200000000001 18.38617,-34.09748,883.9200000000001 18.38669,-34.09811,853.44 18.38769,-34.09911,853.44 18.38861,-34.09979,853.44 18.38957,-34.10061,853.44 18.39091,-34.10165,853.44 18.3919,-34.10265,822.96 18.39275,-34.10331,822.96 18.39383,-34.10415,822.96 18.39512,-34.10504,822.96 18.3959,-34.10553,792.48 18.39732,-34.10645,792.48 18.39831,-34.10705,792.48 18.39956,-34.10788,792.48 18.40042,-34.10847,762 18.40151,-34.10917,762 18.40268,-34.10999,762 18.4034,-34.11052,731.52 18.40441,-34.11113,731.52 18.40544,-34.11185,731.52 18.40653,-34.11258,701.0400000000001 18.40783,-34.11343,701.0400000000001 18.40893,-34.1142,701.0400000000001 18.41005,-34.11494,670.5600000000001 18.41077,-34.11548,670.5600000000001 18.41206,-34.11632,670.5600000000001 18.41311,-34.11705,640.08 18.41439,-34.11788,640.08 18.41544,-34.1186,640.08 18.41647,-34.11938,609.6 18.4175,-34.12008,609.6 18.41863,-34.12087,609.6 18.41949,-34.12146,609.6 18.42056,-34.1222,579.12 18.42175,-34.12299,579.12 18.42297,-34.12381,579.12 18.42429,-34.12477,579.12 18.42499,-34.12532,579.12 18.42626,-34.12633,579.12 18.42736,-34.1272,579.12 18.4287,-34.12812,548.64 18.42975,-34.12884,548.64 18.43079,-34.12949,548.64 18.4319,-34.1302,548.64 18.43312,-34.13091,548.64 18.43418,-34.13158,548.64 18.43574,-34.13245,548.64 18.4371,-34.13304,548.64 18.4389,-34.13371,548.64 18.44047,-34.1342,548.64 18.44207,-34.13452,548.64 18.44362,-34.13474,548.64 18.44502,-34.13491,548.64 18.44678,-34.13498,548.64 18.44956,-34.13485,548.64 18.45142,-34.1341,548.64 18.45205,-34.13446,579.12 18.45451,-34.13322,548.64 18.4563,-34.13216,579.12 18.45783,-34.13155,548.64 18.45954,-34.13056,548.64 18.46031,-34.13008,548.64 18.46154,-34.12917,548.64 18.46293,-34.12803,548.64 18.46436,-34.12675,548.64 18.46554,-34.12564,548.64 18.46693,-34.12405,548.64 18.4679,-34.12283,548.64 18.46889,-34.12159,548.64 18.47003,-34.11992,548.64 18.47174,-34.11727,548.64 18.47227,-34.11607,548.64 18.47333,-34.11432,579.12 18.47399,-34.11293,579.12 18.47477,-34.11119,579.12 18.47529,-34.10986,579.12 18.47568,-34.1085,579.12 18.47588,-34.1073,548.64 18.47617,-34.10597,548.64 18.47649,-34.10448,548.64 18.47675,-34.10302,548.64 18.47684,-34.10114,548.64 18.47697,-34.09944,548.64 18.47726,-34.0977,548.64 18.47722,-34.09638,548.64 18.47711,-34.09502,548.64 18.47699,-34.09361,548.64 18.47721,-34.092,548.64 18.47724,-34.09055,548.64 18.47716,-34.0892,548.64 18.47695,-34.08789,548.64 18.47702,-34.08664,548.64 18.47712,-34.08497,548.64 18.47713,-34.08286,548.64 18.47718,-34.08166,548.64 18.47725,-34.08021,548.64 18.4772,-34.07883,548.64 18.47709,-34.07729,548.64 18.47701,-34.07578,548.64 18.47685,-34.07433,548.64 18.47685,-34.07317,548.64 18.47684,-34.07192,548.64 18.47701,-34.07033,579.12 18.4769,-34.06913,579.12 18.47681,-34.06764,579.12 18.47687,-34.0659,579.12 18.47699,-34.06479,579.12 18.47689,-34.06314,579.12 18.47683,-34.06223,579.12 18.47682,-34.06038,579.12 18.47695,-34.05949,579.12 18.47721,-34.05772,579.12 18.47724,-34.05679,579.12 18.4775,-34.05545,579.12 18.47743,-34.05404,548.64 18.47764,-34.05253,579.12 18.4775,-34.05128,548.64 18.47732,-34.05,548.64 18.47735,-34.04897,548.64 18.47728,-34.04763,548.64 18.47737,-34.04627,548.64 18.47729,-34.04494,548.64 18.47701,-34.04359,548.64 18.47718,-34.04197,548.64 18.47689,-34.04057,548.64 18.47688,-34.03912,548.64 18.47708,-34.03737,548.64 18.47692,-34.03598,548.64 18.47719,-34.03436,548.64 18.47734,-34.03304,548.64 18.47759,-34.03146,548.64 18.47757,-34.03032,548.64 18.47765,-34.02881,548.64 18.47788,-34.0274,548.64 18.4783,-34.02577,548.64 18.47825,-34.02443,548.64 18.47852,-34.02311,548.64 18.47874,-34.02184,548.64 18.47907,-34.02002,548.64 18.47934,-34.01835,548.64 18.47938,-34.01702,548.64 18.47959,-34.01582,548.64 18.47954,-34.01471,548.64 18.47978,-34.01358,548.64 18.47972,-34.01202,548.64 18.47981,-34.01031,548.64 18.48004,-34.00901,548.64 18.48045,-34.0074,548.64 18.48032,-34.00633,548.64 18.48034,-34.00496,548.64 18.48022,-34.00383,548.64 18.48031,-34.00228,548.64 18.4805,-34.00083,518.1600000000001 18.48058,-33.99955,518.1600000000001 18.48069,-33.99804,518.1600000000001 18.48076,-33.99692,518.1600000000001 18.48066,-33.99495,487.68 18.48063,-33.99355,487.68 18.48052,-33.99209,487.68 18.48064,-33.99049,487.68 18.48088,-33.9894,457.20000000000005 18.48126,-33.98782,457.20000000000005 18.48158,-33.98603,457.20000000000005 18.48171,-33.98423,457.20000000000005 18.48181,-33.98323,457.20000000000005 18.48173,-33.98161,426.72 18.48164,-33.97997,426.72 18.48129,-33.97853,426.72 18.48109,-33.97722,426.72 18.48081,-33.97601,426.72 18.48099,-33.97478,396.24 18.48111,-33.97306,396.24 18.48027,-33.97135,396.24 18.48008,-33.96933,396.24 18.48065,-33.96847,365.76 18.48133,-33.96606,365.76 18.48211,-33.96402,365.76 18.48223,-33.96281,365.76 18.48251,-33.96138,365.76 18.48267,-33.9598,365.76 18.4827,-33.95878,335.28000000000003 18.48282,-33.95704,335.28000000000003 18.4827,-33.95477,335.28000000000003 18.48256,-33.95338,335.28000000000003 18.48232,-33.95215,335.28000000000003 18.48236,-33.95082,335.28000000000003 18.48239,-33.9496,335.28000000000003 18.4823,-33.9482,335.28000000000003 18.48234,-33.94564,335.28000000000003 18.48123,-33.9394,335.28000000000003 18.48359,-33.93926,335.28000000000003 18.48171,-33.93532,304.8 18.46987,-33.92989,304.8 18.47274,-33.92938,304.8 18.47223,-33.9258,274.32 18.47237,-33.92226,243.84 18.46572,-33.91841,243.84 18.45904,-33.91462,213.36 18.45686,-33.9122,213.36 18.4508,-33.90719,182.88 18.40017,-33.86983,213.36 18.39362,-33.88019,365.76 18.39473,-33.88371,365.76 18.39223,-33.88531,396.24 18.38955,-33.88678,396.24 18.3869,-33.88865,426.72 18.38805,-33.89019,426.72 18.37981,-33.89066,426.72 18.3859,-33.89266,426.72 18.36413,-33.89967,487.68 18.36742,-33.90125,487.68 18.35947,-33.90314,487.68 18.35783,-33.90392,487.68 18.36364,-33.90675,487.68 18.36738,-33.90879,518.1600000000001 18.34915,-33.9089,518.1600000000001 18.35265,-33.91177,518.1600000000001 18.35631,-33.91417,548.64 18.35902,-33.91668,548.64 18.36537,-33.9196,609.6 18.36785,-33.91273,579.12 18.36846,-33.90963,548.64 18.36607,-33.90902,548.64 18.37197,-33.90721,548.64 18.37585,-33.90717,548.64 18.3853,-33.89767,487.68 18.39166,-33.89803,487.68 18.39683,-33.8946,457.20000000000005 18.39999,-33.89102,426.72 18.40219,-33.88926,396.24 18.40412,-33.88671,365.76 18.4071,-33.88305,335.28000000000003 18.43164,-33.87873,182.88 18.41016,-33.87314,213.36 18.39569,-33.87792,304.8 18.39816,-33.88215,335.28000000000003 18.37158,-33.87951,365.76 18.37892,-33.88585,396.24 18.38213,-33.8872,396.24 18.37835,-33.88934,426.72 18.3787,-33.89102,426.72 18.37583,-33.90082,487.68 18.35922,-33.90273,518.1600000000001 18.363,-33.90698,548.64 18.35883,-33.90771,548.64 18.36591,-33.91533,548.64 18.36524,-33.91702,548.64 18.3657,-33.9207,548.64 18.36016,-33.91487,548.64 18.36545,-33.90951,548.64 18.36931,-33.90871,548.64 18.36859,-33.90724,548.64 18.37472,-33.90681,548.64 18.3758,-33.90644,548.64 18.38182,-33.90548,548.64 18.38311,-33.90363,518.1600000000001 18.38715,-33.90171,518.1600000000001 18.38493,-33.9005,518.1600000000001 18.37967,-33.89836,518.1600000000001 18.39272,-33.89631,487.68 18.3963,-33.89232,487.68 18.3968,-33.89423,457.20000000000005 18.39449,-33.89249,457.20000000000005 18.40088,-33.89026,426.72 18.40007,-33.88928,426.72 18.40645,-33.88941,426.72 18.40357,-33.88816,396.24 18.40954,-33.88547,396.24 18.40884,-33.88429,365.76 18.42329,-33.87695,213.36 18.36007,-33.90651,609.6 18.36679,-33.91051,640.08 18.36301,-33.91206,640.08 18.36474,-33.91301,640.08 18.35446,-33.91423,640.08 18.35589,-33.91582,640.08 18.36045,-33.91737,640.08 18.3677,-33.92128,579.12 18.3691,-33.91522,579.12 18.36528,-33.91161,579.12 18.36874,-33.91016,579.12 18.37329,-33.90975,548.64 18.3765,-33.90861,548.64 18.37706,-33.90675,548.64 18.38258,-33.90538,548.64 18.38828,-33.90244,518.1600000000001 18.3836,-33.89947,518.1600000000001 18.38642,-33.89622,457.20000000000005 18.3865,-33.89462,457.20000000000005 18.39417,-33.88854,396.24 18.39639,-33.88712,365.76 18.39559,-33.88591,365.76 18.40525,-33.88587,335.28000000000003 18.4002,-33.88269,335.28000000000003</coordinates>
      </LineString>
    </Placemark>
  </Document>
</kml>
