<?xml version="1.0" encoding="UTF-8"?>
<kml xmlns="http://www.opengis.net/kml/2.2">
  <Document>
    <name>FR24 ZTHOT 3e068a33</name>
    <Placemark>
      <name>FR24 ZTHOT 3e068a33</name>
      <description><![CDATA[Source: ADS-B
Start (SAST): 2026-01-23 09:53:19
End (SAST): 2026-01-23 14:22:11
Points: 2786]]></description>
      <Style><LineStyle><color>ff0000ff</color><width>4</width></LineStyle></Style>
      <LineString>
        <tessellate>1</tessellate>
        <altitudeMode>absolute</altitudeMode>
        <coordinates>18.42962,-33.89745,60.96 18.43069,-33.89493,91.44 18.43145,-33.8925,121.92 18.43175,-33.89163,121.92 18.43198,-33.89081,152.4 18.43225,-33.88984,152.4 18.43248,-33.88907,152.4 18.43259,-33.88829,182.88 18.43266,-33.88737,182.88 18.4327,-33.88641,182.88 18.43254,-33.88537,182.88 18.43231,-33.88458,213.36 18.43198,-33.88367,213.36 18.43157,-33.88286,213.36 18.43108,-33.88216,213.36 18.43037,-33.88118,243.84 18.42985,-33.88055,243.84 18.42905,-33.87974,243.84 18.42794,-33.87881,274.32 18.42699,-33.87816,274.32 18.42592,-33.87758,274.32 18.42499,-33.87718,274.32 18.42407,-33.87694,274.32 18.42295,-33.8768,304.8 18.42177,-33.8768,304.8 18.42082,-33.87685,304.8 18.41964,-33.87698,335.28000000000003 18.41886,-33.87708,335.28000000000003 18.41795,-33.87723,335.28000000000003 18.41629,-33.87751,335.28000000000003 18.41555,-33.87762,335.28000000000003 18.41426,-33.87785,365.76 18.41309,-33.87811,365.76 18.41211,-33.8783,365.76 18.41108,-33.87853,365.76 18.40967,-33.87895,365.76 18.40804,-33.87987,396.24 18.40736,-33.88081,426.72 18.4072,-33.88138,426.72 18.40725,-33.88221,426.72 18.40759,-33.88291,457.20000000000005 18.40815,-33.88348,457.20000000000005 18.40922,-33.88408,457.20000000000005 18.41,-33.88435,457.20000000000005 18.41108,-33.88467,487.68 18.41213,-33.8849,487.68 18.4132,-33.88514,487.68 18.41415,-33.88531,487.68 18.41533,-33.8855,518.1600000000001 18.41645,-33.88564,518.1600000000001 18.41746,-33.88573,548.64 18.41835,-33.88568,548.64 18.41915,-33.88556,579.12 18.42007,-33.88523,579.12 18.42088,-33.88467,609.6 18.42133,-33.88407,609.6 18.42155,-33.8833,609.6 18.42155,-33.88244,640.08 18.42116,-33.88156,640.08 18.42041,-33.88072,640.08 18.41938,-33.88007,640.08 18.41841,-33.87973,640.08 18.41709,-33.87951,640.08 18.41578,-33.87946,609.6 18.41457,-33.87946,609.6 18.41337,-33.87955,609.6 18.41194,-33.87974,609.6 18.41085,-33.87988,609.6 18.40961,-33.8801,609.6 18.40799,-33.88039,609.6 18.40692,-33.88065,609.6 18.40563,-33.88092,609.6 18.40405,-33.88137,609.6 18.40277,-33.8817,609.6 18.4016,-33.88202,609.6 18.40008,-33.88248,609.6 18.39884,-33.88286,609.6 18.39773,-33.88321,609.6 18.3961,-33.8838,609.6 18.39483,-33.8843,609.6 18.39347,-33.8849,609.6 18.39235,-33.88545,609.6 18.39134,-33.886,609.6 18.39037,-33.88654,609.6 18.38926,-33.88715,609.6 18.38803,-33.88792,609.6 18.38708,-33.88852,609.6 18.38608,-33.88919,609.6 18.38489,-33.89003,609.6 18.38377,-33.8909,609.6 18.38293,-33.89159,609.6 18.38186,-33.89246,609.6 18.38102,-33.89319,609.6 18.38018,-33.89399,609.6 18.37923,-33.89488,609.6 18.37828,-33.8958,609.6 18.37738,-33.89667,609.6 18.37641,-33.89771,609.6 18.37543,-33.89874,609.6 18.37463,-33.89955,640.08 18.37379,-33.90047,640.08 18.37315,-33.90125,640.08 18.37223,-33.90227,640.08 18.37155,-33.90308,640.08 18.3708,-33.90395,640.08 18.37,-33.90497,640.08 18.36937,-33.90578,640.08 18.36857,-33.90683,640.08 18.36782,-33.90791,640.08 18.36702,-33.90907,640.08 18.36645,-33.90994,640.08 18.36578,-33.91104,640.08 18.3651,-33.91214,640.08 18.36456,-33.91302,640.08 18.36393,-33.91411,640.08 18.36331,-33.91525,640.08 18.36275,-33.91621,640.08 18.3621,-33.9174,640.08 18.36152,-33.91846,640.08 18.36101,-33.91937,640.08 18.36039,-33.92052,640.08 18.35989,-33.92148,640.08 18.3593,-33.92262,640.08 18.35748,-33.9261,640.08 18.3558,-33.92921,640.08 18.35403,-33.93244,640.08 18.35335,-33.93383,640.08 18.35205,-33.93681,609.6 18.35003,-33.94203,609.6 18.34991,-33.94327,640.08 18.35003,-33.94418,640.08 18.35042,-33.94487,670.5600000000001 18.35106,-33.94543,670.5600000000001 18.3521,-33.94583,701.0400000000001 18.353,-33.94594,701.0400000000001 18.35392,-33.94575,701.0400000000001 18.35506,-33.94519,701.0400000000001 18.35575,-33.9445,701.0400000000001 18.35638,-33.9437,701.0400000000001 18.35681,-33.9429,701.0400000000001 18.35731,-33.94176,701.0400000000001 18.35782,-33.94057,731.52 18.35815,-33.93956,731.52 18.35855,-33.93858,731.52 18.35884,-33.93779,731.52 18.35928,-33.93649,731.52 18.3597,-33.93546,731.52 18.36,-33.93452,731.52 18.3604,-33.93352,731.52 18.36067,-33.93248,731.52 18.36085,-33.93123,731.52 18.36084,-33.93002,731.52 18.36062,-33.92903,762 18.36004,-33.92797,762 18.35924,-33.92709,792.48 18.35821,-33.92643,792.48 18.35718,-33.92616,792.48 18.35591,-33.9261,792.48 18.35449,-33.92648,792.48 18.35417,-33.92661,792.48 18.35272,-33.92783,792.48 18.35146,-33.93062,792.48 18.35123,-33.9316,792.48 18.351,-33.93253,792.48 18.35081,-33.93352,792.48 18.35059,-33.93494,792.48 18.35037,-33.93616,792.48 18.35019,-33.93741,762 18.34997,-33.93863,762 18.34974,-33.93984,762 18.34952,-33.94112,762 18.34929,-33.9424,762 18.34894,-33.94426,762 18.34877,-33.94501,762 18.3482,-33.94733,762 18.34688,-33.95166,762 18.34644,-33.95329,762 18.34616,-33.95453,762 18.34465,-33.96065,762 18.3433,-33.9662,762 18.34179,-33.97165,762 18.34059,-33.97713,731.52 18.33961,-33.98281,701.0400000000001 18.33926,-33.98543,701.0400000000001 18.33904,-33.98835,731.52 18.33887,-33.99106,731.52 18.33881,-33.99384,731.52 18.33881,-33.99631,731.52 18.33893,-33.99902,731.52 18.33949,-34.00131,762 18.33988,-34.00218,762 18.34042,-34.00334,762 18.34099,-34.00436,762 18.3415,-34.00525,731.52 18.34201,-34.00598,731.52 18.3427,-34.00702,762 18.34345,-34.00809,731.52 18.34408,-34.00906,731.52 18.34459,-34.00995,731.52 18.34511,-34.01069,731.52 18.34566,-34.0118,731.52 18.3461,-34.01276,731.52 18.34655,-34.01372,731.52 18.34694,-34.01482,731.52 18.34723,-34.01595,731.52 18.34745,-34.01688,731.52 18.34767,-34.01816,731.52 18.3479,-34.01912,731.52 18.34808,-34.02014,731.52 18.34826,-34.02112,731.52 18.34848,-34.02229,731.52 18.34874,-34.02347,731.52 18.34896,-34.02448,731.52 18.34913,-34.02548,731.52 18.3493,-34.02631,731.52 18.34958,-34.02759,731.52 18.3498,-34.02873,731.52 18.35049,-34.03155,731.52 18.35135,-34.0349,731.52 18.35157,-34.03597,731.52 18.35188,-34.03716,701.0400000000001 18.35203,-34.0382,701.0400000000001 18.35227,-34.03922,701.0400000000001 18.35244,-34.04018,701.0400000000001 18.35266,-34.04132,701.0400000000001 18.35289,-34.04251,701.0400000000001 18.35306,-34.04356,701.0400000000001 18.35329,-34.04463,701.0400000000001 18.3535,-34.04567,701.0400000000001 18.35367,-34.04668,701.0400000000001 18.35392,-34.04765,701.0400000000001 18.35443,-34.04998,701.0400000000001 18.35472,-34.05124,701.0400000000001 18.35552,-34.05441,701.0400000000001 18.35638,-34.05743,670.5600000000001 18.35675,-34.05849,670.5600000000001 18.35718,-34.05967,670.5600000000001 18.35759,-34.06059,670.5600000000001 18.35793,-34.06146,670.5600000000001 18.35844,-34.06241,670.5600000000001 18.35888,-34.06334,670.5600000000001 18.35939,-34.0643,670.5600000000001 18.35999,-34.06525,670.5600000000001 18.36061,-34.06637,670.5600000000001 18.36119,-34.06725,670.5600000000001 18.36176,-34.06814,670.5600000000001 18.36239,-34.06916,670.5600000000001 18.36281,-34.06993,670.5600000000001 18.3633,-34.07079,670.5600000000001 18.36393,-34.07195,701.0400000000001 18.36445,-34.07284,701.0400000000001 18.36491,-34.07359,701.0400000000001 18.36555,-34.07451,701.0400000000001 18.36628,-34.07549,701.0400000000001 18.36691,-34.07633,701.0400000000001 18.36774,-34.0773,701.0400000000001 18.36841,-34.07808,701.0400000000001 18.36903,-34.0788,701.0400000000001 18.36959,-34.07954,701.0400000000001 18.37034,-34.08043,701.0400000000001 18.37105,-34.08128,701.0400000000001 18.37166,-34.08206,701.0400000000001 18.37239,-34.08302,701.0400000000001 18.37303,-34.08383,701.0400000000001 18.37378,-34.08476,701.0400000000001 18.37452,-34.08569,701.0400000000001 18.37526,-34.08667,701.0400000000001 18.37598,-34.08751,701.0400000000001 18.37664,-34.08829,701.0400000000001 18.37727,-34.08908,701.0400000000001 18.37805,-34.09003,670.5600000000001 18.37873,-34.09081,670.5600000000001 18.37961,-34.09193,670.5600000000001 18.38024,-34.09272,670.5600000000001 18.38091,-34.0936,670.5600000000001 18.3817,-34.09456,670.5600000000001 18.38248,-34.09557,670.5600000000001 18.38385,-34.09723,670.5600000000001 18.38476,-34.0983,670.5600000000001 18.38545,-34.09909,640.08 18.38642,-34.10017,640.08 18.38708,-34.10097,640.08 18.38803,-34.10202,640.08 18.38887,-34.10312,640.08 18.38957,-34.10403,640.08 18.39037,-34.10505,640.08 18.39088,-34.10594,640.08 18.39151,-34.10683,609.6 18.39223,-34.10797,609.6 18.39283,-34.10896,609.6 18.3934,-34.10985,609.6 18.39415,-34.11097,609.6 18.39492,-34.112,609.6 18.3956,-34.11287,609.6 18.39633,-34.11374,609.6 18.39718,-34.11478,609.6 18.39792,-34.11562,609.6 18.39862,-34.11635,609.6 18.39941,-34.11707,609.6 18.4005,-34.1179,579.12 18.40164,-34.1186,579.12 18.40272,-34.11919,579.12 18.40372,-34.11974,579.12 18.40507,-34.12038,579.12 18.40611,-34.12088,579.12 18.40696,-34.1213,579.12 18.40845,-34.122,579.12 18.40972,-34.12257,548.64 18.41084,-34.12308,548.64 18.41196,-34.12358,548.64 18.41309,-34.12413,548.64 18.41415,-34.12463,548.64 18.41549,-34.12526,548.64 18.41628,-34.1256,548.64 18.41772,-34.12628,548.64 18.41886,-34.12674,518.1600000000001 18.41998,-34.12724,518.1600000000001 18.4211,-34.12772,518.1600000000001 18.42247,-34.12828,518.1600000000001 18.4234,-34.12866,518.1600000000001 18.42475,-34.12921,518.1600000000001 18.42603,-34.12971,518.1600000000001 18.42751,-34.13028,487.68 18.4313,-34.13177,487.68 18.43242,-34.13219,487.68 18.4336,-34.1326,487.68 18.43477,-34.13294,487.68 18.43592,-34.13327,487.68 18.43719,-34.13361,487.68 18.43832,-34.13391,487.68 18.43946,-34.13415,487.68 18.44067,-34.13433,457.20000000000005 18.44244,-34.13452,457.20000000000005 18.44358,-34.13452,457.20000000000005 18.44498,-34.13443,457.20000000000005 18.44621,-34.13425,487.68 18.44761,-34.13383,457.20000000000005 18.4489,-34.13338,457.20000000000005 18.45005,-34.1328,457.20000000000005 18.45119,-34.13219,457.20000000000005 18.45243,-34.13141,457.20000000000005 18.45339,-34.13072,457.20000000000005 18.45434,-34.12996,457.20000000000005 18.45554,-34.12889,457.20000000000005 18.45663,-34.12796,457.20000000000005 18.45732,-34.1274,487.68 18.45846,-34.12633,487.68 18.45927,-34.12555,487.68 18.46028,-34.12454,487.68 18.46087,-34.12395,518.1600000000001 18.46178,-34.12293,518.1600000000001 18.46275,-34.12191,518.1600000000001 18.46348,-34.12111,518.1600000000001 18.46443,-34.12015,518.1600000000001 18.46505,-34.11946,518.1600000000001 18.46613,-34.11855,518.1600000000001 18.46712,-34.11786,518.1600000000001 18.46842,-34.11711,518.1600000000001 18.46947,-34.11653,518.1600000000001 18.47065,-34.11604,518.1600000000001 18.47202,-34.11539,518.1600000000001 18.47312,-34.11484,518.1600000000001 18.47437,-34.11399,518.1600000000001 18.47528,-34.1132,518.1600000000001 18.47626,-34.11217,518.1600000000001 18.47693,-34.11122,518.1600000000001 18.47755,-34.11026,518.1600000000001 18.47816,-34.10884,518.1600000000001 18.47849,-34.10771,518.1600000000001 18.47872,-34.1065,518.1600000000001 18.47883,-34.10505,518.1600000000001 18.47889,-34.10375,518.1600000000001 18.47883,-34.10231,518.1600000000001 18.47884,-34.1011,518.1600000000001 18.47878,-34.09941,518.1600000000001 18.47878,-34.09813,518.1600000000001 18.47878,-34.09698,487.68 18.47872,-34.09565,487.68 18.47872,-34.09439,487.68 18.47867,-34.09319,487.68 18.47866,-34.09169,487.68 18.47861,-34.09053,487.68 18.47861,-34.08907,487.68 18.47866,-34.08783,487.68 18.47866,-34.08634,487.68 18.47872,-34.08536,487.68 18.47878,-34.08383,487.68 18.47889,-34.08234,487.68 18.47895,-34.08124,487.68 18.479,-34.07996,487.68 18.47912,-34.07854,487.68 18.47918,-34.07712,518.1600000000001 18.47923,-34.07596,518.1600000000001 18.47934,-34.07213,518.1600000000001 18.47958,-34.06716,518.1600000000001 18.47985,-34.06471,518.1600000000001 18.47996,-34.06357,518.1600000000001 18.48015,-34.06209,518.1600000000001 18.48035,-34.06087,518.1600000000001 18.48052,-34.05972,518.1600000000001 18.48072,-34.0585,518.1600000000001 18.48085,-34.05725,518.1600000000001 18.48102,-34.05597,518.1600000000001 18.48118,-34.05487,518.1600000000001 18.48136,-34.05331,518.1600000000001 18.48146,-34.05227,518.1600000000001 18.48158,-34.05075,518.1600000000001 18.4817,-34.04965,518.1600000000001 18.48181,-34.04851,518.1600000000001 18.48192,-34.04742,518.1600000000001 18.48227,-34.04361,518.1600000000001 18.48267,-34.03839,518.1600000000001 18.48289,-34.03444,518.1600000000001 18.48326,-34.02933,518.1600000000001 18.48358,-34.02443,518.1600000000001 18.48377,-34.01926,518.1600000000001 18.48398,-34.0154,518.1600000000001 18.48422,-34.01134,518.1600000000001 18.48455,-34.00645,518.1600000000001 18.4849,-34.00264,487.68 18.4853,-33.99775,487.68 18.48562,-33.99403,487.68 18.48616,-33.98872,487.68 18.48656,-33.98323,426.72 18.48657,-33.98199,426.72 18.48663,-33.98076,426.72 18.48663,-33.97929,426.72 18.48661,-33.97787,426.72 18.48663,-33.97659,426.72 18.48661,-33.97531,426.72 18.48663,-33.97417,426.72 18.48656,-33.97266,426.72 18.48652,-33.97137,426.72 18.4865,-33.9701,426.72 18.48644,-33.96865,426.72 18.48635,-33.96744,396.24 18.48623,-33.96602,396.24 18.48618,-33.96483,396.24 18.48604,-33.9633,396.24 18.48593,-33.96204,396.24 18.48584,-33.96075,396.24 18.48581,-33.95948,396.24 18.48573,-33.95833,365.76 18.48541,-33.95301,365.76 18.48506,-33.94913,365.76 18.48483,-33.94757,365.76 18.48461,-33.9464,365.76 18.48438,-33.94482,365.76 18.48422,-33.94391,365.76 18.48387,-33.94231,365.76 18.48364,-33.94133,365.76 18.48315,-33.9397,335.28000000000003 18.48278,-33.93844,335.28000000000003 18.48237,-33.93732,335.28000000000003 18.48186,-33.93599,335.28000000000003 18.48136,-33.93484,335.28000000000003 18.48085,-33.93356,335.28000000000003 18.48015,-33.93202,335.28000000000003 18.47956,-33.93082,335.28000000000003 18.47895,-33.92967,304.8 18.47816,-33.92821,304.8 18.4774,-33.92694,304.8 18.47665,-33.92574,304.8 18.47586,-33.92459,304.8 18.47523,-33.92369,304.8 18.4742,-33.92234,304.8 18.47334,-33.92122,304.8 18.4725,-33.9202,304.8 18.47168,-33.91927,304.8 18.47065,-33.91815,304.8 18.46991,-33.9174,304.8 18.46865,-33.91629,304.8 18.4675,-33.91531,304.8 18.46636,-33.91433,274.32 18.46521,-33.91344,274.32 18.46393,-33.91241,274.32 18.46247,-33.91126,274.32 18.46144,-33.91047,274.32 18.46039,-33.90967,274.32 18.45915,-33.90865,274.32 18.45815,-33.90788,274.32 18.45692,-33.90688,274.32 18.45589,-33.90604,274.32 18.45496,-33.90518,274.32 18.454,-33.90417,304.8 18.45325,-33.9032,304.8 18.45263,-33.90208,304.8 18.45217,-33.90083,304.8 18.45194,-33.90004,304.8 18.45165,-33.89873,335.28000000000003 18.45137,-33.89771,335.28000000000003 18.45109,-33.89671,335.28000000000003 18.45068,-33.89571,335.28000000000003 18.45003,-33.89474,335.28000000000003 18.44936,-33.89417,335.28000000000003 18.4484,-33.89369,335.28000000000003 18.44753,-33.89347,335.28000000000003 18.44689,-33.89342,335.28000000000003 18.44582,-33.8936,335.28000000000003 18.44526,-33.89378,304.8 18.44421,-33.89417,304.8 18.44353,-33.89441,274.32 18.44285,-33.89461,274.32 18.44198,-33.89487,243.84 18.44094,-33.89516,243.84 18.43998,-33.89543,213.36 18.43921,-33.89566,213.36 18.43826,-33.89594,182.88 18.4374,-33.89627,182.88 18.43663,-33.89653,152.4 18.43551,-33.89694,121.92 18.4345,-33.89731,121.92 18.43377,-33.89758,121.92 18.433,-33.89785,91.44 18.43208,-33.89827,91.44 18.43142,-33.89859,60.96 18.43001,-33.89937,60.96 18.42895,-33.90005,30.48 18.42865,-33.90022,30.48 18.42816,-33.90051,30.48 18.42791,-33.9006,30.48 18.4276,-33.90073,0 18.42749,-33.90051,30.48 18.4276,-33.90015,30.48 18.42766,-33.89992,30.48 18.42779,-33.89957,30.48 18.42791,-33.89934,30.48 18.42805,-33.89909,30.48 18.42816,-33.89882,30.48 18.42831,-33.8985,30.48 18.42848,-33.89817,30.48 18.42861,-33.89781,30.48 18.42872,-33.89749,30.48 18.42888,-33.89715,30.48 18.42916,-33.89631,60.96 18.42939,-33.89571,91.44 18.42979,-33.89484,91.44 18.43014,-33.89399,91.44 18.43046,-33.89323,121.92 18.43074,-33.89255,121.92 18.43105,-33.8918,121.92 18.4314,-33.89096,152.4 18.43168,-33.89022,152.4 18.43191,-33.88952,152.4 18.4322,-33.88861,152.4 18.43248,-33.8877,182.88 18.43276,-33.88669,182.88 18.43277,-33.88589,182.88 18.43266,-33.885,213.36 18.43237,-33.88426,213.36 18.43185,-33.88337,213.36 18.43117,-33.88253,213.36 18.43054,-33.88188,213.36 18.42962,-33.88105,213.36 18.42878,-33.88042,213.36 18.428,-33.87987,213.36 18.4271,-33.87941,243.84 18.42592,-33.87886,243.84 18.42482,-33.87844,243.84 18.42351,-33.87808,243.84 18.42228,-33.87776,243.84 18.42121,-33.87758,274.32 18.41978,-33.87741,274.32 18.41881,-33.87737,274.32 18.41743,-33.87737,304.8 18.4164,-33.87741,304.8 18.41526,-33.87751,304.8 18.41426,-33.87762,304.8 18.41309,-33.87778,335.28000000000003 18.41154,-33.87807,335.28000000000003 18.41039,-33.87831,335.28000000000003 18.40877,-33.87868,365.76 18.40731,-33.87909,365.76 18.4063,-33.87941,365.76 18.40508,-33.87979,365.76 18.40416,-33.88011,396.24 18.40316,-33.88051,396.24 18.4021,-33.88095,396.24 18.40092,-33.88142,426.72 18.39975,-33.88197,426.72 18.39867,-33.88249,426.72 18.39775,-33.88295,426.72 18.39684,-33.88342,426.72 18.39571,-33.88403,426.72 18.3946,-33.88463,426.72 18.39369,-33.88523,426.72 18.39272,-33.88579,426.72 18.3918,-33.88635,457.20000000000005 18.39088,-33.88696,457.20000000000005 18.38997,-33.88756,457.20000000000005 18.38904,-33.8882,457.20000000000005 18.38792,-33.88893,457.20000000000005 18.38705,-33.88952,457.20000000000005 18.38607,-33.89021,457.20000000000005 18.385,-33.89099,457.20000000000005 18.38402,-33.8917,457.20000000000005 18.38299,-33.8925,457.20000000000005 18.38236,-33.89301,487.68 18.3813,-33.89388,487.68 18.38036,-33.89464,487.68 18.37933,-33.89552,487.68 18.37847,-33.89622,487.68 18.37755,-33.89706,487.68 18.37665,-33.8979,487.68 18.37595,-33.89859,487.68 18.37521,-33.89934,518.1600000000001 18.37423,-33.90032,518.1600000000001 18.3734,-33.90115,518.1600000000001 18.37269,-33.9019,518.1600000000001 18.37194,-33.90271,518.1600000000001 18.37109,-33.90362,518.1600000000001 18.37023,-33.90451,518.1600000000001 18.36948,-33.90535,518.1600000000001 18.36885,-33.90609,518.1600000000001 18.36802,-33.90701,518.1600000000001 18.3672,-33.90795,548.64 18.36656,-33.9088,548.64 18.36606,-33.90944,548.64 18.36522,-33.91045,548.64 18.36466,-33.91127,548.64 18.36393,-33.91224,548.64 18.3632,-33.91333,548.64 18.3625,-33.91433,548.64 18.36197,-33.91512,579.12 18.36147,-33.91591,579.12 18.36079,-33.91703,579.12 18.36023,-33.91791,579.12 18.35958,-33.91894,579.12 18.35905,-33.91983,579.12 18.35855,-33.92071,579.12 18.35798,-33.92173,579.12 18.35737,-33.92281,579.12 18.35698,-33.92354,579.12 18.35642,-33.92464,579.12 18.35592,-33.92546,579.12 18.3553,-33.92656,579.12 18.35478,-33.92746,579.12 18.35323,-33.93025,609.6 18.35169,-33.93314,640.08 18.35126,-33.93402,640.08 18.35003,-33.93649,640.08 18.34896,-33.93887,670.5600000000001 18.34854,-33.93979,670.5600000000001 18.34801,-33.94093,670.5600000000001 18.3475,-33.94194,670.5600000000001 18.34661,-33.94386,670.5600000000001 18.34599,-33.94519,670.5600000000001 18.34509,-33.9473,670.5600000000001 18.34459,-33.94841,670.5600000000001 18.34431,-33.94915,670.5600000000001 18.34373,-33.9505,670.5600000000001 18.34229,-33.95416,670.5600000000001 18.34055,-33.95869,701.0400000000001 18.33881,-33.96368,701.0400000000001 18.33708,-33.96863,701.0400000000001 18.33555,-33.97378,701.0400000000001 18.33495,-33.97646,701.0400000000001 18.33441,-33.97885,701.0400000000001 18.33378,-33.98132,701.0400000000001 18.33332,-33.98388,701.0400000000001 18.33287,-33.98639,701.0400000000001 18.33259,-33.989,701.0400000000001 18.33243,-33.99133,701.0400000000001 18.33218,-33.99407,701.0400000000001 18.33198,-33.99655,701.0400000000001 18.33175,-33.99907,701.0400000000001 18.3317,-34.00021,701.0400000000001 18.33149,-34.00348,701.0400000000001 18.33132,-34.00687,701.0400000000001 18.33115,-34.00985,701.0400000000001 18.33115,-34.01307,670.5600000000001 18.33109,-34.01428,670.5600000000001 18.33102,-34.01523,670.5600000000001 18.33091,-34.01614,670.5600000000001 18.3308,-34.01715,670.5600000000001 18.33075,-34.01814,670.5600000000001 18.33063,-34.0193,670.5600000000001 18.33057,-34.02019,670.5600000000001 18.33052,-34.02126,670.5600000000001 18.33052,-34.02237,670.5600000000001 18.33057,-34.02349,670.5600000000001 18.33069,-34.02443,670.5600000000001 18.33091,-34.02516,701.0400000000001 18.33126,-34.02605,670.5600000000001 18.33178,-34.02699,670.5600000000001 18.33235,-34.02778,670.5600000000001 18.3331,-34.02869,670.5600000000001 18.33395,-34.02964,701.0400000000001 18.33478,-34.03052,701.0400000000001 18.33549,-34.03127,701.0400000000001 18.33635,-34.0322,701.0400000000001 18.33704,-34.03294,670.5600000000001 18.33767,-34.03369,701.0400000000001 18.33824,-34.03444,670.5600000000001 18.33887,-34.03527,670.5600000000001 18.33943,-34.03615,670.5600000000001 18.33999,-34.03711,670.5600000000001 18.34053,-34.03807,670.5600000000001 18.34099,-34.03909,670.5600000000001 18.34133,-34.03997,670.5600000000001 18.34167,-34.041,670.5600000000001 18.3419,-34.04188,670.5600000000001 18.34201,-34.04301,670.5600000000001 18.34185,-34.04393,670.5600000000001 18.34133,-34.04486,701.0400000000001 18.34064,-34.04561,701.0400000000001 18.33988,-34.04636,701.0400000000001 18.33916,-34.04714,701.0400000000001 18.33865,-34.04782,701.0400000000001 18.33809,-34.04855,701.0400000000001 18.33744,-34.04961,701.0400000000001 18.33702,-34.05052,701.0400000000001 18.3367,-34.05152,670.5600000000001 18.33641,-34.0524,670.5600000000001 18.33624,-34.05354,670.5600000000001 18.33618,-34.05473,670.5600000000001 18.33624,-34.05592,701.0400000000001 18.33652,-34.05692,701.0400000000001 18.33702,-34.05794,701.0400000000001 18.33764,-34.05867,701.0400000000001 18.33848,-34.05936,701.0400000000001 18.33943,-34.05972,701.0400000000001 18.34059,-34.05981,731.52 18.3419,-34.05957,731.52 18.34293,-34.05906,731.52 18.34386,-34.05826,701.0400000000001 18.34465,-34.05725,701.0400000000001 18.34521,-34.0562,701.0400000000001 18.34568,-34.05515,701.0400000000001 18.34614,-34.05371,701.0400000000001 18.34648,-34.05245,701.0400000000001 18.34671,-34.05128,701.0400000000001 18.34683,-34.05002,670.5600000000001 18.34688,-34.04849,670.5600000000001 18.34682,-34.04691,670.5600000000001 18.34678,-34.04562,670.5600000000001 18.34672,-34.04439,670.5600000000001 18.34654,-34.04309,670.5600000000001 18.34638,-34.04219,640.08 18.34605,-34.04036,640.08 18.34568,-34.039,640.08 18.34532,-34.0378,640.08 18.34494,-34.03662,640.08 18.34442,-34.03541,640.08 18.34386,-34.03404,640.08 18.34336,-34.03294,640.08 18.34265,-34.03155,609.6 18.34212,-34.03052,609.6 18.34151,-34.02942,609.6 18.34072,-34.02805,609.6 18.34016,-34.02704,609.6 18.33944,-34.02573,609.6 18.33876,-34.02452,609.6 18.33801,-34.02317,579.12 18.33733,-34.02191,579.12 18.33687,-34.02103,579.12 18.33618,-34.01962,579.12 18.33555,-34.01819,579.12 18.335,-34.01692,609.6 18.33461,-34.01582,609.6 18.33372,-34.01299,609.6 18.33344,-34.01193,609.6 18.33304,-34.0106,609.6 18.33281,-34.00972,609.6 18.33254,-34.00836,609.6 18.33237,-34.00726,609.6 18.33226,-34.00612,609.6 18.33218,-34.00473,609.6 18.33223,-34.00343,609.6 18.33223,-34.0025,609.6 18.33235,-34.00119,609.6 18.33252,-33.99985,609.6 18.33265,-33.9987,609.6 18.33366,-33.9943,609.6 18.33469,-33.991,609.6 18.33562,-33.98817,609.6 18.3367,-33.98528,609.6 18.33778,-33.98248,609.6 18.34005,-33.97655,579.12 18.34156,-33.97252,579.12 18.34397,-33.96671,579.12 18.34682,-33.96056,579.12 18.34837,-33.95711,579.12 18.35081,-33.9521,548.64 18.35322,-33.94734,548.64 18.35574,-33.94249,548.64 18.3577,-33.93886,548.64 18.35958,-33.93518,548.64 18.36129,-33.93164,548.64 18.36296,-33.92815,548.64 18.36422,-33.92564,518.1600000000001 18.36488,-33.92427,518.1600000000001 18.36617,-33.92194,518.1600000000001 18.36674,-33.9208,518.1600000000001 18.3676,-33.91931,518.1600000000001 18.3683,-33.91809,518.1600000000001 18.36892,-33.91704,518.1600000000001 18.36964,-33.91589,518.1600000000001 18.37051,-33.91452,518.1600000000001 18.3711,-33.91365,518.1600000000001 18.37194,-33.91237,518.1600000000001 18.37267,-33.91127,518.1600000000001 18.37334,-33.91035,518.1600000000001 18.37407,-33.90939,518.1600000000001 18.37503,-33.90811,518.1600000000001 18.37589,-33.90697,518.1600000000001 18.37669,-33.906,518.1600000000001 18.37766,-33.90482,518.1600000000001 18.3785,-33.90385,487.68 18.37929,-33.90289,487.68 18.38041,-33.90171,487.68 18.38121,-33.90088,487.68 18.38214,-33.89996,518.1600000000001 18.38321,-33.89891,487.68 18.38411,-33.89809,487.68 18.38505,-33.89724,487.68 18.38596,-33.89648,518.1600000000001 18.38717,-33.89548,518.1600000000001 18.3882,-33.8947,518.1600000000001 18.38926,-33.89388,518.1600000000001 18.39054,-33.89301,518.1600000000001 18.39156,-33.89236,518.1600000000001 18.39291,-33.89154,518.1600000000001 18.39397,-33.89096,518.1600000000001 18.39495,-33.89045,487.68 18.39638,-33.88971,487.68 18.3975,-33.88916,487.68 18.39867,-33.88868,487.68 18.4001,-33.88803,518.1600000000001 18.40132,-33.88756,518.1600000000001 18.40284,-33.887,487.68 18.40406,-33.88655,487.68 18.40565,-33.88607,487.68 18.40673,-33.8857,487.68 18.40834,-33.88528,487.68 18.40956,-33.88499,487.68 18.41101,-33.88463,487.68 18.41224,-33.88435,487.68 18.41376,-33.88408,487.68 18.41516,-33.8839,487.68 18.41652,-33.88374,487.68 18.41774,-33.88362,487.68 18.41925,-33.88348,487.68 18.42076,-33.88344,487.68 18.42217,-33.88339,457.20000000000005 18.42357,-33.88339,457.20000000000005 18.42487,-33.88342,457.20000000000005 18.42609,-33.88344,457.20000000000005 18.42743,-33.88353,426.72 18.42899,-33.88374,426.72 18.43001,-33.8839,426.72 18.43163,-33.88421,426.72 18.43277,-33.88454,426.72 18.43416,-33.8849,426.72 18.43539,-33.88536,426.72 18.43649,-33.88589,396.24 18.43746,-33.88644,396.24 18.43837,-33.8871,396.24 18.43915,-33.88783,365.76 18.43982,-33.88852,365.76 18.4405,-33.88939,365.76 18.44106,-33.89021,335.28000000000003 18.44141,-33.89096,335.28000000000003 18.4417,-33.89185,335.28000000000003 18.4419,-33.89273,304.8 18.44193,-33.89347,304.8 18.44181,-33.89422,304.8 18.44156,-33.89493,274.32 18.44111,-33.89571,274.32 18.44055,-33.89622,274.32 18.43981,-33.89673,243.84 18.43918,-33.89706,243.84 18.43815,-33.89738,243.84 18.43758,-33.89753,243.84 18.43646,-33.89767,243.84 18.43562,-33.89781,213.36 18.435,-33.89799,213.36 18.4342,-33.89822,182.88 18.4336,-33.89836,182.88 18.43299,-33.8985,152.4 18.43225,-33.89836,152.4 18.43203,-33.89794,152.4 18.43226,-33.89754,121.92 18.43283,-33.89724,91.44 18.4338,-33.89724,91.44 18.43449,-33.89748,91.44 18.43483,-33.8979,91.44 18.43478,-33.89841,60.96 18.43427,-33.89877,60.96 18.43349,-33.899,60.96 18.43311,-33.89906,60.96 18.43013,-33.89973,60.96 18.42865,-33.90027,30.48 18.42791,-33.9006,30.48 18.42762,-33.90074,30.48 18.42756,-33.90041,30.48 18.42768,-33.89981,30.48 18.42779,-33.89957,30.48 18.42791,-33.89925,30.48 18.42805,-33.89896,30.48 18.42831,-33.89836,30.48 18.42842,-33.89808,30.48 18.42871,-33.89753,60.96 18.429,-33.8968,60.96 18.42934,-33.89607,91.44 18.42968,-33.89529,91.44 18.43013,-33.89429,121.92 18.43041,-33.89351,121.92 18.43071,-33.89287,121.92 18.43102,-33.89214,121.92 18.4313,-33.89131,152.4 18.43153,-33.89058,152.4 18.43181,-33.88962,152.4 18.43192,-33.88884,152.4 18.43208,-33.88803,182.88 18.43214,-33.88715,182.88 18.43209,-33.88618,182.88 18.43192,-33.88545,213.36 18.43158,-33.88467,213.36 18.43111,-33.88379,213.36 18.4306,-33.88319,213.36 18.42991,-33.88249,213.36 18.42916,-33.88184,243.84 18.42791,-33.88091,243.84 18.42715,-33.88046,243.84 18.42598,-33.87982,243.84 18.42505,-33.87932,243.84 18.42396,-33.87881,243.84 18.42301,-33.8784,274.32 18.42205,-33.87804,274.32 18.42082,-33.87767,274.32 18.41984,-33.87746,274.32 18.41914,-33.8773,274.32 18.41757,-33.87708,304.8 18.41656,-33.87698,304.8 18.41537,-33.8769,304.8 18.41434,-33.8769,304.8 18.41326,-33.87695,335.28000000000003 18.41228,-33.87704,335.28000000000003 18.41135,-33.87712,335.28000000000003 18.41017,-33.87732,365.76 18.40919,-33.87755,365.76 18.40782,-33.87793,365.76 18.40686,-33.87822,365.76 18.40591,-33.87859,396.24 18.40496,-33.879,396.24 18.40399,-33.87941,396.24 18.40283,-33.87996,396.24 18.40199,-33.88042,396.24 18.40115,-33.88087,396.24 18.39981,-33.8816,426.72 18.3989,-33.88211,426.72 18.39821,-33.88253,426.72 18.39717,-33.88321,426.72 18.39626,-33.88374,457.20000000000005 18.39529,-33.8844,457.20000000000005 18.39432,-33.88505,457.20000000000005 18.39346,-33.8856,457.20000000000005 18.39266,-33.88621,457.20000000000005 18.39167,-33.88687,457.20000000000005 18.39083,-33.88752,457.20000000000005 18.39003,-33.88807,487.68 18.38915,-33.88875,487.68 18.38825,-33.88947,487.68 18.38741,-33.89017,487.68 18.38631,-33.8911,487.68 18.38556,-33.89166,518.1600000000001 18.38482,-33.89231,518.1600000000001 18.38388,-33.89314,518.1600000000001 18.38293,-33.89394,518.1600000000001 18.38207,-33.89468,518.1600000000001 18.38127,-33.89543,518.1600000000001 18.38029,-33.89626,518.1600000000001 18.37945,-33.89699,518.1600000000001 18.3787,-33.89766,518.1600000000001 18.37767,-33.89864,548.64 18.37709,-33.8992,548.64 18.37615,-33.9001,548.64 18.37543,-33.90078,548.64 18.37452,-33.90171,548.64 18.37372,-33.9025,548.64 18.3729,-33.90335,548.64 18.372,-33.90431,548.64 18.37114,-33.90525,548.64 18.3704,-33.90609,548.64 18.36976,-33.90683,548.64 18.36885,-33.90781,548.64 18.36808,-33.9088,579.12 18.36754,-33.90944,579.12 18.36667,-33.91049,579.12 18.36589,-33.91154,579.12 18.36539,-33.91228,579.12 18.36432,-33.91374,579.12 18.36376,-33.91456,579.12 18.36292,-33.91576,579.12 18.36233,-33.91666,579.12 18.3618,-33.91754,579.12 18.36124,-33.91841,579.12 18.36056,-33.9195,579.12 18.36,-33.92038,579.12 18.35947,-33.92126,579.12 18.35894,-33.92216,579.12 18.35838,-33.92308,609.6 18.35764,-33.92434,609.6 18.35715,-33.92519,579.12 18.35661,-33.92616,579.12 18.35604,-33.92722,579.12 18.35558,-33.92802,609.6 18.35501,-33.92908,609.6 18.35443,-33.93011,609.6 18.35398,-33.931,609.6 18.35333,-33.93219,609.6 18.35255,-33.93374,640.08 18.35199,-33.9348,640.08 18.35157,-33.9357,640.08 18.35123,-33.93639,640.08 18.34946,-33.9403,640.08 18.34866,-33.94203,640.08 18.34818,-33.94299,640.08 18.34762,-33.94423,640.08 18.34717,-33.94528,670.5600000000001 18.34672,-33.94624,670.5600000000001 18.34631,-33.94733,670.5600000000001 18.34588,-33.94835,670.5600000000001 18.34538,-33.94958,670.5600000000001 18.34488,-33.95073,670.5600000000001 18.3442,-33.95251,670.5600000000001 18.34356,-33.95422,670.5600000000001 18.34218,-33.95782,670.5600000000001 18.33933,-33.96456,701.0400000000001 18.33876,-33.96898,731.52 18.34117,-33.97023,731.52 18.3442,-33.96904,731.52 18.34605,-33.96634,701.0400000000001 18.34717,-33.96323,701.0400000000001 18.34757,-33.96204,670.5600000000001 18.34797,-33.96056,701.0400000000001 18.34848,-33.95874,701.0400000000001 18.34885,-33.95732,670.5600000000001 18.34929,-33.95581,670.5600000000001 18.34969,-33.95435,670.5600000000001 18.35003,-33.95325,670.5600000000001 18.35037,-33.95218,670.5600000000001 18.35081,-33.95078,670.5600000000001 18.35129,-33.94943,670.5600000000001 18.35163,-33.94836,670.5600000000001 18.35216,-33.94702,670.5600000000001 18.35255,-33.94597,670.5600000000001 18.353,-33.94478,670.5600000000001 18.35346,-33.9437,670.5600000000001 18.3539,-33.94267,670.5600000000001 18.35449,-33.94133,670.5600000000001 18.35501,-33.94034,670.5600000000001 18.35552,-33.93928,670.5600000000001 18.35604,-33.93821,670.5600000000001 18.35672,-33.93691,670.5600000000001 18.35709,-33.93617,670.5600000000001 18.35775,-33.93486,670.5600000000001 18.35838,-33.93375,670.5600000000001 18.35888,-33.93274,670.5600000000001 18.35939,-33.93173,670.5600000000001 18.35999,-33.93067,670.5600000000001 18.36067,-33.92937,670.5600000000001 18.3613,-33.9282,670.5600000000001 18.36303,-33.92487,670.5600000000001 18.36415,-33.92285,670.5600000000001 18.36485,-33.92164,670.5600000000001 18.36555,-33.92033,670.5600000000001 18.36617,-33.91927,640.08 18.36667,-33.91832,640.08 18.36724,-33.91736,640.08 18.36782,-33.91633,640.08 18.36864,-33.91502,640.08 18.36931,-33.91391,640.08 18.37009,-33.9126,640.08 18.37069,-33.91167,609.6 18.37133,-33.91068,609.6 18.37217,-33.90939,609.6 18.37278,-33.90839,609.6 18.37343,-33.90749,609.6 18.37418,-33.90641,609.6 18.37503,-33.90525,609.6 18.37572,-33.90432,579.12 18.37646,-33.90339,579.12 18.37738,-33.90221,579.12 18.37811,-33.90134,579.12 18.37887,-33.90046,579.12 18.38001,-33.89928,579.12 18.38087,-33.89836,579.12 18.38167,-33.89757,579.12 18.38287,-33.8965,579.12 18.38379,-33.89571,579.12 18.38478,-33.89493,579.12 18.38585,-33.89413,548.64 18.38688,-33.89333,548.64 18.38785,-33.89268,579.12 18.38915,-33.89182,548.64 18.39037,-33.89105,548.64 18.39162,-33.8903,548.64 18.39274,-33.88971,548.64 18.39392,-33.8891,548.64 18.39515,-33.88852,548.64 18.39655,-33.88788,548.64 18.3979,-33.88733,548.64 18.39907,-33.88683,548.64 18.4005,-33.88631,548.64 18.4021,-33.88575,548.64 18.40336,-33.88537,548.64 18.40467,-33.885,548.64 18.40588,-33.88467,518.1600000000001 18.40742,-33.8843,518.1600000000001 18.40877,-33.88403,518.1600000000001 18.41,-33.88376,518.1600000000001 18.41124,-33.88358,518.1600000000001 18.41292,-33.88335,518.1600000000001 18.41417,-33.88319,518.1600000000001 18.41555,-33.88307,518.1600000000001 18.41715,-33.88295,487.68 18.41863,-33.88289,487.68 18.42032,-33.88289,487.68 18.42155,-33.88291,487.68 18.4227,-33.88295,487.68 18.42442,-33.88309,457.20000000000005 18.42587,-33.88321,487.68 18.42716,-33.88333,457.20000000000005 18.42836,-33.88346,457.20000000000005 18.42929,-33.88358,457.20000000000005 18.4308,-33.8838,457.20000000000005 18.43203,-33.88403,426.72 18.43306,-33.88426,426.72 18.43431,-33.88458,426.72 18.43563,-33.88496,426.72 18.4368,-33.88536,396.24 18.43814,-33.88591,365.76 18.43915,-33.88632,365.76 18.44049,-33.887,335.28000000000003 18.44164,-33.88765,335.28000000000003 18.44273,-33.8884,304.8 18.44381,-33.88919,304.8 18.4445,-33.88984,304.8 18.44526,-33.89076,274.32 18.44582,-33.89159,274.32 18.44599,-33.89227,274.32 18.44599,-33.89343,243.84 18.44571,-33.89415,243.84 18.44504,-33.89497,243.84 18.44453,-33.89539,243.84 18.44341,-33.89603,213.36 18.44278,-33.89627,213.36 18.44167,-33.89667,213.36 18.44061,-33.89699,213.36 18.43977,-33.89722,182.88 18.43861,-33.89748,182.88 18.43786,-33.89767,152.4 18.43643,-33.89817,152.4 18.43557,-33.89846,121.92 18.43489,-33.89873,121.92 18.43422,-33.899,91.44 18.43288,-33.89948,91.44 18.43225,-33.89967,91.44 18.4318,-33.89976,60.96 18.43074,-33.89992,60.96 18.42888,-33.90032,30.48 18.42865,-33.90041,30.48 18.42813,-33.9006,30.48 18.42791,-33.90064,30.48 18.42762,-33.90074,30.48 18.42756,-33.90022,30.48 18.4276,-33.89996,30.48 18.42773,-33.89962,30.48 18.42785,-33.89929,30.48 18.42802,-33.89901,30.48 18.42811,-33.89873,30.48 18.42828,-33.89845,30.48 18.42839,-33.89809,30.48 18.42871,-33.89743,60.96 18.42899,-33.89682,60.96 18.42928,-33.89622,60.96 18.42962,-33.89534,60.96 18.4299,-33.8947,91.44 18.43018,-33.89401,91.44 18.43052,-33.89314,91.44 18.43074,-33.89246,91.44 18.43108,-33.89154,121.92 18.4314,-33.89068,121.92 18.4317,-33.88966,121.92 18.43185,-33.88896,152.4 18.43208,-33.88798,152.4 18.4322,-33.88724,152.4 18.43214,-33.88609,182.88 18.43203,-33.88531,182.88 18.43174,-33.88435,182.88 18.43145,-33.88361,182.88 18.43097,-33.88284,182.88 18.43031,-33.88202,213.36 18.42979,-33.88146,213.36 18.429,-33.88069,213.36 18.42831,-33.88011,213.36 18.42762,-33.87955,213.36 18.42693,-33.87904,243.84 18.4259,-33.87844,243.84 18.4251,-33.87802,243.84 18.42424,-33.8776,243.84 18.42316,-33.87713,274.32 18.42213,-33.87681,274.32 18.42116,-33.87657,274.32 18.4203,-33.87634,274.32 18.41909,-33.87616,274.32 18.41801,-33.87606,274.32 18.41715,-33.87602,274.32 18.41561,-33.87611,304.8 18.41452,-33.8762,304.8 18.41343,-33.87639,304.8 18.41251,-33.87653,304.8 18.41131,-33.87681,335.28000000000003 18.41051,-33.87704,335.28000000000003 18.40937,-33.87741,335.28000000000003 18.40834,-33.87783,335.28000000000003 18.40737,-33.87822,335.28000000000003 18.4067,-33.87849,335.28000000000003 18.40536,-33.87904,335.28000000000003 18.4045,-33.87941,335.28000000000003 18.40361,-33.87982,365.76 18.40272,-33.88023,365.76 18.40187,-33.88067,365.76 18.40087,-33.88124,365.76 18.40003,-33.8817,365.76 18.39867,-33.88244,365.76 18.39815,-33.88272,396.24 18.39689,-33.88346,396.24 18.39609,-33.88393,396.24 18.39535,-33.8844,396.24 18.39455,-33.88491,396.24 18.39369,-33.88547,396.24 18.39285,-33.886,426.72 18.39191,-33.88663,426.72 18.39111,-33.88715,426.72 18.39022,-33.88779,426.72 18.38949,-33.88838,426.72 18.38888,-33.88882,426.72 18.38797,-33.88956,457.20000000000005 18.38725,-33.89012,457.20000000000005 18.38625,-33.89091,457.20000000000005 18.38551,-33.89154,457.20000000000005 18.38453,-33.89236,457.20000000000005 18.38383,-33.89296,457.20000000000005 18.38293,-33.89378,487.68 18.38231,-33.89438,487.68 18.38147,-33.8952,487.68 18.38074,-33.89589,487.68 18.38001,-33.89659,487.68 18.37923,-33.89745,487.68 18.37858,-33.89808,518.1600000000001 18.37783,-33.89891,518.1600000000001 18.37715,-33.89962,518.1600000000001 18.37643,-33.90042,518.1600000000001 18.37587,-33.90115,518.1600000000001 18.37514,-33.90198,518.1600000000001 18.37452,-33.90271,548.64 18.37407,-33.90326,548.64 18.37332,-33.90423,548.64 18.37273,-33.90495,548.64 18.37222,-33.90573,548.64 18.37149,-33.90669,548.64 18.37093,-33.90752,579.12 18.3704,-33.90828,579.12 18.3697,-33.90921,579.12 18.36931,-33.90985,579.12 18.36863,-33.91084,579.12 18.36796,-33.91182,579.12 18.36735,-33.91278,579.12 18.36679,-33.91368,579.12 18.36617,-33.9147,579.12 18.36554,-33.91563,579.12 18.36505,-33.91649,579.12 18.36449,-33.9174,579.12 18.36303,-33.91978,609.6 18.36233,-33.92099,609.6 18.3618,-33.92189,609.6 18.35953,-33.9255,609.6 18.3573,-33.92932,609.6 18.35664,-33.93059,609.6 18.3563,-33.93123,609.6 18.35524,-33.93332,609.6 18.35479,-33.93425,609.6 18.35434,-33.93517,609.6 18.35392,-33.93588,609.6 18.35323,-33.93723,609.6 18.35277,-33.93819,609.6 18.3522,-33.93933,609.6 18.35165,-33.94043,609.6 18.35106,-33.94156,609.6 18.35066,-33.94245,609.6 18.35014,-33.94357,609.6 18.34969,-33.94445,609.6 18.34923,-33.94543,609.6 18.34874,-33.94656,609.6 18.34831,-33.94752,609.6 18.34778,-33.94862,609.6 18.34745,-33.94936,609.6 18.34689,-33.9505,579.12 18.34588,-33.95265,579.12 18.34162,-33.96223,609.6 18.34007,-33.96633,640.08 18.34201,-33.96831,640.08 18.34459,-33.96768,640.08 18.34644,-33.96529,609.6 18.34756,-33.96254,579.12 18.34851,-33.95952,579.12 18.34907,-33.95773,579.12 18.34958,-33.95622,548.64 18.34986,-33.9554,548.64 18.35042,-33.95389,579.12 18.35072,-33.95311,579.12 18.3514,-33.95148,548.64 18.35182,-33.95041,579.12 18.35249,-33.94881,548.64 18.35305,-33.94757,548.64 18.3535,-33.94647,548.64 18.3539,-33.94551,548.64 18.3544,-33.94432,548.64 18.35501,-33.94296,548.64 18.35563,-33.94167,548.64 18.35604,-33.94072,548.64 18.35664,-33.93947,548.64 18.3589,-33.93486,548.64 18.35939,-33.93384,548.64 18.36107,-33.9302,579.12 18.36314,-33.92569,579.12 18.36519,-33.9215,579.12 18.36695,-33.91814,579.12 18.36948,-33.91379,579.12 18.37006,-33.91284,579.12 18.3708,-33.91167,579.12 18.37144,-33.91063,579.12 18.37217,-33.90944,579.12 18.37278,-33.90852,609.6 18.3736,-33.90734,609.6 18.37452,-33.90614,609.6 18.37519,-33.90527,609.6 18.37615,-33.90408,609.6 18.37682,-33.90321,609.6 18.37761,-33.90223,609.6 18.37841,-33.90134,579.12 18.37951,-33.90001,579.12 18.38024,-33.89919,579.12 18.3813,-33.89799,579.12 18.38213,-33.8972,579.12 18.3831,-33.89622,579.12 18.38402,-33.89543,579.12 18.38499,-33.89455,579.12 18.38612,-33.8936,579.12 18.3873,-33.89268,579.12 18.38837,-33.89189,579.12 18.38943,-33.89117,579.12 18.39067,-33.8904,579.12 18.39174,-33.8897,579.12 18.39277,-33.8891,579.12 18.39392,-33.88845,548.64 18.39543,-33.88765,548.64 18.39661,-33.8871,548.64 18.39806,-33.88646,548.64 18.39924,-33.88598,548.64 18.40075,-33.88541,548.64 18.4021,-33.88496,548.64 18.40342,-33.88454,548.64 18.40468,-33.88417,548.64 18.40645,-33.8837,548.64 18.40765,-33.88342,548.64 18.40911,-33.88312,548.64 18.41034,-33.88293,548.64 18.41163,-33.88271,548.64 18.41349,-33.88253,518.1600000000001 18.41471,-33.88243,518.1600000000001 18.41635,-33.8823,518.1600000000001 18.41749,-33.8823,518.1600000000001 18.41904,-33.8823,487.68 18.42058,-33.88239,457.20000000000005 18.42178,-33.88249,457.20000000000005 18.42339,-33.88263,457.20000000000005 18.42447,-33.8828,426.72 18.42609,-33.88307,426.72 18.42733,-33.88328,426.72 18.42854,-33.88356,396.24 18.43001,-33.88394,396.24 18.43125,-33.88435,396.24 18.43242,-33.88477,396.24 18.43394,-33.88541,365.76 18.43495,-33.88596,365.76 18.43612,-33.8866,365.76 18.43702,-33.88719,335.28000000000003 18.43786,-33.88784,335.28000000000003 18.43876,-33.88857,335.28000000000003 18.43958,-33.88933,304.8 18.44055,-33.89035,304.8 18.44124,-33.89119,304.8 18.44195,-33.89223,304.8 18.44234,-33.89296,274.32 18.44255,-33.8938,274.32 18.44261,-33.89455,274.32 18.44233,-33.89529,274.32 18.44195,-33.89584,274.32 18.4413,-33.89636,243.84 18.44072,-33.89664,243.84 18.43987,-33.89697,213.36 18.43901,-33.89724,213.36 18.43815,-33.89753,182.88 18.4374,-33.89776,182.88 18.43652,-33.89799,152.4 18.43539,-33.89836,152.4 18.43478,-33.89854,121.92 18.43388,-33.89882,121.92 18.43082,-33.89981,60.96 18.42842,-33.90046,30.48 18.42788,-33.9006,30.48 18.42766,-33.9007,0 18.4271,-33.90064,30.48 18.42699,-33.90038,30.48 18.42705,-33.8999,30.48 18.42745,-33.89939,60.96 18.42794,-33.89873,60.96 18.42842,-33.89804,60.96 18.42882,-33.89738,60.96 18.4294,-33.89653,60.96 18.4299,-33.8958,91.44 18.43029,-33.89511,91.44 18.43094,-33.89422,91.44 18.4314,-33.89347,121.92 18.43203,-33.89255,121.92 18.43242,-33.89195,121.92 18.433,-33.89101,152.4 18.43343,-33.89026,152.4 18.43399,-33.88934,182.88 18.4345,-33.88838,182.88 18.43489,-33.8876,182.88 18.43523,-33.88683,213.36 18.43556,-33.88586,213.36 18.43575,-33.88477,243.84 18.43575,-33.88379,243.84 18.43562,-33.88321,243.84 18.43534,-33.88239,243.84 18.43472,-33.88146,274.32 18.43388,-33.8806,274.32 18.43321,-33.8801,274.32 18.43242,-33.87968,274.32 18.4314,-33.87928,304.8 18.43054,-33.87904,304.8 18.42951,-33.87886,335.28000000000003 18.42867,-33.87872,335.28000000000003 18.42783,-33.87863,365.76 18.42682,-33.87853,365.76 18.42596,-33.87848,365.76 18.42482,-33.87844,365.76 18.42384,-33.87844,396.24 18.42301,-33.87845,396.24 18.42201,-33.87844,396.24 18.42082,-33.87854,396.24 18.41992,-33.87863,396.24 18.41904,-33.87872,426.72 18.41785,-33.87891,426.72 18.41675,-33.87909,426.72 18.41589,-33.87927,457.20000000000005 18.41503,-33.87946,457.20000000000005 18.41389,-33.8797,457.20000000000005 18.41309,-33.87988,457.20000000000005 18.41196,-33.88019,487.68 18.41118,-33.88042,487.68 18.41011,-33.88072,487.68 18.40925,-33.881,487.68 18.40839,-33.88128,518.1600000000001 18.4072,-33.88165,518.1600000000001 18.40619,-33.88202,518.1600000000001 18.40513,-33.88235,548.64 18.40429,-33.88271,548.64 18.40347,-33.88305,548.64 18.40233,-33.88351,579.12 18.40147,-33.88393,579.12 18.40059,-33.88431,579.12 18.3998,-33.88467,579.12 18.39878,-33.88523,609.6 18.39804,-33.8856,609.6 18.39695,-33.88621,609.6 18.39626,-33.88659,609.6 18.39523,-33.88719,609.6 18.39409,-33.88779,609.6 18.39324,-33.88824,609.6 18.3924,-33.88875,609.6 18.39123,-33.88939,609.6 18.39027,-33.88998,609.6 18.3894,-33.8905,609.6 18.38786,-33.89145,609.6 18.38676,-33.89212,609.6 18.38585,-33.89268,609.6 18.38484,-33.89333,609.6 18.38396,-33.89394,609.6 18.38276,-33.89479,609.6 18.38179,-33.89543,609.6 18.38087,-33.89603,609.6 18.3799,-33.89669,609.6 18.37867,-33.89749,609.6 18.37767,-33.89817,609.6 18.37671,-33.89886,609.6 18.37576,-33.89951,609.6 18.37463,-33.90033,609.6 18.37372,-33.90102,609.6 18.37284,-33.9017,609.6 18.37194,-33.90239,640.08 18.37091,-33.9033,640.08 18.37015,-33.90399,640.08 18.36925,-33.90482,640.08 18.36851,-33.90558,640.08 18.36763,-33.90656,640.08 18.36695,-33.90729,640.08 18.36623,-33.90816,640.08 18.36554,-33.90888,640.08 18.36468,-33.90991,640.08 18.36387,-33.9109,640.08 18.36308,-33.91191,640.08 18.3625,-33.91275,640.08 18.36185,-33.91365,640.08 18.36129,-33.91447,640.08 18.36068,-33.91539,670.5600000000001 18.35999,-33.91652,670.5600000000001 18.35941,-33.91735,670.5600000000001 18.35884,-33.91824,670.5600000000001 18.35838,-33.91894,670.5600000000001 18.35775,-33.91996,670.5600000000001 18.35701,-33.92113,640.08 18.35647,-33.92212,640.08 18.35586,-33.92322,640.08 18.35541,-33.92406,670.5600000000001 18.35484,-33.92513,670.5600000000001 18.35426,-33.92629,640.08 18.3539,-33.92706,640.08 18.3534,-33.92806,640.08 18.35295,-33.92904,640.08 18.35238,-33.93027,640.08 18.35188,-33.93141,640.08 18.3514,-33.93244,640.08 18.351,-33.93341,640.08 18.35042,-33.93466,640.08 18.34911,-33.93789,640.08 18.34795,-33.94089,640.08 18.34711,-33.94313,609.6 18.34672,-33.94414,609.6 18.34568,-33.94733,609.6 18.34465,-33.9512,640.08 18.34402,-33.95376,670.5600000000001 18.34345,-33.95585,670.5600000000001 18.34285,-33.95828,701.0400000000001 18.34242,-33.96028,731.52 18.34257,-33.96249,762 18.34425,-33.96386,792.48 18.34711,-33.96391,762 18.3498,-33.96231,731.52 18.35126,-33.95943,731.52 18.35175,-33.95767,731.52 18.35209,-33.95655,731.52 18.35244,-33.95517,731.52 18.35278,-33.9539,731.52 18.35305,-33.9527,701.0400000000001 18.3534,-33.95143,701.0400000000001 18.35375,-33.95031,701.0400000000001 18.35412,-33.94913,701.0400000000001 18.35462,-33.94762,701.0400000000001 18.35501,-33.94656,701.0400000000001 18.35535,-33.94533,701.0400000000001 18.35581,-33.94398,701.0400000000001 18.35608,-33.94308,701.0400000000001 18.35658,-33.94171,670.5600000000001 18.35712,-33.94026,670.5600000000001 18.35764,-33.93914,670.5600000000001 18.35821,-33.93774,640.08 18.35877,-33.93654,640.08 18.35936,-33.93528,609.6 18.36004,-33.93383,640.08 18.36079,-33.93224,609.6 18.36147,-33.9309,609.6 18.36202,-33.92972,609.6 18.36258,-33.92857,609.6 18.36325,-33.92725,609.6 18.36382,-33.9261,609.6 18.36445,-33.92494,579.12 18.36505,-33.92381,579.12 18.36583,-33.92249,579.12 18.36657,-33.92136,579.12 18.36725,-33.92024,579.12 18.36808,-33.91905,579.12 18.3688,-33.918,579.12 18.36966,-33.91675,579.12 18.37037,-33.91576,579.12 18.37109,-33.91484,579.12 18.37183,-33.91382,579.12 18.37256,-33.91278,579.12 18.37351,-33.9115,579.12 18.37424,-33.91049,579.12 18.37503,-33.90944,579.12 18.37601,-33.90828,579.12 18.37676,-33.90733,579.12 18.37777,-33.90619,579.12 18.37861,-33.90527,579.12 18.3795,-33.90437,579.12 18.38041,-33.90349,579.12 18.38139,-33.90255,579.12 18.38236,-33.90162,579.12 18.38327,-33.90078,579.12 18.38419,-33.89994,579.12 18.3854,-33.89891,579.12 18.38624,-33.89822,579.12 18.38728,-33.89734,579.12 18.38848,-33.8963,579.12 18.38954,-33.89548,579.12 18.3906,-33.89464,548.64 18.39186,-33.89371,548.64 18.39312,-33.89273,548.64 18.39397,-33.89214,548.64 18.39526,-33.89117,548.64 18.39666,-33.89017,518.1600000000001 18.39764,-33.88947,518.1600000000001 18.39907,-33.88849,518.1600000000001 18.40021,-33.88775,518.1600000000001 18.40141,-33.88696,487.68 18.40288,-33.88609,487.68 18.40417,-33.88545,487.68 18.40546,-33.88486,487.68 18.40698,-33.88422,487.68 18.40845,-33.8837,487.68 18.41034,-33.88309,487.68 18.41168,-33.88266,487.68 18.41314,-33.88229,487.68 18.41494,-33.88197,457.20000000000005 18.41612,-33.88179,457.20000000000005 18.41806,-33.8816,457.20000000000005 18.41948,-33.88156,457.20000000000005 18.42081,-33.88165,457.20000000000005 18.42278,-33.88188,426.72 18.42418,-33.88216,426.72 18.42553,-33.88252,426.72 18.42715,-33.88316,426.72 18.42839,-33.88376,426.72 18.42996,-33.88454,426.72 18.43119,-33.88522,396.24 18.43248,-33.886,396.24 18.43357,-33.88668,396.24 18.4346,-33.88737,365.76 18.43567,-33.88815,365.76 18.43668,-33.88893,365.76 18.43769,-33.8898,335.28000000000003 18.43866,-33.89073,335.28000000000003 18.43952,-33.89157,304.8 18.44022,-33.89236,304.8 18.44107,-33.89343,304.8 18.44164,-33.89426,274.32 18.44204,-33.89515,274.32 18.44233,-33.89627,243.84 18.44229,-33.89731,243.84 18.44206,-33.89809,213.36 18.44152,-33.89887,213.36 18.44072,-33.89955,182.88 18.43977,-33.89996,182.88 18.43889,-33.90013,152.4 18.43792,-33.90018,152.4 18.43696,-33.90015,152.4 18.43592,-33.90004,121.92 18.43456,-33.89992,121.92 18.43374,-33.89985,121.92 18.43315,-33.89983,91.44 18.4322,-33.89978,91.44 18.43153,-33.89978,91.44 18.4308,-33.89978,60.96 18.42974,-33.89976,60.96 18.42929,-33.89973,60.96 18.42876,-33.89976,60.96 18.42766,-33.89996,30.48 18.42738,-33.90005,30.48 18.4271,-33.90022,30.48 18.42682,-33.90047,30.48 18.42687,-33.9007,30.48 18.42709,-33.90084,0 18.42734,-33.90082,0 18.42704,-33.9006,30.48 18.42699,-33.90028,30.48 18.42704,-33.90001,30.48 18.42727,-33.8996,30.48 18.42755,-33.89923,30.48 18.42819,-33.89874,30.48 18.42895,-33.89832,30.48 18.43054,-33.8978,60.96 18.43158,-33.89749,60.96 18.43282,-33.89722,91.44 18.43386,-33.89701,91.44 18.43489,-33.89687,121.92 18.43597,-33.89687,121.92 18.43695,-33.89697,152.4 18.43792,-33.89722,152.4 18.43904,-33.89763,152.4 18.43969,-33.89794,182.88 18.44084,-33.8985,182.88 18.44158,-33.89892,182.88 18.44261,-33.89952,182.88 18.44347,-33.90004,213.36 18.44431,-33.9006,213.36 18.44507,-33.90111,243.84 18.4461,-33.90185,243.84 18.44689,-33.90239,243.84 18.44801,-33.90317,274.32 18.44879,-33.90372,274.32 18.44976,-33.90446,274.32 18.45074,-33.90525,274.32 18.45176,-33.90605,274.32 18.45257,-33.9067,274.32 18.45372,-33.90761,274.32 18.45457,-33.90829,274.32 18.45546,-33.90898,304.8 18.45642,-33.90976,304.8 18.45726,-33.91042,304.8 18.45849,-33.91132,304.8 18.45943,-33.91205,304.8 18.4623,-33.91438,304.8 18.46538,-33.91681,335.28000000000003 18.46785,-33.91889,335.28000000000003 18.46962,-33.92038,335.28000000000003 18.47059,-33.92131,365.76 18.47139,-33.92201,335.28000000000003 18.47231,-33.92289,335.28000000000003 18.47301,-33.92363,365.76 18.47368,-33.92439,335.28000000000003 18.47454,-33.92536,335.28000000000003 18.47519,-33.92624,335.28000000000003 18.4758,-33.92713,365.76 18.47643,-33.92806,365.76 18.47706,-33.92895,365.76 18.47766,-33.9299,335.28000000000003 18.47837,-33.931,335.28000000000003 18.47883,-33.93169,335.28000000000003 18.47946,-33.93281,335.28000000000003 18.48001,-33.9337,335.28000000000003 18.48052,-33.93457,335.28000000000003 18.48106,-33.93556,335.28000000000003 18.48158,-33.93668,335.28000000000003 18.48186,-33.93732,335.28000000000003 18.48232,-33.93858,304.8 18.48265,-33.93961,335.28000000000003 18.48293,-33.94057,335.28000000000003 18.48307,-33.94128,335.28000000000003 18.48321,-33.94235,335.28000000000003 18.48341,-33.9437,335.28000000000003 18.48354,-33.9446,335.28000000000003 18.48366,-33.94547,365.76 18.48382,-33.94661,365.76 18.48394,-33.94748,365.76 18.48394,-33.94853,365.76 18.48394,-33.94936,365.76 18.48394,-33.95027,365.76 18.48388,-33.95119,365.76 18.48375,-33.95227,365.76 18.4836,-33.95334,396.24 18.48349,-33.95435,396.24 18.48335,-33.95544,365.76 18.48324,-33.95641,365.76 18.48307,-33.95725,365.76 18.48284,-33.95842,365.76 18.48267,-33.95948,396.24 18.48253,-33.9603,396.24 18.48237,-33.96135,396.24 18.4822,-33.96217,396.24 18.48214,-33.96318,396.24 18.48203,-33.964,396.24 18.48198,-33.96487,396.24 18.48192,-33.96596,396.24 18.48186,-33.96675,426.72 18.48175,-33.96782,426.72 18.48169,-33.9687,457.20000000000005 18.48169,-33.96954,457.20000000000005 18.48169,-33.97038,426.72 18.4817,-33.97156,457.20000000000005 18.4817,-33.97243,457.20000000000005 18.48169,-33.9735,426.72 18.48164,-33.97426,457.20000000000005 18.48164,-33.97531,457.20000000000005 18.48158,-33.97647,457.20000000000005 18.48158,-33.97722,457.20000000000005 18.48164,-33.97838,457.20000000000005 18.48175,-33.97927,487.68 18.48181,-33.98034,487.68 18.48186,-33.9815,457.20000000000005 18.48192,-33.98236,457.20000000000005 18.48192,-33.98341,457.20000000000005 18.48192,-33.9843,487.68 18.48186,-33.98547,487.68 18.48186,-33.98635,487.68 18.48186,-33.98746,487.68 18.48186,-33.98859,457.20000000000005 18.48192,-33.98951,457.20000000000005 18.48198,-33.99058,457.20000000000005 18.48203,-33.99156,457.20000000000005 18.48209,-33.99252,457.20000000000005 18.48214,-33.99371,457.20000000000005 18.48221,-33.99487,457.20000000000005 18.48231,-33.99582,457.20000000000005 18.48237,-33.99683,457.20000000000005 18.48242,-33.9976,457.20000000000005 18.48244,-33.99873,457.20000000000005 18.48248,-33.99998,457.20000000000005 18.48249,-34.00087,457.20000000000005 18.48248,-34.00195,457.20000000000005 18.48249,-34.00301,426.72 18.48248,-34.00392,426.72 18.48248,-34.00484,426.72 18.48238,-34.0059,457.20000000000005 18.48232,-34.00692,457.20000000000005 18.48221,-34.00785,457.20000000000005 18.48209,-34.00891,457.20000000000005 18.48203,-34.00964,426.72 18.48198,-34.01065,426.72 18.48186,-34.0119,426.72 18.48175,-34.01293,426.72 18.48164,-34.01376,426.72 18.48152,-34.01525,426.72 18.48135,-34.01623,426.72 18.48118,-34.0174,426.72 18.48101,-34.01838,396.24 18.48089,-34.01926,426.72 18.48078,-34.02033,426.72 18.48074,-34.02109,426.72 18.48069,-34.02219,457.20000000000005 18.48066,-34.02308,457.20000000000005 18.48057,-34.02434,426.72 18.48055,-34.02517,426.72 18.48052,-34.02626,396.24 18.48043,-34.02736,396.24 18.48035,-34.02827,396.24 18.48024,-34.0296,426.72 18.48013,-34.03056,396.24 18.47998,-34.03146,396.24 18.4798,-34.03239,396.24 18.47958,-34.03364,396.24 18.4794,-34.03464,396.24 18.47923,-34.0356,396.24 18.479,-34.03658,396.24 18.47883,-34.03751,365.76 18.47861,-34.03867,365.76 18.47843,-34.03965,365.76 18.47822,-34.04086,365.76 18.47805,-34.04205,365.76 18.47788,-34.0432,365.76 18.47771,-34.0443,365.76 18.47752,-34.04523,365.76 18.47738,-34.04622,365.76 18.47723,-34.0471,365.76 18.4771,-34.04823,365.76 18.47699,-34.04933,365.76 18.47687,-34.0502,396.24 18.47677,-34.05115,365.76 18.47671,-34.05212,396.24 18.47666,-34.05324,396.24 18.47665,-34.05409,396.24 18.47665,-34.0551,396.24 18.47672,-34.05613,396.24 18.47683,-34.05729,396.24 18.47689,-34.05817,396.24 18.47704,-34.05927,396.24 18.47712,-34.06027,396.24 18.47721,-34.06119,396.24 18.47727,-34.06252,396.24 18.47738,-34.06343,396.24 18.47749,-34.06448,396.24 18.4776,-34.06563,426.72 18.47777,-34.06686,426.72 18.47788,-34.06769,426.72 18.47803,-34.06851,426.72 18.47816,-34.06961,426.72 18.47828,-34.07048,426.72 18.47837,-34.07144,426.72 18.47844,-34.0724,426.72 18.47855,-34.07354,396.24 18.47861,-34.07446,396.24 18.47866,-34.07545,396.24 18.47867,-34.07666,396.24 18.47872,-34.07767,396.24 18.47872,-34.07886,365.76 18.47866,-34.07991,365.76 18.47867,-34.08096,365.76 18.4786,-34.08224,335.28000000000003 18.47861,-34.08325,365.76 18.47867,-34.0844,365.76 18.47872,-34.08545,335.28000000000003 18.47872,-34.08678,335.28000000000003 18.47878,-34.08792,335.28000000000003 18.47883,-34.0889,335.28000000000003 18.47889,-34.08983,335.28000000000003 18.47895,-34.09108,365.76 18.479,-34.09235,365.76 18.47906,-34.09332,365.76 18.47912,-34.09451,365.76 18.47918,-34.09556,365.76 18.47923,-34.09653,365.76 18.47928,-34.09726,365.76 18.47929,-34.09849,365.76 18.47928,-34.09946,365.76 18.47923,-34.10049,365.76 18.47923,-34.10143,396.24 18.47917,-34.10257,396.24 18.479,-34.10371,396.24 18.47889,-34.10459,396.24 18.4786,-34.10575,396.24 18.47822,-34.1066,396.24 18.47766,-34.1077,396.24 18.47712,-34.10855,396.24 18.47649,-34.10948,426.72 18.47592,-34.11026,426.72 18.47519,-34.11113,426.72 18.47443,-34.11199,426.72 18.47368,-34.11278,426.72 18.47295,-34.11356,426.72 18.47233,-34.1142,457.20000000000005 18.47145,-34.11506,457.20000000000005 18.47076,-34.11572,457.20000000000005 18.46996,-34.11637,457.20000000000005 18.46922,-34.11697,457.20000000000005 18.46842,-34.11758,457.20000000000005 18.46733,-34.11837,457.20000000000005 18.46656,-34.11896,457.20000000000005 18.46544,-34.11977,457.20000000000005 18.46443,-34.12051,457.20000000000005 18.46355,-34.12121,457.20000000000005 18.46287,-34.12167,457.20000000000005 18.46178,-34.12242,426.72 18.46095,-34.12303,426.72 18.46001,-34.12372,426.72 18.45915,-34.12447,457.20000000000005 18.45823,-34.12531,457.20000000000005 18.45766,-34.12596,457.20000000000005 18.45686,-34.12689,457.20000000000005 18.4563,-34.12756,457.20000000000005 18.45557,-34.12843,457.20000000000005 18.45496,-34.12926,487.68 18.45428,-34.13013,487.68 18.4536,-34.13108,487.68 18.45288,-34.13214,487.68 18.45238,-34.13287,487.68 18.45188,-34.13368,487.68 18.45143,-34.13466,487.68 18.45114,-34.1355,518.1600000000001 18.45086,-34.13644,518.1600000000001 18.45068,-34.13722,548.64 18.45039,-34.13824,548.64 18.45014,-34.1391,548.64 18.44986,-34.14006,548.64 18.44959,-34.14104,579.12 18.44941,-34.14189,579.12 18.44918,-34.14272,579.12 18.44885,-34.14374,579.12 18.44862,-34.14468,579.12 18.4484,-34.14551,579.12 18.44816,-34.1463,579.12 18.4479,-34.14734,579.12 18.44773,-34.14816,579.12 18.44748,-34.14919,609.6 18.4473,-34.15002,609.6 18.44711,-34.15109,579.12 18.4469,-34.15207,579.12 18.44677,-34.15297,579.12 18.44656,-34.15407,579.12 18.44645,-34.155,579.12 18.44633,-34.15612,579.12 18.44616,-34.1571,579.12 18.44604,-34.15814,579.12 18.44593,-34.15943,548.64 18.44593,-34.16045,548.64 18.44588,-34.16148,548.64 18.44593,-34.16272,548.64 18.44604,-34.16376,518.1600000000001 18.4461,-34.16464,548.64 18.44627,-34.16581,548.64 18.44649,-34.16679,548.64 18.44673,-34.16767,579.12 18.44711,-34.16881,579.12 18.4475,-34.17,579.12 18.44782,-34.17083,579.12 18.44822,-34.1719,579.12 18.44857,-34.17279,579.12 18.44908,-34.17395,579.12 18.44946,-34.17485,579.12 18.44994,-34.17595,579.12 18.45036,-34.17686,579.12 18.45081,-34.17787,609.6 18.4512,-34.17856,609.6 18.45182,-34.17963,609.6 18.45251,-34.18075,609.6 18.453,-34.18158,609.6 18.45366,-34.18261,609.6 18.4544,-34.18373,609.6 18.45501,-34.1846,609.6 18.45566,-34.18554,609.6 18.45636,-34.18657,609.6 18.45697,-34.1874,640.08 18.45749,-34.18815,640.08 18.45821,-34.18909,640.08 18.45898,-34.19011,640.08 18.45961,-34.19085,640.08 18.46039,-34.19188,640.08 18.46101,-34.1927,640.08 18.46191,-34.19376,640.08 18.46264,-34.19458,609.6 18.46353,-34.19554,640.08 18.46443,-34.19646,640.08 18.46533,-34.19742,640.08 18.46613,-34.19816,640.08 18.4669,-34.19897,640.08 18.46791,-34.19998,609.6 18.46875,-34.20085,609.6 18.46947,-34.20163,579.12 18.47042,-34.20267,548.64 18.47116,-34.20346,548.64 18.47177,-34.20419,548.64 18.47271,-34.20538,518.1600000000001 18.47334,-34.20621,487.68 18.47396,-34.20708,487.68 18.47469,-34.20808,487.68 18.47536,-34.20914,457.20000000000005 18.47581,-34.20987,457.20000000000005 18.47626,-34.21091,426.72 18.47659,-34.21184,426.72 18.47694,-34.21273,396.24 18.47721,-34.21358,396.24 18.47755,-34.21486,365.76 18.47783,-34.216,365.76 18.47799,-34.21692,335.28000000000003 18.4782,-34.21804,304.8 18.47826,-34.21892,304.8 18.47839,-34.22012,274.32 18.4785,-34.22127,274.32 18.47849,-34.22195,274.32 18.4785,-34.22314,243.84 18.4785,-34.22401,243.84 18.47849,-34.22507,243.84 18.47844,-34.22589,213.36 18.47839,-34.22694,213.36 18.47826,-34.22795,182.88 18.47815,-34.22874,152.4 18.47794,-34.2296,152.4 18.47775,-34.23033,121.92 18.47743,-34.23129,121.92 18.47715,-34.23203,91.44 18.47676,-34.23335,91.44 18.47665,-34.23418,91.44 18.47672,-34.23517,60.96 18.47721,-34.23633,60.96 18.4776,-34.23669,91.44 18.47839,-34.23697,91.44 18.47923,-34.23692,91.44 18.47996,-34.2366,91.44 18.48063,-34.23605,91.44 18.48113,-34.23509,91.44 18.4813,-34.23409,91.44 18.48125,-34.23335,91.44 18.48106,-34.23238,91.44 18.48072,-34.23158,91.44 18.48046,-34.23116,121.92 18.48009,-34.23093,121.92 18.47975,-34.23084,121.92 18.47923,-34.23088,121.92 18.47878,-34.23106,91.44 18.47833,-34.23125,91.44 18.4778,-34.23154,60.96 18.47746,-34.23177,60.96 18.47672,-34.23233,60.96 18.4762,-34.23276,60.96 18.47591,-34.23298,60.96 18.47574,-34.23321,60.96 18.47551,-34.23349,30.48 18.47534,-34.23396,30.48 18.47525,-34.23473,30.48 18.47508,-34.23512,0 18.4754,-34.23549,30.48 18.47637,-34.23628,30.48 18.47706,-34.23675,60.96 18.47763,-34.23708,60.96 18.47811,-34.23743,91.44 18.47867,-34.23788,91.44 18.47912,-34.23829,91.44 18.47952,-34.23875,121.92 18.47975,-34.23917,121.92 18.48003,-34.23978,152.4 18.48018,-34.24031,152.4 18.48035,-34.24104,152.4 18.48049,-34.24168,152.4 18.48052,-34.24214,182.88 18.48078,-34.24341,182.88 18.48102,-34.24429,213.36 18.4813,-34.2453,213.36 18.48158,-34.24631,243.84 18.48186,-34.24731,243.84 18.48204,-34.24788,274.32 18.48238,-34.24895,274.32 18.48259,-34.24956,304.8 18.48284,-34.25034,304.8 18.48304,-34.25093,304.8 18.48326,-34.25175,335.28000000000003 18.48343,-34.25253,335.28000000000003 18.48358,-34.25328,335.28000000000003 18.48371,-34.25409,365.76 18.48387,-34.25486,365.76 18.48404,-34.25565,365.76 18.48415,-34.25644,396.24 18.48427,-34.25716,396.24 18.48438,-34.25784,396.24 18.4845,-34.25872,396.24 18.48461,-34.25949,426.72 18.48461,-34.26003,426.72 18.48467,-34.26119,426.72 18.48461,-34.26207,426.72 18.48455,-34.26311,426.72 18.4845,-34.26398,426.72 18.48438,-34.2648,426.72 18.48427,-34.26627,426.72 18.48421,-34.2672,457.20000000000005 18.48415,-34.26813,457.20000000000005 18.4841,-34.26906,457.20000000000005 18.48404,-34.27013,457.20000000000005 18.48398,-34.27092,457.20000000000005 18.48387,-34.27185,457.20000000000005 18.48382,-34.27286,457.20000000000005 18.48371,-34.27396,457.20000000000005 18.48364,-34.27478,457.20000000000005 18.48354,-34.27592,487.68 18.48349,-34.27693,487.68 18.48341,-34.27772,487.68 18.48335,-34.2786,487.68 18.48324,-34.2806,487.68 18.4831,-34.28329,487.68 18.48298,-34.28416,487.68 18.4827,-34.28714,518.1600000000001 18.48259,-34.2881,518.1600000000001 18.48249,-34.28894,518.1600000000001 18.48221,-34.29108,518.1600000000001 18.48215,-34.29196,518.1600000000001 18.48209,-34.29286,548.64 18.48198,-34.29401,548.64 18.48192,-34.2949,548.64 18.48186,-34.29583,548.64 18.48181,-34.29694,548.64 18.48175,-34.2979,548.64 18.48164,-34.29885,518.1600000000001 18.48158,-34.29978,548.64 18.48146,-34.30085,518.1600000000001 18.48136,-34.30174,548.64 18.48129,-34.30295,548.64 18.48124,-34.30383,548.64 18.48119,-34.30481,548.64 18.48113,-34.30609,548.64 18.48113,-34.30705,548.64 18.48118,-34.30816,548.64 18.4813,-34.30934,548.64 18.48153,-34.31044,548.64 18.48181,-34.31163,548.64 18.48209,-34.31258,548.64 18.48231,-34.31346,548.64 18.48259,-34.31456,548.64 18.48281,-34.31566,548.64 18.4831,-34.31671,548.64 18.4833,-34.31757,548.64 18.4836,-34.31873,548.64 18.48381,-34.31971,548.64 18.4841,-34.32073,548.64 18.48455,-34.3223,548.64 18.48556,-34.32591,548.64 18.48657,-34.32875,548.64 18.48696,-34.32948,518.1600000000001 18.48724,-34.32999,548.64 18.49408,-34.33736,548.64 18.49571,-34.33861,548.64 18.49683,-34.33942,548.64 18.49851,-34.34061,548.64 18.49929,-34.34111,548.64 18.50338,-34.34396,518.1600000000001 18.50809,-34.34729,548.64 18.50905,-34.34807,548.64 18.50989,-34.34875,548.64 18.51039,-34.34926,548.64 18.51151,-34.3504,548.64 18.5123,-34.35136,548.64 18.51294,-34.35243,579.12 18.51336,-34.35324,579.12 18.51362,-34.35411,579.12 18.51379,-34.35541,579.12 18.51374,-34.35634,579.12 18.51359,-34.35741,579.12 18.51325,-34.35855,579.12 18.51294,-34.35951,548.64 18.51258,-34.36015,579.12 18.51179,-34.36147,548.64 18.51112,-34.36226,548.64 18.51048,-34.363,548.64 18.50962,-34.36398,548.64 18.50888,-34.36487,548.64 18.50798,-34.36588,548.64 18.50737,-34.36665,579.12 18.50664,-34.36743,548.64 18.50591,-34.3683,548.64 18.5051,-34.36924,579.12 18.5044,-34.36995,579.12 18.50367,-34.37064,579.12 18.50264,-34.37157,548.64 18.50171,-34.37219,548.64 18.50069,-34.37273,548.64 18.49955,-34.3732,548.64 18.49829,-34.37357,548.64 18.4968,-34.37389,518.1600000000001 18.4956,-34.37407,518.1600000000001 18.49428,-34.37417,518.1600000000001 18.49291,-34.37426,518.1600000000001 18.49125,-34.37431,518.1600000000001 18.48993,-34.37439,518.1600000000001 18.4885,-34.37445,518.1600000000001 18.48719,-34.37444,518.1600000000001 18.48556,-34.37425,518.1600000000001 18.48438,-34.37399,518.1600000000001 18.48324,-34.37371,518.1600000000001 18.48186,-34.37324,518.1600000000001 18.48057,-34.37274,518.1600000000001 18.47934,-34.37215,518.1600000000001 18.47809,-34.37152,518.1600000000001 18.4771,-34.37096,518.1600000000001 18.47586,-34.37022,518.1600000000001 18.47494,-34.36961,548.64 18.47385,-34.36876,548.64 18.47288,-34.36798,548.64 18.47208,-34.36728,548.64 18.47105,-34.36644,548.64 18.47031,-34.36584,579.12 18.46931,-34.36505,579.12 18.46819,-34.36436,579.12 18.46729,-34.36391,609.6 18.4663,-34.36351,609.6 18.4651,-34.36323,609.6 18.46418,-34.36319,640.08 18.46303,-34.36354,670.5600000000001 18.46224,-34.36464,670.5600000000001 18.46292,-34.36631,640.08 18.46454,-34.36734,640.08 18.46561,-34.3677,609.6 18.46653,-34.36789,640.08 18.46859,-34.36812,640.08 18.46979,-34.36817,640.08 18.47116,-34.36812,640.08 18.47294,-34.36807,640.08 18.47429,-34.36803,609.6 18.47591,-34.36798,609.6 18.47769,-34.36798,609.6 18.4794,-34.36803,609.6 18.48106,-34.36807,579.12 18.48253,-34.36812,579.12 18.48404,-34.36817,579.12 18.48562,-34.36826,579.12 18.48707,-34.36831,579.12 18.48853,-34.36839,579.12 18.48993,-34.36844,579.12 18.49094,-34.36848,579.12 18.49302,-34.36854,579.12 18.49474,-34.36859,579.12 18.49599,-34.36862,579.12 18.49743,-34.36863,579.12 18.49896,-34.36853,579.12 18.50042,-34.36835,579.12 18.50166,-34.36803,579.12 18.50298,-34.36761,579.12 18.50445,-34.36688,579.12 18.50557,-34.36606,609.6 18.50647,-34.36496,609.6 18.50697,-34.364,609.6 18.50739,-34.36272,609.6 18.50756,-34.36156,609.6 18.5075,-34.36053,640.08 18.50731,-34.35933,640.08 18.50697,-34.35805,640.08 18.50664,-34.35709,640.08 18.50613,-34.35592,640.08 18.50569,-34.35512,640.08 18.50501,-34.35397,640.08 18.50424,-34.35276,640.08 18.50361,-34.35191,640.08 18.50294,-34.351,640.08 18.50199,-34.3499,640.08 18.50109,-34.3489,640.08 18.50019,-34.34793,640.08 18.49924,-34.34692,640.08 18.49846,-34.34615,640.08 18.4976,-34.34526,640.08 18.49677,-34.3445,640.08 18.49599,-34.34372,640.08 18.49487,-34.34267,640.08 18.494,-34.34187,640.08 18.49308,-34.34103,640.08 18.49229,-34.34033,640.08 18.49136,-34.3394,640.08 18.49033,-34.33842,609.6 18.48965,-34.33777,609.6 18.48859,-34.33676,609.6 18.48747,-34.33572,609.6 18.48652,-34.33479,609.6 18.48564,-34.334,609.6 18.48478,-34.33324,609.6 18.48358,-34.33218,609.6 18.48255,-34.3313,609.6 18.48175,-34.33069,609.6 18.48061,-34.32976,609.6 18.4794,-34.3288,609.6 18.47843,-34.32804,609.6 18.4774,-34.3272,640.08 18.47649,-34.32655,640.08 18.47553,-34.32582,640.08 18.47469,-34.32513,640.08 18.47346,-34.32426,640.08 18.47261,-34.32358,640.08 18.47151,-34.32273,640.08 18.47076,-34.32213,640.08 18.46756,-34.31956,640.08 18.4635,-34.3164,670.5600000000001 18.46052,-34.31398,670.5600000000001 18.45955,-34.31305,670.5600000000001 18.45863,-34.31216,701.0400000000001 18.4577,-34.31122,701.0400000000001 18.45714,-34.31062,701.0400000000001 18.45613,-34.30962,701.0400000000001 18.45543,-34.30886,701.0400000000001 18.45446,-34.30788,701.0400000000001 18.45354,-34.30686,701.0400000000001 18.45288,-34.30614,731.52 18.45193,-34.30513,731.52 18.45102,-34.30416,731.52 18.45019,-34.30325,731.52 18.44948,-34.30253,731.52 18.44685,-34.29974,731.52 18.44433,-34.29713,762 18.44084,-34.29345,762 18.44004,-34.29261,762 18.43758,-34.29002,762 18.43489,-34.28717,762 18.43226,-34.2843,762 18.43153,-34.28343,762 18.42895,-34.28046,762 18.42558,-34.27661,762 18.42482,-34.27571,762 18.42241,-34.27283,762 18.41992,-34.26988,762 18.41667,-34.26604,762 18.4144,-34.26324,762 18.41297,-34.26146,762 18.41154,-34.25951,762 18.41062,-34.25835,762 18.41006,-34.25761,762 18.40914,-34.25649,762 18.40838,-34.25551,731.52 18.40765,-34.25458,731.52 18.40679,-34.25346,731.52 18.40593,-34.25235,731.52 18.40529,-34.25143,731.52 18.40457,-34.25034,762 18.40393,-34.24941,762 18.40336,-34.24848,731.52 18.40261,-34.24718,731.52 18.40204,-34.24615,762 18.40153,-34.24522,762 18.40087,-34.24402,762 18.40036,-34.24306,762 18.39975,-34.24196,762 18.39918,-34.24085,762 18.39874,-34.24004,762 18.39812,-34.23885,762 18.39752,-34.23764,762 18.39705,-34.23674,762 18.39643,-34.23549,762 18.39598,-34.23447,762 18.3954,-34.23326,762 18.39483,-34.23196,762 18.39341,-34.22882,762 18.39191,-34.2253,762 18.39151,-34.22418,762 18.39111,-34.22319,762 18.39061,-34.22195,762 18.39014,-34.22087,762 18.38974,-34.21985,762 18.38923,-34.21859,762 18.38877,-34.21734,762 18.38842,-34.21645,731.52 18.38797,-34.21519,731.52 18.38753,-34.21385,762 18.38713,-34.2128,762 18.38674,-34.21143,762 18.38648,-34.21059,762 18.38602,-34.2091,762 18.38573,-34.20807,762 18.38545,-34.20708,731.52 18.38516,-34.20593,762 18.38478,-34.20451,762 18.38456,-34.20341,731.52 18.38433,-34.20236,731.52 18.38419,-34.20118,762 18.38405,-34.20021,792.48 18.38394,-34.19911,792.48 18.3839,-34.19825,822.96 18.38377,-34.1971,822.96 18.38377,-34.19637,853.44 18.38394,-34.19531,853.44 18.38442,-34.19411,853.44 18.38478,-34.19316,883.9200000000001 18.385,-34.19252,883.9200000000001 18.38516,-34.19146,883.9200000000001 18.38528,-34.19057,914.4000000000001 18.38522,-34.18959,914.4000000000001 18.38516,-34.18861,914.4000000000001 18.38499,-34.18726,914.4000000000001 18.38484,-34.18629,914.4000000000001 18.38453,-34.18503,914.4000000000001 18.38425,-34.18368,914.4000000000001 18.38402,-34.18266,914.4000000000001 18.38379,-34.18159,883.9200000000001 18.38356,-34.18042,883.9200000000001 18.38338,-34.17934,883.9200000000001 18.3831,-34.17819,883.9200000000001 18.38276,-34.17668,883.9200000000001 18.38242,-34.1753,883.9200000000001 18.38226,-34.17435,883.9200000000001 18.3819,-34.17297,883.9200000000001 18.38164,-34.17169,883.9200000000001 18.38142,-34.17032,883.9200000000001 18.38119,-34.16917,883.9200000000001 18.38099,-34.16799,883.9200000000001 18.3807,-34.16674,883.9200000000001 18.38047,-34.16557,883.9200000000001 18.38024,-34.16437,883.9200000000001 18.38001,-34.16345,883.9200000000001 18.37973,-34.16203,883.9200000000001 18.37945,-34.16048,883.9200000000001 18.37921,-34.15938,883.9200000000001 18.37898,-34.15826,883.9200000000001 18.3787,-34.1571,883.9200000000001 18.37835,-34.15565,853.44 18.37812,-34.15472,853.44 18.37784,-34.15347,853.44 18.37744,-34.15182,853.44 18.37624,-34.147,853.44 18.37538,-34.14341,853.44 18.37475,-34.14095,853.44 18.37447,-34.13988,853.44 18.37349,-34.13596,853.44 18.37257,-34.13224,853.44 18.37234,-34.13118,853.44 18.37211,-34.1299,853.44 18.37194,-34.12856,822.96 18.37183,-34.12745,853.44 18.37183,-34.12633,853.44 18.37183,-34.12486,853.44 18.37189,-34.12349,853.44 18.37194,-34.12239,853.44 18.37217,-34.12098,853.44 18.37234,-34.1199,853.44 18.3725,-34.11873,853.44 18.37269,-34.11758,853.44 18.37286,-34.11627,853.44 18.37303,-34.11539,853.44 18.3732,-34.11418,853.44 18.3734,-34.11292,853.44 18.37362,-34.11172,853.44 18.37379,-34.11049,853.44 18.37396,-34.10916,853.44 18.37418,-34.10808,853.44 18.37435,-34.10696,853.44 18.37458,-34.10556,853.44 18.37475,-34.1045,853.44 18.37492,-34.10333,853.44 18.37514,-34.10211,853.44 18.37531,-34.10106,853.44 18.37549,-34.0997,853.44 18.37564,-34.09872,853.44 18.3762,-34.09392,853.44 18.37669,-34.09025,853.44 18.37681,-34.08881,853.44 18.37692,-34.08741,853.44 18.37699,-34.08627,853.44 18.3771,-34.08508,853.44 18.3771,-34.08357,853.44 18.37681,-34.08238,853.44 18.37635,-34.08141,853.44 18.37564,-34.08032,853.44 18.37458,-34.07922,822.96 18.37366,-34.07838,822.96 18.37234,-34.07726,822.96 18.37143,-34.07652,822.96 18.37043,-34.07565,822.96 18.36943,-34.07479,822.96 18.36834,-34.07382,822.96 18.36718,-34.07277,822.96 18.36599,-34.07172,822.96 18.36508,-34.07084,822.96 18.36405,-34.06981,822.96 18.36319,-34.06888,822.96 18.36219,-34.06769,792.48 18.3614,-34.06673,792.48 18.36061,-34.06567,792.48 18.35989,-34.06462,792.48 18.35905,-34.06339,792.48 18.35827,-34.06213,822.96 18.35765,-34.06119,822.96 18.35692,-34.05995,822.96 18.35619,-34.05872,822.96 18.35563,-34.05771,822.96 18.35485,-34.05634,792.48 18.35438,-34.05548,792.48 18.35361,-34.054,792.48 18.35305,-34.0529,792.48 18.35255,-34.0518,792.48 18.35193,-34.05034,792.48 18.35152,-34.04914,792.48 18.35115,-34.04791,792.48 18.35083,-34.04696,792.48 18.35042,-34.04549,792.48 18.35003,-34.0443,792.48 18.34941,-34.04279,792.48 18.34891,-34.04173,792.48 18.3484,-34.04086,792.48 18.34762,-34.03949,792.48 18.34694,-34.03848,762 18.3462,-34.03723,762 18.34551,-34.03611,762 18.3447,-34.03473,762 18.34414,-34.03374,762 18.34328,-34.03243,762 18.34242,-34.03122,762 18.34173,-34.03034,762 18.34087,-34.02927,762 18.33982,-34.02805,762 18.33898,-34.02713,731.52 18.33796,-34.02605,731.52 18.33691,-34.02498,762 18.33612,-34.0241,762 18.33515,-34.02293,762 18.33456,-34.022,762 18.33395,-34.02047,792.48 18.33388,-34.01953,792.48 18.33418,-34.01833,792.48 18.33481,-34.0173,792.48 18.33557,-34.01665,792.48 18.33681,-34.01604,792.48 18.33814,-34.01559,792.48 18.33921,-34.0154,792.48 18.34055,-34.01509,792.48 18.3419,-34.01486,792.48 18.34288,-34.01465,792.48 18.34396,-34.01442,792.48 18.34532,-34.01413,822.96 18.34644,-34.01385,822.96 18.34756,-34.01363,822.96 18.349,-34.0133,822.96 18.35042,-34.01303,822.96 18.35148,-34.0128,822.96 18.35289,-34.01253,822.96 18.35395,-34.01234,822.96 18.35793,-34.01166,853.44 18.35905,-34.01147,853.44 18.36062,-34.01129,853.44 18.36187,-34.01111,853.44 18.36308,-34.01097,853.44 18.36462,-34.01078,853.44 18.36595,-34.01065,853.44 18.36752,-34.01051,853.44 18.36874,-34.01041,853.44 18.37032,-34.01024,853.44 18.37138,-34.0101,883.9200000000001 18.37306,-34.00992,883.9200000000001 18.37435,-34.00978,883.9200000000001 18.37592,-34.0096,883.9200000000001 18.37738,-34.00943,883.9200000000001 18.37901,-34.00919,883.9200000000001 18.38001,-34.00905,883.9200000000001 18.38147,-34.00877,883.9200000000001 18.38287,-34.00855,914.4000000000001 18.38433,-34.00832,914.4000000000001 18.38556,-34.00813,914.4000000000001 18.38711,-34.00795,914.4000000000001 18.38831,-34.00781,914.4000000000001 18.38963,-34.00762,914.4000000000001 18.39117,-34.00745,914.4000000000001 18.39231,-34.00729,914.4000000000001 18.39397,-34.00716,914.4000000000001 18.39515,-34.00703,914.4000000000001 18.39672,-34.00692,914.4000000000001 18.3979,-34.00685,914.4000000000001 18.3993,-34.00678,914.4000000000001 18.4009,-34.00664,914.4000000000001 18.40221,-34.00653,914.4000000000001 18.40356,-34.00635,914.4000000000001 18.40513,-34.00618,883.9200000000001 18.40639,-34.00599,914.4000000000001 18.40794,-34.00571,883.9200000000001 18.40914,-34.00543,914.4000000000001 18.41045,-34.00507,914.4000000000001 18.41194,-34.00455,914.4000000000001 18.41309,-34.00408,883.9200000000001 18.41452,-34.00343,883.9200000000001 18.41572,-34.00282,883.9200000000001 18.41681,-34.00217,883.9200000000001 18.41796,-34.00145,883.9200000000001 18.41909,-34.00068,883.9200000000001 18.42012,-33.99989,853.44 18.42121,-33.99911,853.44 18.4223,-33.99826,853.44 18.42334,-33.99747,853.44 18.4243,-33.99669,853.44 18.4255,-33.99575,853.44 18.42654,-33.99495,853.44 18.42773,-33.99403,853.44 18.42861,-33.9933,853.44 18.42979,-33.99239,822.96 18.43091,-33.99152,822.96 18.43186,-33.99069,822.96 18.43288,-33.98974,822.96 18.4341,-33.98863,822.96 18.435,-33.98781,822.96 18.43584,-33.98694,822.96 18.43685,-33.98584,792.48 18.43781,-33.9849,792.48 18.43865,-33.98396,792.48 18.43969,-33.9829,792.48 18.44055,-33.98192,762 18.44164,-33.98071,762 18.4424,-33.97975,762 18.4433,-33.97856,762 18.44404,-33.97759,762 18.44496,-33.97629,731.52 18.44565,-33.97531,762 18.44662,-33.97392,731.52 18.44719,-33.97298,731.52 18.44795,-33.97156,731.52 18.44851,-33.97041,731.52 18.44902,-33.96922,701.0400000000001 18.44954,-33.96796,701.0400000000001 18.44997,-33.96684,670.5600000000001 18.45042,-33.96561,670.5600000000001 18.45086,-33.96442,670.5600000000001 18.45125,-33.96316,701.0400000000001 18.45165,-33.96185,670.5600000000001 18.45199,-33.96043,670.5600000000001 18.45222,-33.95906,670.5600000000001 18.45234,-33.95786,670.5600000000001 18.45238,-33.95668,670.5600000000001 18.45234,-33.9552,670.5600000000001 18.45234,-33.95422,640.08 18.45217,-33.95269,640.08 18.452,-33.95166,640.08 18.45165,-33.95027,640.08 18.45119,-33.9492,640.08 18.45053,-33.94798,640.08 18.44969,-33.94684,609.6 18.44908,-33.94613,609.6 18.44799,-33.94505,609.6 18.44707,-33.94422,609.6 18.44633,-33.94361,609.6 18.44543,-33.94281,609.6 18.44431,-33.94194,609.6 18.44324,-33.9411,609.6 18.44221,-33.94026,609.6 18.44128,-33.93956,609.6 18.44004,-33.93863,579.12 18.43898,-33.93796,579.12 18.43786,-33.93728,609.6 18.43657,-33.93649,609.6 18.43562,-33.93571,609.6 18.43494,-33.93491,609.6 18.43443,-33.93374,609.6 18.43426,-33.93244,609.6 18.43437,-33.93137,609.6 18.43466,-33.93016,579.12 18.43511,-33.92908,579.12 18.43579,-33.9278,579.12 18.4364,-33.92683,579.12 18.43702,-33.92587,579.12 18.43786,-33.92473,548.64 18.43876,-33.92354,548.64 18.43946,-33.92257,548.64 18.44033,-33.92139,548.64 18.441,-33.92038,518.1600000000001 18.44162,-33.91946,518.1600000000001 18.44246,-33.91809,518.1600000000001 18.44302,-33.91704,487.68 18.4437,-33.91573,487.68 18.44421,-33.91456,487.68 18.44476,-33.91319,457.20000000000005 18.44519,-33.91205,457.20000000000005 18.44553,-33.91088,426.72 18.44593,-33.90926,426.72 18.4461,-33.90809,426.72 18.44621,-33.90674,396.24 18.44621,-33.90532,396.24 18.44604,-33.90385,396.24 18.44582,-33.90255,365.76 18.44559,-33.90134,365.76 18.44524,-33.90013,365.76 18.44492,-33.89891,365.76 18.44444,-33.89757,365.76 18.44403,-33.89653,335.28000000000003 18.44352,-33.89548,335.28000000000003 18.44285,-33.89415,335.28000000000003 18.44229,-33.89319,335.28000000000003 18.44151,-33.89195,335.28000000000003 18.44078,-33.89076,335.28000000000003 18.43998,-33.88947,304.8 18.43935,-33.88845,304.8 18.43849,-33.88719,304.8 18.43769,-33.886,274.32 18.43685,-33.88486,274.32 18.43615,-33.88388,274.32 18.43528,-33.88275,274.32 18.43456,-33.88179,243.84 18.43363,-33.88067,213.36 18.43276,-33.87968,213.36 18.43175,-33.87854,182.88 18.43094,-33.87765,182.88 18.42985,-33.87653,152.4 18.42894,-33.87555,121.92 18.42785,-33.87439,121.92 18.42671,-33.87328,91.44 18.4257,-33.87222,91.44 18.42482,-33.87141,91.44 18.42373,-33.87029,60.96 18.42284,-33.86948,60.96 18.42167,-33.86838,60.96 18.42076,-33.86755,60.96 18.41949,-33.86638,60.96 18.41835,-33.86536,60.96 18.41761,-33.86466,60.96 18.41651,-33.86366,30.48 18.41561,-33.86284,60.96 18.41449,-33.86183,60.96 18.41354,-33.86098,60.96 18.41074,-33.85842,60.96 18.40686,-33.85474,60.96 18.40387,-33.852,60.96 18.4009,-33.84916,60.96 18.39907,-33.84734,60.96 18.39809,-33.84632,60.96 18.39729,-33.84557,60.96 18.39643,-33.84473,60.96 18.3956,-33.84389,60.96 18.39186,-33.84026,60.96 18.38982,-33.83835,60.96 18.38898,-33.83757,30.48 18.38713,-33.83597,30.48 18.38614,-33.8351,30.48 18.38333,-33.83277,60.96 18.3794,-33.82942,60.96 18.37578,-33.82621,60.96 18.37256,-33.82333,60.96 18.3712,-33.8223,30.48 18.36992,-33.82146,30.48 18.366,-33.81903,60.96 18.35958,-33.8108,60.96 18.35775,-33.80484,60.96 18.35598,-33.79865,60.96 18.35541,-33.7961,152.4 18.35496,-33.79422,213.36 18.35478,-33.79348,274.32 18.35524,-33.79348,304.8 18.3558,-33.79367,304.8 18.35609,-33.79376,304.8 18.35667,-33.79395,304.8 18.35726,-33.79404,304.8 18.3577,-33.79409,304.8 18.35821,-33.79418,304.8 18.35855,-33.79418,304.8 18.35918,-33.79404,304.8 18.35961,-33.79395,304.8 18.36004,-33.79395,304.8 18.36034,-33.79422,274.32 18.36034,-33.79486,243.84 18.3601,-33.79553,213.36 18.35981,-33.79637,182.88 18.35958,-33.79711,182.88 18.35989,-33.80063,121.92 18.36353,-33.80214,91.44 18.36422,-33.80098,60.96 18.36583,-33.79756,60.96 18.36628,-33.79678,60.96 18.36583,-33.79683,30.48</coordinates>
      </LineString>
    </Placemark>
  </Document>
</kml>
