<?xml version="1.0" encoding="UTF-8"?>
<kml xmlns="http://www.opengis.net/kml/2.2">
  <Document>
    <name>FR24 ZTREG 3e0a1241</name>
    <Placemark>
      <name>FR24 ZTREG 3e0a1241</name>
      <description><![CDATA[Source: ADS-B
Start (SAST): 2026-01-24 11:15:27
End (SAST): 2026-01-24 14:50:47
Points: 499]]></description>
      <Style><LineStyle><color>ff0000ff</color><width>4</width></LineStyle></Style>
      <LineString>
        <tessellate>1</tessellate>
        <altitudeMode>absolute</altitudeMode>
        <coordinates>18.40357,-33.87172,274.32 18.38936,-33.88274,396.24 18.39114,-33.88655,426.72 18.39812,-33.88895,426.72 18.38424,-33.88988,457.20000000000005 18.37508,-33.8964,518.1600000000001 18.36473,-33.89897,548.64 18.36061,-33.90229,579.12 18.36498,-33.90411,579.12 18.36218,-33.90422,579.12 18.35923,-33.90619,579.12 18.35581,-33.90542,579.12 18.35284,-33.90616,609.6 18.34933,-33.90856,609.6 18.3503,-33.91041,609.6 18.35392,-33.91672,640.08 18.32796,-33.99012,762 18.32989,-33.99567,762 18.32874,-33.99659,762 18.33157,-34.00107,762 18.33125,-34.002,762 18.331,-34.00388,762 18.33098,-34.0049,762 18.33076,-34.00691,762 18.33152,-34.00885,762 18.33169,-34.00993,762 18.3323,-34.01215,762 18.3327,-34.01343,792.48 18.33308,-34.01507,792.48 18.33336,-34.01624,792.48 18.33394,-34.01786,792.48 18.3342,-34.01888,792.48 18.33459,-34.02002,792.48 18.33539,-34.02166,792.48 18.33591,-34.02302,792.48 18.3365,-34.02415,792.48 18.33703,-34.02523,792.48 18.3375,-34.0265,792.48 18.33752,-34.02792,792.48 18.33768,-34.02892,792.48 18.33835,-34.03024,792.48 18.33911,-34.03158,792.48 18.33962,-34.03301,792.48 18.34025,-34.03444,792.48 18.34078,-34.03588,792.48 18.3413,-34.03693,792.48 18.34173,-34.03829,792.48 18.3419,-34.03949,792.48 18.34212,-34.04099,792.48 18.34253,-34.04211,792.48 18.34294,-34.04324,792.48 18.34341,-34.0445,792.48 18.34401,-34.04586,792.48 18.34453,-34.04707,792.48 18.3449,-34.04802,792.48 18.345,-34.04902,792.48 18.3458,-34.05016,792.48 18.34647,-34.05143,792.48 18.34711,-34.05245,792.48 18.34811,-34.0537,792.48 18.34865,-34.05469,792.48 18.34948,-34.05601,792.48 18.35014,-34.05699,792.48 18.35073,-34.05799,792.48 18.3517,-34.05921,822.96 18.35216,-34.06017,822.96 18.35312,-34.06148,822.96 18.35399,-34.06264,822.96 18.35495,-34.06409,822.96 18.3557,-34.06533,822.96 18.35685,-34.06627,822.96 18.35827,-34.06772,822.96 18.35914,-34.06844,822.96 18.35988,-34.06946,822.96 18.36048,-34.07046,822.96 18.36132,-34.07138,822.96 18.36225,-34.07244,822.96 18.36311,-34.07342,853.44 18.36408,-34.07458,822.96 18.36505,-34.07574,853.44 18.3657,-34.07651,853.44 18.36665,-34.07774,853.44 18.36732,-34.07862,822.96 18.36809,-34.07962,822.96 18.36905,-34.08067,822.96 18.36977,-34.08149,822.96 18.37057,-34.08242,822.96 18.37129,-34.08331,822.96 18.37206,-34.08425,822.96 18.37307,-34.0854,822.96 18.37379,-34.0862,822.96 18.37501,-34.08735,822.96 18.37601,-34.08831,822.96 18.37673,-34.08921,792.48 18.37762,-34.09038,792.48 18.3787,-34.0915,792.48 18.3795,-34.09244,792.48 18.3803,-34.09327,792.48 18.38106,-34.09409,762 18.38207,-34.09502,762 18.38291,-34.09594,762 18.38405,-34.09694,762 18.38486,-34.09787,762 18.38557,-34.09874,731.52 18.38704,-34.09992,731.52 18.38799,-34.10067,731.52 18.38943,-34.10172,701.0400000000001 18.39008,-34.10244,701.0400000000001 18.391,-34.10335,731.52 18.39202,-34.10439,701.0400000000001 18.39302,-34.10517,701.0400000000001 18.39449,-34.10605,701.0400000000001 18.39635,-34.10747,701.0400000000001 18.39738,-34.10834,670.5600000000001 18.3986,-34.10924,670.5600000000001 18.39929,-34.10998,670.5600000000001 18.40073,-34.1111,640.08 18.40212,-34.11211,640.08 18.40288,-34.11269,640.08 18.40431,-34.11375,640.08 18.40574,-34.11487,640.08 18.4067,-34.11556,609.6 18.40769,-34.11635,609.6 18.40876,-34.11716,609.6 18.41011,-34.11807,579.12 18.41133,-34.11889,579.12 18.41248,-34.11972,579.12 18.41335,-34.12044,579.12 18.41449,-34.12135,548.64 18.41576,-34.12215,548.64 18.41717,-34.12318,548.64 18.41828,-34.12398,548.64 18.41956,-34.12492,548.64 18.42108,-34.12601,548.64 18.42197,-34.12666,548.64 18.42322,-34.12766,518.1600000000001 18.42421,-34.12832,518.1600000000001 18.4255,-34.12917,518.1600000000001 18.42705,-34.1302,518.1600000000001 18.42823,-34.13086,518.1600000000001 18.42956,-34.13167,518.1600000000001 18.43072,-34.13231,518.1600000000001 18.43197,-34.13288,518.1600000000001 18.43346,-34.13354,518.1600000000001 18.4345,-34.134,518.1600000000001 18.43582,-34.13449,518.1600000000001 18.43697,-34.13487,518.1600000000001 18.43954,-34.13541,518.1600000000001 18.44084,-34.13562,518.1600000000001 18.44226,-34.13585,518.1600000000001 18.44446,-34.13598,518.1600000000001 18.44564,-34.1355,518.1600000000001 18.44748,-34.13517,518.1600000000001 18.44845,-34.13533,518.1600000000001 18.44977,-34.13502,518.1600000000001 18.45263,-34.13433,518.1600000000001 18.45422,-34.1335,518.1600000000001 18.45501,-34.13337,548.64 18.45663,-34.13273,548.64 18.45786,-34.13221,548.64 18.45933,-34.13146,548.64 18.46062,-34.13067,548.64 18.46204,-34.12957,548.64 18.46311,-34.12878,548.64 18.46405,-34.12802,548.64 18.46525,-34.1268,548.64 18.46643,-34.12546,548.64 18.46748,-34.12417,548.64 18.46847,-34.12311,548.64 18.46995,-34.12113,548.64 18.47068,-34.11989,579.12 18.47144,-34.11834,579.12 18.47253,-34.11628,579.12 18.47303,-34.11523,579.12 18.47364,-34.11364,579.12 18.47385,-34.11289,579.12 18.4743,-34.11123,579.12 18.47458,-34.11034,579.12 18.47489,-34.10931,579.12 18.47515,-34.10773,579.12 18.47547,-34.1063,579.12 18.47573,-34.10433,579.12 18.47596,-34.10279,579.12 18.47605,-34.10182,548.64 18.47614,-34.10027,548.64 18.4763,-34.09913,548.64 18.47629,-34.09781,548.64 18.47625,-34.09659,548.64 18.47602,-34.09547,548.64 18.47585,-34.09433,548.64 18.47604,-34.09296,548.64 18.4763,-34.09124,548.64 18.47626,-34.09032,548.64 18.47615,-34.08852,548.64 18.47611,-34.08714,548.64 18.47619,-34.08614,548.64 18.47631,-34.08455,548.64 18.47649,-34.08316,548.64 18.47659,-34.08175,548.64 18.47671,-34.0806,548.64 18.47683,-34.07915,548.64 18.47691,-34.078,548.64 18.47702,-34.0767,548.64 18.47697,-34.07529,548.64 18.47708,-34.07405,548.64 18.4771,-34.07235,548.64 18.47734,-34.07116,548.64 18.47723,-34.06981,548.64 18.47722,-34.06844,548.64 18.47721,-34.06738,548.64 18.47708,-34.06556,548.64 18.47717,-34.06473,548.64 18.47744,-34.06318,548.64 18.47746,-34.06158,548.64 18.47749,-34.06044,548.64 18.47762,-34.0588,548.64 18.47789,-34.05757,548.64 18.47778,-34.05633,548.64 18.47775,-34.0547,548.64 18.47806,-34.05359,548.64 18.4782,-34.05248,518.1600000000001 18.47791,-34.05096,548.64 18.47845,-34.04968,548.64 18.47872,-34.04826,548.64 18.4787,-34.04712,518.1600000000001 18.47863,-34.04564,548.64 18.47825,-34.04396,518.1600000000001 18.47834,-34.04282,518.1600000000001 18.4786,-34.04148,518.1600000000001 18.47876,-34.04031,548.64 18.47894,-34.03886,548.64 18.47912,-34.03778,548.64 18.4789,-34.03602,518.1600000000001 18.47895,-34.0349,518.1600000000001 18.47902,-34.03338,518.1600000000001 18.47907,-34.03186,518.1600000000001 18.47876,-34.03093,518.1600000000001 18.47847,-34.02932,548.64 18.47875,-34.02807,548.64 18.47861,-34.02648,548.64 18.47867,-34.0253,548.64 18.47913,-34.02408,548.64 18.47959,-34.02282,548.64 18.47995,-34.02172,548.64 18.48031,-34.0196,548.64 18.48031,-34.01846,548.64 18.4805,-34.01706,548.64 18.48051,-34.01571,548.64 18.48033,-34.01463,548.64 18.48028,-34.01311,548.64 18.48026,-34.01194,548.64 18.48034,-34.01062,548.64 18.48066,-34.00938,548.64 18.48092,-34.00809,548.64 18.48107,-34.00677,548.64 18.48091,-34.00591,548.64 18.481,-34.00466,548.64 18.48136,-34.00305,548.64 18.48156,-34.00189,518.1600000000001 18.4819,-34.00049,518.1600000000001 18.48193,-33.99953,518.1600000000001 18.48209,-33.99809,518.1600000000001 18.48216,-33.99631,518.1600000000001 18.48226,-33.99543,487.68 18.48232,-33.99406,487.68 18.48225,-33.9929,487.68 18.48212,-33.99152,487.68 18.48215,-33.9906,487.68 18.48215,-33.98912,457.20000000000005 18.48224,-33.98774,457.20000000000005 18.4823,-33.98619,457.20000000000005 18.48225,-33.98521,426.72 18.48224,-33.98413,426.72 18.48228,-33.98273,426.72 18.48255,-33.98174,426.72 18.48266,-33.97755,396.24 18.48274,-33.9731,396.24 18.48362,-33.97176,365.76 18.48392,-33.96969,365.76 18.48449,-33.96582,365.76 18.48442,-33.96468,365.76 18.48457,-33.96288,335.28000000000003 18.48419,-33.96191,335.28000000000003 18.48373,-33.96053,335.28000000000003 18.48388,-33.95926,304.8 18.48399,-33.95803,304.8 18.48366,-33.95685,304.8 18.48328,-33.95541,304.8 18.48299,-33.9535,304.8 18.48283,-33.95222,304.8 18.48278,-33.95127,304.8 18.48253,-33.95002,304.8 18.48246,-33.94887,304.8 18.48223,-33.94713,274.32 18.48207,-33.94509,274.32 18.48227,-33.944,274.32 18.48179,-33.94104,274.32 18.48013,-33.93684,274.32 18.478,-33.93055,274.32 18.47341,-33.93235,274.32 18.47664,-33.93064,274.32 18.47581,-33.92895,274.32 18.47224,-33.92527,274.32 18.46696,-33.92395,274.32 18.4663,-33.922,274.32 18.46359,-33.91948,274.32 18.46221,-33.9181,274.32 18.46028,-33.91729,274.32 18.45747,-33.91608,243.84 18.46137,-33.91532,243.84 18.46257,-33.9143,243.84 18.4609,-33.913,213.36 18.45639,-33.91006,182.88 18.44986,-33.90631,152.4 18.44752,-33.90556,152.4 18.44461,-33.9048,152.4 18.44351,-33.90352,121.92 18.39949,-33.87857,243.84 18.37495,-33.88768,335.28000000000003 18.36861,-33.90023,396.24 18.35836,-33.90211,426.72 18.35005,-33.90394,457.20000000000005 18.35209,-33.9113,487.68 18.35662,-33.91421,487.68 18.359,-33.9199,579.12 18.35484,-33.91486,579.12 18.3618,-33.9138,579.12 18.36274,-33.91067,548.64 18.36549,-33.90988,548.64 18.36127,-33.90691,548.64 18.37367,-33.90756,548.64 18.36662,-33.90538,548.64 18.36959,-33.90273,518.1600000000001 18.37932,-33.90093,518.1600000000001 18.38297,-33.89835,518.1600000000001 18.38936,-33.89656,518.1600000000001 18.39078,-33.89467,487.68 18.38927,-33.89325,487.68 18.38962,-33.89173,487.68 18.38754,-33.88972,487.68 18.40294,-33.8907,457.20000000000005 18.39386,-33.88375,426.72 18.40716,-33.88375,396.24 18.41918,-33.87201,213.36 18.41601,-33.87235,243.84 18.3959,-33.8754,274.32 18.38131,-33.8796,274.32 18.36484,-33.88635,365.76 18.37617,-33.89404,396.24 18.36856,-33.90013,457.20000000000005 18.35869,-33.90135,487.68 18.36437,-33.90392,487.68 18.35874,-33.90547,487.68 18.35726,-33.91265,548.64 18.35401,-33.91423,548.64 18.35935,-33.91735,579.12 18.31781,-34.00017,731.52 18.33846,-34.00574,731.52 18.33885,-34.00837,731.52 18.34025,-34.01007,731.52 18.34017,-34.01145,731.52 18.34029,-34.01279,731.52 18.34055,-34.01422,762 18.34058,-34.01537,762 18.34076,-34.01667,762 18.34096,-34.01811,762 18.34111,-34.01994,762 18.34142,-34.02077,762 18.34193,-34.02212,762 18.34237,-34.02363,762 18.34275,-34.02483,762 18.34289,-34.02594,762 18.34301,-34.02739,762 18.34323,-34.02887,762 18.34324,-34.03059,762 18.34356,-34.03199,762 18.34387,-34.03304,762 18.34426,-34.03421,762 18.34467,-34.03605,762 18.34481,-34.0368,731.52 18.34523,-34.03835,731.52 18.34551,-34.03934,731.52 18.34565,-34.04047,731.52 18.3462,-34.04206,731.52 18.34663,-34.04361,731.52 18.34697,-34.04459,731.52 18.34719,-34.04609,731.52 18.34763,-34.04774,731.52 18.34815,-34.04896,731.52 18.34864,-34.05043,701.0400000000001 18.34891,-34.05162,701.0400000000001 18.34899,-34.05318,701.0400000000001 18.34885,-34.054,701.0400000000001 18.34895,-34.05617,701.0400000000001 18.34895,-34.05734,670.5600000000001 18.34871,-34.05858,670.5600000000001 18.34853,-34.06033,670.5600000000001 18.34291,-34.0643,670.5600000000001 18.34173,-34.06736,670.5600000000001 18.34046,-34.06845,640.08 18.32108,-34.0689,579.12 18.31212,-34.06176,548.64 18.30571,-34.05684,548.64 18.30169,-34.05071,548.64 18.30595,-34.02526,609.6 18.32496,-34.00281,579.12 18.32793,-34.00041,579.12 18.367,-33.92279,579.12 18.35886,-33.9181,579.12 18.37166,-33.91228,579.12 18.37093,-33.90976,579.12 18.37695,-33.90966,579.12 18.37249,-33.90684,548.64 18.37096,-33.90349,548.64 18.394,-33.89778,518.1600000000001 18.39886,-33.89717,487.68 18.39055,-33.89441,487.68 18.38685,-33.89241,487.68 18.39574,-33.8897,426.72 18.40382,-33.89079,426.72 18.40483,-33.88972,426.72 18.40486,-33.88825,396.24 18.4079,-33.88641,365.76 18.41904,-33.88674,365.76 18.41234,-33.87105,274.32 18.38682,-33.88548,365.76 18.37078,-33.88624,396.24 18.38091,-33.88955,396.24 18.36653,-33.89969,487.68 18.36536,-33.90027,487.68 18.35584,-33.90313,487.68 18.35996,-33.90525,518.1600000000001 18.36049,-33.9062,518.1600000000001 18.36133,-33.90772,518.1600000000001 18.35433,-33.90817,518.1600000000001 18.35402,-33.91042,548.64 18.35722,-33.91177,548.64 18.35262,-33.91275,548.64 18.32241,-34.0022,701.0400000000001 18.34818,-34.01093,701.0400000000001 18.33489,-34.01376,701.0400000000001 18.34039,-34.01512,701.0400000000001 18.34696,-34.01657,701.0400000000001 18.34953,-34.01863,701.0400000000001 18.34785,-34.02082,701.0400000000001 18.34692,-34.02109,701.0400000000001 18.34788,-34.02251,701.0400000000001 18.34796,-34.02341,701.0400000000001 18.34821,-34.02473,701.0400000000001 18.34842,-34.02583,701.0400000000001 18.3487,-34.02713,701.0400000000001 18.34895,-34.02832,701.0400000000001 18.34919,-34.02945,701.0400000000001 18.34942,-34.03109,701.0400000000001 18.34955,-34.0323,701.0400000000001 18.34976,-34.03363,701.0400000000001 18.34995,-34.03479,701.0400000000001 18.35012,-34.03615,701.0400000000001 18.35036,-34.0374,701.0400000000001 18.3507,-34.03883,701.0400000000001 18.35099,-34.0401,701.0400000000001 18.35122,-34.04161,670.5600000000001 18.35139,-34.04271,670.5600000000001 18.35155,-34.04425,670.5600000000001 18.35163,-34.04534,670.5600000000001 18.35187,-34.04646,670.5600000000001 18.35226,-34.048,670.5600000000001 18.3525,-34.04946,670.5600000000001 18.35255,-34.05055,640.08 18.35224,-34.05256,640.08 18.35216,-34.05328,640.08 18.34762,-34.05667,640.08 18.34811,-34.05793,640.08 18.34616,-34.0597,609.6 18.34476,-34.06098,609.6 18.28489,-34.05548,548.64 18.28488,-34.05283,548.64 18.30025,-34.02776,609.6 18.30402,-34.02567,609.6 18.32436,-34.00095,579.12 18.36343,-33.92113,579.12 18.3553,-33.91862,579.12 18.36424,-33.91655,579.12 18.36525,-33.91525,579.12 18.36236,-33.91161,548.64 18.36331,-33.91066,548.64 18.37108,-33.90979,548.64 18.37418,-33.90786,548.64 18.37734,-33.90499,548.64 18.3785,-33.9041,548.64 18.37659,-33.90276,548.64 18.37615,-33.90147,518.1600000000001 18.3909,-33.90174,518.1600000000001 18.38358,-33.89874,518.1600000000001 18.38195,-33.89419,487.68 18.38796,-33.89454,487.68 18.39283,-33.89338,457.20000000000005 18.38896,-33.89055,457.20000000000005 18.41397,-33.88639,396.24</coordinates>
      </LineString>
    </Placemark>
  </Document>
</kml>
