<?xml version="1.0" encoding="UTF-8"?>
<kml xmlns="http://www.opengis.net/kml/2.2">
  <Document>
    <name>FR24 ZSHBO 3e02a03f</name>
    <Placemark>
      <name>FR24 ZSHBO 3e02a03f</name>
      <description><![CDATA[Source: ADS-B
Start (SAST): 2026-01-22 08:53:49
End (SAST): 2026-01-22 11:37:59
Points: 1807]]></description>
      <Style><LineStyle><color>ff0000ff</color><width>4</width></LineStyle></Style>
      <LineString>
        <tessellate>1</tessellate>
        <altitudeMode>absolute</altitudeMode>
        <coordinates>18.4294,-33.89616,45.72 18.43048,-33.89408,76.2 18.4314,-33.89198,106.68 18.43175,-33.89113,121.92 18.43214,-33.89021,137.16 18.43237,-33.88952,144.78 18.43271,-33.8884,160.02 18.43293,-33.88765,167.64000000000001 18.43306,-33.88691,175.26000000000002 18.4331,-33.88609,182.88 18.43304,-33.88504,190.5 18.43287,-33.88417,198.12 18.43254,-33.88312,213.36 18.4322,-33.88234,220.98000000000002 18.43174,-33.88142,228.60000000000002 18.43125,-33.8806,236.22 18.43065,-33.87983,243.84 18.42997,-33.879,251.46 18.42912,-33.87817,259.08000000000004 18.42842,-33.8776,266.7 18.42755,-33.87698,274.32 18.42648,-33.87639,274.32 18.42547,-33.87593,281.94 18.42442,-33.87555,289.56 18.42334,-33.87524,297.18 18.4223,-33.87499,304.8 18.4211,-33.87483,312.42 18.41995,-33.87476,320.04 18.41801,-33.87485,335.28000000000003 18.41695,-33.87497,350.52000000000004 18.41595,-33.87513,358.14000000000004 18.4146,-33.87543,373.38 18.4137,-33.87566,381 18.41247,-33.87598,396.24 18.41157,-33.87621,403.86 18.41045,-33.87658,411.48 18.40939,-33.87689,419.1 18.40839,-33.87723,426.72 18.40725,-33.87765,434.34000000000003 18.40593,-33.8782,441.96000000000004 18.40485,-33.87862,441.96000000000004 18.40393,-33.87904,449.58000000000004 18.40311,-33.87936,457.20000000000005 18.40193,-33.87988,464.82000000000005 18.40075,-33.88046,464.82000000000005 18.40014,-33.88078,472.44 18.39879,-33.88142,472.44 18.39784,-33.88188,480.06 18.39689,-33.88243,480.06 18.39577,-33.88307,487.68 18.39478,-33.88361,487.68 18.39392,-33.88412,495.3 18.39277,-33.88482,502.92 18.39186,-33.88537,502.92 18.39054,-33.88617,502.92 18.38968,-33.88672,510.54 18.38848,-33.88747,518.1600000000001 18.38753,-33.88811,518.1600000000001 18.38629,-33.88893,518.1600000000001 18.38534,-33.88966,518.1600000000001 18.38425,-33.89054,518.1600000000001 18.38338,-33.89122,525.78 18.38237,-33.89204,525.78 18.38156,-33.89278,525.78 18.38052,-33.89365,533.4 18.37968,-33.89442,533.4 18.37898,-33.89501,533.4 18.37805,-33.89589,541.02 18.37716,-33.89676,541.02 18.37643,-33.89745,541.02 18.37549,-33.89836,548.64 18.37469,-33.89911,548.64 18.37378,-33.90004,556.26 18.37312,-33.9007,556.26 18.37234,-33.90157,563.88 18.37166,-33.90225,571.5 18.37091,-33.90311,586.74 18.37006,-33.90404,586.74 18.36943,-33.90488,594.36 18.36885,-33.90562,594.36 18.36811,-33.90656,594.36 18.36748,-33.90734,594.36 18.36674,-33.90837,601.98 18.36611,-33.90921,601.98 18.36544,-33.91013,609.6 18.36477,-33.91113,609.6 18.36416,-33.912,609.6 18.36365,-33.91283,609.6 18.36308,-33.91372,609.6 18.36239,-33.91479,609.6 18.36182,-33.91568,609.6 18.36119,-33.9167,624.84 18.36061,-33.91763,624.84 18.35999,-33.91866,624.84 18.35947,-33.91954,624.84 18.35888,-33.92043,624.84 18.35838,-33.92125,624.84 18.35765,-33.92244,624.84 18.35709,-33.92331,624.84 18.35667,-33.92411,624.84 18.35455,-33.92741,632.46 18.35249,-33.93073,640.08 18.3506,-33.93379,640.08 18.34885,-33.93672,640.08 18.34665,-33.94044,632.46 18.34414,-33.94482,632.46 18.3419,-33.94899,624.84 18.34024,-33.95208,624.84 18.3387,-33.95511,617.22 18.33674,-33.95883,601.98 18.33315,-33.96633,586.74 18.3322,-33.96863,579.12 18.33136,-33.97124,571.5 18.33109,-33.9721,571.5 18.32996,-33.97787,563.88 18.32983,-33.97899,563.88 18.32973,-33.98424,548.64 18.32985,-33.98662,556.26 18.33,-33.98914,556.26 18.33013,-33.99156,548.64 18.33063,-33.99673,548.64 18.33119,-34.0009,533.4 18.3313,-34.00227,533.4 18.33155,-34.00413,525.78 18.33172,-34.00501,525.78 18.33181,-34.00612,518.1600000000001 18.33192,-34.00685,518.1600000000001 18.33248,-34.01079,502.92 18.33309,-34.01414,487.68 18.33366,-34.01604,480.06 18.33509,-34.01907,464.82000000000005 18.33573,-34.02017,464.82000000000005 18.33618,-34.02095,464.82000000000005 18.3367,-34.02191,464.82000000000005 18.33721,-34.0228,464.82000000000005 18.33769,-34.02365,464.82000000000005 18.33813,-34.02443,464.82000000000005 18.3387,-34.0254,464.82000000000005 18.33916,-34.0261,457.20000000000005 18.33967,-34.02703,457.20000000000005 18.34117,-34.0296,457.20000000000005 18.34162,-34.03038,449.58000000000004 18.34202,-34.03094,449.58000000000004 18.3427,-34.03211,449.58000000000004 18.3433,-34.03308,449.58000000000004 18.34375,-34.03381,449.58000000000004 18.34425,-34.03482,464.82000000000005 18.34471,-34.03574,464.82000000000005 18.34509,-34.03651,464.82000000000005 18.34543,-34.03729,472.44 18.34588,-34.03839,472.44 18.3462,-34.03923,472.44 18.34642,-34.04002,480.06 18.34671,-34.04114,472.44 18.34682,-34.04198,480.06 18.34694,-34.04301,487.68 18.34694,-34.0442,480.06 18.34694,-34.04521,487.68 18.34683,-34.04631,495.3 18.34677,-34.04696,495.3 18.3466,-34.04821,502.92 18.34644,-34.04929,502.92 18.34616,-34.05048,502.92 18.34591,-34.05138,502.92 18.34557,-34.05254,510.54 18.34509,-34.05396,510.54 18.34459,-34.05515,510.54 18.34391,-34.05673,518.1600000000001 18.34324,-34.05812,518.1600000000001 18.3424,-34.0621,518.1600000000001 18.34268,-34.06274,518.1600000000001 18.34403,-34.06393,533.4 18.34539,-34.06418,533.4 18.3461,-34.06416,541.02 18.34745,-34.06371,548.64 18.34829,-34.06311,548.64 18.34896,-34.06233,548.64 18.34951,-34.06087,548.64 18.34963,-34.0592,541.02 18.34946,-34.0579,533.4 18.34917,-34.0565,533.4 18.34896,-34.05542,525.78 18.34866,-34.05403,525.78 18.3484,-34.05267,525.78 18.34818,-34.05157,525.78 18.34791,-34.04993,518.1600000000001 18.34767,-34.04874,518.1600000000001 18.3474,-34.0471,518.1600000000001 18.34717,-34.04562,518.1600000000001 18.34694,-34.0443,510.54 18.34671,-34.04309,510.54 18.34655,-34.04219,510.54 18.3461,-34.0405,510.54 18.34562,-34.03909,510.54 18.34521,-34.03789,510.54 18.34459,-34.0363,510.54 18.34414,-34.03518,510.54 18.34351,-34.03374,510.54 18.34291,-34.03235,510.54 18.3423,-34.03122,510.54 18.34173,-34.03011,510.54 18.34093,-34.02871,502.92 18.3403,-34.02764,510.54 18.3395,-34.02624,502.92 18.33881,-34.02522,495.3 18.33814,-34.02411,495.3 18.33753,-34.02306,495.3 18.33674,-34.02177,495.3 18.33613,-34.02072,495.3 18.33551,-34.01967,487.68 18.3345,-34.01779,487.68 18.33389,-34.01656,495.3 18.33344,-34.01549,495.3 18.33292,-34.01432,502.92 18.33243,-34.01299,502.92 18.33203,-34.0118,518.1600000000001 18.3316,-34.01027,525.78 18.33126,-34.00874,533.4 18.33103,-34.00771,541.02 18.33091,-34.00671,548.64 18.3308,-34.00529,548.64 18.33075,-34.00404,556.26 18.33069,-34.0025,563.88 18.33075,-34.00101,579.12 18.3308,-33.99925,579.12 18.33091,-33.99802,579.12 18.33109,-33.99673,579.12 18.33254,-33.99074,563.88 18.33366,-33.98776,556.26 18.33495,-33.98451,548.64 18.33624,-33.98132,548.64 18.3391,-33.97485,533.4 18.34229,-33.96817,533.4 18.34386,-33.96506,548.64 18.34672,-33.95943,541.02 18.34854,-33.95585,533.4 18.35112,-33.95069,502.92 18.35318,-33.94673,487.68 18.35512,-33.943,472.44 18.35718,-33.939,472.44 18.35953,-33.93435,487.68 18.36124,-33.93086,495.3 18.36296,-33.92722,495.3 18.36496,-33.92303,480.06 18.36674,-33.91945,495.3 18.36864,-33.91576,502.92 18.37057,-33.91242,495.3 18.37116,-33.91145,487.68 18.372,-33.91013,495.3 18.37275,-33.90898,495.3 18.37351,-33.90779,487.68 18.37441,-33.90651,495.3 18.37514,-33.90546,495.3 18.37589,-33.90446,495.3 18.37648,-33.90363,495.3 18.37738,-33.90237,487.68 18.3783,-33.9012,487.68 18.37915,-33.90022,487.68 18.38018,-33.89909,480.06 18.38108,-33.89804,480.06 18.38207,-33.89706,480.06 18.38299,-33.89616,487.68 18.38385,-33.89538,487.68 18.38517,-33.89415,502.92 18.38602,-33.89347,510.54 18.38696,-33.89268,518.1600000000001 18.38837,-33.89166,518.1600000000001 18.38949,-33.8909,518.1600000000001 18.39027,-33.89035,518.1600000000001 18.39156,-33.88953,518.1600000000001 18.39268,-33.88889,525.78 18.39403,-33.88821,533.4 18.39535,-33.88752,525.78 18.39666,-33.88691,533.4 18.39806,-33.88632,525.78 18.39952,-33.88575,525.78 18.40067,-33.88528,518.1600000000001 18.40215,-33.88477,518.1600000000001 18.4037,-33.88426,518.1600000000001 18.4049,-33.88388,510.54 18.40611,-33.88351,510.54 18.40759,-33.88314,510.54 18.40908,-33.88277,510.54 18.41022,-33.88253,502.92 18.41171,-33.88226,502.92 18.41297,-33.88206,502.92 18.41477,-33.88188,495.3 18.41606,-33.88174,495.3 18.4174,-33.88165,487.68 18.41914,-33.88156,487.68 18.42071,-33.88152,487.68 18.42245,-33.88147,472.44 18.42356,-33.88151,472.44 18.42539,-33.88156,464.82000000000005 18.42682,-33.88156,464.82000000000005 18.42836,-33.88165,457.20000000000005 18.42974,-33.88174,457.20000000000005 18.43114,-33.88184,449.58000000000004 18.43248,-33.88202,449.58000000000004 18.4342,-33.8823,441.96000000000004 18.43556,-33.88261,441.96000000000004 18.43689,-33.883,434.34000000000003 18.43809,-33.88342,426.72 18.43918,-33.88388,419.1 18.4405,-33.88458,411.48 18.44147,-33.88523,403.86 18.44257,-33.88614,396.24 18.44347,-33.88701,381 18.44408,-33.88779,373.38 18.44459,-33.88857,365.76 18.44515,-33.88966,342.90000000000003 18.44543,-33.89021,335.28000000000003 18.44582,-33.89143,320.04 18.44593,-33.89227,304.8 18.44588,-33.89328,297.18 18.44564,-33.89399,281.94 18.44513,-33.89492,259.08000000000004 18.44456,-33.89548,243.84 18.44364,-33.89608,228.60000000000002 18.44263,-33.89648,205.74 18.44184,-33.8968,198.12 18.44106,-33.89703,190.5 18.44022,-33.89731,182.88 18.43915,-33.89763,160.02 18.43848,-33.89786,152.4 18.43736,-33.89818,144.78 18.43635,-33.89845,129.54000000000002 18.43551,-33.89868,114.30000000000001 18.435,-33.89882,106.68 18.4341,-33.89909,91.44 18.43338,-33.89928,76.2 18.43248,-33.89951,60.96 18.43175,-33.89969,53.34 18.43097,-33.89987,38.1 18.43063,-33.89996,30.48 18.43031,-33.90004,30.48 18.42951,-33.90024,22.86 18.42899,-33.90041,15.24 18.42856,-33.90056,7.62 18.42828,-33.90065,0 18.42805,-33.90074,0 18.42779,-33.90078,0 18.42739,-33.90097,0 18.42716,-33.90106,0 18.42693,-33.90125,0 18.4271,-33.90092,0 18.4271,-33.90065,0 18.4271,-33.90032,7.62 18.42749,-33.89955,15.24 18.42783,-33.89909,15.24 18.42822,-33.89868,15.24 18.42848,-33.89846,22.86 18.42911,-33.89785,30.48 18.42939,-33.89766,30.48 18.43001,-33.89713,45.72 18.43065,-33.89659,53.34 18.43119,-33.89612,60.96 18.43164,-33.8958,76.2 18.43225,-33.89534,83.82000000000001 18.43287,-33.89488,91.44 18.43371,-33.89429,106.68 18.43426,-33.89394,114.30000000000001 18.43495,-33.89351,121.92 18.43557,-33.89324,129.54000000000002 18.4364,-33.89301,137.16 18.43708,-33.89291,144.78 18.43769,-33.89291,160.02 18.43855,-33.89305,167.64000000000001 18.43935,-33.89329,167.64000000000001 18.43998,-33.89366,182.88 18.44078,-33.8941,190.5 18.44123,-33.89447,198.12 18.4419,-33.89497,213.36 18.44244,-33.89543,220.98000000000002 18.44307,-33.89589,228.60000000000002 18.44376,-33.89645,243.84 18.44419,-33.89685,251.46 18.4449,-33.89743,251.46 18.44553,-33.89804,266.7 18.44604,-33.89854,274.32 18.44662,-33.89911,281.94 18.44728,-33.89978,289.56 18.44778,-33.90028,289.56 18.44851,-33.90097,304.8 18.44907,-33.90152,304.8 18.44975,-33.90221,312.42 18.45034,-33.90279,320.04 18.45108,-33.90353,320.04 18.45171,-33.90418,320.04 18.4524,-33.90479,320.04 18.45308,-33.90548,320.04 18.45394,-33.90628,327.66 18.45463,-33.90693,335.28000000000003 18.45531,-33.90753,335.28000000000003 18.45602,-33.9082,335.28000000000003 18.45692,-33.90903,335.28000000000003 18.4576,-33.90963,335.28000000000003 18.45846,-33.91042,342.90000000000003 18.45915,-33.91103,342.90000000000003 18.45995,-33.91173,350.52000000000004 18.46104,-33.91265,342.90000000000003 18.46167,-33.91321,350.52000000000004 18.46264,-33.91402,350.52000000000004 18.46338,-33.9147,358.14000000000004 18.4643,-33.91549,350.52000000000004 18.46498,-33.91605,350.52000000000004 18.46594,-33.91681,350.52000000000004 18.46682,-33.9175,358.14000000000004 18.46785,-33.91824,358.14000000000004 18.4688,-33.91896,358.14000000000004 18.46964,-33.91956,365.76 18.47042,-33.92006,365.76 18.47122,-33.92061,358.14000000000004 18.47219,-33.92126,358.14000000000004 18.47323,-33.92203,358.14000000000004 18.4742,-33.92271,358.14000000000004 18.47528,-33.92345,358.14000000000004 18.47609,-33.924,358.14000000000004 18.4771,-33.92477,358.14000000000004 18.47788,-33.92542,358.14000000000004 18.47884,-33.92633,358.14000000000004 18.47934,-33.92693,350.52000000000004 18.48007,-33.92793,350.52000000000004 18.48057,-33.92876,350.52000000000004 18.48102,-33.92981,358.14000000000004 18.48146,-33.93081,358.14000000000004 18.48181,-33.93169,358.14000000000004 18.48214,-33.93265,350.52000000000004 18.48242,-33.93356,350.52000000000004 18.48276,-33.93475,350.52000000000004 18.48295,-33.9356,350.52000000000004 18.48321,-33.93672,342.90000000000003 18.48338,-33.93764,342.90000000000003 18.48352,-33.93854,342.90000000000003 18.4836,-33.93938,342.90000000000003 18.48375,-33.94044,342.90000000000003 18.48392,-33.9418,335.28000000000003 18.48399,-33.94267,335.28000000000003 18.4841,-33.94363,335.28000000000003 18.48421,-33.94473,335.28000000000003 18.48438,-33.94601,327.66 18.48444,-33.94691,327.66 18.48455,-33.94785,327.66 18.48461,-33.94904,327.66 18.48473,-33.95031,327.66 18.48478,-33.95134,327.66 18.48501,-33.95436,327.66 18.48528,-33.95782,320.04 18.48553,-33.96116,304.8 18.48573,-33.9641,304.8 18.48587,-33.96833,312.42 18.48604,-33.97266,312.42 18.48598,-33.97657,327.66 18.48595,-33.97948,327.66 18.48607,-33.98172,335.28000000000003 18.48635,-33.98277,335.28000000000003 18.48674,-33.98369,335.28000000000003 18.48747,-33.9847,335.28000000000003 18.48825,-33.98543,335.28000000000003 18.48919,-33.98602,335.28000000000003 18.49049,-33.98653,335.28000000000003 18.49162,-33.9868,342.90000000000003 18.49285,-33.98694,350.52000000000004 18.49442,-33.98708,350.52000000000004 18.49565,-33.98708,350.52000000000004 18.49717,-33.98708,350.52000000000004 18.4984,-33.98703,350.52000000000004 18.49977,-33.987,342.90000000000003 18.50126,-33.98698,342.90000000000003 18.50246,-33.98695,342.90000000000003 18.50395,-33.9869,335.28000000000003 18.50544,-33.98686,335.28000000000003 18.5067,-33.98681,335.28000000000003 18.50801,-33.98676,327.66 18.50933,-33.98667,327.66 18.5109,-33.98662,320.04 18.51254,-33.98653,320.04 18.51398,-33.98643,320.04 18.51528,-33.98635,320.04 18.51706,-33.98621,320.04 18.51835,-33.98607,320.04 18.52009,-33.98593,320.04 18.52132,-33.98579,320.04 18.52284,-33.98566,320.04 18.52873,-33.98509,320.04 18.53279,-33.98467,312.42 18.53848,-33.98396,304.8 18.54406,-33.98332,297.18 18.5495,-33.98262,289.56 18.55104,-33.98234,289.56 18.55221,-33.98204,289.56 18.55362,-33.9816,289.56 18.55465,-33.98113,289.56 18.55608,-33.98044,289.56 18.55734,-33.97978,297.18 18.55837,-33.97908,297.18 18.55944,-33.97838,297.18 18.56071,-33.97741,297.18 18.56169,-33.97662,289.56 18.5626,-33.97583,289.56 18.56359,-33.97499,297.18 18.56465,-33.97412,297.18 18.56569,-33.97317,297.18 18.56673,-33.97224,297.18 18.56762,-33.97142,297.18 18.56852,-33.9706,297.18 18.56964,-33.96959,304.8 18.57067,-33.96875,297.18 18.57171,-33.9679,304.8 18.57256,-33.96721,304.8 18.57384,-33.96625,297.18 18.57508,-33.96538,297.18 18.57611,-33.9647,289.56 18.57726,-33.964,289.56 18.5785,-33.96332,289.56 18.57971,-33.9627,289.56 18.5808,-33.96218,281.94 18.58203,-33.96158,281.94 18.58321,-33.96107,281.94 18.58475,-33.96046,274.32 18.58629,-33.95993,274.32 18.58749,-33.95953,274.32 18.58864,-33.95915,274.32 18.59024,-33.95869,274.32 18.5915,-33.95837,274.32 18.59279,-33.95801,274.32 18.59402,-33.95773,274.32 18.59556,-33.95734,274.32 18.59682,-33.95707,274.32 18.59817,-33.95682,274.32 18.59946,-33.95659,274.32 18.60065,-33.95637,281.94 18.60198,-33.95618,281.94 18.60355,-33.95595,281.94 18.60495,-33.95586,289.56 18.60626,-33.95581,289.56 18.60759,-33.95586,289.56 18.60889,-33.95595,289.56 18.61017,-33.95613,289.56 18.61134,-33.95631,289.56 18.61284,-33.95665,289.56 18.61403,-33.957,297.18 18.61516,-33.95741,297.18 18.6165,-33.95792,297.18 18.61757,-33.95837,297.18 18.61869,-33.95883,304.8 18.61971,-33.95925,304.8 18.6208,-33.95976,304.8 18.62206,-33.96028,304.8 18.62326,-33.96083,304.8 18.62435,-33.9613,304.8 18.62541,-33.96181,304.8 18.62665,-33.96236,297.18 18.62766,-33.96286,297.18 18.62881,-33.96339,297.18 18.62961,-33.96381,289.56 18.63081,-33.96437,289.56 18.63186,-33.96492,289.56 18.63293,-33.96544,289.56 18.6373,-33.96753,281.94 18.64185,-33.96968,289.56 18.64526,-33.97124,289.56 18.65008,-33.97353,297.18 18.65501,-33.97587,297.18 18.65948,-33.97801,289.56 18.66426,-33.98021,304.8 18.66773,-33.98181,304.8 18.67143,-33.98364,304.8 18.67508,-33.98552,304.8 18.6763,-33.98616,304.8 18.67733,-33.98667,304.8 18.67838,-33.98726,304.8 18.67968,-33.98798,304.8 18.68074,-33.98854,312.42 18.68208,-33.98927,304.8 18.68326,-33.98996,304.8 18.68432,-33.99055,304.8 18.68533,-33.9911,312.42 18.68657,-33.99184,312.42 18.68769,-33.99248,304.8 18.68912,-33.99324,304.8 18.6901,-33.99376,312.42 18.69133,-33.99449,312.42 18.69238,-33.9951,312.42 18.69341,-33.99566,312.42 18.69447,-33.99628,312.42 18.69896,-33.99882,304.8 18.70285,-34.0011,304.8 18.70634,-34.00315,304.8 18.70972,-34.00511,297.18 18.7133,-34.00722,304.8 18.71672,-34.00919,289.56 18.7175,-34.00967,289.56 18.71881,-34.01051,289.56 18.72007,-34.01125,289.56 18.7211,-34.0119,289.56 18.72213,-34.01255,289.56 18.72356,-34.01344,281.94 18.72457,-34.01404,281.94 18.72585,-34.01479,281.94 18.72698,-34.01546,281.94 18.72808,-34.01609,281.94 18.72911,-34.0167,281.94 18.7304,-34.01747,274.32 18.73129,-34.018,281.94 18.73232,-34.01865,281.94 18.73363,-34.01944,281.94 18.73808,-34.02209,274.32 18.74165,-34.02415,274.32 18.74598,-34.02672,281.94 18.74943,-34.0288,274.32 18.75265,-34.03075,266.7 18.75702,-34.03345,266.7 18.76022,-34.03542,281.94 18.76471,-34.03811,281.94 18.76957,-34.04105,281.94 18.77169,-34.04221,281.94 18.773,-34.04292,289.56 18.7744,-34.04366,289.56 18.77552,-34.04426,289.56 18.77676,-34.04489,289.56 18.77781,-34.04547,281.94 18.77907,-34.04612,281.94 18.78016,-34.04668,289.56 18.78124,-34.04724,289.56 18.7827,-34.048,289.56 18.78387,-34.0486,281.94 18.78519,-34.04924,281.94 18.78628,-34.0498,281.94 18.78735,-34.05034,281.94 18.78868,-34.05101,274.32 18.79017,-34.05175,281.94 18.79111,-34.05222,274.32 18.79256,-34.05295,274.32 18.7938,-34.05359,274.32 18.79497,-34.05418,281.94 18.79609,-34.05478,274.32 18.79749,-34.05552,274.32 18.79873,-34.0562,274.32 18.7999,-34.05683,274.32 18.80097,-34.05739,274.32 18.80232,-34.05807,274.32 18.8035,-34.05869,274.32 18.80433,-34.05913,274.32 18.80568,-34.0599,274.32 18.80711,-34.06069,274.32 18.80798,-34.06114,274.32 18.80928,-34.0619,274.32 18.81067,-34.0627,274.32 18.81212,-34.06348,281.94 18.81311,-34.06409,281.94 18.81459,-34.06494,274.32 18.81571,-34.06558,281.94 18.81798,-34.06702,289.56 18.8193,-34.06787,289.56 18.82055,-34.06874,289.56 18.82165,-34.06947,289.56 18.82294,-34.07039,289.56 18.82384,-34.07103,289.56 18.82513,-34.07195,289.56 18.8261,-34.07265,289.56 18.82736,-34.07363,281.94 18.82849,-34.07451,289.56 18.82959,-34.0754,281.94 18.83057,-34.0762,297.18 18.83177,-34.07722,289.56 18.83275,-34.07803,289.56 18.83354,-34.07866,289.56 18.83466,-34.07964,297.18 18.83544,-34.08032,289.56 18.83662,-34.08133,289.56 18.8376,-34.08215,297.18 18.83869,-34.08316,297.18 18.83953,-34.08394,297.18 18.84058,-34.08499,304.8 18.84138,-34.08577,304.8 18.84228,-34.08669,304.8 18.8434,-34.08783,304.8 18.84424,-34.08871,304.8 18.84497,-34.08952,304.8 18.8459,-34.09044,312.42 18.84676,-34.09142,304.8 18.84756,-34.09225,304.8 18.84839,-34.09309,304.8 18.84946,-34.09419,304.8 18.85025,-34.095,304.8 18.85125,-34.09602,304.8 18.85192,-34.09676,304.8 18.85293,-34.09785,304.8 18.85366,-34.09872,304.8 18.85454,-34.09979,304.8 18.85529,-34.10063,304.8 18.85646,-34.10193,297.18 18.85723,-34.10277,289.56 18.85803,-34.10361,289.56 18.85918,-34.10477,289.56 18.86015,-34.1058,289.56 18.86128,-34.10692,289.56 18.86218,-34.1077,289.56 18.86301,-34.10845,289.56 18.86425,-34.10953,289.56 18.86526,-34.11035,281.94 18.86627,-34.11115,289.56 18.86717,-34.11182,289.56 18.86822,-34.11255,289.56 18.86925,-34.11325,289.56 18.87064,-34.11415,289.56 18.87148,-34.11465,289.56 18.87289,-34.11548,297.18 18.87411,-34.11623,297.18 18.87524,-34.1169,304.8 18.87659,-34.11772,320.04 18.87765,-34.11836,320.04 18.87875,-34.11902,320.04 18.88012,-34.11978,320.04 18.88141,-34.12051,327.66 18.88275,-34.12125,335.28000000000003 18.88355,-34.12172,335.28000000000003 18.88516,-34.12253,342.90000000000003 18.88641,-34.12316,350.52000000000004 18.88757,-34.12372,350.52000000000004 18.88881,-34.12431,358.14000000000004 18.88996,-34.12484,358.14000000000004 18.89145,-34.12549,365.76 18.8925,-34.12596,365.76 18.89374,-34.12651,373.38 18.89471,-34.12693,381 18.89576,-34.12743,381 18.89738,-34.1282,396.24 18.89845,-34.12875,396.24 18.89957,-34.12931,403.86 18.90069,-34.1299,411.48 18.90169,-34.13042,411.48 18.90312,-34.13117,411.48 18.90444,-34.13182,419.1 18.90541,-34.13238,426.72 18.9065,-34.13294,426.72 18.90787,-34.13368,441.96000000000004 18.90924,-34.13443,441.96000000000004 18.91033,-34.13503,441.96000000000004 18.91142,-34.13568,449.58000000000004 18.91251,-34.13634,457.20000000000005 18.91354,-34.13694,457.20000000000005 18.91457,-34.13759,464.82000000000005 18.91588,-34.13843,472.44 18.91691,-34.13908,472.44 18.91846,-34.14006,480.06 18.91941,-34.1407,480.06 18.92069,-34.14155,487.68 18.92171,-34.1423,487.68 18.92275,-34.14314,502.92 18.92367,-34.14386,502.92 18.92473,-34.14478,502.92 18.92595,-34.14588,518.1600000000001 18.92686,-34.1467,518.1600000000001 18.9279,-34.14765,525.78 18.92883,-34.14848,533.4 18.92984,-34.1494,533.4 18.93087,-34.15021,541.02 18.93191,-34.15105,533.4 18.93288,-34.15174,541.02 18.93425,-34.15273,548.64 18.93522,-34.15343,548.64 18.93625,-34.15417,556.26 18.9374,-34.15496,563.88 18.93858,-34.15581,571.5 18.93974,-34.15664,571.5 18.9411,-34.15764,579.12 18.94209,-34.15831,579.12 18.94329,-34.15915,571.5 18.94447,-34.15997,571.5 18.94581,-34.16087,571.5 18.94941,-34.16329,556.26 18.95377,-34.16615,571.5 18.95484,-34.16693,563.88 18.95568,-34.16753,563.88 18.95908,-34.16985,579.12 18.9605,-34.17073,579.12 18.9638,-34.17293,586.74 18.96601,-34.17432,579.12 18.96728,-34.17517,579.12 18.96874,-34.17618,579.12 18.97087,-34.17773,571.5 18.97266,-34.17929,579.12 18.95988,-34.19644,548.64 18.95865,-34.19275,586.74 18.95769,-34.18959,579.12 18.95663,-34.18602,579.12 18.95628,-34.18498,579.12 18.95573,-34.18369,571.5 18.95523,-34.18272,579.12 18.95439,-34.1813,571.5 18.95377,-34.18044,563.88 18.95321,-34.1797,563.88 18.95239,-34.17856,563.88 18.95175,-34.17773,563.88 18.95102,-34.17679,563.88 18.95027,-34.17591,563.88 18.94951,-34.1749,563.88 18.94867,-34.17384,556.26 18.9477,-34.17255,548.64 18.94693,-34.1716,548.64 18.94621,-34.17065,548.64 18.94552,-34.16976,541.02 18.94463,-34.16862,533.4 18.94363,-34.16734,525.78 18.9429,-34.16638,525.78 18.94217,-34.16547,518.1600000000001 18.94066,-34.16362,510.54 18.9398,-34.16254,502.92 18.939,-34.16171,502.92 18.93813,-34.16071,502.92 18.93723,-34.15966,502.92 18.93617,-34.15837,502.92 18.93534,-34.15747,502.92 18.93443,-34.1564,502.92 18.93351,-34.15528,502.92 18.93269,-34.15439,502.92 18.93167,-34.15324,495.3 18.93085,-34.15233,502.92 18.92989,-34.15132,502.92 18.92899,-34.15044,502.92 18.92804,-34.14949,495.3 18.92693,-34.14853,502.92 18.92597,-34.14771,495.3 18.92479,-34.14674,487.68 18.92384,-34.14593,487.68 18.92266,-34.145,487.68 18.92148,-34.14404,487.68 18.92023,-34.14309,480.06 18.91913,-34.14221,487.68 18.91812,-34.14148,480.06 18.917,-34.14061,480.06 18.91611,-34.13992,480.06 18.91487,-34.13901,472.44 18.91365,-34.13815,457.20000000000005 18.91228,-34.13722,449.58000000000004 18.91119,-34.13657,441.96000000000004 18.9101,-34.13587,426.72 18.90862,-34.13503,426.72 18.90753,-34.13438,419.1 18.90624,-34.13365,411.48 18.90467,-34.1328,403.86 18.90352,-34.13215,396.24 18.90209,-34.13136,396.24 18.90058,-34.13058,381 18.89957,-34.13005,381 18.89814,-34.12931,365.76 18.89688,-34.12862,365.76 18.89536,-34.12784,365.76 18.89425,-34.12726,358.14000000000004 18.89278,-34.12651,358.14000000000004 18.88887,-34.12447,342.90000000000003 18.88499,-34.12244,327.66 18.88212,-34.12093,320.04 18.8809,-34.12024,312.42 18.87956,-34.11946,312.42 18.87827,-34.11864,312.42 18.8772,-34.118,304.8 18.87608,-34.11726,312.42 18.87491,-34.1165,304.8 18.87362,-34.11562,304.8 18.87228,-34.11474,304.8 18.8712,-34.11392,304.8 18.86993,-34.11297,297.18 18.86896,-34.11227,297.18 18.86801,-34.11145,297.18 18.86679,-34.1105,289.56 18.86543,-34.10939,297.18 18.86444,-34.10855,289.56 18.86347,-34.10765,297.18 18.86204,-34.10636,289.56 18.86106,-34.1055,289.56 18.86015,-34.10468,289.56 18.85895,-34.10357,289.56 18.85803,-34.10266,289.56 18.85691,-34.10161,281.94 18.85624,-34.10106,281.94 18.85511,-34.09998,281.94 18.85391,-34.09891,281.94 18.85287,-34.09795,274.32 18.84974,-34.09515,274.32 18.84581,-34.09172,259.08000000000004 18.84127,-34.08778,274.32 18.83783,-34.08504,274.32 18.8369,-34.08435,274.32 18.83589,-34.08357,274.32 18.83469,-34.08266,266.7 18.83383,-34.08196,281.94 18.83281,-34.08119,281.94 18.83165,-34.0802,281.94 18.83062,-34.07941,281.94 18.82961,-34.07867,281.94 18.82839,-34.07773,274.32 18.82737,-34.07693,281.94 18.82653,-34.07616,281.94 18.82569,-34.07524,281.94 18.82463,-34.07405,281.94 18.82373,-34.07314,281.94 18.82289,-34.07227,289.56 18.82181,-34.07116,281.94 18.82053,-34.06989,281.94 18.81964,-34.06902,289.56 18.81857,-34.06796,289.56 18.81769,-34.06716,281.94 18.81638,-34.066,289.56 18.81532,-34.06508,289.56 18.81414,-34.06404,289.56 18.81308,-34.06316,289.56 18.81226,-34.06241,289.56 18.81106,-34.06142,289.56 18.81022,-34.06073,289.56 18.80888,-34.05962,297.18 18.80809,-34.05899,289.56 18.80719,-34.05826,289.56 18.8063,-34.05753,281.94 18.80501,-34.05661,289.56 18.80424,-34.05603,289.56 18.80344,-34.05543,281.94 18.80243,-34.05469,281.94 18.80164,-34.05405,281.94 18.80098,-34.0531,289.56 18.80081,-34.05245,289.56 18.80086,-34.05148,289.56 18.80116,-34.05082,281.94 18.80181,-34.05025,281.94 18.80271,-34.04988,274.32 18.80339,-34.04989,266.7 18.80428,-34.0502,259.08000000000004 18.80482,-34.05073,251.46 18.80506,-34.05135,243.84 18.80499,-34.05203,228.60000000000002 18.80467,-34.05272,220.98000000000002 18.80413,-34.05329,220.98000000000002 18.80333,-34.05375,213.36 18.80236,-34.05408,213.36 18.80153,-34.05423,213.36 18.80058,-34.05431,213.36 18.79927,-34.05436,213.36 18.79828,-34.05437,213.36 18.79688,-34.05432,213.36 18.79542,-34.05418,205.74 18.7943,-34.05409,205.74 18.79296,-34.05396,213.36 18.79171,-34.05375,213.36 18.79066,-34.05363,213.36 18.78908,-34.05333,213.36 18.78788,-34.0531,205.74 18.78656,-34.05287,205.74 18.78502,-34.05254,205.74 18.78342,-34.05222,213.36 18.7823,-34.05194,213.36 18.78079,-34.05157,213.36 18.77953,-34.05128,220.98000000000002 18.7781,-34.05093,220.98000000000002 18.77684,-34.05063,213.36 18.77569,-34.05034,213.36 18.77407,-34.04993,213.36 18.7726,-34.04952,213.36 18.77151,-34.04919,213.36 18.76991,-34.04873,205.74 18.76863,-34.04832,213.36 18.76728,-34.04794,213.36 18.76588,-34.0475,213.36 18.76465,-34.04709,213.36 18.76322,-34.04668,213.36 18.7619,-34.04631,213.36 18.76073,-34.04594,213.36 18.7591,-34.04544,213.36 18.75792,-34.04512,220.98000000000002 18.75378,-34.04398,220.98000000000002 18.75126,-34.04328,228.60000000000002 18.74851,-34.04253,220.98000000000002 18.74411,-34.04137,220.98000000000002 18.74285,-34.04105,220.98000000000002 18.74165,-34.04072,220.98000000000002 18.74044,-34.04039,220.98000000000002 18.73864,-34.03986,220.98000000000002 18.73466,-34.03872,220.98000000000002 18.73343,-34.03835,228.60000000000002 18.73197,-34.03784,228.60000000000002 18.73049,-34.03732,220.98000000000002 18.729,-34.03679,220.98000000000002 18.72786,-34.03639,220.98000000000002 18.72676,-34.03596,220.98000000000002 18.7254,-34.03546,228.60000000000002 18.72437,-34.03504,228.60000000000002 18.72272,-34.03441,228.60000000000002 18.72154,-34.03395,228.60000000000002 18.71997,-34.03331,236.22 18.71902,-34.0329,236.22 18.71756,-34.0323,236.22 18.71653,-34.03183,243.84 18.7151,-34.0312,243.84 18.71395,-34.03071,243.84 18.71275,-34.03015,243.84 18.71179,-34.02969,251.46 18.71046,-34.02903,251.46 18.70938,-34.02855,251.46 18.708,-34.02787,259.08000000000004 18.70663,-34.02713,259.08000000000004 18.70546,-34.02649,259.08000000000004 18.70456,-34.02603,259.08000000000004 18.70296,-34.02517,266.7 18.70193,-34.02452,266.7 18.70068,-34.02377,259.08000000000004 18.69959,-34.02312,274.32 18.69795,-34.02214,274.32 18.69677,-34.02136,274.32 18.69576,-34.02072,274.32 18.69447,-34.01994,274.32 18.69341,-34.0193,274.32 18.69234,-34.01871,266.7 18.69122,-34.01807,266.7 18.68993,-34.01733,266.7 18.68855,-34.01656,266.7 18.68718,-34.01578,274.32 18.68614,-34.01521,274.32 18.685,-34.01454,281.94 18.68362,-34.01372,274.32 18.68248,-34.01308,274.32 18.68145,-34.01246,274.32 18.67995,-34.01161,274.32 18.67893,-34.01102,281.94 18.67793,-34.01042,289.56 18.67676,-34.00969,289.56 18.67556,-34.00897,289.56 18.67441,-34.00827,289.56 18.67334,-34.00754,281.94 18.6725,-34.00703,281.94 18.67132,-34.0063,281.94 18.67026,-34.00562,289.56 18.66919,-34.00493,289.56 18.66818,-34.00424,289.56 18.66678,-34.00337,289.56 18.66572,-34.00264,289.56 18.66474,-34.00199,289.56 18.66364,-34.00122,289.56 18.66234,-34.00036,289.56 18.66134,-33.99966,289.56 18.66028,-33.99893,281.94 18.65916,-33.99815,289.56 18.6581,-33.99743,289.56 18.65708,-33.99664,289.56 18.65574,-33.99573,297.18 18.65484,-33.99504,297.18 18.65364,-33.99412,304.8 18.65273,-33.99347,297.18 18.6517,-33.99271,297.18 18.65044,-33.99179,297.18 18.64941,-33.99105,297.18 18.6484,-33.99028,304.8 18.64746,-33.98956,304.8 18.64627,-33.98863,304.8 18.64511,-33.98779,304.8 18.64426,-33.98714,312.42 18.64313,-33.98625,304.8 18.64212,-33.98543,304.8 18.64094,-33.98451,297.18 18.63985,-33.98365,297.18 18.63882,-33.98281,297.18 18.63682,-33.98113,297.18 18.6359,-33.98034,297.18 18.63499,-33.9795,297.18 18.63384,-33.97848,297.18 18.63298,-33.97765,297.18 18.63192,-33.97659,289.56 18.63119,-33.97586,289.56 18.63001,-33.97475,289.56 18.62909,-33.97382,289.56 18.62818,-33.97289,297.18 18.62709,-33.97174,297.18 18.6262,-33.97083,304.8 18.62537,-33.96996,304.8 18.62457,-33.96912,304.8 18.62351,-33.96799,304.8 18.62251,-33.96703,297.18 18.62149,-33.96616,289.56 18.62059,-33.96542,281.94 18.6193,-33.96451,274.32 18.61816,-33.96372,274.32 18.61702,-33.96302,274.32 18.61588,-33.96233,274.32 18.61473,-33.96167,259.08000000000004 18.61353,-33.96111,251.46 18.61218,-33.96057,243.84 18.61078,-33.96011,251.46 18.60895,-33.95967,243.84 18.6077,-33.95943,251.46 18.60636,-33.95924,243.84 18.60495,-33.95915,243.84 18.60334,-33.95906,236.22 18.60226,-33.95897,236.22 18.60053,-33.95892,236.22 18.59941,-33.95892,243.84 18.59772,-33.95888,243.84 18.59655,-33.95883,243.84 18.59522,-33.95883,243.84 18.59402,-33.95879,243.84 18.59259,-33.95879,243.84 18.59128,-33.95879,243.84 18.59007,-33.95874,243.84 18.58881,-33.95874,243.84 18.58718,-33.95869,243.84 18.5859,-33.95865,251.46 18.58458,-33.95855,259.08000000000004 18.5832,-33.95851,259.08000000000004 18.58186,-33.95842,259.08000000000004 18.58063,-33.95837,266.7 18.57943,-33.95832,266.7 18.57822,-33.95823,274.32 18.57416,-33.95795,274.32 18.56901,-33.95758,274.32 18.56524,-33.95725,281.94 18.56006,-33.95663,289.56 18.55717,-33.95623,297.18 18.55619,-33.95609,297.18 18.55465,-33.95585,297.18 18.55345,-33.95562,297.18 18.55187,-33.95535,297.18 18.55058,-33.95512,297.18 18.54907,-33.9548,289.56 18.54784,-33.95455,289.56 18.54666,-33.95435,281.94 18.54532,-33.95404,281.94 18.54363,-33.95366,274.32 18.54257,-33.95343,274.32 18.5412,-33.95311,274.32 18.53989,-33.95278,274.32 18.53859,-33.95247,281.94 18.53703,-33.95204,289.56 18.53584,-33.95174,281.94 18.5345,-33.95142,289.56 18.53336,-33.95111,297.18 18.5321,-33.95082,289.56 18.53067,-33.95045,289.56 18.52936,-33.95013,289.56 18.52799,-33.94981,297.18 18.52418,-33.94885,289.56 18.52015,-33.94775,289.56 18.51603,-33.94659,297.18 18.5132,-33.94569,312.42 18.51224,-33.94537,312.42 18.5109,-33.94487,312.42 18.50979,-33.9444,312.42 18.50838,-33.94377,312.42 18.50716,-33.94319,312.42 18.50602,-33.94258,312.42 18.50498,-33.94203,312.42 18.504,-33.94148,312.42 18.50286,-33.94072,312.42 18.50165,-33.93997,312.42 18.5004,-33.93914,312.42 18.49924,-33.93832,312.42 18.49823,-33.93759,312.42 18.49694,-33.93668,304.8 18.49593,-33.93594,304.8 18.49459,-33.93498,304.8 18.4936,-33.93425,304.8 18.49251,-33.93341,312.42 18.49142,-33.93258,312.42 18.49016,-33.93164,320.04 18.48893,-33.93073,320.04 18.48787,-33.92997,335.28000000000003 18.48691,-33.92921,335.28000000000003 18.48598,-33.92857,335.28000000000003 18.48506,-33.92784,335.28000000000003 18.48405,-33.92711,327.66 18.48307,-33.92634,327.66 18.48215,-33.92564,327.66 18.48102,-33.92482,320.04 18.48013,-33.92413,320.04 18.47923,-33.92345,320.04 18.4782,-33.92262,312.42 18.47706,-33.92183,297.18 18.47586,-33.92099,289.56 18.4748,-33.92024,289.56 18.47351,-33.9194,274.32 18.47239,-33.91864,266.7 18.47121,-33.91791,259.08000000000004 18.47013,-33.91717,251.46 18.46888,-33.91629,251.46 18.46751,-33.91539,243.84 18.46673,-33.91484,243.84 18.46539,-33.91391,243.84 18.46436,-33.91321,236.22 18.46309,-33.91232,236.22 18.45871,-33.9093,213.36 18.45541,-33.90706,198.12 18.45126,-33.90427,190.5 18.44907,-33.90276,182.88 18.44818,-33.90211,182.88 18.44713,-33.90134,182.88 18.44604,-33.9006,175.26000000000002 18.44487,-33.89983,175.26000000000002 18.44387,-33.89925,167.64000000000001 18.44307,-33.89877,167.64000000000001 18.44198,-33.89827,160.02 18.44078,-33.89785,160.02 18.43992,-33.89771,152.4 18.43918,-33.89766,144.78 18.43821,-33.89771,137.16 18.43747,-33.89781,121.92 18.43646,-33.89804,106.68 18.43573,-33.89827,106.68 18.435,-33.8985,91.44 18.43414,-33.89874,83.82000000000001 18.43327,-33.899,76.2 18.4326,-33.8992,60.96 18.43191,-33.89939,53.34 18.43122,-33.89962,45.72 18.43097,-33.89969,38.1 18.43065,-33.89976,38.1 18.43037,-33.89985,30.48 18.43008,-33.89994,30.48 18.42974,-33.90004,22.86 18.42951,-33.9001,15.24 18.42923,-33.90019,15.24 18.42889,-33.90028,15.24 18.42831,-33.90051,0 18.42796,-33.9006,0 18.42768,-33.90069,0 18.42745,-33.90078,0 18.42738,-33.90047,0 18.42738,-33.9001,0 18.42755,-33.89964,0 18.42766,-33.89941,0 18.42785,-33.89906,0 18.42805,-33.89877,0 18.42822,-33.89854,0 18.42836,-33.89832,0 18.42854,-33.89804,7.62 18.42911,-33.89724,15.24 18.42928,-33.89697,15.24 18.42974,-33.89636,22.86 18.42996,-33.89594,30.48 18.43019,-33.89557,30.48 18.43042,-33.89524,38.1 18.43065,-33.89487,38.1 18.43111,-33.89422,45.72 18.43174,-33.89329,53.34 18.43226,-33.89246,60.96 18.43276,-33.89168,68.58 18.43334,-33.89073,76.2 18.43382,-33.88994,76.2 18.43431,-33.8891,91.44 18.43489,-33.88806,91.44 18.43551,-33.88696,99.06 18.43586,-33.88617,106.68 18.43626,-33.88528,121.92 18.4366,-33.8844,152.4 18.43695,-33.88346,167.64000000000001 18.43723,-33.88263,182.88 18.4374,-33.88193,190.5 18.43769,-33.88106,205.74 18.43792,-33.88023,213.36 18.43831,-33.87863,228.60000000000002 18.43848,-33.87776,228.60000000000002 18.43872,-33.87662,236.22 18.43889,-33.87588,243.84 18.43912,-33.87495,243.84 18.43943,-33.87378,251.46 18.43966,-33.87263,259.08000000000004 18.43975,-33.87146,259.08000000000004 18.4396,-33.87048,259.08000000000004 18.43912,-33.86954,259.08000000000004 18.43848,-33.86893,266.7 18.43764,-33.86833,274.32 18.43674,-33.86797,289.56 18.43596,-33.86765,297.18 18.43511,-33.86737,304.8 18.43433,-33.86714,320.04 18.43357,-33.86699,327.66 18.43242,-33.86678,342.90000000000003 18.43157,-33.86666,350.52000000000004 18.4306,-33.86661,358.14000000000004 18.42997,-33.86661,365.76 18.42905,-33.86675,373.38 18.42825,-33.86717,388.62 18.42805,-33.86778,396.24 18.42842,-33.86852,396.24 18.42899,-33.86889,396.24 18.42979,-33.86931,403.86 18.43077,-33.86983,403.86 18.43175,-33.87039,396.24 18.4327,-33.87099,381 18.43391,-33.87173,365.76 18.43472,-33.87227,358.14000000000004 18.4359,-33.87305,358.14000000000004 18.43712,-33.87392,342.90000000000003 18.43797,-33.8746,335.28000000000003 18.43918,-33.87555,327.66 18.44005,-33.8763,320.04 18.44123,-33.87735,312.42 18.44246,-33.87845,304.8 18.44352,-33.87946,304.8 18.44439,-33.88025,289.56 18.4453,-33.88109,289.56 18.44644,-33.88216,289.56 18.4475,-33.88316,281.94 18.44856,-33.88416,274.32 18.44958,-33.88518,274.32 18.45039,-33.88602,266.7 18.45154,-33.8871,259.08000000000004 18.45228,-33.88789,259.08000000000004 18.45344,-33.88907,251.46 18.45428,-33.89003,251.46 18.45507,-33.8909,243.84 18.45589,-33.89185,243.84 18.45663,-33.89278,243.84 18.45755,-33.89399,243.84 18.4581,-33.89479,243.84 18.45886,-33.89599,243.84 18.4595,-33.89685,243.84 18.46046,-33.89832,243.84 18.46107,-33.89919,243.84 18.46168,-33.90024,236.22 18.4623,-33.90162,228.60000000000002 18.4627,-33.90255,228.60000000000002 18.4631,-33.90353,228.60000000000002 18.46376,-33.90477,228.60000000000002 18.46443,-33.90582,236.22 18.46504,-33.90674,243.84 18.46561,-33.90742,251.46 18.4663,-33.90828,266.7 18.46722,-33.90935,281.94 18.46773,-33.90995,281.94 18.46853,-33.91088,304.8 18.46919,-33.91159,320.04 18.46979,-33.91219,350.52000000000004 18.47032,-33.91269,373.38 18.47099,-33.91328,396.24 18.47161,-33.91383,419.1 18.47214,-33.91433,434.34000000000003 18.47273,-33.91489,457.20000000000005 18.47334,-33.9154,464.82000000000005 18.47403,-33.9161,472.44 18.47469,-33.91676,472.44 18.4753,-33.9174,472.44 18.47586,-33.91805,480.06 18.47654,-33.91896,487.68 18.47715,-33.91978,487.68 18.4776,-33.92047,495.3 18.47822,-33.92162,495.3 18.47866,-33.92248,502.92 18.47906,-33.92341,502.92 18.4794,-33.92427,495.3 18.47979,-33.92542,495.3 18.48013,-33.92633,495.3 18.48041,-33.92729,487.68 18.48069,-33.92834,487.68 18.48085,-33.92926,487.68 18.48106,-33.93048,487.68 18.48118,-33.93146,495.3 18.48119,-33.93265,495.3 18.48113,-33.93379,502.92 18.48091,-33.9348,502.92 18.48063,-33.93585,502.92 18.48046,-33.93654,518.1600000000001 18.48015,-33.93765,518.1600000000001 18.4799,-33.93851,518.1600000000001 18.47975,-33.93966,518.1600000000001 18.47962,-33.9407,518.1600000000001 18.47962,-33.94176,518.1600000000001 18.47969,-33.94268,518.1600000000001 18.4799,-33.94418,518.1600000000001 18.48009,-33.9451,518.1600000000001 18.48029,-33.94629,518.1600000000001 18.48057,-33.94748,518.1600000000001 18.48089,-33.94883,518.1600000000001 18.48112,-33.94971,518.1600000000001 18.48146,-33.95101,502.92 18.48175,-33.95199,502.92 18.48203,-33.95316,502.92 18.48227,-33.95422,495.3 18.48255,-33.95557,487.68 18.48278,-33.95669,487.68 18.48295,-33.9579,487.68 18.4831,-33.95897,487.68 18.48318,-33.96014,487.68 18.4833,-33.9613,487.68 18.48335,-33.96233,487.68 18.48341,-33.96312,480.06 18.48347,-33.96456,487.68 18.48349,-33.96552,487.68 18.48358,-33.96661,502.92 18.4836,-33.96753,502.92 18.48366,-33.96881,510.54 18.48366,-33.97014,510.54 18.48366,-33.97128,510.54 18.48364,-33.97238,518.1600000000001 18.48366,-33.9733,518.1600000000001 18.48364,-33.97448,518.1600000000001 18.4836,-33.97769,518.1600000000001 18.4836,-33.98112,510.54 18.48371,-33.98524,502.92 18.48377,-33.98886,495.3 18.48381,-33.99207,502.92 18.48388,-33.99522,525.78 18.48399,-33.99976,525.78 18.48421,-34.00422,525.78 18.48433,-34.00767,533.4 18.48438,-34.01083,548.64 18.48433,-34.01279,548.64 18.48427,-34.01614,548.64 18.48422,-34.01724,548.64 18.48422,-34.02068,556.26 18.48422,-34.02196,556.26 18.48415,-34.02293,556.26 18.48415,-34.02424,563.88 18.48416,-34.0253,563.88 18.4841,-34.02675,571.5 18.48404,-34.02773,571.5 18.48404,-34.02871,571.5 18.48398,-34.02992,571.5 18.48392,-34.03108,571.5 18.48387,-34.03197,571.5 18.48387,-34.03327,571.5 18.48382,-34.03441,579.12 18.48382,-34.03555,571.5 18.48375,-34.03681,571.5 18.48375,-34.03765,571.5 18.48371,-34.03857,571.5 18.4836,-34.04292,571.5 18.48352,-34.04644,563.88 18.48349,-34.0497,563.88 18.48332,-34.05423,563.88 18.48318,-34.05822,548.64 18.4831,-34.06197,533.4 18.48298,-34.06531,541.02 18.48293,-34.06979,548.64 18.48289,-34.07302,556.26 18.48301,-34.07656,563.88 18.48321,-34.08096,563.88 18.48335,-34.08411,571.5 18.48338,-34.0887,601.98 18.48332,-34.09085,594.36 18.48326,-34.0919,594.36 18.48315,-34.09319,594.36 18.48304,-34.09424,586.74 18.48293,-34.09529,594.36 18.48278,-34.09653,586.74 18.48259,-34.09763,579.12 18.48232,-34.09882,579.12 18.48198,-34.10012,563.88 18.48169,-34.10114,563.88 18.48125,-34.10239,563.88 18.48089,-34.10329,556.26 18.48049,-34.10426,548.64 18.47992,-34.10538,548.64 18.4794,-34.10632,541.02 18.47883,-34.10724,541.02 18.4782,-34.10817,533.4 18.47743,-34.10934,533.4 18.47659,-34.11044,533.4 18.47591,-34.11139,533.4 18.4753,-34.11218,533.4 18.47466,-34.11301,533.4 18.47374,-34.11409,533.4 18.47305,-34.11492,525.78 18.47237,-34.11572,525.78 18.47138,-34.11676,518.1600000000001 18.47059,-34.11758,518.1600000000001 18.46979,-34.11842,525.78 18.46899,-34.11916,518.1600000000001 18.46825,-34.1199,518.1600000000001 18.46722,-34.12083,518.1600000000001 18.46642,-34.12153,518.1600000000001 18.46555,-34.12225,518.1600000000001 18.46464,-34.12298,518.1600000000001 18.46376,-34.12367,518.1600000000001 18.46297,-34.12436,518.1600000000001 18.46208,-34.12514,518.1600000000001 18.46112,-34.12592,525.78 18.46023,-34.12669,525.78 18.45938,-34.12733,533.4 18.45877,-34.12784,533.4 18.45772,-34.1287,533.4 18.45709,-34.12926,533.4 18.45612,-34.13005,533.4 18.45543,-34.13066,533.4 18.45434,-34.1315,533.4 18.4535,-34.13214,525.78 18.4526,-34.13278,525.78 18.45142,-34.13354,518.1600000000001 18.45039,-34.13406,525.78 18.44931,-34.13448,518.1600000000001 18.44805,-34.1349,518.1600000000001 18.44672,-34.13512,518.1600000000001 18.44564,-34.13522,525.78 18.44416,-34.13513,548.64 18.44285,-34.13498,556.26 18.44179,-34.1348,556.26 18.44033,-34.13443,556.26 18.43918,-34.13406,541.02 18.43809,-34.13373,548.64 18.437,-34.1334,563.88 18.43567,-34.13297,563.88 18.43439,-34.13251,571.5 18.43332,-34.13214,571.5 18.43226,-34.13182,579.12 18.43088,-34.13136,579.12 18.42979,-34.131,571.5 18.42844,-34.13054,579.12 18.42738,-34.13017,579.12 18.4263,-34.12977,586.74 18.42493,-34.12931,579.12 18.42396,-34.12894,579.12 18.42258,-34.12847,586.74 18.42104,-34.12786,579.12 18.41998,-34.12743,586.74 18.41892,-34.12698,586.74 18.41766,-34.12647,586.74 18.41617,-34.12582,586.74 18.41503,-34.12535,586.74 18.41366,-34.12474,586.74 18.41253,-34.12427,594.36 18.41114,-34.12363,594.36 18.40994,-34.12312,594.36 18.40899,-34.12271,594.36 18.40742,-34.122,594.36 18.40395,-34.12033,594.36 18.39918,-34.11818,609.6 18.39655,-34.11703,617.22 18.39548,-34.11653,624.84 18.39436,-34.11603,640.08 18.39347,-34.11562,647.7 18.39263,-34.11525,662.94 18.39145,-34.1147,678.1800000000001 18.39005,-34.11411,693.4200000000001 18.38926,-34.11378,693.4200000000001 18.38797,-34.11324,701.0400000000001 18.38705,-34.11287,701.0400000000001 18.38607,-34.11241,708.6600000000001 18.38511,-34.11204,708.6600000000001 18.38379,-34.11148,716.2800000000001 18.38276,-34.11106,716.2800000000001 18.38164,-34.11058,716.2800000000001 18.38041,-34.11003,716.2800000000001 18.37917,-34.10953,716.2800000000001 18.37788,-34.10898,708.6600000000001 18.37676,-34.10852,708.6600000000001 18.37555,-34.10808,708.6600000000001 18.37424,-34.10756,701.0400000000001 18.37262,-34.10696,701.0400000000001 18.37137,-34.1065,701.0400000000001 18.37006,-34.10612,693.4200000000001 18.36886,-34.10591,693.4200000000001 18.36724,-34.10577,693.4200000000001 18.366,-34.10577,685.8000000000001 18.36482,-34.10587,685.8000000000001 18.36325,-34.106,693.4200000000001 18.36216,-34.10608,701.0400000000001 18.36101,-34.10609,708.6600000000001 18.35958,-34.10608,716.2800000000001 18.35827,-34.10589,723.9000000000001 18.35715,-34.10573,723.9000000000001 18.35587,-34.10543,716.2800000000001 18.35462,-34.10504,716.2800000000001 18.35346,-34.10459,716.2800000000001 18.35233,-34.10408,716.2800000000001 18.35143,-34.10353,716.2800000000001 18.35014,-34.10268,716.2800000000001 18.34907,-34.10184,716.2800000000001 18.34795,-34.10078,716.2800000000001 18.34711,-34.09989,716.2800000000001 18.34616,-34.09872,716.2800000000001 18.34549,-34.09772,716.2800000000001 18.34476,-34.09653,716.2800000000001 18.34425,-34.09547,708.6600000000001 18.34369,-34.09428,708.6600000000001 18.34322,-34.093,708.6600000000001 18.34282,-34.09193,708.6600000000001 18.34235,-34.09053,708.6600000000001 18.34196,-34.08923,708.6600000000001 18.34156,-34.08802,716.2800000000001 18.3411,-34.08671,716.2800000000001 18.34078,-34.08577,716.2800000000001 18.34016,-34.08444,716.2800000000001 18.33939,-34.08322,716.2800000000001 18.33836,-34.08229,716.2800000000001 18.33725,-34.08174,716.2800000000001 18.33624,-34.0816,723.9000000000001 18.33538,-34.08187,731.52 18.33487,-34.08243,739.14 18.33481,-34.08331,746.76 18.33538,-34.08411,746.76 18.33624,-34.0849,746.76 18.33719,-34.08559,754.38 18.33801,-34.08615,754.38 18.33882,-34.08664,762 18.34007,-34.08727,769.62 18.34128,-34.08778,777.24 18.34224,-34.08806,784.86 18.34352,-34.08833,792.48 18.34471,-34.08844,792.48 18.3462,-34.08834,807.72 18.34763,-34.08811,822.96 18.34874,-34.08774,830.58 18.34969,-34.08728,838.2 18.35076,-34.08664,845.82 18.35186,-34.08564,845.82 18.35249,-34.08476,845.82 18.35305,-34.08357,838.2 18.35333,-34.08252,845.82 18.35352,-34.08141,845.82 18.35358,-34.08001,845.82 18.35345,-34.07886,845.82 18.35328,-34.07758,853.44 18.35311,-34.07648,853.44 18.353,-34.07483,853.44 18.35295,-34.07372,853.44 18.35294,-34.07254,853.44 18.35295,-34.07154,853.44 18.35295,-34.07005,845.82 18.35294,-34.06874,845.82 18.35289,-34.06753,845.82 18.35283,-34.06631,845.82 18.35272,-34.06497,853.44 18.3526,-34.0633,853.44 18.35244,-34.06187,853.44 18.35233,-34.06078,853.44 18.3521,-34.05945,861.0600000000001 18.35188,-34.05803,868.6800000000001 18.35171,-34.05693,868.6800000000001 18.35146,-34.0558,876.3000000000001 18.3512,-34.05482,883.9200000000001 18.35087,-34.05345,891.5400000000001 18.35053,-34.05217,899.1600000000001 18.3502,-34.0511,899.1600000000001 18.34986,-34.04998,906.7800000000001 18.34929,-34.04845,914.4000000000001 18.34896,-34.04755,914.4000000000001 18.34851,-34.04617,914.4000000000001 18.34806,-34.04503,922.0200000000001 18.34763,-34.0437,929.6400000000001 18.34711,-34.04242,929.6400000000001 18.34665,-34.04137,937.26 18.34605,-34.04008,944.88 18.34554,-34.03912,944.88 18.34505,-34.03816,952.5 18.34431,-34.03697,960.12 18.34358,-34.03574,967.74 18.34282,-34.03467,975.36 18.34224,-34.03381,975.36 18.34139,-34.03276,982.98 18.34089,-34.03203,982.98 18.34005,-34.03084,990.6 18.33943,-34.02992,998.22 18.33882,-34.02896,998.22 18.33801,-34.02764,1005.84 18.33727,-34.02638,1005.84 18.3367,-34.02536,1005.84 18.33624,-34.02434,1005.84 18.33557,-34.02255,1005.84 18.33517,-34.02145,1013.46 18.33475,-34.01977,1013.46 18.33447,-34.01847,1021.08 18.33428,-34.01711,1028.7 18.33424,-34.01563,1028.7 18.33429,-34.01442,1036.3200000000002 18.3345,-34.01294,1021.08 18.33484,-34.01147,998.22 18.33529,-34.00987,982.98 18.33585,-34.008,967.74 18.33641,-34.00639,944.88 18.33687,-34.00492,937.26 18.33736,-34.00342,922.0200000000001 18.33786,-34.00182,922.0200000000001 18.33837,-34.00012,906.7800000000001 18.33882,-33.99879,899.1600000000001 18.33921,-33.99751,899.1600000000001 18.33961,-33.99612,891.5400000000001 18.34033,-33.99399,883.9200000000001 18.34076,-33.99268,876.3000000000001 18.3415,-33.99058,853.44 18.34528,-33.9808,754.38 18.34957,-33.97015,685.8000000000001 18.35092,-33.96529,662.94 18.35098,-33.96391,662.94 18.35014,-33.96088,670.5600000000001 18.34952,-33.95988,685.8000000000001 18.34854,-33.95902,693.4200000000001 18.34745,-33.95847,701.0400000000001 18.34637,-33.95827,701.0400000000001 18.34568,-33.95837,701.0400000000001 18.34402,-33.95948,723.9000000000001 18.34356,-33.96009,731.52 18.34316,-33.96093,739.14 18.3428,-33.96213,746.76 18.34276,-33.96302,746.76 18.34414,-33.96661,746.76 18.34621,-33.96849,754.38 18.34874,-33.96968,746.76 18.3521,-33.97028,746.76 18.35496,-33.96996,746.76 18.35771,-33.96748,731.52 18.35815,-33.96606,708.6600000000001 18.35833,-33.96521,708.6600000000001 18.3586,-33.96231,693.4200000000001 18.35884,-33.95823,670.5600000000001 18.3589,-33.95697,670.5600000000001 18.359,-33.95526,662.94 18.35901,-33.95395,655.32 18.35907,-33.95334,655.32 18.35993,-33.94114,594.36 18.36044,-33.93802,579.12 18.36068,-33.93672,579.12 18.36113,-33.93495,579.12 18.36159,-33.93346,579.12 18.36197,-33.93256,579.12 18.36262,-33.93095,571.5 18.36302,-33.93002,571.5 18.3637,-33.92848,563.88 18.36433,-33.92709,563.88 18.36499,-33.92574,563.88 18.36554,-33.92466,556.26 18.36634,-33.92318,548.64 18.36691,-33.92225,548.64 18.36794,-33.92057,548.64 18.36892,-33.91919,548.64 18.36966,-33.91819,548.64 18.37091,-33.91656,541.02 18.37172,-33.91549,541.02 18.37273,-33.91429,533.4 18.37355,-33.91326,533.4 18.37469,-33.91177,525.78 18.37553,-33.91077,518.1600000000001 18.37664,-33.90944,518.1600000000001 18.37732,-33.9086,518.1600000000001 18.37839,-33.90738,510.54 18.3795,-33.90604,510.54 18.38041,-33.90502,510.54 18.38136,-33.90399,510.54 18.38259,-33.90274,502.92 18.3836,-33.90175,502.92 18.38467,-33.9007,502.92 18.38573,-33.89978,502.92 18.38668,-33.89896,495.3 18.38814,-33.89786,487.68 18.38982,-33.89662,487.68 18.39117,-33.89571,480.06 18.39274,-33.8947,480.06 18.39386,-33.89403,472.44 18.39506,-33.89333,472.44 18.39661,-33.8925,472.44 18.39823,-33.89168,464.82000000000005 18.39991,-33.89085,457.20000000000005 18.40143,-33.89021,457.20000000000005 18.40277,-33.88966,449.58000000000004 18.40445,-33.88902,441.96000000000004 18.40586,-33.88857,434.34000000000003 18.40742,-33.88807,426.72 18.40885,-33.8877,426.72 18.41028,-33.88733,426.72 18.41211,-33.88691,411.48 18.41353,-33.88664,411.48 18.41583,-33.88618,396.24 18.41735,-33.88596,388.62 18.41903,-33.88568,381 18.42041,-33.88551,381 18.4223,-33.88528,373.38 18.42396,-33.88509,365.76 18.42592,-33.88495,350.52000000000004 18.42739,-33.88486,342.90000000000003 18.42934,-33.88486,327.66 18.43102,-33.88495,312.42 18.43271,-33.88519,304.8 18.43409,-33.88547,289.56 18.43557,-33.88589,274.32 18.43685,-33.88641,259.08000000000004 18.43837,-33.88724,228.60000000000002 18.43958,-33.88812,213.36 18.44044,-33.88887,198.12 18.44107,-33.88956,190.5 18.44184,-33.89058,175.26000000000002 18.4424,-33.89182,167.64000000000001 18.44273,-33.89301,144.78 18.44273,-33.89399,137.16 18.44251,-33.89507,121.92 18.44223,-33.89584,114.30000000000001 18.44164,-33.89659,106.68 18.44067,-33.89734,99.06 18.43982,-33.89772,91.44 18.43904,-33.89795,91.44 18.43792,-33.89822,83.82000000000001 18.43696,-33.89841,76.2 18.43601,-33.89854,68.58 18.435,-33.89874,60.96 18.43403,-33.89887,53.34 18.43338,-33.899,45.72 18.43231,-33.89919,38.1 18.43198,-33.89928,30.48 18.43157,-33.89934,30.48 18.43119,-33.89941,30.48 18.43071,-33.89952,30.48 18.43046,-33.8996,22.86 18.43007,-33.89969,15.24 18.42979,-33.89976,15.24 18.42929,-33.89987,7.62 18.42871,-33.90009,0 18.42819,-33.90032,0 18.42794,-33.90038,0 18.42755,-33.90065,0 18.42727,-33.90088,0 18.4271,-33.90111,0 18.42687,-33.90125,0</coordinates>
      </LineString>
    </Placemark>
  </Document>
</kml>
