<?xml version="1.0" encoding="UTF-8"?>
<kml xmlns="http://www.opengis.net/kml/2.2">
  <Document>
    <name>FR24 ZTHOT 3df465cb</name>
    <Placemark>
      <name>FR24 ZTHOT 3df465cb</name>
      <description><![CDATA[Source: ADS-B
Start (SAST): 2026-01-18 08:52:31
End (SAST): 2026-01-18 17:05:08
Points: 2650]]></description>
      <Style><LineStyle><color>ff0000ff</color><width>4</width></LineStyle></Style>
      <LineString>
        <tessellate>1</tessellate>
        <altitudeMode>absolute</altitudeMode>
        <coordinates>18.42699,-33.90115,0 18.42716,-33.90094,0 18.4271,-33.90074,30.48 18.4271,-33.90051,30.48 18.42715,-33.90015,30.48 18.42733,-33.89985,30.48 18.42743,-33.89964,30.48 18.42766,-33.89928,30.48 18.42783,-33.89905,30.48 18.42805,-33.89877,30.48 18.42822,-33.8985,30.48 18.42842,-33.89822,30.48 18.42859,-33.89794,30.48 18.42882,-33.89766,30.48 18.42923,-33.89703,60.96 18.42974,-33.89631,60.96 18.43031,-33.89561,60.96 18.43077,-33.89496,91.44 18.43119,-33.89438,91.44 18.43174,-33.89361,121.92 18.4322,-33.89301,121.92 18.4327,-33.89232,121.92 18.43317,-33.89166,152.4 18.43357,-33.89101,152.4 18.43414,-33.89017,182.88 18.43461,-33.88948,182.88 18.43506,-33.88879,182.88 18.43556,-33.88797,213.36 18.43601,-33.88724,213.36 18.4364,-33.88632,243.84 18.43668,-33.88554,243.84 18.43683,-33.88477,243.84 18.43695,-33.88393,274.32 18.43689,-33.883,274.32 18.43672,-33.88202,274.32 18.43649,-33.88105,304.8 18.43624,-33.88019,304.8 18.43592,-33.87941,304.8 18.43557,-33.87858,335.28000000000003 18.43511,-33.87767,335.28000000000003 18.43472,-33.8768,335.28000000000003 18.43422,-33.87584,365.76 18.4338,-33.87509,365.76 18.43317,-33.87425,365.76 18.43237,-33.87332,396.24 18.43158,-33.87259,396.24 18.43082,-33.87192,396.24 18.42991,-33.87132,396.24 18.42923,-33.87085,396.24 18.42756,-33.87001,426.72 18.42654,-33.86957,426.72 18.42487,-33.86908,426.72 18.42368,-33.86874,457.20000000000005 18.42233,-33.86847,457.20000000000005 18.42115,-33.86829,457.20000000000005 18.4199,-33.86815,457.20000000000005 18.41864,-33.86806,487.68 18.41723,-33.86801,487.68 18.41595,-33.86801,487.68 18.41488,-33.86806,487.68 18.41331,-33.86815,518.1600000000001 18.41224,-33.86824,518.1600000000001 18.41112,-33.86842,518.1600000000001 18.40967,-33.86865,518.1600000000001 18.40828,-33.86899,548.64 18.40731,-33.86922,548.64 18.40647,-33.86948,548.64 18.40535,-33.8698,548.64 18.40353,-33.87038,579.12 18.40255,-33.87076,579.12 18.40147,-33.87117,579.12 18.4005,-33.87159,579.12 18.3993,-33.87213,609.6 18.39827,-33.87262,609.6 18.39717,-33.87314,609.6 18.39627,-33.87364,609.6 18.39504,-33.87428,609.6 18.39415,-33.87476,609.6 18.39308,-33.87538,640.08 18.39197,-33.87606,640.08 18.391,-33.87666,640.08 18.3901,-33.87726,640.08 18.38923,-33.87783,640.08 18.38814,-33.87858,670.5600000000001 18.38722,-33.87914,670.5600000000001 18.38614,-33.87993,670.5600000000001 18.38528,-33.88058,670.5600000000001 18.38411,-33.88147,701.0400000000001 18.38321,-33.88216,701.0400000000001 18.3822,-33.88298,701.0400000000001 18.38121,-33.88379,701.0400000000001 18.38029,-33.88454,701.0400000000001 18.37933,-33.88542,701.0400000000001 18.37844,-33.88628,701.0400000000001 18.37738,-33.88724,701.0400000000001 18.37664,-33.88798,731.52 18.37595,-33.88868,731.52 18.37503,-33.88957,731.52 18.3743,-33.8903,731.52 18.37357,-33.89104,731.52 18.3728,-33.89185,731.52 18.37206,-33.89259,731.52 18.37116,-33.89355,731.52 18.3702,-33.89447,731.52 18.36954,-33.8952,731.52 18.36868,-33.89608,731.52 18.36777,-33.89711,762 18.36695,-33.89804,762 18.36628,-33.89886,762 18.36548,-33.89985,762 18.36468,-33.90083,762 18.36398,-33.90166,762 18.3632,-33.90271,762 18.3625,-33.90358,762 18.36164,-33.90469,762 18.36096,-33.90553,762 18.36027,-33.90651,762 18.35944,-33.90765,762 18.35883,-33.90852,762 18.35804,-33.90963,762 18.35726,-33.91077,762 18.35667,-33.91163,762 18.35592,-33.9127,762 18.35529,-33.91368,762 18.35457,-33.91479,762 18.35386,-33.91591,762 18.35333,-33.91681,762 18.35278,-33.91773,762 18.35226,-33.91861,762 18.35043,-33.92168,762 18.34997,-33.92249,762 18.34934,-33.92369,762 18.34888,-33.92448,762 18.34834,-33.92555,762 18.34785,-33.92648,762 18.34739,-33.92738,792.48 18.34682,-33.92839,762 18.34521,-33.93155,792.48 18.34465,-33.93272,762 18.3442,-33.9337,792.48 18.34265,-33.93709,792.48 18.34106,-33.94075,792.48 18.34036,-33.94249,792.48 18.33932,-33.94638,792.48 18.33933,-33.94724,792.48 18.33954,-33.94839,792.48 18.33999,-33.94963,792.48 18.34053,-33.9505,792.48 18.34139,-33.95143,792.48 18.34224,-33.95206,792.48 18.34356,-33.95274,792.48 18.3447,-33.95311,792.48 18.34711,-33.95329,792.48 18.34831,-33.95311,762 18.3498,-33.95259,762 18.35092,-33.95192,762 18.35215,-33.95087,762 18.35283,-33.94999,762 18.35352,-33.94878,762 18.35415,-33.94761,762 18.35485,-33.94624,762 18.35541,-33.9451,762 18.35602,-33.94382,731.52 18.35658,-33.94267,731.52 18.35724,-33.94133,731.52 18.35781,-33.94003,731.52 18.35838,-33.93883,731.52 18.35884,-33.93779,731.52 18.35947,-33.93649,762 18.35989,-33.93549,731.52 18.36057,-33.93407,731.52 18.36241,-33.92995,701.0400000000001 18.36462,-33.92536,670.5600000000001 18.36628,-33.92203,670.5600000000001 18.36813,-33.91837,640.08 18.37004,-33.91484,640.08 18.37252,-33.91042,640.08 18.37452,-33.90711,609.6 18.37514,-33.90605,609.6 18.37598,-33.90486,609.6 18.37671,-33.90376,609.6 18.37727,-33.90297,609.6 18.37801,-33.90195,609.6 18.37893,-33.90074,609.6 18.37973,-33.89964,609.6 18.38036,-33.89883,609.6 18.38119,-33.89781,609.6 18.38209,-33.89671,609.6 18.38282,-33.89589,609.6 18.38373,-33.89482,609.6 18.38453,-33.89394,640.08 18.3854,-33.89305,640.08 18.3864,-33.89204,640.08 18.38728,-33.89119,640.08 18.38825,-33.89026,640.08 18.38943,-33.88925,640.08 18.39043,-33.88849,640.08 18.3914,-33.88779,640.08 18.39254,-33.88696,640.08 18.39363,-33.88621,640.08 18.39483,-33.88542,640.08 18.39593,-33.88481,640.08 18.39735,-33.88412,670.5600000000001 18.39838,-33.88365,670.5600000000001 18.39986,-33.88307,670.5600000000001 18.40132,-33.88257,670.5600000000001 18.40227,-33.88229,670.5600000000001 18.40406,-33.88179,670.5600000000001 18.40529,-33.88152,670.5600000000001 18.40668,-33.88123,670.5600000000001 18.40793,-33.88101,670.5600000000001 18.40942,-33.88076,670.5600000000001 18.41068,-33.8806,670.5600000000001 18.41194,-33.88049,670.5600000000001 18.41353,-33.88042,670.5600000000001 18.41477,-33.88037,670.5600000000001 18.416,-33.88037,670.5600000000001 18.41743,-33.88039,670.5600000000001 18.41864,-33.88044,670.5600000000001 18.42009,-33.88055,670.5600000000001 18.42138,-33.88067,670.5600000000001 18.42284,-33.88092,640.08 18.42396,-33.88114,640.08 18.42545,-33.88151,640.08 18.42642,-33.88179,640.08 18.42773,-33.88221,609.6 18.42878,-33.88257,609.6 18.42996,-33.88298,609.6 18.43125,-33.88353,609.6 18.43248,-33.88412,579.12 18.43351,-33.88463,579.12 18.43454,-33.88519,579.12 18.43563,-33.88579,548.64 18.4366,-33.8864,548.64 18.43763,-33.887,548.64 18.43865,-33.88765,518.1600000000001 18.43941,-33.88821,518.1600000000001 18.44049,-33.889,518.1600000000001 18.44111,-33.88948,487.68 18.4421,-33.89026,487.68 18.44284,-33.89096,457.20000000000005 18.44347,-33.89152,457.20000000000005 18.4441,-33.89217,457.20000000000005 18.44487,-33.89296,426.72 18.44547,-33.89371,426.72 18.44593,-33.89433,426.72 18.44633,-33.89497,426.72 18.44666,-33.8958,396.24 18.44677,-33.89676,396.24 18.44673,-33.89738,365.76 18.44649,-33.89827,365.76 18.4461,-33.89892,365.76 18.44554,-33.89951,335.28000000000003 18.44484,-33.89994,335.28000000000003 18.44419,-33.90019,335.28000000000003 18.44319,-33.90042,304.8 18.44261,-33.90046,304.8 18.44173,-33.90047,274.32 18.44107,-33.90041,274.32 18.44009,-33.90032,243.84 18.43926,-33.90024,243.84 18.43859,-33.9001,243.84 18.43775,-33.90001,213.36 18.43706,-33.8999,213.36 18.43629,-33.89978,182.88 18.43556,-33.89969,182.88 18.43477,-33.89962,182.88 18.43416,-33.89951,152.4 18.43328,-33.89943,152.4 18.43254,-33.89937,121.92 18.43198,-33.89937,121.92 18.43114,-33.89941,91.44 18.42985,-33.89952,60.96 18.42906,-33.8996,60.96 18.42766,-33.89987,30.48 18.42728,-33.90009,30.48 18.42705,-33.90022,0 18.42687,-33.90051,0 18.42693,-33.90074,0 18.42699,-33.90096,0 18.42719,-33.90083,0 18.4276,-33.90074,0 18.42894,-33.90074,0 18.42934,-33.90083,30.48 18.42996,-33.90102,30.48 18.43046,-33.90111,30.48 18.43097,-33.90125,30.48 18.43122,-33.90129,30.48 18.43203,-33.90143,60.96 18.43287,-33.90157,60.96 18.43351,-33.90162,91.44 18.43437,-33.90171,91.44 18.43506,-33.90175,121.92 18.43575,-33.90176,121.92 18.43652,-33.90175,152.4 18.43729,-33.90167,152.4 18.43786,-33.90152,182.88 18.43865,-33.90115,182.88 18.43918,-33.90078,182.88 18.43969,-33.90032,213.36 18.4401,-33.89983,213.36 18.44055,-33.89915,213.36 18.44084,-33.89841,243.84 18.441,-33.89772,243.84 18.44107,-33.89697,243.84 18.44106,-33.89603,243.84 18.4409,-33.8951,243.84 18.44078,-33.89431,274.32 18.44061,-33.89351,274.32 18.44033,-33.8925,274.32 18.44005,-33.89145,274.32 18.43975,-33.89059,304.8 18.43941,-33.88956,304.8 18.43909,-33.88866,304.8 18.43872,-33.88775,304.8 18.43838,-33.88686,304.8 18.43792,-33.88591,335.28000000000003 18.4374,-33.88496,335.28000000000003 18.43689,-33.88412,335.28000000000003 18.43597,-33.883,335.28000000000003 18.43523,-33.88225,365.76 18.43439,-33.88152,365.76 18.43321,-33.88074,365.76 18.43231,-33.88023,365.76 18.43114,-33.87964,365.76 18.43013,-33.87923,365.76 18.429,-33.87886,396.24 18.42766,-33.87849,396.24 18.42693,-33.87827,396.24 18.42522,-33.87788,396.24 18.42413,-33.87769,396.24 18.42293,-33.87751,426.72 18.42161,-33.8773,426.72 18.42052,-33.87718,426.72 18.41898,-33.87704,426.72 18.41813,-33.87698,457.20000000000005 18.41675,-33.87695,457.20000000000005 18.4152,-33.8769,457.20000000000005 18.41398,-33.87689,457.20000000000005 18.41286,-33.87695,487.68 18.41166,-33.87704,487.68 18.41057,-33.87713,487.68 18.40916,-33.87726,487.68 18.40815,-33.8774,487.68 18.40673,-33.87765,518.1600000000001 18.40546,-33.8779,518.1600000000001 18.40416,-33.8782,518.1600000000001 18.40305,-33.87845,518.1600000000001 18.40199,-33.87872,518.1600000000001 18.40104,-33.879,518.1600000000001 18.39986,-33.87941,548.64 18.39884,-33.87974,548.64 18.39762,-33.88014,548.64 18.39666,-33.88051,548.64 18.3954,-33.881,579.12 18.39443,-33.88142,579.12 18.39352,-33.88179,579.12 18.39257,-33.8822,579.12 18.39167,-33.88261,609.6 18.3905,-33.88316,609.6 18.38968,-33.88361,609.6 18.38882,-33.88403,640.08 18.38775,-33.88463,640.08 18.38674,-33.88518,640.08 18.3859,-33.88568,670.5600000000001 18.38482,-33.88635,670.5600000000001 18.38405,-33.88687,670.5600000000001 18.38321,-33.88742,670.5600000000001 18.38209,-33.8882,670.5600000000001 18.38125,-33.88884,670.5600000000001 18.38052,-33.88943,670.5600000000001 18.37951,-33.89026,701.0400000000001 18.37867,-33.89099,701.0400000000001 18.37794,-33.89163,701.0400000000001 18.37688,-33.89255,701.0400000000001 18.37581,-33.89346,701.0400000000001 18.37503,-33.8941,731.52 18.37419,-33.8947,731.52 18.37332,-33.89538,731.52 18.37256,-33.89598,731.52 18.37149,-33.8968,731.52 18.37051,-33.89766,731.52 18.36981,-33.89827,762 18.3688,-33.89914,762 18.36808,-33.89978,762 18.36725,-33.9006,762 18.36645,-33.90134,762 18.36578,-33.90198,762 18.36491,-33.90283,762 18.36432,-33.90344,762 18.36348,-33.90432,792.48 18.36269,-33.90514,792.48 18.36202,-33.90582,792.48 18.36142,-33.90656,792.48 18.36057,-33.90756,792.48 18.35989,-33.90834,792.48 18.35916,-33.90935,792.48 18.35838,-33.91032,792.48 18.35781,-33.91116,792.48 18.35709,-33.91219,792.48 18.35653,-33.91301,792.48 18.35592,-33.91396,792.48 18.35541,-33.91479,792.48 18.35479,-33.91571,822.96 18.35432,-33.91652,822.96 18.35378,-33.9175,822.96 18.35316,-33.91855,822.96 18.35277,-33.91933,853.44 18.35226,-33.9202,853.44 18.35188,-33.92102,853.44 18.35132,-33.92198,853.44 18.35104,-33.92262,853.44 18.35042,-33.9239,853.44 18.35003,-33.92471,853.44 18.34969,-33.9255,853.44 18.34913,-33.9267,853.44 18.34871,-33.92755,853.44 18.3484,-33.92825,853.44 18.34801,-33.92926,822.96 18.3475,-33.9304,822.96 18.34706,-33.9315,822.96 18.3461,-33.93384,822.96 18.34574,-33.93476,822.96 18.34515,-33.93631,822.96 18.34476,-33.93723,822.96 18.34442,-33.93816,822.96 18.34391,-33.93937,822.96 18.34351,-33.94035,792.48 18.34299,-33.94156,792.48 18.34253,-33.94273,792.48 18.34202,-33.94398,792.48 18.34162,-33.94501,792.48 18.34078,-33.94716,792.48 18.34059,-33.94813,792.48 18.34055,-33.94936,792.48 18.34083,-33.9505,792.48 18.34145,-33.95157,792.48 18.34218,-33.95233,792.48 18.34324,-33.95316,792.48 18.34442,-33.95366,792.48 18.34554,-33.95393,792.48 18.34728,-33.95398,792.48 18.34843,-33.95376,792.48 18.34951,-33.95334,792.48 18.35083,-33.9525,792.48 18.35163,-33.95166,792.48 18.35233,-33.95068,792.48 18.35277,-33.94968,792.48 18.35318,-33.9485,822.96 18.35373,-33.94716,822.96 18.35415,-33.94613,822.96 18.35468,-33.94487,822.96 18.35513,-33.94386,792.48 18.35558,-33.9429,792.48 18.35619,-33.94167,792.48 18.35686,-33.94038,792.48 18.35737,-33.93951,792.48 18.35798,-33.9384,792.48 18.35861,-33.93732,792.48 18.35924,-33.93612,762 18.36,-33.93484,762 18.36056,-33.93379,762 18.36118,-33.93269,762 18.3617,-33.93165,731.52 18.36365,-33.92811,731.52 18.36421,-33.92706,701.0400000000001 18.36468,-33.92592,701.0400000000001 18.36544,-33.92427,701.0400000000001 18.36595,-33.92317,701.0400000000001 18.36651,-33.92206,701.0400000000001 18.36707,-33.92097,701.0400000000001 18.3676,-33.92001,701.0400000000001 18.36828,-33.9187,701.0400000000001 18.3688,-33.91782,670.5600000000001 18.36959,-33.91644,670.5600000000001 18.36998,-33.91566,670.5600000000001 18.37088,-33.91415,670.5600000000001 18.37149,-33.91317,670.5600000000001 18.37223,-33.91191,670.5600000000001 18.3728,-33.91088,670.5600000000001 18.37329,-33.91003,670.5600000000001 18.37413,-33.90875,670.5600000000001 18.37491,-33.90747,670.5600000000001 18.37559,-33.90651,670.5600000000001 18.37629,-33.90544,670.5600000000001 18.37784,-33.9032,640.08 18.37875,-33.90199,640.08 18.37944,-33.90111,640.08 18.38018,-33.90019,640.08 18.3811,-33.89906,640.08 18.38209,-33.89799,640.08 18.38293,-33.89708,640.08 18.38385,-33.89618,640.08 18.38476,-33.8952,640.08 18.38568,-33.89431,640.08 18.38674,-33.89323,640.08 18.38758,-33.89241,609.6 18.38848,-33.89159,609.6 18.38951,-33.89073,609.6 18.39071,-33.88975,609.6 18.39173,-33.88898,609.6 18.39291,-33.88815,609.6 18.39375,-33.8876,609.6 18.39518,-33.88672,609.6 18.39633,-33.88609,609.6 18.39767,-33.88541,609.6 18.39874,-33.88495,609.6 18.40008,-33.8844,609.6 18.40132,-33.88394,609.6 18.40277,-33.88344,609.6 18.40412,-33.88303,579.12 18.40565,-33.88258,579.12 18.40703,-33.88225,579.12 18.40834,-33.88202,579.12 18.40961,-33.88174,579.12 18.41091,-33.88156,579.12 18.41223,-33.88132,579.12 18.41393,-33.8811,579.12 18.41516,-33.88097,579.12 18.41667,-33.88083,548.64 18.41789,-33.88076,548.64 18.4197,-33.88078,548.64 18.4211,-33.88091,518.1600000000001 18.4223,-33.88114,518.1600000000001 18.42385,-33.88147,518.1600000000001 18.42497,-33.88184,518.1600000000001 18.42619,-33.88226,518.1600000000001 18.42715,-33.88261,518.1600000000001 18.42856,-33.88321,518.1600000000001 18.42951,-33.88365,518.1600000000001 18.43085,-33.88422,487.68 18.43186,-33.88467,487.68 18.43288,-33.88514,487.68 18.43414,-33.88565,487.68 18.43517,-33.88612,487.68 18.43632,-33.88668,457.20000000000005 18.43736,-33.8871,457.20000000000005 18.43832,-33.88752,457.20000000000005 18.43921,-33.88792,457.20000000000005 18.44038,-33.88852,457.20000000000005 18.44134,-33.88902,457.20000000000005 18.4421,-33.88947,457.20000000000005 18.44296,-33.88998,426.72 18.44375,-33.89053,426.72 18.44444,-33.89105,426.72 18.44532,-33.89182,426.72 18.44588,-33.89236,396.24 18.44627,-33.89305,396.24 18.4465,-33.89375,365.76 18.44655,-33.89447,365.76 18.44639,-33.89538,365.76 18.44616,-33.89608,335.28000000000003 18.44576,-33.89658,335.28000000000003 18.44537,-33.89708,335.28000000000003 18.44467,-33.89753,335.28000000000003 18.44414,-33.89781,304.8 18.4433,-33.89809,304.8 18.44261,-33.89822,274.32 18.4419,-33.89827,243.84 18.44112,-33.89836,243.84 18.44016,-33.89845,213.36 18.43949,-33.8985,213.36 18.43861,-33.89859,213.36 18.43781,-33.89868,182.88 18.43702,-33.89877,182.88 18.43632,-33.89887,182.88 18.43562,-33.89896,152.4 18.43494,-33.89901,152.4 18.43426,-33.89906,121.92 18.43357,-33.89915,121.92 18.43265,-33.89923,91.44 18.42791,-33.89994,30.48 18.42716,-33.90018,0 18.42699,-33.90041,0 18.42693,-33.90074,0 18.42694,-33.90097,0 18.42699,-33.90069,0 18.42721,-33.90015,0 18.42733,-33.8999,0 18.42755,-33.89955,0 18.42766,-33.89932,0 18.42788,-33.89896,0 18.42802,-33.89874,0 18.42828,-33.89836,30.48 18.42859,-33.8979,30.48 18.42876,-33.89762,30.48 18.42895,-33.89735,30.48 18.42928,-33.89682,60.96 18.42974,-33.89608,60.96 18.43024,-33.89534,91.44 18.4306,-33.89478,91.44 18.43088,-33.89431,91.44 18.43134,-33.89371,121.92 18.43192,-33.89287,121.92 18.43237,-33.89227,121.92 18.43294,-33.89147,152.4 18.43349,-33.89072,152.4 18.4341,-33.88989,152.4 18.43454,-33.88919,182.88 18.435,-33.88852,182.88 18.43546,-33.88775,213.36 18.43592,-33.88682,213.36 18.43632,-33.88589,213.36 18.4366,-33.88509,213.36 18.43685,-33.88403,243.84 18.43695,-33.88314,243.84 18.43695,-33.88198,243.84 18.43691,-33.88129,243.84 18.43674,-33.88014,274.32 18.4366,-33.87914,274.32 18.43629,-33.87804,274.32 18.43601,-33.87721,304.8 18.43557,-33.87606,304.8 18.43511,-33.87515,304.8 18.43449,-33.87406,335.28000000000003 18.43371,-33.87296,335.28000000000003 18.433,-33.87215,335.28000000000003 18.43243,-33.87159,335.28000000000003 18.43134,-33.87062,365.76 18.43042,-33.86992,365.76 18.42939,-33.86927,365.76 18.42791,-33.86857,396.24 18.42659,-33.86806,396.24 18.42556,-33.86773,396.24 18.42469,-33.86751,396.24 18.42316,-33.86726,426.72 18.4219,-33.86713,426.72 18.42026,-33.86705,457.20000000000005 18.41887,-33.86708,457.20000000000005 18.41761,-33.86717,457.20000000000005 18.41658,-33.86726,487.68 18.41532,-33.8674,487.68 18.41446,-33.86759,487.68 18.41234,-33.86801,487.68 18.41129,-33.86824,518.1600000000001 18.41034,-33.86852,518.1600000000001 18.4096,-33.86871,518.1600000000001 18.40816,-33.86913,518.1600000000001 18.40692,-33.86952,518.1600000000001 18.4057,-33.87001,548.64 18.40473,-33.87038,548.64 18.40395,-33.87071,548.64 18.40272,-33.87126,548.64 18.40165,-33.87177,548.64 18.40075,-33.87222,579.12 18.39958,-33.87281,579.12 18.39867,-33.87332,579.12 18.39781,-33.87383,579.12 18.39677,-33.87442,579.12 18.3956,-33.87511,609.6 18.3947,-33.87566,609.6 18.3938,-33.87621,609.6 18.39294,-33.87676,609.6 18.39157,-33.87765,609.6 18.39078,-33.87822,609.6 18.38966,-33.879,640.08 18.3886,-33.87979,640.08 18.38781,-33.88037,640.08 18.38702,-33.88101,640.08 18.38596,-33.88179,640.08 18.38495,-33.88261,670.5600000000001 18.38411,-33.88326,670.5600000000001 18.38349,-33.8838,670.5600000000001 18.38253,-33.88458,670.5600000000001 18.38153,-33.88541,670.5600000000001 18.38058,-33.88617,670.5600000000001 18.3799,-33.88682,701.0400000000001 18.37893,-33.8877,701.0400000000001 18.37818,-33.8884,701.0400000000001 18.37732,-33.88919,701.0400000000001 18.37646,-33.89008,701.0400000000001 18.37555,-33.89096,701.0400000000001 18.37475,-33.89175,701.0400000000001 18.37383,-33.89268,731.52 18.37315,-33.89338,731.52 18.37246,-33.89408,731.52 18.37149,-33.89506,731.52 18.3708,-33.8958,731.52 18.37006,-33.89659,731.52 18.36931,-33.89743,731.52 18.36863,-33.89813,731.52 18.36794,-33.89892,762 18.36729,-33.89969,762 18.36668,-33.90041,762 18.36594,-33.90129,762 18.36539,-33.90198,762 18.36445,-33.9032,731.52 18.36365,-33.90423,731.52 18.36319,-33.90488,731.52 18.36239,-33.9059,762 18.36176,-33.90679,762 18.36102,-33.90786,762 18.3605,-33.9086,762 18.35984,-33.90958,762 18.35913,-33.91056,762 18.35861,-33.9113,762 18.35804,-33.91219,762 18.35747,-33.91307,762 18.3569,-33.91396,792.48 18.35625,-33.91498,792.48 18.35569,-33.91585,792.48 18.35501,-33.91703,792.48 18.35443,-33.91801,792.48 18.35384,-33.9191,792.48 18.35329,-33.92006,792.48 18.35277,-33.92102,792.48 18.35216,-33.92221,792.48 18.35169,-33.92313,792.48 18.351,-33.92453,792.48 18.35053,-33.92551,792.48 18.35009,-33.92643,792.48 18.34951,-33.92764,792.48 18.34848,-33.92974,792.48 18.3478,-33.93118,792.48 18.34608,-33.93486,792.48 18.34442,-33.93849,792.48 18.34285,-33.94189,792.48 18.34151,-33.94492,762 18.34123,-33.94569,762 18.34059,-33.94794,762 18.34072,-33.94899,762 18.34167,-33.95055,762 18.34259,-33.95134,731.52 18.34351,-33.95176,731.52 18.34505,-33.95204,731.52 18.34616,-33.95197,731.52 18.34734,-33.95152,731.52 18.3486,-33.95064,731.52 18.34923,-33.94971,731.52 18.3498,-33.94867,731.52 18.35037,-33.94771,731.52 18.35092,-33.94679,731.52 18.35152,-33.94575,731.52 18.3521,-33.94469,701.0400000000001 18.35266,-33.94368,701.0400000000001 18.35339,-33.94235,701.0400000000001 18.35395,-33.94135,701.0400000000001 18.35445,-33.94029,670.5600000000001 18.35518,-33.93892,670.5600000000001 18.35587,-33.93765,670.5600000000001 18.35653,-33.93631,670.5600000000001 18.3573,-33.93486,670.5600000000001 18.35793,-33.93365,640.08 18.35838,-33.93283,640.08 18.359,-33.93146,640.08 18.35947,-33.93044,640.08 18.36004,-33.92918,640.08 18.36056,-33.92815,640.08 18.36159,-33.92597,640.08 18.36213,-33.92491,640.08 18.36376,-33.92157,640.08 18.36491,-33.9194,640.08 18.36544,-33.91846,609.6 18.36623,-33.91718,609.6 18.36679,-33.91629,609.6 18.36746,-33.91516,609.6 18.36802,-33.91429,609.6 18.3688,-33.91306,609.6 18.36953,-33.912,609.6 18.37004,-33.91127,609.6 18.37086,-33.91009,609.6 18.37161,-33.90912,609.6 18.37228,-33.90816,609.6 18.37301,-33.90715,609.6 18.37383,-33.906,609.6 18.3744,-33.90525,609.6 18.37521,-33.90418,609.6 18.37587,-33.90331,609.6 18.37671,-33.90211,609.6 18.37744,-33.90115,609.6 18.3783,-33.89999,609.6 18.37901,-33.89909,609.6 18.38058,-33.89701,609.6 18.3813,-33.89621,579.12 18.38213,-33.89524,579.12 18.38299,-33.89442,579.12 18.38394,-33.89351,579.12 18.38489,-33.89259,579.12 18.38573,-33.89186,579.12 18.38674,-33.89099,579.12 18.38769,-33.89026,579.12 18.38859,-33.88957,579.12 18.38974,-33.88873,579.12 18.39072,-33.88815,579.12 18.39157,-33.88761,579.12 18.39296,-33.88687,579.12 18.39403,-33.88632,579.12 18.39537,-33.88573,579.12 18.39643,-33.88528,579.12 18.39728,-33.8849,579.12 18.39907,-33.88422,579.12 18.40003,-33.88385,579.12 18.40147,-33.88342,579.12 18.40256,-33.88305,579.12 18.40376,-33.88272,579.12 18.4049,-33.88239,579.12 18.40628,-33.88207,579.12 18.40754,-33.88184,579.12 18.40866,-33.88165,579.12 18.41017,-33.88142,579.12 18.41114,-33.88132,579.12 18.41257,-33.88123,579.12 18.414,-33.88114,548.64 18.41526,-33.88114,548.64 18.41652,-33.88123,548.64 18.41795,-33.88137,518.1600000000001 18.41921,-33.88156,518.1600000000001 18.42058,-33.88179,518.1600000000001 18.42189,-33.88202,518.1600000000001 18.42301,-33.88229,518.1600000000001 18.42367,-33.88244,518.1600000000001 18.42545,-33.88295,487.68 18.42654,-33.88339,487.68 18.42772,-33.88399,487.68 18.42872,-33.88458,487.68 18.42985,-33.88522,487.68 18.43071,-33.88575,457.20000000000005 18.43181,-33.88641,457.20000000000005 18.43266,-33.887,457.20000000000005 18.43346,-33.88752,426.72 18.4346,-33.88831,426.72 18.43534,-33.88884,426.72 18.43632,-33.88956,396.24 18.43696,-33.89003,396.24 18.43798,-33.89077,396.24 18.4387,-33.89136,365.76 18.43966,-33.89209,365.76 18.44033,-33.89268,335.28000000000003 18.44106,-33.89333,335.28000000000003 18.4419,-33.89401,304.8 18.44251,-33.89461,304.8 18.44324,-33.89539,274.32 18.4438,-33.89603,274.32 18.44427,-33.89692,274.32 18.44436,-33.89763,243.84 18.44421,-33.8985,243.84 18.44391,-33.89909,243.84 18.44341,-33.89964,243.84 18.44263,-33.90015,213.36 18.44173,-33.90051,213.36 18.44084,-33.90069,213.36 18.43999,-33.90074,213.36 18.43918,-33.90074,213.36 18.43837,-33.9007,182.88 18.43775,-33.90064,182.88 18.43708,-33.9006,182.88 18.43596,-33.90047,152.4 18.43489,-33.90033,152.4 18.43422,-33.90024,121.92 18.43351,-33.90018,121.92 18.43271,-33.90013,91.44 18.43203,-33.90005,91.44 18.43122,-33.90004,60.96 18.43063,-33.90001,60.96 18.43007,-33.89996,60.96 18.42957,-33.89999,60.96 18.42929,-33.89996,30.48 18.42867,-33.89996,30.48 18.42762,-33.89999,30.48 18.42728,-33.90009,0 18.42704,-33.90024,0 18.42682,-33.90051,0 18.42692,-33.90076,0 18.42696,-33.90098,0 18.42732,-33.90106,0 18.42945,-33.90125,30.48 18.43048,-33.90134,60.96 18.43125,-33.90143,60.96 18.4318,-33.90153,91.44 18.43243,-33.90167,91.44 18.43304,-33.90184,121.92 18.43382,-33.90198,121.92 18.43461,-33.90207,121.92 18.43534,-33.90208,152.4 18.43637,-33.90195,152.4 18.43712,-33.90171,152.4 18.43797,-33.90125,152.4 18.43865,-33.90074,182.88 18.43943,-33.89996,182.88 18.43971,-33.89951,182.88 18.44027,-33.89832,182.88 18.44055,-33.8972,213.36 18.44067,-33.89631,213.36 18.44067,-33.89538,213.36 18.44055,-33.89436,243.84 18.44038,-33.89324,243.84 18.4401,-33.89236,243.84 18.43971,-33.89122,243.84 18.43935,-33.89035,243.84 18.4387,-33.88921,243.84 18.43803,-33.88817,243.84 18.43735,-33.88728,243.84 18.4364,-33.88623,274.32 18.43562,-33.8855,274.32 18.43461,-33.88454,274.32 18.43349,-33.88362,274.32 18.43248,-33.88293,274.32 18.43128,-33.88216,304.8 18.43018,-33.88152,304.8 18.42882,-33.88081,304.8 18.42773,-33.8803,335.28000000000003 18.42648,-33.87979,335.28000000000003 18.42533,-33.87937,335.28000000000003 18.42407,-33.879,335.28000000000003 18.42239,-33.87859,335.28000000000003 18.42076,-33.87831,335.28000000000003 18.41932,-33.87811,335.28000000000003 18.41841,-33.87804,335.28000000000003 18.41646,-33.87802,335.28000000000003 18.41526,-33.87811,365.76 18.41394,-33.87825,365.76 18.41257,-33.87853,365.76 18.4112,-33.87881,365.76 18.40982,-33.87914,365.76 18.40857,-33.87951,365.76 18.40731,-33.87997,396.24 18.40622,-33.88034,396.24 18.40513,-33.88078,396.24 18.40384,-33.88133,396.24 18.40296,-33.88169,396.24 18.40181,-33.88221,426.72 18.4009,-33.88268,426.72 18.3997,-33.88328,426.72 18.39885,-33.88376,457.20000000000005 18.3979,-33.88431,457.20000000000005 18.39678,-33.88496,457.20000000000005 18.39588,-33.8855,457.20000000000005 18.39504,-33.88605,487.68 18.3942,-33.88655,487.68 18.39324,-33.88719,487.68 18.39229,-33.88779,487.68 18.39151,-33.88834,518.1600000000001 18.39066,-33.88891,518.1600000000001 18.38988,-33.88943,518.1600000000001 18.38876,-33.89021,548.64 18.38802,-33.89077,548.64 18.38711,-33.89143,548.64 18.38629,-33.89204,548.64 18.38528,-33.89282,548.64 18.38456,-33.89337,579.12 18.38373,-33.89408,579.12 18.38299,-33.8947,579.12 18.38226,-33.89529,579.12 18.38133,-33.89613,579.12 18.38052,-33.8968,579.12 18.37984,-33.89734,579.12 18.37893,-33.89813,579.12 18.37807,-33.89883,579.12 18.37716,-33.89969,579.12 18.37626,-33.90051,609.6 18.37564,-33.90106,609.6 18.37475,-33.9019,609.6 18.37406,-33.90255,609.6 18.3732,-33.90339,609.6 18.37252,-33.90409,609.6 18.37143,-33.9052,609.6 18.37074,-33.906,579.12 18.37009,-33.90669,579.12 18.36937,-33.90753,579.12 18.36851,-33.9086,579.12 18.36768,-33.90958,579.12 18.36662,-33.91079,579.12 18.36617,-33.9114,579.12 18.36525,-33.91251,579.12 18.36439,-33.91363,579.12 18.3637,-33.91452,548.64 18.36302,-33.91545,548.64 18.36219,-33.91658,548.64 18.36147,-33.91763,548.64 18.36102,-33.91829,548.64 18.3601,-33.91968,548.64 18.35939,-33.92075,548.64 18.35872,-33.92175,548.64 18.35815,-33.92271,548.64 18.35759,-33.92363,548.64 18.35715,-33.92445,518.1600000000001 18.35649,-33.92559,518.1600000000001 18.35604,-33.92648,518.1600000000001 18.35535,-33.9278,518.1600000000001 18.35485,-33.9288,518.1600000000001 18.35438,-33.92974,518.1600000000001 18.3539,-33.93068,518.1600000000001 18.35335,-33.93169,518.1600000000001 18.35277,-33.93279,518.1600000000001 18.3522,-33.93388,518.1600000000001 18.35076,-33.93837,548.64 18.35104,-33.93919,548.64 18.35169,-33.93998,579.12 18.35249,-33.94048,579.12 18.3534,-33.94068,609.6 18.35451,-33.94061,609.6 18.35569,-33.94017,609.6 18.35653,-33.93961,609.6 18.35707,-33.93905,640.08 18.35775,-33.93821,640.08 18.35827,-33.93732,640.08 18.35883,-33.93613,640.08 18.35933,-33.93503,640.08 18.35967,-33.93402,640.08 18.3601,-33.93286,670.5600000000001 18.36044,-33.93197,670.5600000000001 18.36085,-33.93073,670.5600000000001 18.36119,-33.9296,670.5600000000001 18.36152,-33.92839,701.0400000000001 18.36164,-33.92736,701.0400000000001 18.36164,-33.92629,731.52 18.36152,-33.92542,731.52 18.36096,-33.92415,762 18.36023,-33.9234,762 18.35939,-33.92285,792.48 18.35844,-33.92252,792.48 18.35764,-33.92243,792.48 18.35644,-33.92257,822.96 18.3553,-33.92303,822.96 18.35434,-33.92372,792.48 18.35375,-33.92443,792.48 18.35306,-33.92546,792.48 18.35165,-33.92862,792.48 18.35126,-33.92953,792.48 18.35072,-33.93123,792.48 18.35032,-33.93235,792.48 18.3498,-33.93407,792.48 18.34946,-33.93533,762 18.34911,-33.93649,762 18.34885,-33.9375,762 18.34665,-33.94473,762 18.34498,-33.95018,731.52 18.34336,-33.95595,731.52 18.34196,-33.96158,701.0400000000001 18.34053,-33.96717,731.52 18.33916,-33.97271,701.0400000000001 18.33797,-33.97833,701.0400000000001 18.33708,-33.98373,670.5600000000001 18.33681,-33.98667,670.5600000000001 18.33681,-33.98942,670.5600000000001 18.33693,-33.99207,670.5600000000001 18.33714,-33.99449,670.5600000000001 18.3375,-33.99733,670.5600000000001 18.33781,-33.99934,701.0400000000001 18.33814,-34.00095,701.0400000000001 18.33836,-34.0019,701.0400000000001 18.33858,-34.00278,701.0400000000001 18.33887,-34.00389,701.0400000000001 18.33916,-34.00478,701.0400000000001 18.33944,-34.00594,701.0400000000001 18.33979,-34.00702,701.0400000000001 18.34007,-34.00795,701.0400000000001 18.3403,-34.00879,701.0400000000001 18.34059,-34.00981,701.0400000000001 18.34093,-34.01097,701.0400000000001 18.34122,-34.012,701.0400000000001 18.34145,-34.01285,701.0400000000001 18.34179,-34.01399,701.0400000000001 18.34207,-34.01491,701.0400000000001 18.34235,-34.01596,701.0400000000001 18.34268,-34.01715,701.0400000000001 18.34302,-34.01816,701.0400000000001 18.3433,-34.01907,701.0400000000001 18.34352,-34.01981,701.0400000000001 18.34392,-34.021,701.0400000000001 18.34453,-34.02292,701.0400000000001 18.34499,-34.02405,701.0400000000001 18.34539,-34.02517,701.0400000000001 18.34579,-34.02615,701.0400000000001 18.34648,-34.02801,701.0400000000001 18.34682,-34.02908,701.0400000000001 18.34711,-34.02997,731.52 18.34756,-34.03111,731.52 18.34785,-34.03201,731.52 18.34823,-34.03313,731.52 18.34857,-34.03404,731.52 18.34891,-34.035,731.52 18.34924,-34.0361,731.52 18.34958,-34.03716,731.52 18.34986,-34.03807,731.52 18.35019,-34.03931,731.52 18.35049,-34.0403,731.52 18.35076,-34.04128,731.52 18.35098,-34.04224,731.52 18.35129,-34.04342,731.52 18.35148,-34.04439,731.52 18.35171,-34.04539,731.52 18.35197,-34.04659,731.52 18.35215,-34.04752,731.52 18.35238,-34.04859,731.52 18.35261,-34.04965,731.52 18.35278,-34.05059,731.52 18.35306,-34.0518,731.52 18.35335,-34.05305,731.52 18.35356,-34.054,731.52 18.35386,-34.05529,701.0400000000001 18.35461,-34.05832,701.0400000000001 18.35501,-34.05968,701.0400000000001 18.35535,-34.06064,701.0400000000001 18.35574,-34.06178,701.0400000000001 18.35609,-34.06279,701.0400000000001 18.35653,-34.06398,701.0400000000001 18.35692,-34.0649,701.0400000000001 18.35743,-34.06613,701.0400000000001 18.35782,-34.06709,701.0400000000001 18.35849,-34.06833,701.0400000000001 18.35911,-34.06929,701.0400000000001 18.35956,-34.06998,701.0400000000001 18.36028,-34.07112,701.0400000000001 18.3609,-34.07199,701.0400000000001 18.36159,-34.07307,701.0400000000001 18.36233,-34.0741,701.0400000000001 18.36296,-34.07498,701.0400000000001 18.36359,-34.07584,701.0400000000001 18.36433,-34.0767,701.0400000000001 18.36508,-34.07759,701.0400000000001 18.36595,-34.07863,701.0400000000001 18.36662,-34.07936,701.0400000000001 18.36748,-34.08033,701.0400000000001 18.3683,-34.08124,701.0400000000001 18.36925,-34.08229,701.0400000000001 18.37,-34.08303,701.0400000000001 18.37086,-34.08401,701.0400000000001 18.37183,-34.08504,701.0400000000001 18.37263,-34.08583,701.0400000000001 18.37349,-34.08676,701.0400000000001 18.37435,-34.08774,670.5600000000001 18.37532,-34.08876,670.5600000000001 18.37626,-34.08975,670.5600000000001 18.37709,-34.09062,670.5600000000001 18.37805,-34.09163,670.5600000000001 18.37881,-34.09239,670.5600000000001 18.37985,-34.09346,640.08 18.38053,-34.09421,640.08 18.38139,-34.09509,640.08 18.38243,-34.09616,640.08 18.3831,-34.09681,640.08 18.38405,-34.09776,640.08 18.38488,-34.09849,609.6 18.38612,-34.09964,609.6 18.38688,-34.10035,609.6 18.38786,-34.1012,609.6 18.38876,-34.10197,579.12 18.39005,-34.10307,579.12 18.391,-34.10384,579.12 18.39195,-34.10463,548.64 18.39268,-34.10518,548.64 18.39358,-34.10596,548.64 18.39481,-34.10692,548.64 18.39588,-34.10779,548.64 18.39689,-34.10859,548.64 18.39781,-34.10929,518.1600000000001 18.39879,-34.11003,518.1600000000001 18.40004,-34.11092,518.1600000000001 18.4007,-34.11145,518.1600000000001 18.40193,-34.11227,518.1600000000001 18.40288,-34.11292,518.1600000000001 18.40422,-34.1138,518.1600000000001 18.40513,-34.11447,518.1600000000001 18.40611,-34.11506,518.1600000000001 18.40726,-34.11584,518.1600000000001 18.40805,-34.11637,518.1600000000001 18.40931,-34.11716,518.1600000000001 18.41034,-34.11786,518.1600000000001 18.41107,-34.11832,518.1600000000001 18.41206,-34.11902,518.1600000000001 18.41426,-34.12047,518.1600000000001 18.4152,-34.12107,518.1600000000001 18.41623,-34.12167,518.1600000000001 18.41735,-34.12234,518.1600000000001 18.4183,-34.12294,518.1600000000001 18.41948,-34.12363,518.1600000000001 18.42047,-34.12423,487.68 18.42374,-34.1261,487.68 18.42497,-34.12679,487.68 18.42607,-34.1274,487.68 18.4271,-34.12791,487.68 18.42844,-34.12862,487.68 18.42951,-34.12912,487.68 18.43074,-34.12971,487.68 18.43181,-34.13017,487.68 18.43293,-34.13068,487.68 18.43391,-34.13108,487.68 18.43511,-34.13145,487.68 18.43649,-34.13187,487.68 18.43763,-34.13219,487.68 18.43889,-34.13243,487.68 18.4401,-34.13264,487.68 18.44135,-34.13275,457.20000000000005 18.44307,-34.13275,487.68 18.44436,-34.1326,487.68 18.44582,-34.13229,487.68 18.44717,-34.13187,487.68 18.4481,-34.13145,487.68 18.44954,-34.1307,487.68 18.45051,-34.1301,487.68 18.45165,-34.12935,487.68 18.45268,-34.12865,487.68 18.45383,-34.12782,487.68 18.45491,-34.12703,487.68 18.45594,-34.12633,487.68 18.45692,-34.12558,487.68 18.45812,-34.12465,487.68 18.45926,-34.12377,487.68 18.46034,-34.12294,487.68 18.46118,-34.1223,487.68 18.46252,-34.1213,487.68 18.46333,-34.1207,487.68 18.4647,-34.11972,457.20000000000005 18.46577,-34.11896,457.20000000000005 18.46695,-34.11813,487.68 18.46813,-34.11725,487.68 18.46922,-34.11641,487.68 18.47026,-34.11557,487.68 18.47127,-34.1147,487.68 18.47233,-34.11365,487.68 18.47323,-34.11264,487.68 18.47397,-34.11171,487.68 18.47486,-34.11026,487.68 18.47534,-34.1091,487.68 18.47563,-34.10803,487.68 18.47586,-34.10654,487.68 18.47592,-34.10486,487.68 18.47598,-34.1039,487.68 18.47603,-34.10243,487.68 18.47614,-34.1011,487.68 18.47626,-34.09978,487.68 18.47637,-34.09836,487.68 18.47648,-34.09717,518.1600000000001 18.4766,-34.0957,518.1600000000001 18.47666,-34.09458,518.1600000000001 18.47677,-34.09309,518.1600000000001 18.47689,-34.09183,518.1600000000001 18.47694,-34.09076,518.1600000000001 18.47704,-34.08916,518.1600000000001 18.47721,-34.08549,518.1600000000001 18.47743,-34.08151,487.68 18.47788,-34.07607,487.68 18.47826,-34.07233,487.68 18.47883,-34.0667,487.68 18.47929,-34.06157,487.68 18.47963,-34.0565,487.68 18.48003,-34.05254,487.68 18.48052,-34.04764,487.68 18.48083,-34.04374,487.68 18.48135,-34.03848,487.68 18.4817,-34.0334,487.68 18.48192,-34.02937,487.68 18.48203,-34.02814,457.20000000000005 18.48215,-34.02652,457.20000000000005 18.48227,-34.02531,457.20000000000005 18.48265,-34.02141,457.20000000000005 18.48298,-34.01715,487.68 18.48343,-34.01221,487.68 18.48387,-34.00716,457.20000000000005 18.48433,-34.00199,457.20000000000005 18.48478,-33.99669,457.20000000000005 18.48507,-33.99244,457.20000000000005 18.48523,-33.98987,457.20000000000005 18.48528,-33.98854,457.20000000000005 18.48536,-33.98723,457.20000000000005 18.48541,-33.98606,457.20000000000005 18.48567,-33.98167,457.20000000000005 18.48576,-33.98057,457.20000000000005 18.4859,-33.97513,457.20000000000005 18.48598,-33.97112,457.20000000000005 18.48593,-33.96707,457.20000000000005 18.48587,-33.966,457.20000000000005 18.48581,-33.96451,457.20000000000005 18.48567,-33.96281,457.20000000000005 18.48562,-33.96181,457.20000000000005 18.48547,-33.96037,457.20000000000005 18.48534,-33.95911,457.20000000000005 18.48523,-33.95782,457.20000000000005 18.48506,-33.95641,457.20000000000005 18.48495,-33.95503,457.20000000000005 18.48478,-33.95389,457.20000000000005 18.48467,-33.95264,426.72 18.48444,-33.95114,457.20000000000005 18.48427,-33.94995,457.20000000000005 18.4841,-33.94873,457.20000000000005 18.48387,-33.94748,457.20000000000005 18.48354,-33.94583,426.72 18.48332,-33.9446,426.72 18.48301,-33.94328,426.72 18.48278,-33.94207,426.72 18.48248,-33.94098,426.72 18.48209,-33.93956,426.72 18.48181,-33.93846,426.72 18.48146,-33.93723,426.72 18.48101,-33.93575,426.72 18.48057,-33.93462,426.72 18.48009,-33.93337,426.72 18.47945,-33.93192,426.72 18.47878,-33.93063,396.24 18.47822,-33.92953,396.24 18.47738,-33.92821,396.24 18.4766,-33.92699,396.24 18.47592,-33.92596,396.24 18.47494,-33.92457,396.24 18.47391,-33.92327,396.24 18.47317,-33.92234,396.24 18.47228,-33.92125,396.24 18.47122,-33.92006,396.24 18.47025,-33.91894,396.24 18.46914,-33.91782,365.76 18.46819,-33.91684,365.76 18.46718,-33.91576,365.76 18.46613,-33.91475,365.76 18.46544,-33.91402,365.76 18.46413,-33.9127,335.28000000000003 18.46331,-33.91191,335.28000000000003 18.4623,-33.91093,335.28000000000003 18.46121,-33.90986,304.8 18.46024,-33.90898,304.8 18.45932,-33.90809,304.8 18.45812,-33.90707,304.8 18.45715,-33.90614,304.8 18.45623,-33.9053,304.8 18.45509,-33.90427,274.32 18.45406,-33.9033,274.32 18.45288,-33.90221,274.32 18.45193,-33.90134,274.32 18.45079,-33.90027,274.32 18.44969,-33.89928,274.32 18.44885,-33.89846,304.8 18.44767,-33.8974,274.32 18.44672,-33.89658,274.32 18.44571,-33.89566,274.32 18.44484,-33.89492,274.32 18.44375,-33.89397,274.32 18.44284,-33.89329,274.32 18.44201,-33.89273,243.84 18.44078,-33.89214,243.84 18.43981,-33.89185,243.84 18.43887,-33.89172,243.84 18.43764,-33.89182,243.84 18.43691,-33.892,213.36 18.43612,-33.89236,213.36 18.43573,-33.89264,213.36 18.43494,-33.89333,182.88 18.43437,-33.89389,182.88 18.43399,-33.89424,182.88 18.43343,-33.89474,152.4 18.43288,-33.8952,152.4 18.4322,-33.89576,121.92 18.4318,-33.89603,121.92 18.43108,-33.89662,121.92 18.43035,-33.89717,91.44 18.42979,-33.89763,91.44 18.42916,-33.89813,60.96 18.42876,-33.89841,60.96 18.42745,-33.89971,30.48 18.42721,-33.9001,0 18.4271,-33.90032,0 18.42704,-33.90056,0 18.42699,-33.90078,0 18.42689,-33.90104,0 18.42721,-33.90102,0 18.42762,-33.90115,0 18.42796,-33.90125,0 18.42816,-33.90129,0 18.4285,-33.90138,30.48 18.4294,-33.90147,30.48 18.42979,-33.90153,30.48 18.4308,-33.9017,60.96 18.43168,-33.90181,60.96 18.43225,-33.90185,91.44 18.43299,-33.90193,91.44 18.43357,-33.90199,91.44 18.43431,-33.90199,121.92 18.435,-33.90199,121.92 18.43573,-33.90193,121.92 18.43668,-33.90184,152.4 18.43736,-33.90175,152.4 18.43809,-33.90153,182.88 18.43876,-33.90129,182.88 18.43966,-33.90092,182.88 18.44038,-33.90051,213.36 18.44128,-33.89987,213.36 18.44195,-33.89932,243.84 18.44251,-33.89877,243.84 18.44307,-33.89809,243.84 18.44358,-33.89724,274.32 18.44386,-33.8963,274.32 18.44398,-33.89538,274.32 18.44398,-33.89426,274.32 18.44381,-33.89333,304.8 18.44353,-33.89222,304.8 18.4433,-33.89145,304.8 18.44296,-33.8905,304.8 18.44244,-33.88933,304.8 18.44195,-33.88843,304.8 18.44135,-33.88733,304.8 18.44078,-33.88644,304.8 18.43998,-33.88537,304.8 18.43929,-33.88454,304.8 18.43837,-33.88348,304.8 18.43775,-33.88284,335.28000000000003 18.4368,-33.88184,335.28000000000003 18.43597,-33.88105,335.28000000000003 18.43512,-33.8803,335.28000000000003 18.4341,-33.87946,335.28000000000003 18.43299,-33.87859,335.28000000000003 18.43214,-33.87799,335.28000000000003 18.43097,-33.87721,365.76 18.42996,-33.87657,365.76 18.42876,-33.87588,365.76 18.42755,-33.87524,365.76 18.42648,-33.87467,396.24 18.42522,-33.87406,396.24 18.42413,-33.8736,396.24 18.42281,-33.87304,396.24 18.42161,-33.87263,396.24 18.42041,-33.87225,426.72 18.41892,-33.87187,426.72 18.41778,-33.87164,426.72 18.41656,-33.87144,426.72 18.41509,-33.87132,426.72 18.4136,-33.87117,457.20000000000005 18.4123,-33.87117,457.20000000000005 18.41131,-33.87117,457.20000000000005 18.40972,-33.87126,457.20000000000005 18.40832,-33.8714,457.20000000000005 18.4072,-33.87158,457.20000000000005 18.40633,-33.87173,457.20000000000005 18.4049,-33.87204,487.68 18.4033,-33.87243,487.68 18.40244,-33.87271,487.68 18.40141,-33.87309,487.68 18.40008,-33.87355,487.68 18.3989,-33.87401,487.68 18.39798,-33.87444,518.1600000000001 18.39678,-33.87495,518.1600000000001 18.39563,-33.87555,518.1600000000001 18.39472,-33.87602,518.1600000000001 18.3938,-33.87653,518.1600000000001 18.39289,-33.87704,548.64 18.39173,-33.87772,548.64 18.39083,-33.87825,548.64 18.38954,-33.87909,548.64 18.38859,-33.87978,548.64 18.38757,-33.88053,548.64 18.3868,-33.88115,548.64 18.38585,-33.88188,548.64 18.38482,-33.88277,548.64 18.38405,-33.88344,548.64 18.38322,-33.88416,579.12 18.38243,-33.88495,579.12 18.3815,-33.88584,579.12 18.38053,-33.88677,579.12 18.37978,-33.88747,579.12 18.3791,-33.88812,609.6 18.37818,-33.88905,609.6 18.37733,-33.88989,609.6 18.37658,-33.89068,609.6 18.37576,-33.89154,609.6 18.37509,-33.89222,640.08 18.37446,-33.89291,640.08 18.37379,-33.89365,640.08 18.37297,-33.89455,640.08 18.37217,-33.89543,640.08 18.37144,-33.89621,640.08 18.37063,-33.8972,670.5600000000001 18.37,-33.89794,670.5600000000001 18.36937,-33.89874,670.5600000000001 18.36858,-33.89969,670.5600000000001 18.36788,-33.90046,670.5600000000001 18.36731,-33.90125,670.5600000000001 18.36673,-33.90193,670.5600000000001 18.36595,-33.90285,670.5600000000001 18.36539,-33.90363,670.5600000000001 18.36405,-33.90535,701.0400000000001 18.36202,-33.90811,701.0400000000001 18.35967,-33.91145,701.0400000000001 18.35896,-33.91247,701.0400000000001 18.35832,-33.91347,701.0400000000001 18.35781,-33.91424,701.0400000000001 18.35684,-33.91568,701.0400000000001 18.35619,-33.91672,701.0400000000001 18.35574,-33.9175,701.0400000000001 18.35512,-33.91852,701.0400000000001 18.35335,-33.92136,731.52 18.35169,-33.92415,731.52 18.3507,-33.92592,731.52 18.34963,-33.92792,731.52 18.34917,-33.92881,731.52 18.34851,-33.93013,731.52 18.34801,-33.93123,731.52 18.34757,-33.93211,731.52 18.34706,-33.93329,731.52 18.34649,-33.93448,731.52 18.34608,-33.93537,731.52 18.34568,-33.9363,731.52 18.34494,-33.93807,731.52 18.34425,-33.93975,731.52 18.34299,-33.94296,731.52 18.3415,-33.94673,731.52 18.34016,-33.95018,762 18.33865,-33.95412,731.52 18.33607,-33.96094,701.0400000000001 18.33406,-33.96628,701.0400000000001 18.33212,-33.97136,701.0400000000001 18.33023,-33.9761,701.0400000000001 18.32846,-33.98085,701.0400000000001 18.32674,-33.98593,670.5600000000001 18.32576,-33.98955,701.0400000000001 18.3252,-33.99184,670.5600000000001 18.32475,-33.99367,670.5600000000001 18.32457,-33.99472,670.5600000000001 18.32441,-33.99568,670.5600000000001 18.32419,-33.99678,701.0400000000001 18.32402,-33.99788,701.0400000000001 18.32391,-33.99884,701.0400000000001 18.32379,-33.99994,701.0400000000001 18.32374,-34.00085,701.0400000000001 18.32365,-34.0018,701.0400000000001 18.32365,-34.00301,701.0400000000001 18.32368,-34.00388,701.0400000000001 18.32376,-34.00478,701.0400000000001 18.32382,-34.00571,701.0400000000001 18.32396,-34.00685,701.0400000000001 18.32411,-34.00799,701.0400000000001 18.3243,-34.00896,701.0400000000001 18.32445,-34.0099,701.0400000000001 18.32474,-34.0112,701.0400000000001 18.32491,-34.01207,701.0400000000001 18.32525,-34.01339,701.0400000000001 18.32542,-34.01437,701.0400000000001 18.3257,-34.01555,701.0400000000001 18.32594,-34.01679,701.0400000000001 18.32605,-34.01758,701.0400000000001 18.32632,-34.01875,701.0400000000001 18.32668,-34.01982,701.0400000000001 18.32714,-34.0207,701.0400000000001 18.32766,-34.02163,701.0400000000001 18.32817,-34.02242,701.0400000000001 18.32884,-34.02342,701.0400000000001 18.32966,-34.02461,701.0400000000001 18.33018,-34.02539,701.0400000000001 18.3308,-34.02631,701.0400000000001 18.33153,-34.0274,701.0400000000001 18.33206,-34.02824,701.0400000000001 18.33254,-34.0291,701.0400000000001 18.33304,-34.02992,701.0400000000001 18.33355,-34.0308,701.0400000000001 18.33411,-34.03185,701.0400000000001 18.33452,-34.03267,701.0400000000001 18.335,-34.03354,731.52 18.33544,-34.03444,701.0400000000001 18.33601,-34.03546,701.0400000000001 18.33641,-34.0363,701.0400000000001 18.33675,-34.03718,701.0400000000001 18.33697,-34.03835,731.52 18.33702,-34.03917,762 18.3371,-34.03979,792.48 18.33738,-34.0403,822.96 18.33796,-34.04067,853.44 18.33858,-34.04072,853.44 18.33921,-34.04058,883.9200000000001 18.3399,-34.0403,883.9200000000001 18.3407,-34.03983,883.9200000000001 18.34127,-34.03928,883.9200000000001 18.34173,-34.03853,883.9200000000001 18.34196,-34.0377,883.9200000000001 18.34196,-34.03672,853.44 18.3415,-34.03546,822.96 18.34093,-34.03448,792.48 18.34002,-34.03318,792.48 18.33926,-34.03226,792.48 18.33836,-34.03113,762 18.33742,-34.03006,762 18.33635,-34.0288,762 18.33551,-34.02782,762 18.33444,-34.02667,762 18.33344,-34.0255,731.52 18.33226,-34.0242,731.52 18.33119,-34.02287,701.0400000000001 18.33024,-34.02141,701.0400000000001 18.32949,-34.02019,701.0400000000001 18.3288,-34.01889,701.0400000000001 18.32811,-34.01733,701.0400000000001 18.32755,-34.01605,670.5600000000001 18.32703,-34.01465,670.5600000000001 18.32654,-34.01289,670.5600000000001 18.3262,-34.01134,670.5600000000001 18.32604,-34.01015,670.5600000000001 18.32588,-34.00869,640.08 18.32582,-34.00734,640.08 18.32587,-34.00566,640.08 18.326,-34.00422,640.08 18.32617,-34.00254,640.08 18.32637,-34.00122,640.08 18.3266,-33.99998,609.6 18.32685,-33.99873,609.6 18.32716,-33.9976,609.6 18.32929,-33.99124,609.6 18.33063,-33.98825,609.6 18.33237,-33.98506,609.6 18.33433,-33.98181,579.12 18.33613,-33.97893,579.12 18.33801,-33.97592,579.12 18.33977,-33.97311,579.12 18.34352,-33.96716,579.12 18.34694,-33.96149,579.12 18.3493,-33.95728,548.64 18.35203,-33.95213,548.64 18.35255,-33.95105,548.64 18.35322,-33.94968,548.64 18.35381,-33.9485,548.64 18.35434,-33.94734,548.64 18.35489,-33.94613,548.64 18.35546,-33.94505,548.64 18.35604,-33.94384,548.64 18.35667,-33.94258,548.64 18.3572,-33.94157,548.64 18.35787,-33.94016,548.64 18.3585,-33.93891,548.64 18.35901,-33.93789,579.12 18.36096,-33.93375,579.12 18.36269,-33.93018,579.12 18.36382,-33.92757,579.12 18.36439,-33.92629,609.6 18.36491,-33.92513,609.6 18.36536,-33.92411,609.6 18.36599,-33.9228,609.6 18.36651,-33.92175,609.6 18.36702,-33.92066,609.6 18.36782,-33.91917,609.6 18.3684,-33.9181,609.6 18.36908,-33.91684,609.6 18.36977,-33.91568,609.6 18.37032,-33.9147,609.6 18.37097,-33.91354,609.6 18.37177,-33.91228,609.6 18.3725,-33.91113,609.6 18.37318,-33.91008,609.6 18.37407,-33.90871,609.6 18.37458,-33.90795,609.6 18.37549,-33.9066,609.6 18.37626,-33.9055,609.6 18.37699,-33.9045,609.6 18.37772,-33.90343,640.08 18.37828,-33.90266,640.08 18.37933,-33.90134,640.08 18.38013,-33.90041,640.08 18.38086,-33.89951,640.08 18.3819,-33.89836,640.08 18.38276,-33.8974,640.08 18.38349,-33.89662,640.08 18.38456,-33.89566,640.08 18.38568,-33.89468,640.08 18.3868,-33.89378,640.08 18.38785,-33.89296,640.08 18.38898,-33.89214,640.08 18.39044,-33.89122,640.08 18.39151,-33.89063,640.08 18.39296,-33.88989,640.08 18.39425,-33.88925,640.08 18.39515,-33.88884,609.6 18.39677,-33.88815,609.6 18.39815,-33.88756,609.6 18.39964,-33.887,640.08 18.40096,-33.88654,640.08 18.40227,-33.88607,640.08 18.40393,-33.88556,640.08 18.40525,-33.88519,640.08 18.40681,-33.88472,640.08 18.40822,-33.8844,640.08 18.40961,-33.88403,640.08 18.41118,-33.88362,640.08 18.41246,-33.88333,640.08 18.41389,-33.88305,609.6 18.41527,-33.8828,609.6 18.41681,-33.88258,609.6 18.41813,-33.88243,609.6 18.41936,-33.88234,579.12 18.4211,-33.8822,579.12 18.42245,-33.88216,579.12 18.42367,-33.88216,579.12 18.42503,-33.88225,548.64 18.42654,-33.88248,548.64 18.42751,-33.88277,518.1600000000001 18.42872,-33.8833,518.1600000000001 18.42968,-33.88384,518.1600000000001 18.4306,-33.8844,518.1600000000001 18.43111,-33.88477,518.1600000000001 18.43203,-33.88537,518.1600000000001 18.433,-33.88593,487.68 18.43382,-33.88646,487.68 18.43454,-33.88691,487.68 18.4354,-33.88737,487.68 18.43618,-33.88783,457.20000000000005 18.43718,-33.8884,457.20000000000005 18.43792,-33.88882,426.72 18.43895,-33.88942,426.72 18.43975,-33.88989,426.72 18.44061,-33.89035,426.72 18.44135,-33.89082,396.24 18.44212,-33.89131,396.24 18.44285,-33.89177,396.24 18.44369,-33.89246,396.24 18.44425,-33.89301,396.24 18.4449,-33.89371,365.76 18.44532,-33.89452,365.76 18.44543,-33.89507,365.76 18.44554,-33.89603,335.28000000000003 18.44536,-33.89669,335.28000000000003 18.44481,-33.89722,335.28000000000003 18.44416,-33.89753,304.8 18.44335,-33.89763,304.8 18.44229,-33.8974,274.32 18.44139,-33.89694,243.84 18.44055,-33.89627,243.84 18.43998,-33.89576,243.84 18.43935,-33.8951,243.84 18.43887,-33.89479,243.84 18.43814,-33.89452,243.84 18.43747,-33.89456,243.84 18.43702,-33.8947,213.36 18.43652,-33.89493,213.36 18.43597,-33.89524,213.36 18.43552,-33.89548,182.88 18.43477,-33.89594,152.4 18.43426,-33.89622,152.4 18.43363,-33.89655,152.4 18.433,-33.89687,121.92 18.43242,-33.89717,121.92 18.43198,-33.8974,121.92 18.4313,-33.89772,91.44 18.43071,-33.89794,91.44 18.43008,-33.89822,91.44 18.42957,-33.89846,60.96 18.42844,-33.89896,60.96 18.42762,-33.89952,30.48 18.42733,-33.89981,30.48 18.42716,-33.90009,30.48 18.42687,-33.90047,30.48 18.42693,-33.90074,30.48 18.42701,-33.90094,0 18.42721,-33.90097,30.48 18.42791,-33.90078,30.48 18.42813,-33.90074,30.48 18.42882,-33.90074,30.48 18.42906,-33.90074,30.48 18.42934,-33.90074,30.48 18.42968,-33.90079,30.48 18.43019,-33.90078,60.96 18.43082,-33.90088,60.96 18.4314,-33.90092,91.44 18.43192,-33.90092,91.44 18.4326,-33.90102,121.92 18.43317,-33.90102,121.92 18.43394,-33.90097,121.92 18.43472,-33.90083,152.4 18.43523,-33.90064,152.4 18.43609,-33.90022,152.4 18.43695,-33.89962,152.4 18.43741,-33.89914,152.4 18.43797,-33.89836,152.4 18.43843,-33.89753,182.88 18.43865,-33.89662,182.88 18.43884,-33.89552,213.36 18.43881,-33.89479,213.36 18.43872,-33.89375,213.36 18.43848,-33.89264,213.36 18.43814,-33.89154,213.36 18.43775,-33.89063,243.84 18.4374,-33.88993,243.84 18.43696,-33.88916,243.84 18.43618,-33.88788,243.84 18.43556,-33.88705,243.84 18.43495,-33.88628,243.84 18.43403,-33.88528,243.84 18.43304,-33.88431,274.32 18.43226,-33.88367,274.32 18.4314,-33.883,274.32 18.43037,-33.8823,274.32 18.42928,-33.88165,274.32 18.428,-33.88101,274.32 18.42704,-33.8806,274.32 18.42587,-33.88019,274.32 18.4248,-33.87987,274.32 18.4234,-33.8795,304.8 18.42201,-33.87928,304.8 18.42071,-33.87909,335.28000000000003 18.41967,-33.87895,335.28000000000003 18.41869,-33.87886,335.28000000000003 18.41757,-33.87881,335.28000000000003 18.41572,-33.87886,335.28000000000003 18.4146,-33.87891,365.76 18.41337,-33.87895,365.76 18.4124,-33.87904,365.76 18.41124,-33.87918,365.76 18.41,-33.87941,365.76 18.40897,-33.8796,396.24 18.40794,-33.87983,396.24 18.40692,-33.88005,396.24 18.40597,-33.88033,396.24 18.40473,-33.88069,426.72 18.40376,-33.881,426.72 18.40266,-33.88138,426.72 18.4016,-33.88174,426.72 18.40073,-33.88211,426.72 18.39952,-33.88257,457.20000000000005 18.39857,-33.88298,457.20000000000005 18.39762,-33.88339,457.20000000000005 18.39661,-33.88394,457.20000000000005 18.39565,-33.8844,457.20000000000005 18.39483,-33.88482,457.20000000000005 18.39397,-33.88527,487.68 18.39268,-33.88605,487.68 18.39163,-33.88663,487.68 18.39078,-33.88715,487.68 18.39003,-33.88761,487.68 18.38893,-33.88829,487.68 18.3882,-33.88875,487.68 18.38734,-33.88933,487.68 18.38646,-33.89003,487.68 18.38568,-33.89068,487.68 18.38482,-33.89138,487.68 18.384,-33.89204,487.68 18.38327,-33.89264,487.68 18.38265,-33.89323,518.1600000000001 18.38164,-33.8941,518.1600000000001 18.3808,-33.89484,518.1600000000001 18.38018,-33.89548,518.1600000000001 18.37951,-33.89612,518.1600000000001 18.37884,-33.89676,518.1600000000001 18.37794,-33.89763,518.1600000000001 18.37727,-33.89836,548.64 18.37665,-33.899,548.64 18.37595,-33.89981,548.64 18.37532,-33.90051,548.64 18.37458,-33.90138,548.64 18.37396,-33.90202,548.64 18.37329,-33.90276,548.64 18.37252,-33.90362,548.64 18.37183,-33.90437,548.64 18.37116,-33.90509,548.64 18.37051,-33.9059,548.64 18.36976,-33.90678,548.64 18.3692,-33.90744,579.12 18.36857,-33.90814,579.12 18.36785,-33.90903,579.12 18.36679,-33.91032,548.64 18.36611,-33.91118,548.64 18.36559,-33.91191,548.64 18.36491,-33.91275,548.64 18.36445,-33.9134,548.64 18.36376,-33.91433,548.64 18.36325,-33.91512,548.64 18.36273,-33.91582,548.64 18.3621,-33.91675,548.64 18.36164,-33.9175,548.64 18.36113,-33.91832,548.64 18.36067,-33.91908,548.64 18.36004,-33.92001,548.64 18.35958,-33.9208,548.64 18.35916,-33.92152,579.12 18.35855,-33.92249,579.12 18.3581,-33.92327,579.12 18.35765,-33.92395,579.12 18.35712,-33.9249,579.12 18.35664,-33.92569,579.12 18.35625,-33.92633,579.12 18.35563,-33.92743,579.12 18.35524,-33.92816,579.12 18.35445,-33.92949,609.6 18.35398,-33.93025,609.6 18.35356,-33.93105,609.6 18.35318,-33.93169,609.6 18.35261,-33.93269,609.6 18.35072,-33.93602,609.6 18.35008,-33.93727,640.08 18.34975,-33.93796,640.08 18.34924,-33.93887,640.08 18.34871,-33.93989,640.08 18.3482,-33.94096,670.5600000000001 18.34773,-33.94199,670.5600000000001 18.34734,-33.94287,670.5600000000001 18.34694,-33.94363,670.5600000000001 18.34637,-33.94492,670.5600000000001 18.34562,-33.94659,670.5600000000001 18.34453,-33.94899,670.5600000000001 18.34302,-33.95261,670.5600000000001 18.34072,-33.95801,701.0400000000001 18.33915,-33.96208,701.0400000000001 18.33744,-33.96689,701.0400000000001 18.33578,-33.97187,701.0400000000001 18.33433,-33.97668,701.0400000000001 18.33235,-33.9836,701.0400000000001 18.33119,-33.98836,701.0400000000001 18.33074,-33.99097,701.0400000000001 18.3303,-33.99344,701.0400000000001 18.3299,-33.99577,701.0400000000001 18.32973,-33.99692,701.0400000000001 18.32957,-33.99834,701.0400000000001 18.32945,-33.99916,701.0400000000001 18.32934,-34.00008,701.0400000000001 18.32926,-34.00101,701.0400000000001 18.32918,-34.00195,701.0400000000001 18.32912,-34.00323,701.0400000000001 18.32906,-34.00415,701.0400000000001 18.32903,-34.00506,701.0400000000001 18.32895,-34.00616,701.0400000000001 18.32891,-34.00702,701.0400000000001 18.32886,-34.00809,701.0400000000001 18.32884,-34.009,701.0400000000001 18.32884,-34.0101,701.0400000000001 18.32884,-34.01102,701.0400000000001 18.3288,-34.01213,701.0400000000001 18.32886,-34.01302,701.0400000000001 18.32884,-34.01404,701.0400000000001 18.3289,-34.01514,701.0400000000001 18.32897,-34.01604,701.0400000000001 18.32909,-34.01702,701.0400000000001 18.32926,-34.01791,701.0400000000001 18.32937,-34.01875,701.0400000000001 18.32957,-34.01981,701.0400000000001 18.32966,-34.0207,701.0400000000001 18.32968,-34.0215,701.0400000000001 18.32977,-34.02238,701.0400000000001 18.32983,-34.02345,701.0400000000001 18.32977,-34.02433,701.0400000000001 18.32968,-34.0253,701.0400000000001 18.32954,-34.0261,731.52 18.32943,-34.02713,731.52 18.32945,-34.02791,731.52 18.32949,-34.02885,731.52 18.32973,-34.02974,762 18.33017,-34.03048,762 18.3308,-34.03108,762 18.3317,-34.03148,762 18.33258,-34.03159,762 18.33388,-34.03134,762 18.33478,-34.03084,762 18.33561,-34.02996,762 18.33607,-34.02894,762 18.33633,-34.02875,762 18.33314,-34.02616,762 18.3325,-34.02485,762 18.33217,-34.02271,731.52 18.33161,-34.02225,731.52 18.33333,-34.02085,731.52 18.33262,-34.01954,731.52 18.33208,-34.01836,731.52 18.33205,-34.01736,701.0400000000001 18.33213,-34.01614,701.0400000000001 18.33248,-34.01499,701.0400000000001 18.33286,-34.01435,701.0400000000001 18.3337,-34.01357,670.5600000000001 18.33467,-34.01297,670.5600000000001 18.33579,-34.01218,670.5600000000001 18.33158,-34.00644,670.5600000000001 18.33164,-34.00529,670.5600000000001 18.33178,-34.00389,670.5600000000001 18.33192,-34.00264,670.5600000000001 18.33212,-34.00152,670.5600000000001 18.33235,-34.0004,670.5600000000001 18.33258,-33.99905,670.5600000000001 18.33464,-33.99114,670.5600000000001 18.33557,-33.98845,640.08 18.33674,-33.98547,640.08 18.33796,-33.98267,640.08 18.34061,-33.97673,640.08 18.34313,-33.97101,640.08 18.3456,-33.96529,609.6 18.34929,-33.95669,609.6 18.35094,-33.95274,609.6 18.35266,-33.94881,609.6 18.35434,-33.94519,609.6 18.35614,-33.94135,609.6 18.35827,-33.93658,609.6 18.36039,-33.93179,579.12 18.36208,-33.92812,579.12 18.36426,-33.92363,579.12 18.36656,-33.91896,579.12 18.36857,-33.91526,579.12 18.37054,-33.91182,579.12 18.37126,-33.9107,579.12 18.37194,-33.90963,579.12 18.37262,-33.90862,579.12 18.37349,-33.90739,579.12 18.37423,-33.90637,579.12 18.37514,-33.90509,579.12 18.37589,-33.90413,579.12 18.37676,-33.90303,548.64 18.37755,-33.90204,548.64 18.37858,-33.90083,548.64 18.3794,-33.89992,548.64 18.38036,-33.89897,548.64 18.38144,-33.89785,548.64 18.38231,-33.89703,548.64 18.38349,-33.89589,548.64 18.38448,-33.89501,548.64 18.38533,-33.89426,548.64 18.38663,-33.89319,548.64 18.38774,-33.89227,548.64 18.38894,-33.89138,548.64 18.39003,-33.89063,548.64 18.39134,-33.8897,548.64 18.39223,-33.88916,548.64 18.39323,-33.88854,548.64 18.3947,-33.8877,518.1600000000001 18.39577,-33.8871,518.1600000000001 18.39712,-33.88635,518.1600000000001 18.39823,-33.88582,518.1600000000001 18.3993,-33.88531,518.1600000000001 18.40036,-33.88486,518.1600000000001 18.40171,-33.88431,518.1600000000001 18.40284,-33.88388,518.1600000000001 18.40393,-33.88346,518.1600000000001 18.40524,-33.88298,487.68 18.40636,-33.88261,487.68 18.40714,-33.88239,487.68 18.40885,-33.88188,487.68 18.41022,-33.88151,457.20000000000005 18.41146,-33.88124,457.20000000000005 18.41258,-33.88106,426.72 18.41383,-33.88086,457.20000000000005 18.41505,-33.88069,426.72 18.41617,-33.8806,426.72 18.41729,-33.88051,426.72 18.41863,-33.88046,396.24 18.41992,-33.88051,396.24 18.42099,-33.88065,396.24 18.422,-33.88092,396.24 18.42281,-33.88128,396.24 18.42357,-33.8817,365.76 18.42413,-33.8822,365.76 18.42463,-33.88271,365.76 18.42519,-33.88339,335.28000000000003 18.42558,-33.88412,335.28000000000003 18.42587,-33.88472,335.28000000000003 18.42619,-33.88533,304.8 18.42643,-33.88591,304.8 18.42671,-33.88669,304.8 18.42687,-33.88724,304.8 18.42716,-33.88798,274.32 18.42738,-33.88857,274.32 18.42756,-33.8891,274.32 18.42785,-33.88975,274.32 18.42805,-33.8904,243.84 18.42825,-33.89096,243.84 18.4285,-33.89159,213.36 18.42861,-33.89195,213.36 18.42878,-33.8925,213.36 18.42906,-33.89319,182.88 18.42917,-33.89355,182.88 18.42951,-33.89424,182.88 18.42968,-33.89464,152.4 18.4299,-33.89516,152.4 18.43001,-33.89566,152.4 18.42996,-33.89616,121.92 18.42968,-33.89667,121.92 18.42928,-33.89706,91.44 18.42856,-33.89772,60.96 18.42791,-33.89855,30.48 18.42756,-33.89915,30.48 18.42743,-33.89937,30.48 18.42732,-33.8996,30.48 18.42722,-33.89999,30.48 18.42705,-33.90032,30.48 18.42699,-33.9006,30.48 18.42693,-33.90083,30.48 18.4269,-33.90104,0 18.42715,-33.90089,0 18.42738,-33.90079,30.48 18.42788,-33.90074,30.48 18.42844,-33.90079,30.48 18.42872,-33.90083,30.48 18.42916,-33.90088,30.48 18.42973,-33.90092,60.96 18.43025,-33.90102,60.96 18.43088,-33.90111,91.44 18.43145,-33.90115,91.44 18.43203,-33.90125,121.92 18.43266,-33.90129,121.92 18.43349,-33.90138,152.4 18.43416,-33.90143,152.4 18.43483,-33.90152,152.4 18.43563,-33.90153,182.88 18.43652,-33.90147,182.88 18.43724,-33.90134,182.88 18.43803,-33.90102,213.36 18.4387,-33.90065,213.36 18.43946,-33.90009,213.36 18.44015,-33.89943,213.36 18.44078,-33.89869,243.84 18.4413,-33.89799,243.84 18.44173,-33.89722,243.84 18.4421,-33.89631,243.84 18.44238,-33.8951,274.32 18.4425,-33.89403,274.32 18.44251,-33.8931,274.32 18.44244,-33.89208,274.32 18.44212,-33.89081,274.32 18.44184,-33.8898,304.8 18.44135,-33.88877,304.8 18.44067,-33.88761,304.8 18.43994,-33.8866,304.8 18.43904,-33.88554,304.8 18.43848,-33.88495,335.28000000000003 18.43764,-33.88412,335.28000000000003 18.43663,-33.88316,335.28000000000003 18.43562,-33.88225,335.28000000000003 18.43467,-33.88142,335.28000000000003 18.43371,-33.88069,335.28000000000003 18.43254,-33.87978,365.76 18.43153,-33.87914,365.76 18.43037,-33.87844,365.76 18.42928,-33.87788,396.24 18.42788,-33.87726,396.24 18.42636,-33.87667,396.24 18.42533,-33.87634,396.24 18.42413,-33.87597,426.72 18.42267,-33.87561,426.72 18.4215,-33.87537,426.72 18.42001,-33.87513,426.72 18.41891,-33.87502,426.72 18.41785,-33.87492,457.20000000000005 18.41675,-33.87485,457.20000000000005 18.41537,-33.87481,457.20000000000005 18.41421,-33.87479,457.20000000000005 18.4128,-33.87485,457.20000000000005 18.41143,-33.87495,487.68 18.41051,-33.87502,487.68 18.40922,-33.87515,487.68 18.40771,-33.87537,487.68 18.40656,-33.87555,487.68 18.40519,-33.87579,487.68 18.40405,-33.87606,487.68 18.40283,-33.8763,487.68 18.40164,-33.87662,487.68 18.40003,-33.87708,487.68 18.39896,-33.87744,487.68 18.3979,-33.87785,487.68 18.39655,-33.87836,487.68 18.39558,-33.87881,487.68 18.39436,-33.87936,487.68 18.39308,-33.88,487.68 18.39207,-33.88046,487.68 18.39083,-33.88109,518.1600000000001 18.38951,-33.88184,518.1600000000001 18.38853,-33.88239,518.1600000000001 18.38736,-33.88307,518.1600000000001 18.38659,-33.88356,518.1600000000001 18.38528,-33.8844,518.1600000000001 18.38411,-33.88518,518.1600000000001 18.38304,-33.88596,518.1600000000001 18.3819,-33.88672,518.1600000000001 18.38091,-33.88751,518.1600000000001 18.37985,-33.88838,518.1600000000001 18.37884,-33.88916,518.1600000000001 18.3779,-33.88998,518.1600000000001 18.37709,-33.89063,518.1600000000001 18.37635,-33.89128,518.1600000000001 18.37531,-33.89218,518.1600000000001 18.37452,-33.89291,518.1600000000001 18.37374,-33.89365,518.1600000000001 18.37303,-33.89431,518.1600000000001 18.37245,-33.89493,518.1600000000001 18.37154,-33.8958,518.1600000000001 18.37091,-33.89645,518.1600000000001 18.37015,-33.89731,518.1600000000001 18.36943,-33.89804,518.1600000000001 18.36857,-33.89897,518.1600000000001 18.36785,-33.89969,518.1600000000001 18.36724,-33.90042,548.64 18.36645,-33.90129,548.64 18.36588,-33.90195,548.64 18.36525,-33.90269,548.64 18.36456,-33.90358,579.12 18.36405,-33.90423,579.12 18.36348,-33.90497,579.12 18.3629,-33.90572,579.12 18.36227,-33.90656,579.12 18.36176,-33.90725,579.12 18.36124,-33.90797,609.6 18.3605,-33.90902,609.6 18.36,-33.90967,609.6 18.35941,-33.91056,609.6 18.35894,-33.91122,609.6 18.35838,-33.91209,609.6 18.35793,-33.91273,609.6 18.35741,-33.91363,609.6 18.3569,-33.91442,609.6 18.35649,-33.91503,609.6 18.35597,-33.91594,609.6 18.35541,-33.91685,609.6 18.35506,-33.91735,609.6 18.35451,-33.91837,640.08 18.35409,-33.91917,640.08 18.35375,-33.91982,640.08 18.35323,-33.92075,640.08 18.35283,-33.92157,640.08 18.35232,-33.92257,640.08 18.35205,-33.92317,640.08 18.35163,-33.92397,640.08 18.35115,-33.92491,640.08 18.35076,-33.92569,640.08 18.35031,-33.92656,640.08 18.34991,-33.92732,670.5600000000001 18.3494,-33.9283,670.5600000000001 18.34846,-33.92995,670.5600000000001 18.34762,-33.93141,670.5600000000001 18.34666,-33.93306,701.0400000000001 18.34608,-33.93407,701.0400000000001 18.34568,-33.93481,701.0400000000001 18.34476,-33.93653,701.0400000000001 18.34442,-33.93714,701.0400000000001 18.34386,-33.93837,701.0400000000001 18.34202,-33.94226,731.52 18.3405,-33.94542,762 18.33882,-33.94881,762 18.33738,-33.95176,762 18.33595,-33.95446,762 18.33263,-33.96088,731.52 18.33035,-33.96535,731.52 18.32806,-33.96977,701.0400000000001 18.32587,-33.97421,701.0400000000001 18.32374,-33.97874,701.0400000000001 18.32161,-33.98309,731.52 18.3192,-33.98822,701.0400000000001 18.31884,-33.989,701.0400000000001 18.31844,-33.98997,701.0400000000001 18.31804,-33.99096,701.0400000000001 18.3178,-33.99174,701.0400000000001 18.31752,-33.99261,701.0400000000001 18.31718,-33.99356,701.0400000000001 18.31679,-33.99481,701.0400000000001 18.31645,-33.99582,701.0400000000001 18.31617,-33.99673,701.0400000000001 18.31587,-33.99775,701.0400000000001 18.31564,-33.99859,701.0400000000001 18.31533,-33.99957,701.0400000000001 18.31505,-34.00063,701.0400000000001 18.31483,-34.00159,701.0400000000001 18.31454,-34.00269,701.0400000000001 18.31427,-34.00352,701.0400000000001 18.31393,-34.00438,701.0400000000001 18.31347,-34.00566,701.0400000000001 18.31318,-34.0065,731.52 18.31295,-34.00753,731.52 18.31301,-34.00827,762 18.31318,-34.00892,762 18.3141,-34.01001,762 18.31535,-34.01065,762 18.31639,-34.01088,731.52 18.31752,-34.01093,731.52 18.31902,-34.01065,731.52 18.32039,-34.01014,731.52 18.32138,-34.00946,731.52 18.32222,-34.00869,762 18.32284,-34.00795,762 18.3234,-34.00717,762 18.32411,-34.0059,762 18.32451,-34.00501,762 18.32497,-34.00394,731.52 18.32542,-34.00264,731.52 18.32587,-34.00127,731.52 18.3262,-34.00017,731.52 18.3266,-33.99898,731.52 18.32703,-33.9977,731.52 18.32743,-33.99635,731.52 18.32788,-33.995,731.52 18.32822,-33.9939,731.52 18.3304,-33.98742,701.0400000000001 18.33142,-33.9846,670.5600000000001 18.33281,-33.98113,670.5600000000001 18.33401,-33.9782,640.08 18.33687,-33.97168,640.08 18.33979,-33.96558,609.6 18.34259,-33.95948,609.6 18.34476,-33.95492,609.6 18.34683,-33.95078,609.6 18.34871,-33.94706,640.08 18.35117,-33.94203,640.08 18.35346,-33.93728,670.5600000000001 18.35529,-33.93374,640.08 18.35718,-33.93011,670.5600000000001 18.35941,-33.92601,640.08 18.36208,-33.92134,640.08 18.36496,-33.9167,640.08 18.36628,-33.91461,640.08 18.3678,-33.91228,640.08 18.36875,-33.9109,640.08 18.36937,-33.91,640.08 18.37029,-33.90865,640.08 18.37099,-33.90765,640.08 18.37189,-33.90646,640.08 18.37267,-33.90536,640.08 18.37368,-33.90408,640.08 18.37447,-33.90308,640.08 18.37525,-33.90211,640.08 18.3762,-33.90092,609.6 18.37727,-33.89962,609.6 18.37805,-33.89873,609.6 18.37887,-33.89785,609.6 18.38001,-33.89673,609.6 18.38091,-33.89584,609.6 18.38214,-33.89474,609.6 18.38287,-33.89413,609.6 18.38394,-33.89328,609.6 18.38493,-33.89245,609.6 18.38652,-33.89136,579.12 18.38741,-33.89076,609.6 18.38859,-33.88998,609.6 18.39022,-33.88898,609.6 18.39128,-33.88835,609.6 18.39246,-33.8877,609.6 18.3938,-33.88692,609.6 18.39512,-33.88621,609.6 18.39638,-33.88556,609.6 18.39756,-33.88499,609.6 18.39867,-33.88444,609.6 18.40021,-33.88379,609.6 18.40132,-33.88335,609.6 18.40288,-33.88275,579.12 18.40427,-33.88226,579.12 18.40535,-33.88193,609.6 18.40685,-33.88146,579.12 18.40832,-33.8811,579.12 18.40954,-33.88081,579.12 18.41079,-33.88055,579.12 18.41234,-33.88034,579.12 18.41372,-33.88016,579.12 18.41497,-33.88007,579.12 18.41612,-33.87997,579.12 18.41763,-33.87991,579.12 18.41892,-33.87988,548.64 18.42015,-33.87991,548.64 18.42138,-33.87997,518.1600000000001 18.42258,-33.88011,518.1600000000001 18.4239,-33.88033,487.68 18.42499,-33.88058,487.68 18.42607,-33.88095,457.20000000000005 18.42715,-33.88147,457.20000000000005 18.42783,-33.88197,457.20000000000005 18.42839,-33.88257,457.20000000000005 18.42884,-33.88312,457.20000000000005 18.42928,-33.88388,457.20000000000005 18.42957,-33.88449,426.72 18.42985,-33.88523,426.72 18.43013,-33.88596,396.24 18.43035,-33.88655,396.24 18.43057,-33.88719,396.24 18.43082,-33.88789,396.24 18.43102,-33.88843,365.76 18.43122,-33.889,365.76 18.4314,-33.88966,365.76 18.43157,-33.89017,335.28000000000003 18.4317,-33.89063,335.28000000000003 18.43191,-33.89119,335.28000000000003 18.43209,-33.89177,335.28000000000003 18.4322,-33.89222,304.8 18.43237,-33.89264,304.8 18.43248,-33.89296,304.8 18.43266,-33.89343,274.32 18.43283,-33.89384,274.32 18.43299,-33.89424,274.32 18.4331,-33.89465,243.84 18.43328,-33.89501,243.84 18.43346,-33.89538,243.84 18.43357,-33.89571,213.36 18.4336,-33.89594,213.36 18.43346,-33.89631,182.88 18.43293,-33.89671,182.88 18.43237,-33.89703,152.4 18.42962,-33.89832,91.44 18.42822,-33.89905,60.96 18.42751,-33.89967,30.48 18.42716,-33.90009,30.48 18.42693,-33.90032,30.48 18.42693,-33.90074,30.48 18.427,-33.90095,0 18.42728,-33.90083,30.48 18.42756,-33.90074,30.48 18.42777,-33.90074,30.48 18.42811,-33.90074,30.48 18.42839,-33.90074,30.48 18.42867,-33.90074,30.48 18.429,-33.90079,30.48 18.42929,-33.90083,30.48 18.42957,-33.90092,30.48 18.42985,-33.90097,30.48 18.43018,-33.90106,60.96 18.43097,-33.9012,91.44 18.43151,-33.90134,91.44 18.43203,-33.90139,91.44 18.4327,-33.90152,121.92 18.4334,-33.90162,121.92 18.43414,-33.90171,152.4 18.43477,-33.90176,152.4 18.43562,-33.90175,152.4 18.43632,-33.90171,182.88 18.43708,-33.90161,182.88 18.43809,-33.90134,182.88 18.43878,-33.90102,182.88 18.43964,-33.90055,213.36 18.44027,-33.90005,213.36 18.44094,-33.89932,213.36 18.44147,-33.89841,243.84 18.44181,-33.89753,243.84 18.44198,-33.89664,243.84 18.4421,-33.89543,274.32 18.44204,-33.8945,274.32 18.44179,-33.89342,274.32 18.44147,-33.8924,304.8 18.44107,-33.89133,304.8 18.44044,-33.89003,304.8 18.43987,-33.88887,335.28000000000003 18.43932,-33.88802,335.28000000000003 18.43853,-33.88673,335.28000000000003 18.43803,-33.88596,335.28000000000003 18.43723,-33.88477,335.28000000000003 18.43657,-33.88376,365.76 18.4358,-33.88263,365.76 18.43517,-33.88174,365.76 18.4345,-33.88074,365.76 18.43355,-33.87955,365.76 18.43266,-33.87858,396.24 18.43186,-33.87781,396.24 18.43094,-33.87704,396.24 18.42985,-33.87625,396.24 18.42899,-33.87574,396.24 18.42762,-33.87509,396.24 18.42659,-33.87469,426.72 18.42527,-33.87425,426.72 18.42413,-33.87396,426.72 18.42301,-33.87369,426.72 18.42161,-33.87346,426.72 18.42012,-33.87332,426.72 18.41886,-33.87323,426.72 18.41778,-33.87322,426.72 18.41652,-33.87322,426.72 18.41538,-33.87323,457.20000000000005 18.41412,-33.87332,457.20000000000005 18.4128,-33.87346,457.20000000000005 18.4109,-33.87373,457.20000000000005 18.40879,-33.87411,457.20000000000005 18.40731,-33.87447,457.20000000000005 18.40633,-33.87471,457.20000000000005 18.40508,-33.87509,487.68 18.40367,-33.87552,487.68 18.40267,-33.87588,487.68 18.40147,-33.87634,487.68 18.4005,-33.87676,487.68 18.39924,-33.8773,487.68 18.39812,-33.87776,487.68 18.39722,-33.87817,487.68 18.39616,-33.87868,487.68 18.3952,-33.87914,487.68 18.39386,-33.87979,518.1600000000001 18.39263,-33.88042,518.1600000000001 18.39162,-33.88092,518.1600000000001 18.39067,-33.88142,548.64 18.38966,-33.88193,548.64 18.3887,-33.88248,548.64 18.38753,-33.88316,548.64 18.38663,-33.88376,548.64 18.38556,-33.88449,548.64 18.38444,-33.88531,579.12 18.38356,-33.88598,579.12 18.38248,-33.88683,579.12 18.3817,-33.88747,579.12 18.38076,-33.88821,579.12 18.37996,-33.88889,579.12 18.37889,-33.88985,579.12 18.37812,-33.89054,579.12 18.37738,-33.89122,579.12 18.37641,-33.89212,579.12 18.37589,-33.89264,609.6 18.37498,-33.89352,609.6 18.37412,-33.89441,609.6 18.3736,-33.89492,609.6 18.37256,-33.89607,609.6 18.37189,-33.89685,609.6 18.37109,-33.89776,609.6 18.37054,-33.89836,579.12 18.36977,-33.89934,609.6 18.36903,-33.90019,579.12 18.3684,-33.90097,579.12 18.36777,-33.90176,579.12 18.36701,-33.90271,609.6 18.36634,-33.90363,609.6 18.36571,-33.90442,609.6 18.36519,-33.90511,609.6 18.36451,-33.90609,609.6 18.36399,-33.90683,609.6 18.36348,-33.90765,609.6 18.3629,-33.90851,609.6 18.36239,-33.90935,609.6 18.3618,-33.9104,609.6 18.3613,-33.91121,609.6 18.36084,-33.91196,609.6 18.36023,-33.91296,609.6 18.35978,-33.91374,609.6 18.35924,-33.91465,609.6 18.35877,-33.91548,609.6 18.35827,-33.91638,609.6 18.35782,-33.91722,609.6 18.35731,-33.91823,609.6 18.35552,-33.92154,609.6 18.35369,-33.9249,609.6 18.35227,-33.92752,609.6 18.351,-33.92992,609.6 18.3493,-33.9332,609.6 18.34883,-33.93425,609.6 18.34717,-33.93765,609.6 18.34614,-33.9397,640.08 18.34571,-33.94052,640.08 18.34528,-33.94133,640.08 18.34476,-33.94235,640.08 18.34448,-33.94287,640.08 18.34392,-33.94427,670.5600000000001 18.34375,-33.94551,670.5600000000001 18.34385,-33.94654,670.5600000000001 18.34414,-33.94729,670.5600000000001 18.34454,-33.94794,670.5600000000001 18.34554,-33.94899,670.5600000000001 18.34644,-33.94958,670.5600000000001 18.34739,-33.94995,670.5600000000001 18.34885,-33.95013,670.5600000000001 18.35009,-33.95008,670.5600000000001 18.35148,-33.94968,670.5600000000001 18.35255,-33.94908,670.5600000000001 18.3535,-33.94821,670.5600000000001 18.35423,-33.9472,670.5600000000001 18.35496,-33.94583,640.08 18.35558,-33.94454,640.08 18.35608,-33.94345,640.08 18.35661,-33.94212,640.08 18.35709,-33.94098,609.6 18.35771,-33.93951,609.6 18.35827,-33.93819,609.6 18.35878,-33.93705,609.6 18.35918,-33.93593,609.6 18.35964,-33.93476,609.6 18.36021,-33.93323,579.12 18.36079,-33.93173,579.12 18.36119,-33.93058,579.12 18.36163,-33.92949,609.6 18.36219,-33.92802,609.6 18.36281,-33.92656,609.6 18.36325,-33.92541,609.6 18.36388,-33.92401,579.12 18.36432,-33.92294,579.12 18.36491,-33.92183,579.12 18.36561,-33.92033,579.12 18.36617,-33.91931,579.12 18.36685,-33.91815,579.12 18.36748,-33.91693,579.12 18.36811,-33.91587,579.12 18.3688,-33.91475,579.12 18.3697,-33.91338,579.12 18.37037,-33.91232,579.12 18.37105,-33.91127,579.12 18.372,-33.90981,579.12 18.37257,-33.90898,579.12 18.37357,-33.90765,579.12 18.37441,-33.90646,579.12 18.37514,-33.90546,579.12 18.37584,-33.90451,579.12 18.37676,-33.90331,579.12 18.37755,-33.90234,579.12 18.3785,-33.9012,579.12 18.37927,-33.90027,579.12 18.38029,-33.89905,579.12 18.3811,-33.89813,579.12 18.38184,-33.89734,579.12 18.38276,-33.8963,579.12 18.38377,-33.89529,579.12 18.3845,-33.89456,579.12 18.38539,-33.89366,579.12 18.38654,-33.89264,579.12 18.38745,-33.89185,579.12 18.3887,-33.89085,579.12 18.38966,-33.89017,579.12 18.39094,-33.88929,579.12 18.39207,-33.88857,579.12 18.39296,-33.88806,579.12 18.39392,-33.88751,579.12 18.39569,-33.88659,548.64 18.39684,-33.88607,548.64 18.39834,-33.88541,548.64 18.39963,-33.8849,548.64 18.4009,-33.88444,548.64 18.40238,-33.88394,548.64 18.40387,-33.88351,548.64 18.40536,-33.88305,548.64 18.40681,-33.88266,548.64 18.4081,-33.88234,548.64 18.40914,-33.88211,548.64 18.41057,-33.88184,548.64 18.4118,-33.88161,548.64 18.4132,-33.88142,548.64 18.41466,-33.8812,518.1600000000001 18.41589,-33.88109,518.1600000000001 18.41729,-33.88101,518.1600000000001 18.41824,-33.88097,518.1600000000001 18.41959,-33.88092,518.1600000000001 18.42105,-33.88097,487.68 18.42213,-33.88105,487.68 18.42318,-33.88115,487.68 18.42453,-33.88137,457.20000000000005 18.42556,-33.8816,457.20000000000005 18.42637,-33.88188,457.20000000000005 18.42739,-33.88235,426.72 18.42805,-33.88275,426.72 18.42884,-33.8833,396.24 18.42945,-33.88388,396.24 18.43001,-33.88449,396.24 18.43042,-33.88509,396.24 18.43077,-33.8857,365.76 18.43114,-33.88632,365.76 18.43153,-33.88705,335.28000000000003 18.43181,-33.8877,335.28000000000003 18.43208,-33.88826,335.28000000000003 18.43231,-33.88887,304.8 18.43259,-33.88953,304.8 18.43282,-33.89017,304.8 18.43293,-33.89063,304.8 18.43315,-33.89136,274.32 18.43327,-33.89191,274.32 18.43338,-33.89236,274.32 18.43349,-33.89301,274.32 18.4336,-33.89351,243.84 18.43369,-33.89403,243.84 18.43371,-33.89447,243.84 18.4338,-33.89492,243.84 18.43377,-33.89529,243.84 18.43369,-33.89566,243.84 18.43351,-33.89599,213.36 18.43328,-33.89627,243.84 18.43293,-33.89653,213.36 18.43243,-33.89678,182.88 18.43186,-33.89703,182.88 18.43119,-33.89731,182.88 18.43069,-33.89745,152.4 18.43029,-33.89758,152.4 18.42985,-33.89771,152.4 18.42934,-33.8979,121.92 18.42884,-33.89813,91.44 18.4285,-33.89832,91.44 18.42828,-33.89845,91.44 18.42772,-33.899,60.96 18.42755,-33.89932,30.48 18.42739,-33.89971,30.48 18.42722,-33.89994,30.48 18.42704,-33.90024,30.48 18.42688,-33.90051,30.48 18.42699,-33.90079,30.48 18.42696,-33.90099,0</coordinates>
      </LineString>
    </Placemark>
  </Document>
</kml>
