<?xml version="1.0" encoding="UTF-8"?>
<kml xmlns="http://www.opengis.net/kml/2.2">
  <Document>
    <name>FR24 ZSHIE 3e102439</name>
    <Placemark>
      <name>FR24 ZSHIE 3e102439</name>
      <description><![CDATA[Source: ADS-B
Start (SAST): 2026-01-26 15:29:50
End (SAST): 2026-01-26 16:33:43
Points: 1305]]></description>
      <Style><LineStyle><color>ff0000ff</color><width>4</width></LineStyle></Style>
      <LineString>
        <tessellate>1</tessellate>
        <altitudeMode>absolute</altitudeMode>
        <coordinates>18.42811,-33.89795,60.96 18.42127,-33.86489,281.94 18.42047,-33.86498,297.18 18.41959,-33.86508,304.8 18.41881,-33.86517,312.42 18.41819,-33.86522,320.04 18.41751,-33.86531,327.66 18.4169,-33.8654,335.28000000000003 18.416,-33.86549,342.90000000000003 18.41538,-33.86563,342.90000000000003 18.41477,-33.86577,350.52000000000004 18.41412,-33.86591,358.14000000000004 18.41343,-33.8661,365.76 18.41286,-33.86629,373.38 18.41213,-33.8665,381 18.4114,-33.86678,388.62 18.41074,-33.86699,396.24 18.41011,-33.86717,403.86 18.40954,-33.86736,403.86 18.40877,-33.86769,411.48 18.40815,-33.86792,419.1 18.40748,-33.86819,426.72 18.40698,-33.86842,434.34000000000003 18.40628,-33.86871,441.96000000000004 18.40569,-33.86902,441.96000000000004 18.40513,-33.86922,449.58000000000004 18.4044,-33.86957,457.20000000000005 18.40353,-33.86996,464.82000000000005 18.40296,-33.87024,472.44 18.40221,-33.87062,480.06 18.40181,-33.8708,480.06 18.40098,-33.87122,487.68 18.40031,-33.87154,495.3 18.39827,-33.87248,518.1600000000001 18.39632,-33.87341,533.4 18.39375,-33.87476,563.88 18.39191,-33.87574,586.74 18.39128,-33.87611,594.36 18.39078,-33.87643,601.98 18.3901,-33.87685,609.6 18.38963,-33.87713,617.22 18.38898,-33.87753,624.84 18.38837,-33.87794,624.84 18.38786,-33.87827,632.46 18.38725,-33.87868,640.08 18.3868,-33.87895,647.7 18.38625,-33.87932,655.32 18.38568,-33.87973,655.32 18.38506,-33.88014,662.94 18.38453,-33.88049,670.5600000000001 18.38402,-33.88086,678.1800000000001 18.38349,-33.8812,685.8000000000001 18.38293,-33.88156,693.4200000000001 18.38237,-33.88188,693.4200000000001 18.38179,-33.8823,701.0400000000001 18.3813,-33.88261,708.6600000000001 18.38076,-33.88295,708.6600000000001 18.38024,-33.88333,716.2800000000001 18.37957,-33.8839,723.9000000000001 18.37904,-33.8843,723.9000000000001 18.37856,-33.88467,731.52 18.37805,-33.88509,739.14 18.37749,-33.88559,739.14 18.37699,-33.88605,746.76 18.37648,-33.88646,754.38 18.37595,-33.887,754.38 18.37547,-33.88751,762 18.37497,-33.88802,769.62 18.37446,-33.88854,769.62 18.37402,-33.88907,777.24 18.37346,-33.88966,784.86 18.37292,-33.89026,792.48 18.37245,-33.89072,792.48 18.37194,-33.89131,800.1 18.37149,-33.89182,807.72 18.37105,-33.89232,815.34 18.37046,-33.89296,822.96 18.37004,-33.89346,822.96 18.3696,-33.89399,830.58 18.36914,-33.89445,838.2 18.36868,-33.89496,838.2 18.36817,-33.89557,845.82 18.36754,-33.89618,853.44 18.36702,-33.89664,853.44 18.36657,-33.89715,861.0600000000001 18.36595,-33.89777,868.6800000000001 18.36542,-33.89832,868.6800000000001 18.36496,-33.89887,876.3000000000001 18.36443,-33.89955,883.9200000000001 18.36398,-33.90005,883.9200000000001 18.36359,-33.90064,883.9200000000001 18.36319,-33.9012,891.5400000000001 18.36275,-33.90184,891.5400000000001 18.36233,-33.90255,899.1600000000001 18.36191,-33.90317,899.1600000000001 18.36152,-33.90376,899.1600000000001 18.36107,-33.9045,899.1600000000001 18.36067,-33.90511,899.1600000000001 18.36017,-33.90582,899.1600000000001 18.3597,-33.90656,899.1600000000001 18.35922,-33.90724,899.1600000000001 18.35867,-33.90795,899.1600000000001 18.3581,-33.90875,899.1600000000001 18.35759,-33.90944,899.1600000000001 18.3569,-33.91047,899.1600000000001 18.35638,-33.91116,899.1600000000001 18.35586,-33.91191,906.7800000000001 18.35541,-33.91264,906.7800000000001 18.3549,-33.91338,906.7800000000001 18.35432,-33.91433,906.7800000000001 18.35386,-33.91507,906.7800000000001 18.35345,-33.91589,906.7800000000001 18.35289,-33.91681,906.7800000000001 18.35238,-33.91772,914.4000000000001 18.35197,-33.91852,914.4000000000001 18.35157,-33.91917,922.0200000000001 18.35115,-33.91992,922.0200000000001 18.3506,-33.92094,929.6400000000001 18.35026,-33.92168,929.6400000000001 18.34986,-33.92257,929.6400000000001 18.34952,-33.92331,929.6400000000001 18.34906,-33.92429,929.6400000000001 18.34874,-33.92505,937.26 18.34826,-33.92601,937.26 18.3479,-33.92679,937.26 18.34734,-33.9278,937.26 18.34694,-33.92857,937.26 18.34648,-33.92946,937.26 18.34597,-33.93039,929.6400000000001 18.34545,-33.93137,929.6400000000001 18.34499,-33.93225,929.6400000000001 18.34448,-33.93324,922.0200000000001 18.34403,-33.93407,922.0200000000001 18.34347,-33.93521,922.0200000000001 18.34305,-33.93612,922.0200000000001 18.34265,-33.93691,922.0200000000001 18.34213,-33.93793,922.0200000000001 18.34027,-33.94167,922.0200000000001 18.3395,-33.94338,929.6400000000001 18.33836,-33.94617,937.26 18.33813,-33.94701,944.88 18.33792,-33.94794,944.88 18.33778,-33.94901,952.5 18.33775,-33.95013,960.12 18.3379,-33.95101,967.74 18.33809,-33.95201,975.36 18.33836,-33.95287,975.36 18.33865,-33.95366,982.98 18.33904,-33.95444,982.98 18.33956,-33.95525,990.6 18.34013,-33.95609,998.22 18.34067,-33.95686,998.22 18.34133,-33.95767,1005.84 18.3419,-33.95847,1013.46 18.34252,-33.95938,1021.08 18.34302,-33.96007,1028.7 18.34345,-33.96074,1036.3200000000002 18.34391,-33.96149,1043.94 18.34442,-33.96233,1051.56 18.34481,-33.963,1059.18 18.34528,-33.96377,1066.8 18.34574,-33.96474,1074.42 18.34602,-33.96549,1074.42 18.3462,-33.96628,1074.42 18.34633,-33.96712,1082.04 18.34642,-33.96805,1089.66 18.35144,-33.96808,1089.66 18.34574,-33.97178,1112.52 18.34136,-33.97309,1120.14 18.34313,-33.97347,1127.76 18.34164,-33.97442,1127.76 18.34263,-33.97655,1135.38 18.34207,-33.97733,1135.38 18.34162,-33.97797,1135.38 18.34106,-33.9787,1135.38 18.34036,-33.9796,1135.38 18.33979,-33.98034,1135.38 18.3391,-33.98127,1135.38 18.33842,-33.98213,1135.38 18.33784,-33.9829,1135.38 18.33719,-33.98369,1135.38 18.33664,-33.98471,1135.38 18.33618,-33.98547,1135.38 18.33555,-33.98644,1143 18.335,-33.9874,1143 18.33467,-33.98808,1135.38 18.33418,-33.98914,1135.38 18.33384,-33.99002,1135.38 18.33338,-33.99119,1135.38 18.33292,-33.99202,1135.38 18.33254,-33.99284,1135.38 18.33209,-33.9938,1135.38 18.33158,-33.99486,1135.38 18.33125,-33.99568,1135.38 18.3308,-33.99664,1127.76 18.33035,-33.99774,1127.76 18.32989,-33.99878,1127.76 18.3296,-33.99952,1127.76 18.32914,-34.00068,1120.14 18.32886,-34.00143,1127.76 18.32851,-34.00264,1120.14 18.32833,-34.00356,1120.14 18.32823,-34.00446,1120.14 18.32822,-34.00584,1120.14 18.32833,-34.00685,1120.14 18.32839,-34.00763,1120.14 18.32856,-34.00882,1112.52 18.32874,-34.00985,1112.52 18.32901,-34.01106,1120.14 18.3292,-34.012,1120.14 18.32945,-34.01299,1120.14 18.32979,-34.01413,1120.14 18.33002,-34.01495,1127.76 18.33035,-34.0161,1127.76 18.33069,-34.01716,1127.76 18.33091,-34.01807,1127.76 18.33126,-34.01921,1127.76 18.33158,-34.02031,1127.76 18.33175,-34.02104,1127.76 18.33215,-34.02228,1135.38 18.33241,-34.02317,1135.38 18.33271,-34.02411,1135.38 18.33315,-34.02526,1143 18.3336,-34.02621,1143 18.33412,-34.02722,1150.6200000000001 18.33467,-34.028,1150.6200000000001 18.33532,-34.02876,1158.24 18.33607,-34.02956,1158.24 18.33698,-34.03024,1165.8600000000001 18.33807,-34.03099,1165.8600000000001 18.3391,-34.03162,1173.48 18.34022,-34.03212,1173.48 18.3415,-34.03267,1181.1000000000001 18.34285,-34.03317,1181.1000000000001 18.34402,-34.03355,1188.72 18.34505,-34.03387,1188.72 18.3462,-34.03429,1196.3400000000001 18.34734,-34.03468,1196.3400000000001 18.34848,-34.03509,1203.96 18.34969,-34.03546,1211.5800000000002 18.35077,-34.03588,1211.5800000000002 18.3518,-34.0363,1203.96 18.35283,-34.03672,1203.96 18.35398,-34.03727,1196.3400000000001 18.35513,-34.03798,1188.72 18.35591,-34.03862,1188.72 18.35655,-34.03928,1181.1000000000001 18.35704,-34.03986,1173.48 18.35768,-34.04078,1165.8600000000001 18.35792,-34.04169,1158.24 18.35801,-34.04269,1143 18.35803,-34.04362,1135.38 18.35794,-34.04452,1127.76 18.35777,-34.04547,1120.14 18.35744,-34.04655,1104.9 18.35698,-34.04746,1097.28 18.35651,-34.04855,1082.04 18.35604,-34.04945,1074.42 18.35544,-34.05063,1066.8 18.35502,-34.05138,1059.18 18.35473,-34.05232,1051.56 18.35424,-34.05333,1036.3200000000002 18.35404,-34.05422,1036.3200000000002 18.35387,-34.05528,1028.7 18.35373,-34.05619,1021.08 18.35322,-34.05726,1013.46 18.35263,-34.05833,1005.84 18.3523,-34.05934,998.22 18.3519,-34.06026,990.6 18.35152,-34.06128,982.98 18.35123,-34.06228,982.98 18.35077,-34.06329,975.36 18.35033,-34.06412,967.74 18.34992,-34.06499,960.12 18.34933,-34.06594,952.5 18.34879,-34.06684,944.88 18.34804,-34.0679,944.88 18.34748,-34.06887,937.26 18.34673,-34.06993,929.6400000000001 18.34597,-34.0707,929.6400000000001 18.34618,-34.07175,922.0200000000001 18.34602,-34.0729,914.4000000000001 18.3456,-34.07372,906.7800000000001 18.34517,-34.07465,906.7800000000001 18.34455,-34.07568,899.1600000000001 18.34418,-34.07661,891.5400000000001 18.34364,-34.07779,883.9200000000001 18.34144,-34.07935,876.3000000000001 18.3404,-34.08042,868.6800000000001 18.34129,-34.08165,861.0600000000001 18.34014,-34.08245,861.0600000000001 18.33959,-34.08332,853.44 18.33893,-34.08429,853.44 18.33972,-34.08554,845.82 18.3389,-34.08624,845.82 18.33909,-34.0872,838.2 18.33934,-34.08828,830.58 18.33948,-34.08941,830.58 18.33923,-34.09057,830.58 18.33909,-34.0915,822.96 18.33918,-34.09268,822.96 18.33916,-34.09362,822.96 18.33925,-34.09455,822.96 18.33917,-34.09568,822.96 18.33918,-34.09668,822.96 18.33944,-34.09766,822.96 18.33947,-34.09861,815.34 18.34036,-34.09977,815.34 18.33945,-34.10073,815.34 18.3403,-34.10164,807.72 18.33964,-34.1028,807.72 18.33908,-34.10374,800.1 18.33867,-34.10483,800.1 18.33847,-34.10581,800.1 18.33823,-34.10688,792.48 18.33758,-34.10794,784.86 18.33711,-34.10892,784.86 18.33679,-34.10979,777.24 18.33634,-34.11064,769.62 18.3362,-34.11158,769.62 18.3355,-34.11255,762 18.33434,-34.11333,754.38 18.33344,-34.11412,746.76 18.33271,-34.115,739.14 18.33196,-34.11583,739.14 18.33085,-34.11676,731.52 18.32952,-34.11765,731.52 18.32861,-34.11832,723.9000000000001 18.32764,-34.11903,723.9000000000001 18.32644,-34.11988,716.2800000000001 18.32523,-34.12083,708.6600000000001 18.32399,-34.12166,701.0400000000001 18.32274,-34.12262,701.0400000000001 18.32202,-34.1233,693.4200000000001 18.32087,-34.12425,685.8000000000001 18.31969,-34.12511,685.8000000000001 18.31765,-34.12677,678.1800000000001 18.3146,-34.12939,655.32 18.31382,-34.13032,655.32 18.31787,-34.13052,640.08 18.31718,-34.13136,640.08 18.31639,-34.13228,632.46 18.31587,-34.13298,624.84 18.31524,-34.13378,624.84 18.31449,-34.13489,617.22 18.31376,-34.13594,609.6 18.31335,-34.13652,601.98 18.31281,-34.13763,594.36 18.31225,-34.13882,586.74 18.31186,-34.13978,586.74 18.31152,-34.14084,579.12 18.31129,-34.14188,579.12 18.31118,-34.14281,571.5 18.31112,-34.14388,563.88 18.31118,-34.14509,556.26 18.31129,-34.14621,548.64 18.31141,-34.14729,548.64 18.31158,-34.14835,541.02 18.3118,-34.14944,533.4 18.31215,-34.15063,525.78 18.31253,-34.15164,518.1600000000001 18.31297,-34.15274,518.1600000000001 18.31364,-34.15407,510.54 18.3141,-34.15498,510.54 18.31483,-34.15613,510.54 18.31547,-34.15724,502.92 18.31623,-34.15837,502.92 18.3169,-34.15938,502.92 18.31741,-34.16017,495.3 18.31816,-34.16124,487.68 18.31869,-34.16208,487.68 18.31947,-34.1632,487.68 18.32004,-34.16405,480.06 18.32088,-34.16515,480.06 18.32155,-34.16602,472.44 18.32239,-34.16711,472.44 18.32314,-34.16799,472.44 18.32374,-34.16881,464.82000000000005 18.32441,-34.16968,464.82000000000005 18.32508,-34.17051,457.20000000000005 18.32592,-34.17155,457.20000000000005 18.3266,-34.17247,449.58000000000004 18.32743,-34.17358,449.58000000000004 18.32817,-34.17448,441.96000000000004 18.32901,-34.17554,441.96000000000004 18.32973,-34.17636,441.96000000000004 18.33046,-34.17716,434.34000000000003 18.33175,-34.1786,434.34000000000003 18.33492,-34.18149,434.34000000000003 18.33601,-34.18229,434.34000000000003 18.33687,-34.18284,434.34000000000003 18.33792,-34.18346,434.34000000000003 18.33926,-34.18414,434.34000000000003 18.34024,-34.18461,441.96000000000004 18.34106,-34.18492,441.96000000000004 18.34276,-34.18554,441.96000000000004 18.34362,-34.18587,441.96000000000004 18.34482,-34.18633,441.96000000000004 18.3462,-34.18699,441.96000000000004 18.34717,-34.18745,441.96000000000004 18.34814,-34.18801,441.96000000000004 18.34919,-34.18863,434.34000000000003 18.35042,-34.18945,434.34000000000003 18.35135,-34.1902,434.34000000000003 18.35227,-34.19096,426.72 18.35306,-34.19169,426.72 18.35398,-34.19267,419.1 18.35472,-34.1935,419.1 18.35569,-34.19458,419.1 18.35658,-34.19568,411.48 18.35731,-34.19669,411.48 18.35793,-34.1976,411.48 18.3586,-34.19875,403.86 18.35911,-34.19971,403.86 18.35972,-34.20099,396.24 18.36033,-34.20221,388.62 18.36073,-34.20314,388.62 18.36119,-34.20412,388.62 18.36174,-34.20534,381 18.36216,-34.20631,381 18.36247,-34.20703,381 18.36313,-34.20859,381 18.3637,-34.20984,381 18.36404,-34.21074,373.38 18.36449,-34.21184,381 18.36494,-34.21298,381 18.36527,-34.2139,381 18.36565,-34.21492,381 18.366,-34.216,381 18.36634,-34.21715,381 18.36673,-34.21866,373.38 18.36702,-34.22004,373.38 18.36763,-34.22305,365.76 18.36785,-34.22406,365.76 18.36802,-34.22511,358.14000000000004 18.36813,-34.2263,358.14000000000004 18.36834,-34.22739,350.52000000000004 18.36857,-34.22851,350.52000000000004 18.36868,-34.23,350.52000000000004 18.3688,-34.23097,350.52000000000004 18.36892,-34.2323,342.90000000000003 18.36903,-34.2334,342.90000000000003 18.36914,-34.23428,335.28000000000003 18.36931,-34.23568,335.28000000000003 18.36937,-34.23637,335.28000000000003 18.37017,-34.24108,327.66 18.3708,-34.24345,335.28000000000003 18.37127,-34.24475,335.28000000000003 18.37155,-34.24576,335.28000000000003 18.37194,-34.24681,335.28000000000003 18.3724,-34.24802,335.28000000000003 18.37273,-34.24896,335.28000000000003 18.37309,-34.24997,335.28000000000003 18.37355,-34.25142,335.28000000000003 18.37389,-34.25239,335.28000000000003 18.37419,-34.2534,342.90000000000003 18.37441,-34.25441,342.90000000000003 18.37452,-34.25565,335.28000000000003 18.37486,-34.257,335.28000000000003 18.37498,-34.25803,335.28000000000003 18.37497,-34.25912,335.28000000000003 18.37508,-34.2605,327.66 18.37515,-34.26124,327.66 18.37532,-34.26389,320.04 18.37536,-34.26595,320.04 18.39369,-34.30211,335.28000000000003 18.39529,-34.30569,335.28000000000003 18.39701,-34.30905,327.66 18.39718,-34.30933,327.66 18.41101,-34.32422,350.52000000000004 18.41409,-34.32697,358.14000000000004 18.41707,-34.32939,365.76 18.41806,-34.33014,365.76 18.41909,-34.33092,365.76 18.42004,-34.33163,365.76 18.42121,-34.33251,365.76 18.42211,-34.33319,373.38 18.42339,-34.33409,373.38 18.42424,-34.33475,381 18.42539,-34.33553,388.62 18.42642,-34.33628,396.24 18.42751,-34.33702,403.86 18.42836,-34.33754,403.86 18.42934,-34.33813,411.48 18.43071,-34.33898,411.48 18.43158,-34.33955,419.1 18.43265,-34.34019,419.1 18.4336,-34.34079,426.72 18.43489,-34.34154,426.72 18.43579,-34.34212,434.34000000000003 18.43678,-34.34275,434.34000000000003 18.43763,-34.34326,441.96000000000004 18.43878,-34.34396,441.96000000000004 18.4417,-34.34573,449.58000000000004 18.44481,-34.3477,457.20000000000005 18.44896,-34.35038,472.44 18.4521,-34.35246,487.68 18.45388,-34.35374,487.68 18.45503,-34.35462,495.3 18.45798,-34.35672,502.92 18.45921,-34.3576,502.92 18.46,-34.35818,502.92 18.46107,-34.35896,510.54 18.46287,-34.36021,518.1600000000001 18.46601,-34.36235,525.78 18.47043,-34.36523,533.4 18.47145,-34.36584,533.4 18.47248,-34.36644,541.02 18.47363,-34.36714,541.02 18.47466,-34.36775,541.02 18.47563,-34.36831,541.02 18.47676,-34.3689,541.02 18.47771,-34.36935,548.64 18.47884,-34.36981,548.64 18.47973,-34.37018,548.64 18.48095,-34.37059,556.26 18.48209,-34.37091,556.26 18.4831,-34.37119,563.88 18.48381,-34.37133,563.88 18.48524,-34.37157,563.88 18.48621,-34.3717,563.88 18.48724,-34.37183,563.88 18.48845,-34.37194,571.5 18.48937,-34.37196,571.5 18.49061,-34.37206,579.12 18.49148,-34.37208,586.74 18.49239,-34.37208,594.36 18.4933,-34.37201,601.98 18.49411,-34.37194,609.6 18.49514,-34.37185,617.22 18.49593,-34.37173,617.22 18.49666,-34.37164,624.84 18.49739,-34.37151,624.84 18.49817,-34.37143,624.84 18.49886,-34.37128,624.84 18.49972,-34.3711,624.84 18.50046,-34.37101,624.84 18.50132,-34.37077,632.46 18.50206,-34.37054,632.46 18.50286,-34.37031,632.46 18.50344,-34.37003,632.46 18.50406,-34.36972,640.08 18.50464,-34.36942,640.08 18.50515,-34.36914,640.08 18.5058,-34.3688,647.7 18.5063,-34.36848,647.7 18.50675,-34.36821,647.7 18.50731,-34.36784,655.32 18.50773,-34.36756,655.32 18.50826,-34.3672,655.32 18.50871,-34.36684,662.94 18.50905,-34.36656,662.94 18.50938,-34.3662,662.94 18.50966,-34.36588,662.94 18.51,-34.36546,662.94 18.5103,-34.36491,662.94 18.5111,-34.36272,662.94 18.51128,-34.36216,670.5600000000001 18.51133,-34.36174,670.5600000000001 18.5114,-34.3613,670.5600000000001 18.51145,-34.36081,670.5600000000001 18.51139,-34.36039,670.5600000000001 18.51139,-34.35993,670.5600000000001 18.51128,-34.35942,670.5600000000001 18.51112,-34.35901,670.5600000000001 18.51076,-34.35839,662.94 18.51045,-34.358,662.94 18.51007,-34.3576,655.32 18.50966,-34.35709,655.32 18.50916,-34.35653,647.7 18.50871,-34.35603,640.08 18.5083,-34.35555,640.08 18.50776,-34.35503,632.46 18.50733,-34.35457,624.84 18.50686,-34.35411,624.84 18.50618,-34.35346,617.22 18.50569,-34.35301,609.6 18.50515,-34.35252,609.6 18.50451,-34.35191,601.98 18.50406,-34.35155,601.98 18.50344,-34.351,594.36 18.50283,-34.35054,594.36 18.50218,-34.35006,586.74 18.50155,-34.34969,579.12 18.5007,-34.34921,571.5 18.50008,-34.34885,571.5 18.4992,-34.34834,563.88 18.49851,-34.34789,556.26 18.49789,-34.34755,556.26 18.49705,-34.34706,548.64 18.4964,-34.34666,548.64 18.49577,-34.34629,541.02 18.49508,-34.34592,541.02 18.49431,-34.34546,533.4 18.49382,-34.34517,533.4 18.4929,-34.34464,525.78 18.49216,-34.34424,518.1600000000001 18.4915,-34.34381,518.1600000000001 18.49079,-34.34331,510.54 18.49016,-34.34262,510.54 18.48976,-34.34182,502.92 18.48965,-34.34116,502.92 18.4897,-34.34047,502.92 18.48993,-34.33949,502.92 18.4901,-34.33891,502.92 18.49062,-34.33796,495.3 18.49125,-34.33707,487.68 18.49184,-34.3363,487.68 18.49257,-34.33544,487.68 18.49319,-34.33475,487.68 18.4938,-34.33406,487.68 18.49451,-34.33316,487.68 18.49515,-34.33241,487.68 18.49593,-34.33145,487.68 18.49644,-34.33086,487.68 18.49731,-34.32985,480.06 18.49812,-34.32893,480.06 18.49885,-34.3282,480.06 18.49949,-34.32739,472.44 18.50035,-34.32636,480.06 18.50092,-34.32564,480.06 18.50165,-34.32468,480.06 18.50235,-34.32366,487.68 18.50299,-34.32285,487.68 18.50378,-34.3217,487.68 18.50441,-34.32078,487.68 18.50481,-34.32013,487.68 18.5055,-34.3191,495.3 18.5059,-34.31845,495.3 18.50664,-34.31738,502.92 18.5071,-34.31659,502.92 18.50765,-34.31566,510.54 18.50809,-34.31479,510.54 18.50842,-34.31403,518.1600000000001 18.50887,-34.31296,518.1600000000001 18.50922,-34.31207,518.1600000000001 18.50961,-34.31104,525.78 18.50994,-34.31017,525.78 18.51028,-34.30902,525.78 18.51062,-34.30797,533.4 18.51082,-34.30714,533.4 18.51112,-34.306,533.4 18.51133,-34.30513,533.4 18.51156,-34.30425,541.02 18.51179,-34.30304,541.02 18.51196,-34.30238,541.02 18.51219,-34.30115,541.02 18.51236,-34.30023,548.64 18.51254,-34.29908,548.64 18.51264,-34.29822,548.64 18.51282,-34.29708,556.26 18.51294,-34.2962,556.26 18.51308,-34.29506,556.26 18.51322,-34.2941,556.26 18.51334,-34.29298,563.88 18.51345,-34.2921,563.88 18.51359,-34.29126,571.5 18.51376,-34.29034,571.5 18.51391,-34.28935,579.12 18.51443,-34.28545,594.36 18.5146,-34.28381,594.36 18.51516,-34.27908,617.22 18.51533,-34.27734,624.84 18.5158,-34.27278,647.7 18.51585,-34.27092,655.32 18.51583,-34.2692,655.32 18.5158,-34.26794,662.94 18.5158,-34.26729,662.94 18.51577,-34.26617,670.5600000000001 18.51574,-34.26538,670.5600000000001 18.51572,-34.26434,670.5600000000001 18.51572,-34.26357,670.5600000000001 18.51568,-34.26249,678.1800000000001 18.51568,-34.26184,678.1800000000001 18.51566,-34.26091,678.1800000000001 18.51566,-34.25995,678.1800000000001 18.51563,-34.25909,678.1800000000001 18.51551,-34.25807,678.1800000000001 18.51545,-34.25737,678.1800000000001 18.51527,-34.25633,678.1800000000001 18.51511,-34.25542,678.1800000000001 18.51494,-34.2543,670.5600000000001 18.51477,-34.25332,670.5600000000001 18.51448,-34.25225,670.5600000000001 18.51425,-34.25132,662.94 18.51391,-34.25006,662.94 18.51368,-34.24923,655.32 18.51336,-34.24809,655.32 18.51297,-34.24686,647.7 18.51269,-34.24608,647.7 18.51231,-34.24485,640.08 18.51185,-34.2436,640.08 18.51151,-34.24261,640.08 18.5111,-34.24159,640.08 18.51076,-34.24052,632.46 18.51034,-34.23935,632.46 18.50996,-34.23833,632.46 18.50847,-34.2341,640.08 18.50721,-34.22991,647.7 18.50692,-34.22868,647.7 18.50669,-34.22781,647.7 18.50641,-34.22679,647.7 18.50608,-34.22562,647.7 18.50574,-34.22438,640.08 18.50546,-34.22342,632.46 18.50518,-34.2225,632.46 18.50481,-34.22129,624.84 18.50447,-34.22009,617.22 18.50412,-34.21916,617.22 18.50372,-34.21802,617.22 18.50338,-34.21701,617.22 18.50299,-34.21591,617.22 18.50266,-34.21495,609.6 18.50221,-34.21367,609.6 18.50183,-34.21268,609.6 18.50149,-34.2117,609.6 18.50109,-34.21051,609.6 18.50075,-34.20955,609.6 18.5004,-34.20863,609.6 18.50002,-34.20744,609.6 18.49969,-34.20648,609.6 18.49935,-34.20552,609.6 18.49901,-34.20456,609.6 18.49783,-34.20118,601.98 18.49745,-34.19994,601.98 18.49717,-34.19907,601.98 18.4968,-34.19783,601.98 18.49649,-34.19678,594.36 18.49623,-34.19579,594.36 18.49588,-34.19462,594.36 18.49566,-34.19374,594.36 18.49543,-34.1927,594.36 18.4952,-34.19174,594.36 18.49497,-34.19053,601.98 18.49481,-34.18954,601.98 18.49457,-34.18834,601.98 18.49445,-34.18759,601.98 18.49428,-34.18652,601.98 18.49405,-34.18526,594.36 18.49391,-34.18419,594.36 18.49377,-34.18317,594.36 18.49358,-34.18199,594.36 18.49341,-34.18103,586.74 18.49324,-34.17998,586.74 18.49308,-34.17898,586.74 18.49291,-34.17809,586.74 18.49268,-34.17688,579.12 18.49246,-34.17595,579.12 18.49223,-34.1748,579.12 18.49205,-34.174,579.12 18.49176,-34.17293,571.5 18.4915,-34.17169,571.5 18.49131,-34.17083,563.88 18.49055,-34.16748,556.26 18.49005,-34.16528,548.64 18.48921,-34.16171,548.64 18.48879,-34.15961,541.02 18.48862,-34.1584,541.02 18.48848,-34.15727,541.02 18.48833,-34.15598,533.4 18.48825,-34.15498,533.4 18.48808,-34.15361,533.4 18.48799,-34.15263,533.4 18.48787,-34.15147,533.4 18.4878,-34.15041,533.4 18.4877,-34.14933,533.4 18.48764,-34.14798,533.4 18.48758,-34.14688,533.4 18.48747,-34.14555,533.4 18.48742,-34.14453,533.4 18.48741,-34.14345,541.02 18.48741,-34.1424,541.02 18.48736,-34.14141,541.02 18.48736,-34.14011,541.02 18.48736,-34.13904,541.02 18.4873,-34.13811,541.02 18.4873,-34.13689,548.64 18.4873,-34.13564,548.64 18.48724,-34.13489,548.64 18.48719,-34.13354,548.64 18.48713,-34.13233,548.64 18.48708,-34.13132,556.26 18.48702,-34.13022,556.26 18.48696,-34.12922,548.64 18.48691,-34.12816,548.64 18.48674,-34.125,548.64 18.48663,-34.12399,548.64 18.48652,-34.1228,541.02 18.4864,-34.12193,541.02 18.48621,-34.12083,541.02 18.4861,-34.1199,541.02 18.48595,-34.11868,541.02 18.48581,-34.11758,541.02 18.48564,-34.11632,541.02 18.48547,-34.11534,541.02 18.4853,-34.11427,533.4 18.48507,-34.11301,533.4 18.48489,-34.11209,525.78 18.48466,-34.1109,533.4 18.4845,-34.10999,541.02 18.48422,-34.10875,541.02 18.48398,-34.10775,533.4 18.48377,-34.10683,533.4 18.48343,-34.10555,541.02 18.48321,-34.10458,533.4 18.48293,-34.10339,533.4 18.48261,-34.10217,533.4 18.48237,-34.1012,533.4 18.48192,-34.09918,533.4 18.48164,-34.09807,533.4 18.4813,-34.09671,525.78 18.48074,-34.09383,533.4 18.48032,-34.09165,533.4 18.48009,-34.09072,525.78 18.47985,-34.08948,525.78 18.47973,-34.08865,525.78 18.47956,-34.0876,518.1600000000001 18.4794,-34.08641,518.1600000000001 18.47923,-34.0855,510.54 18.47906,-34.0842,510.54 18.47895,-34.0833,502.92 18.47878,-34.0822,495.3 18.47867,-34.08115,487.68 18.47856,-34.08023,487.68 18.47843,-34.07903,480.06 18.4782,-34.07684,472.44 18.47811,-34.07579,464.82000000000005 18.47805,-34.07469,464.82000000000005 18.47799,-34.07332,457.20000000000005 18.47794,-34.07227,457.20000000000005 18.47786,-34.0714,457.20000000000005 18.47777,-34.07016,449.58000000000004 18.47769,-34.06893,441.96000000000004 18.4776,-34.06796,441.96000000000004 18.47757,-34.0667,434.34000000000003 18.47755,-34.06577,434.34000000000003 18.47755,-34.06453,434.34000000000003 18.47757,-34.06348,434.34000000000003 18.47755,-34.06242,434.34000000000003 18.47755,-34.06142,426.72 18.47752,-34.06013,426.72 18.47743,-34.05908,419.1 18.4774,-34.05785,419.1 18.47738,-34.05693,419.1 18.47732,-34.05592,419.1 18.47729,-34.05473,411.48 18.47721,-34.05368,411.48 18.47717,-34.05264,411.48 18.4771,-34.05162,403.86 18.47704,-34.05057,403.86 18.47699,-34.04961,403.86 18.47687,-34.04832,396.24 18.47676,-34.04732,396.24 18.47666,-34.04626,403.86 18.47654,-34.04528,403.86 18.47643,-34.04407,403.86 18.47637,-34.04305,403.86 18.4762,-34.04207,403.86 18.47609,-34.04086,396.24 18.47592,-34.0399,396.24 18.4758,-34.03881,396.24 18.47564,-34.0378,396.24 18.47553,-34.03674,388.62 18.47542,-34.03578,388.62 18.4753,-34.03464,388.62 18.47523,-34.03378,388.62 18.47514,-34.03267,388.62 18.47502,-34.03166,388.62 18.47494,-34.03076,388.62 18.47486,-34.02951,388.62 18.47469,-34.02859,381 18.4746,-34.02773,381 18.47441,-34.02663,381 18.47407,-34.0237,381 18.47357,-34.01977,381 18.47323,-34.0166,373.38 18.47284,-34.01276,381 18.47273,-34.01175,381 18.47267,-34.01065,381 18.47265,-34.00972,381 18.47267,-34.00882,381 18.47271,-34.00767,388.62 18.47273,-34.00658,396.24 18.47271,-34.00571,396.24 18.47277,-34.00469,403.86 18.47277,-34.00394,403.86 18.47284,-34.00296,411.48 18.47289,-34.00209,411.48 18.473,-34.00129,419.1 18.47312,-34.00031,419.1 18.47329,-33.99934,419.1 18.47345,-33.99826,419.1 18.47362,-33.99747,426.72 18.47385,-33.99654,434.34000000000003 18.4742,-33.99542,434.34000000000003 18.47443,-33.99472,434.34000000000003 18.47471,-33.99379,434.34000000000003 18.47508,-33.99271,426.72 18.47528,-33.99184,426.72 18.47551,-33.99096,426.72 18.4757,-33.98987,426.72 18.47592,-33.98886,426.72 18.47614,-33.98788,419.1 18.47626,-33.98703,419.1 18.47643,-33.98611,419.1 18.47665,-33.98502,419.1 18.47683,-33.98407,419.1 18.477,-33.98299,411.48 18.47717,-33.98225,411.48 18.47734,-33.98122,403.86 18.47757,-33.98006,403.86 18.47775,-33.97913,403.86 18.47792,-33.97815,403.86 18.4782,-33.97689,396.24 18.47839,-33.97591,388.62 18.47861,-33.97481,381 18.47884,-33.97385,381 18.47906,-33.97289,381 18.47934,-33.97174,381 18.47958,-33.97075,381 18.4798,-33.96973,381 18.48001,-33.96881,381 18.48035,-33.96767,373.38 18.48063,-33.96661,373.38 18.48085,-33.9657,373.38 18.48119,-33.9646,373.38 18.48146,-33.96358,381 18.48181,-33.96246,381 18.48209,-33.96149,388.62 18.48232,-33.96056,396.24 18.48261,-33.95958,396.24 18.48278,-33.95888,388.62 18.48307,-33.958,388.62 18.48338,-33.95686,381 18.48364,-33.95595,373.38 18.48387,-33.95506,373.38 18.4841,-33.95416,373.38 18.48433,-33.95316,365.76 18.4845,-33.95219,358.14000000000004 18.48466,-33.95132,350.52000000000004 18.48472,-33.95027,342.90000000000003 18.48473,-33.94943,342.90000000000003 18.48461,-33.94839,335.28000000000003 18.4845,-33.94743,327.66 18.48427,-33.94652,327.66 18.48398,-33.94556,327.66 18.4836,-33.94455,327.66 18.48318,-33.94347,327.66 18.48289,-33.94273,320.04 18.48244,-33.9418,327.66 18.48198,-33.94075,327.66 18.48153,-33.93993,320.04 18.48101,-33.93891,327.66 18.48041,-33.93787,320.04 18.47998,-33.93709,320.04 18.47952,-33.93635,320.04 18.479,-33.93544,320.04 18.47855,-33.93467,320.04 18.47792,-33.9336,312.42 18.47738,-33.93274,312.42 18.47693,-33.93192,312.42 18.47648,-33.93123,304.8 18.47591,-33.9302,297.18 18.47528,-33.92932,297.18 18.47477,-33.92848,289.56 18.4742,-33.92769,289.56 18.47368,-33.92693,281.94 18.473,-33.92606,274.32 18.47222,-33.92509,274.32 18.47177,-33.9245,281.94 18.47094,-33.92355,274.32 18.47008,-33.92257,274.32 18.46945,-33.92187,274.32 18.46869,-33.92102,274.32 18.46785,-33.92015,274.32 18.46712,-33.91933,266.7 18.46651,-33.91859,266.7 18.46577,-33.91782,259.08000000000004 18.46527,-33.91726,259.08000000000004 18.46432,-33.91626,251.46 18.46373,-33.91558,251.46 18.46309,-33.91493,251.46 18.46224,-33.91402,251.46 18.46157,-33.91328,243.84 18.46095,-33.9126,243.84 18.45869,-33.91019,228.60000000000002 18.45815,-33.90958,220.98000000000002 18.45737,-33.90879,220.98000000000002 18.45675,-33.90823,220.98000000000002 18.456,-33.90753,213.36 18.45513,-33.90678,213.36 18.45417,-33.90595,205.74 18.45366,-33.90548,205.74 18.4528,-33.90483,205.74 18.452,-33.90418,198.12 18.45097,-33.90353,198.12 18.45019,-33.90312,190.5 18.44936,-33.90274,182.88 18.44818,-33.90225,182.88 18.44733,-33.90193,182.88 18.44633,-33.90161,182.88 18.44548,-33.90134,175.26000000000002 18.44464,-33.90115,175.26000000000002 18.44375,-33.90097,167.64000000000001 18.44279,-33.90083,167.64000000000001 18.4419,-33.9007,160.02 18.44095,-33.90064,152.4 18.43992,-33.90051,152.4 18.43909,-33.90042,144.78 18.43848,-33.90024,144.78 18.43758,-33.90027,129.54000000000002 18.43672,-33.90022,121.92 18.43601,-33.90019,121.92 18.43534,-33.90015,114.30000000000001 18.43456,-33.9001,106.68 18.43388,-33.9001,91.44 18.43323,-33.90013,91.44 18.4326,-33.90009,91.44 18.43203,-33.9001,83.82000000000001 18.43158,-33.9001,76.2 18.43094,-33.90009,68.58 18.43041,-33.90015,60.96 18.43001,-33.90019,60.96 18.42979,-33.90019,60.96 18.42934,-33.90028,53.34 18.42906,-33.90033,45.72 18.42872,-33.90042,45.72 18.42839,-33.90047,38.1 18.42805,-33.90074,38.1 18.42779,-33.90074,30.48 18.42756,-33.90078,30.48 18.42753,-33.90106,0 18.42755,-33.9006,0 18.42746,-33.90032,0 18.42745,-33.89965,0 18.42755,-33.89922,0 18.4276,-33.89901,0 18.42899,-33.89738,53.34 18.42934,-33.89692,53.34 18.43035,-33.89607,53.34 18.4308,-33.89497,60.96 18.43153,-33.89433,60.96 18.43214,-33.89355,60.96 18.43277,-33.89273,68.58 18.43328,-33.89185,76.2 18.43477,-33.8897,91.44 18.43394,-33.88971,91.44 18.43454,-33.88887,99.06 18.43718,-33.88044,152.4 18.43472,-33.8784,182.88 18.4342,-33.87653,198.12 18.43203,-33.87483,220.98000000000002 18.43122,-33.87481,220.98000000000002 18.43041,-33.87474,228.60000000000002 18.42973,-33.87469,236.22 18.42934,-33.87465,236.22 18.42844,-33.87465,251.46 18.42766,-33.8746,259.08000000000004 18.42704,-33.87456,259.08000000000004 18.42637,-33.87456,266.7 18.42573,-33.87453,274.32 18.42499,-33.87453,274.32 18.42419,-33.87453,281.94 18.4234,-33.87451,289.56 18.42276,-33.87453,297.18 18.42205,-33.87451,297.18 18.42138,-33.87457,304.8 18.4207,-33.87457,312.42 18.41976,-33.8746,320.04 18.41908,-33.87465,320.04 18.41835,-33.87465,327.66 18.41768,-33.87469,335.28000000000003 18.4169,-33.87474,342.90000000000003 18.41634,-33.87479,342.90000000000003 18.4156,-33.87485,350.52000000000004 18.41471,-33.87497,358.14000000000004 18.41404,-33.87502,358.14000000000004 18.41343,-33.87509,365.76 18.41269,-33.87515,373.38 18.41185,-33.87524,381 18.41118,-33.87529,388.62 18.41051,-33.87537,396.24 18.40965,-33.87546,403.86 18.40897,-33.8755,403.86 18.40828,-33.8756,411.48 18.40742,-33.87569,419.1 18.40679,-33.87579,426.72 18.40602,-33.87584,434.34000000000003 18.40513,-33.87598,441.96000000000004 18.40457,-33.87602,449.58000000000004 18.40372,-33.87616,457.20000000000005 18.40296,-33.87625,464.82000000000005 18.40227,-33.87634,472.44 18.4016,-33.87643,480.06 18.40096,-33.87658,487.68 18.40019,-33.87671,487.68 18.39952,-33.87681,495.3 18.39874,-33.87703,502.92 18.39812,-33.87717,510.54 18.39741,-33.87737,518.1600000000001 18.39666,-33.87758,525.78 18.39616,-33.87772,525.78 18.39552,-33.87793,533.4 18.39492,-33.87813,541.02 18.3942,-33.87839,548.64 18.39352,-33.87863,556.26 18.39283,-33.8789,563.88 18.3922,-33.87914,571.5 18.39145,-33.87946,579.12 18.39089,-33.87973,586.74 18.39014,-33.88002,594.36 18.38957,-33.8803,594.36 18.38888,-33.88063,601.98 18.38825,-33.88095,609.6 18.38757,-33.88128,617.22 18.38702,-33.88161,617.22 18.38636,-33.88193,617.22 18.38579,-33.8823,609.6 18.38517,-33.88271,609.6 18.3845,-33.88321,609.6 18.38367,-33.88384,601.98 18.38282,-33.88454,601.98 18.38213,-33.88509,601.98 18.3813,-33.88582,601.98 18.38053,-33.88649,601.98 18.37985,-33.88715,594.36 18.37904,-33.88789,594.36 18.37835,-33.88849,594.36 18.37772,-33.88916,594.36 18.37693,-33.88994,594.36 18.37635,-33.89054,594.36 18.37549,-33.89138,594.36 18.37491,-33.892,594.36 18.37419,-33.89278,594.36 18.37343,-33.89352,586.74 18.37286,-33.89408,586.74 18.372,-33.89493,586.74 18.37143,-33.89557,586.74 18.37069,-33.89636,579.12 18.37,-33.89715,579.12 18.36926,-33.89808,579.12 18.36869,-33.89877,579.12 18.36811,-33.89952,571.5 18.36735,-33.90042,571.5 18.36685,-33.90106,571.5 18.36622,-33.90185,571.5 18.36555,-33.9028,563.88 18.36499,-33.90349,563.88 18.36439,-33.90423,563.88 18.36382,-33.90504,563.88 18.36308,-33.90595,556.26 18.36253,-33.90674,556.26 18.36182,-33.90749,556.26 18.36129,-33.90862,548.64 18.35324,-33.90932,541.02 18.35487,-33.91196,533.4 18.35608,-33.91608,525.78 18.35558,-33.9169,525.78 18.35496,-33.91786,518.1600000000001 18.35392,-33.91945,518.1600000000001 18.35333,-33.92052,510.54 18.35232,-33.92215,510.54 18.35186,-33.92299,510.54 18.35148,-33.92409,510.54 18.35087,-33.92496,510.54 18.34963,-33.92504,510.54 18.34911,-33.92601,510.54 18.34879,-33.92693,510.54 18.34941,-33.92876,502.92 18.34877,-33.93016,502.92 18.34723,-33.93044,502.92 18.34791,-33.93221,502.92 18.34745,-33.93329,502.92 18.34711,-33.93416,502.92 18.34666,-33.93526,502.92 18.34627,-33.93613,502.92 18.34585,-33.93714,495.3 18.34545,-33.93816,495.3 18.34538,-33.93842,495.3 18.34494,-33.93993,495.3 18.34482,-33.94091,495.3 18.34476,-33.94171,502.92 18.34476,-33.94267,510.54 18.34476,-33.94352,518.1600000000001 18.34488,-33.94431,533.4 18.34505,-33.94496,541.02 18.34522,-33.94561,541.02 18.34554,-33.94643,548.64 18.34588,-33.94716,556.26 18.34627,-33.94775,563.88 18.34672,-33.94826,571.5 18.34734,-33.94868,586.74 18.34814,-33.9491,594.36 18.34896,-33.94926,601.98 18.34997,-33.94926,601.98 18.35092,-33.94904,601.98 18.35203,-33.94845,601.98 18.35278,-33.94775,594.36 18.35333,-33.94702,586.74 18.35398,-33.94603,579.12 18.35472,-33.94482,571.5 18.35529,-33.94384,571.5 18.35569,-33.9431,563.88 18.35661,-33.94147,563.88 18.35726,-33.94025,563.88 18.35787,-33.93905,556.26 18.35867,-33.93751,556.26 18.35918,-33.93649,556.26 18.35947,-33.93593,548.64 18.36027,-33.93439,548.64 18.36096,-33.93306,541.02 18.36182,-33.93151,541.02 18.36241,-33.93036,533.4 18.3629,-33.92937,533.4 18.36449,-33.92665,518.1600000000001 18.36508,-33.92564,518.1600000000001 18.36588,-33.92439,518.1600000000001 18.36679,-33.92318,510.54 18.36752,-33.92221,510.54 18.36852,-33.92093,510.54 18.36937,-33.91997,502.92 18.37011,-33.91898,495.3 18.3712,-33.91768,495.3 18.37206,-33.91663,487.68 18.37329,-33.91521,480.06 18.374,-33.91438,480.06 18.37503,-33.91324,472.44 18.37609,-33.91205,464.82000000000005 18.37704,-33.91103,464.82000000000005 18.37788,-33.91008,464.82000000000005 18.37893,-33.90898,457.20000000000005 18.37996,-33.90793,457.20000000000005 18.38108,-33.90678,449.58000000000004 18.38202,-33.9059,449.58000000000004 18.38327,-33.90479,441.96000000000004 18.3843,-33.9039,441.96000000000004 18.3854,-33.90298,441.96000000000004 18.38657,-33.90207,441.96000000000004 18.38808,-33.90097,441.96000000000004 18.38926,-33.90015,441.96000000000004 18.39025,-33.89948,441.96000000000004 18.39174,-33.8985,434.34000000000003 18.39277,-33.89785,434.34000000000003 18.39408,-33.89713,434.34000000000003 18.39554,-33.89635,434.34000000000003 18.397,-33.89557,434.34000000000003 18.39855,-33.89478,434.34000000000003 18.40015,-33.89403,441.96000000000004 18.40148,-33.89342,441.96000000000004 18.40267,-33.89291,441.96000000000004 18.40393,-33.89236,441.96000000000004 18.40536,-33.8918,441.96000000000004 18.40685,-33.89119,441.96000000000004 18.4081,-33.89081,441.96000000000004 18.40939,-33.89035,441.96000000000004 18.41097,-33.8898,449.58000000000004 18.41236,-33.88934,449.58000000000004 18.41412,-33.88882,449.58000000000004 18.4151,-33.88852,449.58000000000004 18.41686,-33.88807,441.96000000000004 18.4183,-33.8877,441.96000000000004 18.41959,-33.88742,441.96000000000004 18.42121,-33.8871,434.34000000000003 18.42262,-33.88687,426.72 18.4239,-33.88673,426.72 18.42486,-33.88669,419.1 18.42682,-33.88664,403.86 18.42811,-33.88673,396.24 18.42962,-33.88683,388.62 18.43077,-33.887,381 18.43185,-33.88719,373.38 18.4334,-33.88756,365.76 18.43467,-33.88792,358.14000000000004 18.43573,-33.88829,350.52000000000004 18.43663,-33.8887,342.90000000000003 18.43769,-33.88934,327.66 18.43866,-33.89003,320.04 18.43924,-33.89068,304.8 18.43964,-33.89138,289.56 18.43992,-33.89227,274.32 18.43994,-33.89278,259.08000000000004 18.43958,-33.8938,220.98000000000002 18.43878,-33.89538,175.26000000000002 18.43837,-33.89626,167.64000000000001 18.43797,-33.89676,152.4 18.43735,-33.8972,137.16 18.43678,-33.89757,129.54000000000002 18.43624,-33.89799,114.30000000000001 18.43528,-33.89845,106.68 18.43449,-33.89878,99.06 18.43371,-33.89905,99.06 18.43315,-33.89923,91.44 18.43259,-33.89941,83.82000000000001 18.43186,-33.89964,76.2 18.4313,-33.89978,68.58 18.4308,-33.89992,68.58 18.43019,-33.89994,60.96 18.42957,-33.90019,53.34 18.42923,-33.90024,53.34 18.42888,-33.90036,53.34 18.42848,-33.90046,38.1 18.42822,-33.90051,38.1 18.42802,-33.9006,38.1 18.42779,-33.90064,30.48 18.42755,-33.90074,30.48</coordinates>
      </LineString>
    </Placemark>
  </Document>
</kml>
