<?xml version="1.0" encoding="UTF-8"?>
<kml xmlns="http://www.opengis.net/kml/2.2">
  <Document>
    <name>FR24 3e1069ae</name>
    <Placemark>
      <name>FR24 3e1069ae</name>
      <description><![CDATA[Source: ADS-B
Start (SAST): 2026-01-26 17:22:47
End (SAST): 2026-01-26 17:47:17
Points: 477]]></description>
      <Style><LineStyle><color>ff0000ff</color><width>4</width></LineStyle></Style>
      <LineString>
        <tessellate>1</tessellate>
        <altitudeMode>absolute</altitudeMode>
        <coordinates>18.42772,-33.89749,53.34 18.4306,-33.89482,68.58 18.43248,-33.89268,76.2 18.43449,-33.89063,99.06 18.39246,-33.87524,579.12 18.38792,-33.8768,632.46 18.39425,-33.87787,640.08 18.39644,-33.87965,670.5600000000001 18.39492,-33.87982,685.8000000000001 18.38273,-33.88176,739.14 18.38449,-33.88288,746.76 18.38377,-33.88322,754.38 18.38316,-33.88363,762 18.38222,-33.88408,762 18.37888,-33.887,807.72 18.37149,-33.88924,838.2 18.37105,-33.88976,845.82 18.37057,-33.89031,853.44 18.37,-33.89096,861.0600000000001 18.36953,-33.89149,868.6800000000001 18.36914,-33.89194,868.6800000000001 18.36725,-33.89422,883.9200000000001 18.36679,-33.89474,883.9200000000001 18.36634,-33.89543,883.9200000000001 18.36583,-33.89607,883.9200000000001 18.36533,-33.89671,883.9200000000001 18.36477,-33.89749,883.9200000000001 18.36421,-33.89827,891.5400000000001 18.36365,-33.89905,891.5400000000001 18.36319,-33.89971,891.5400000000001 18.36262,-33.90051,891.5400000000001 18.36208,-33.90129,891.5400000000001 18.36157,-33.90207,899.1600000000001 18.36107,-33.90283,899.1600000000001 18.36056,-33.90358,906.7800000000001 18.35901,-33.90595,914.4000000000001 18.35752,-33.90837,914.4000000000001 18.35709,-33.90907,906.7800000000001 18.35563,-33.91154,906.7800000000001 18.35518,-33.91233,906.7800000000001 18.35466,-33.91326,906.7800000000001 18.35294,-33.91649,914.4000000000001 18.35152,-33.91912,906.7800000000001 18.34997,-33.92206,906.7800000000001 18.34812,-33.92578,906.7800000000001 18.34666,-33.92867,899.1600000000001 18.34509,-33.93164,883.9200000000001 18.34305,-33.9356,876.3000000000001 18.34219,-33.93737,876.3000000000001 18.34167,-33.93851,876.3000000000001 18.34111,-33.9397,876.3000000000001 18.34076,-33.94054,876.3000000000001 18.34042,-33.94147,868.6800000000001 18.34007,-33.9424,868.6800000000001 18.33961,-33.94347,868.6800000000001 18.33916,-33.94459,868.6800000000001 18.33881,-33.94543,861.0600000000001 18.33842,-33.94652,861.0600000000001 18.33797,-33.94762,861.0600000000001 18.33753,-33.94867,861.0600000000001 18.33715,-33.94952,861.0600000000001 18.3368,-33.95045,868.6800000000001 18.3363,-33.95152,868.6800000000001 18.3359,-33.95265,868.6800000000001 18.33557,-33.95348,876.3000000000001 18.33487,-33.9553,883.9200000000001 18.33389,-33.958,891.5400000000001 18.33286,-33.96102,899.1600000000001 18.33166,-33.96414,906.7800000000001 18.33041,-33.96776,906.7800000000001 18.32951,-33.9706,906.7800000000001 18.32862,-33.97362,914.4000000000001 18.32794,-33.97586,914.4000000000001 18.32703,-33.97885,922.0200000000001 18.32677,-33.97971,922.0200000000001 18.32643,-33.98085,922.0200000000001 18.3262,-33.98177,922.0200000000001 18.32605,-33.98267,929.6400000000001 18.32592,-33.98373,937.26 18.32581,-33.98447,937.26 18.32576,-33.98547,952.5 18.32565,-33.98644,960.12 18.32554,-33.98751,967.74 18.32548,-33.98821,967.74 18.32531,-33.98923,975.36 18.3252,-33.99012,975.36 18.32508,-33.99115,982.98 18.32497,-33.99197,990.6 18.32486,-33.99284,990.6 18.32475,-33.99362,990.6 18.32463,-33.99445,998.22 18.32445,-33.99547,1005.84 18.32434,-33.99635,1005.84 18.32417,-33.99728,1013.46 18.32407,-33.99825,1021.08 18.32399,-33.99887,1021.08 18.32391,-33.99976,1028.7 18.32382,-34.00092,1028.7 18.32382,-34.00171,1028.7 18.32379,-34.00278,1036.3200000000002 18.32382,-34.00376,1043.94 18.32388,-34.00446,1043.94 18.32396,-34.00539,1051.56 18.32411,-34.00641,1051.56 18.32428,-34.00734,1059.18 18.32447,-34.00818,1059.18 18.32479,-34.0093,1066.8 18.32508,-34.0101,1066.8 18.32548,-34.0113,1074.42 18.32587,-34.0123,1082.04 18.32615,-34.01299,1082.04 18.32668,-34.01405,1089.66 18.3271,-34.01505,1097.28 18.32754,-34.01595,1097.28 18.32794,-34.01679,1104.9 18.32846,-34.01772,1112.52 18.32897,-34.01879,1112.52 18.3294,-34.01962,1120.14 18.32977,-34.02047,1120.14 18.3303,-34.02159,1120.14 18.33069,-34.02242,1120.14 18.33138,-34.02354,1127.76 18.33187,-34.02434,1127.76 18.33265,-34.02548,1135.38 18.33338,-34.02652,1135.38 18.334,-34.02731,1143 18.33475,-34.02834,1143 18.33545,-34.02933,1150.6200000000001 18.33607,-34.03015,1150.6200000000001 18.33663,-34.03093,1150.6200000000001 18.33733,-34.03192,1150.6200000000001 18.33809,-34.03299,1158.24 18.33864,-34.03378,1165.8600000000001 18.33944,-34.03476,1173.48 18.3403,-34.03579,1181.1000000000001 18.34093,-34.03653,1188.72 18.34162,-34.03732,1188.72 18.34225,-34.03811,1188.72 18.34296,-34.03899,1188.72 18.34369,-34.0399,1181.1000000000001 18.34442,-34.04086,1181.1000000000001 18.34515,-34.04187,1173.48 18.34582,-34.04297,1181.1000000000001 18.34631,-34.04365,1173.48 18.347,-34.0448,1173.48 18.34756,-34.04581,1173.48 18.34803,-34.04714,1165.8600000000001 18.34818,-34.04805,1165.8600000000001 18.34823,-34.04929,1158.24 18.3482,-34.05022,1158.24 18.3482,-34.05152,1158.24 18.34826,-34.0525,1158.24 18.3484,-34.05331,1158.24 18.34863,-34.05455,1165.8600000000001 18.34885,-34.0556,1165.8600000000001 18.34911,-34.05636,1165.8600000000001 18.34941,-34.05734,1165.8600000000001 18.3498,-34.05841,1173.48 18.35019,-34.05936,1173.48 18.3507,-34.06046,1173.48 18.35117,-34.06129,1173.48 18.3518,-34.06232,1173.48 18.35249,-34.06316,1173.48 18.35323,-34.06395,1173.48 18.35403,-34.06474,1173.48 18.35507,-34.06567,1173.48 18.35591,-34.06641,1173.48 18.35703,-34.06732,1173.48 18.35793,-34.068,1165.8600000000001 18.35884,-34.06874,1165.8600000000001 18.35984,-34.06947,1165.8600000000001 18.36101,-34.0703,1158.24 18.3621,-34.07112,1158.24 18.36302,-34.07186,1158.24 18.36399,-34.07265,1158.24 18.36491,-34.07344,1150.6200000000001 18.366,-34.07442,1150.6200000000001 18.36691,-34.07526,1150.6200000000001 18.36771,-34.0761,1143 18.36852,-34.07698,1135.38 18.36926,-34.07782,1127.76 18.36998,-34.07867,1127.76 18.37074,-34.07959,1120.14 18.37155,-34.08078,1104.9 18.37217,-34.08165,1097.28 18.37284,-34.08279,1089.66 18.37343,-34.08406,1074.42 18.37383,-34.08517,1066.8 18.37413,-34.08627,1059.18 18.37424,-34.08723,1051.56 18.37423,-34.08829,1036.3200000000002 18.37412,-34.08946,1028.7 18.37395,-34.09048,1021.08 18.3736,-34.09179,1005.84 18.37329,-34.09277,998.22 18.37254,-34.09367,990.6 18.37227,-34.09476,982.98 18.37207,-34.09589,975.36 18.37197,-34.09719,975.36 18.37199,-34.09825,967.74 18.37243,-34.09941,960.12 18.37321,-34.10047,952.5 18.37412,-34.10125,944.88 18.37518,-34.10218,929.6400000000001 18.37653,-34.10304,922.0200000000001 18.37772,-34.10382,906.7800000000001 18.37917,-34.10453,899.1600000000001 18.38047,-34.10522,883.9200000000001 18.38189,-34.10603,876.3000000000001 18.38311,-34.10673,861.0600000000001 18.38465,-34.10762,853.44 18.38607,-34.10836,838.2 18.38737,-34.10903,830.58 18.38872,-34.10977,822.96 18.39013,-34.11058,807.72 18.39158,-34.11136,792.48 18.39295,-34.11205,784.86 18.39676,-34.11436,762 18.40195,-34.11732,723.9000000000001 18.406,-34.11965,701.0400000000001 18.40994,-34.12188,678.1800000000001 18.41508,-34.12492,640.08 18.41934,-34.12731,609.6 18.42077,-34.12802,601.98 18.42211,-34.12869,586.74 18.42369,-34.1295,579.12 18.42518,-34.13035,571.5 18.42657,-34.13114,563.88 18.4279,-34.1319,556.26 18.42926,-34.13275,548.64 18.4306,-34.13342,541.02 18.4318,-34.13415,533.4 18.43331,-34.13508,525.78 18.43459,-34.13572,525.78 18.43617,-34.13655,518.1600000000001 18.43746,-34.1367,518.1600000000001 18.43924,-34.13752,518.1600000000001 18.44071,-34.13766,518.1600000000001 18.44235,-34.13781,518.1600000000001 18.44382,-34.13808,510.54 18.4453,-34.13827,510.54 18.44667,-34.13814,502.92 18.44817,-34.13786,502.92 18.44967,-34.13752,495.3 18.4512,-34.13693,487.68 18.45263,-34.13625,480.06 18.45401,-34.13551,472.44 18.45521,-34.13482,472.44 18.45645,-34.13402,472.44 18.45771,-34.13322,464.82000000000005 18.45885,-34.13239,464.82000000000005 18.45988,-34.13165,464.82000000000005 18.46103,-34.13085,457.20000000000005 18.46227,-34.12984,457.20000000000005 18.46354,-34.12877,449.58000000000004 18.46451,-34.1279,449.58000000000004 18.46553,-34.12697,449.58000000000004 18.46659,-34.12596,449.58000000000004 18.46777,-34.12488,449.58000000000004 18.46884,-34.12391,457.20000000000005 18.46993,-34.12291,457.20000000000005 18.47105,-34.12197,464.82000000000005 18.47218,-34.12091,472.44 18.47306,-34.11994,472.44 18.47412,-34.11887,480.06 18.47484,-34.1181,480.06 18.47583,-34.11718,487.68 18.47675,-34.11614,487.68 18.47775,-34.11507,495.3 18.47866,-34.1142,502.92 18.47948,-34.11325,502.92 18.4802,-34.11226,502.92 18.48076,-34.1112,502.92 18.48122,-34.11015,502.92 18.48147,-34.10914,510.54 18.48156,-34.10813,518.1600000000001 18.48156,-34.10701,518.1600000000001 18.48141,-34.10609,518.1600000000001 18.48132,-34.10508,518.1600000000001 18.48095,-34.10408,518.1600000000001 18.4807,-34.1031,525.78 18.48041,-34.10183,533.4 18.47911,-34.10151,518.1600000000001 18.47959,-34.09966,533.4 18.47897,-34.09929,533.4 18.47814,-34.09845,541.02 18.4792,-34.09644,548.64 18.47833,-34.09627,541.02 18.4783,-34.0951,548.64 18.47859,-34.0938,548.64 18.47908,-34.09228,548.64 18.47894,-34.09135,541.02 18.47881,-34.09027,533.4 18.47857,-34.08865,533.4 18.47828,-34.08752,541.02 18.47717,-34.08653,525.78 18.47628,-34.08573,533.4 18.47805,-34.08368,525.78 18.47774,-34.08276,518.1600000000001 18.47798,-34.08168,518.1600000000001 18.47767,-34.08079,518.1600000000001 18.47763,-34.0797,518.1600000000001 18.47756,-34.07871,510.54 18.47732,-34.07736,510.54 18.47758,-34.07646,510.54 18.47788,-34.07529,502.92 18.47776,-34.07422,502.92 18.47783,-34.07291,495.3 18.47781,-34.07179,487.68 18.4773,-34.07088,480.06 18.47695,-34.06999,472.44 18.47709,-34.06882,464.82000000000005 18.47726,-34.06784,464.82000000000005 18.47719,-34.06674,457.20000000000005 18.47704,-34.06544,449.58000000000004 18.47697,-34.0645,449.58000000000004 18.4768,-34.06342,457.20000000000005 18.47657,-34.06241,457.20000000000005 18.47668,-34.06143,457.20000000000005 18.47658,-34.06023,457.20000000000005 18.4765,-34.0591,457.20000000000005 18.47657,-34.05804,457.20000000000005 18.47622,-34.05695,449.58000000000004 18.47618,-34.05587,449.58000000000004 18.47604,-34.05469,441.96000000000004 18.47577,-34.05351,434.34000000000003 18.47543,-34.05264,434.34000000000003 18.47526,-34.05161,426.72 18.47513,-34.04704,434.34000000000003 18.47486,-34.04374,441.96000000000004 18.47473,-34.03913,426.72 18.4744,-34.0358,419.1 18.47403,-34.03141,426.72 18.47359,-34.02926,419.1 18.47367,-34.02797,419.1 18.474,-34.02686,419.1 18.47429,-34.0258,411.48 18.47438,-34.02466,419.1 18.47443,-34.02356,419.1 18.47444,-34.0225,419.1 18.47457,-34.02135,419.1 18.47448,-34.02034,419.1 18.47462,-34.01914,411.48 18.47451,-34.01791,419.1 18.47462,-34.01686,419.1 18.47435,-34.01577,419.1 18.47417,-34.01461,411.48 18.4741,-34.01368,411.48 18.47418,-34.01248,403.86 18.47443,-34.01139,403.86 18.47442,-34.01022,396.24 18.4744,-34.00923,396.24 18.4742,-34.00793,388.62 18.47422,-34.00675,388.62 18.47431,-34.00566,388.62 18.47431,-34.00461,388.62 18.47456,-34.00338,388.62 18.47463,-34.00227,381 18.47496,-34.00135,373.38 18.47522,-33.99995,373.38 18.47556,-33.99877,365.76 18.47574,-33.99728,358.14000000000004 18.47577,-33.99646,358.14000000000004 18.47607,-33.99525,350.52000000000004 18.47646,-33.99402,350.52000000000004 18.47667,-33.99303,350.52000000000004 18.47645,-33.99175,350.52000000000004 18.47663,-33.99058,350.52000000000004 18.47678,-33.98948,350.52000000000004 18.4769,-33.9884,350.52000000000004 18.47716,-33.98706,350.52000000000004 18.47774,-33.98465,358.14000000000004 18.47671,-33.98021,350.52000000000004 18.47947,-33.97687,350.52000000000004 18.47984,-33.97607,342.90000000000003 18.48006,-33.97496,350.52000000000004 18.48336,-33.97254,358.14000000000004 18.485,-33.97123,358.14000000000004 18.48439,-33.96996,358.14000000000004 18.48342,-33.96924,350.52000000000004 18.48406,-33.96786,350.52000000000004 18.48509,-33.96631,350.52000000000004 18.48175,-33.96446,342.90000000000003 18.48203,-33.96304,342.90000000000003 18.48221,-33.96204,342.90000000000003 18.48238,-33.96079,358.14000000000004 18.48255,-33.95958,358.14000000000004 18.48272,-33.95846,358.14000000000004 18.48289,-33.95744,358.14000000000004 18.48304,-33.95627,358.14000000000004 18.48312,-33.9552,358.14000000000004 18.48318,-33.95422,358.14000000000004 18.4833,-33.95292,358.14000000000004 18.4833,-33.95185,358.14000000000004 18.48332,-33.95082,358.14000000000004 18.48332,-33.94986,358.14000000000004 18.48326,-33.94872,358.14000000000004 18.48324,-33.94771,350.52000000000004 18.4831,-33.94666,342.90000000000003 18.48293,-33.94569,335.28000000000003 18.48265,-33.9445,335.28000000000003 18.48238,-33.94352,327.66 18.48204,-33.94254,327.66 18.48164,-33.94138,320.04 18.48119,-33.94038,320.04 18.48083,-33.93951,312.42 18.48035,-33.93851,304.8 18.47985,-33.9375,297.18 18.4794,-33.93658,297.18 18.47872,-33.93537,297.18 18.47816,-33.93443,289.56 18.47766,-33.93352,289.56 18.477,-33.93239,281.94 18.47648,-33.93146,281.94 18.47598,-33.93059,281.94 18.47536,-33.92953,281.94 18.47486,-33.92867,281.94 18.47435,-33.9278,281.94 18.47385,-33.92699,274.32 18.47317,-33.92597,274.32 18.47271,-33.92522,274.32 18.47132,-33.92322,266.7 18.47076,-33.92239,259.08000000000004 18.47015,-33.92171,259.08000000000004 18.46916,-33.92061,266.7 18.46848,-33.91987,259.08000000000004 18.46745,-33.91894,251.46 18.46673,-33.91823,251.46 18.46596,-33.9175,251.46 18.46504,-33.91661,243.84 18.4643,-33.91591,243.84 18.46333,-33.91503,236.22 18.46247,-33.91424,236.22 18.46157,-33.91347,236.22 18.46095,-33.91292,236.22 18.46001,-33.91205,228.60000000000002 18.45905,-33.91122,220.98000000000002 18.45815,-33.91045,220.98000000000002 18.4572,-33.90962,213.36 18.4563,-33.90884,213.36 18.45543,-33.90814,205.74 18.45451,-33.90734,205.74 18.45354,-33.90656,205.74 18.45274,-33.90586,198.12 18.45193,-33.90527,198.12 18.45108,-33.9046,190.5 18.45011,-33.90385,190.5 18.44896,-33.90311,182.88 18.4481,-33.9026,175.26000000000002 18.44696,-33.90208,175.26000000000002 18.44582,-33.90161,167.64000000000001 18.44473,-33.9012,160.02 18.44376,-33.90092,160.02 18.44267,-33.90064,152.4 18.44179,-33.90042,152.4 18.44038,-33.90018,144.78 18.43954,-33.9001,137.16 18.43837,-33.89996,129.54000000000002 18.43752,-33.89996,129.54000000000002 18.43657,-33.89983,114.30000000000001 18.43567,-33.89978,114.30000000000001 18.43466,-33.89976,99.06 18.43363,-33.89976,99.06 18.43293,-33.89978,91.44 18.43226,-33.89983,83.82000000000001 18.43153,-33.89987,76.2 18.43088,-33.8999,76.2 18.43041,-33.89996,68.58 18.4299,-33.9001,60.96 18.42962,-33.90013,53.34 18.42922,-33.90027,45.72 18.42894,-33.90032,45.72 18.42856,-33.90038,38.1 18.42828,-33.90051,38.1 18.42802,-33.9006,30.48 18.42779,-33.9006,30.48 18.42755,-33.90065,22.86</coordinates>
      </LineString>
    </Placemark>
  </Document>
</kml>
