<?xml version="1.0" encoding="UTF-8"?>
<kml xmlns="http://www.opengis.net/kml/2.2">
  <Document>
    <name>FR24 ZTHOT 3df141e4</name>
    <Placemark>
      <name>FR24 ZTHOT 3df141e4</name>
      <description><![CDATA[Source: ADS-B
Start (SAST): 2026-01-17 08:47:36
End (SAST): 2026-01-17 17:03:20
Points: 3300]]></description>
      <Style><LineStyle><color>ff0000ff</color><width>4</width></LineStyle></Style>
      <LineString>
        <tessellate>1</tessellate>
        <altitudeMode>absolute</altitudeMode>
        <coordinates>18.42705,-33.90115,30.48 18.42704,-33.90042,60.96 18.42738,-33.89973,60.96 18.42773,-33.89925,91.44 18.42805,-33.89877,91.44 18.42839,-33.89818,91.44 18.42871,-33.89766,121.92 18.42911,-33.89701,121.92 18.42945,-33.89644,121.92 18.42979,-33.89594,152.4 18.43025,-33.89524,152.4 18.4306,-33.89468,182.88 18.43094,-33.89417,182.88 18.4314,-33.89343,182.88 18.43174,-33.89282,213.36 18.43214,-33.89222,213.36 18.43248,-33.89161,213.36 18.43294,-33.89096,243.84 18.43332,-33.8903,243.84 18.4338,-33.88947,243.84 18.43403,-33.88914,243.84 18.43454,-33.88826,274.32 18.435,-33.88733,274.32 18.43528,-33.8866,304.8 18.43556,-33.88586,304.8 18.43575,-33.88509,304.8 18.43579,-33.88426,335.28000000000003 18.43569,-33.88328,335.28000000000003 18.43552,-33.88253,335.28000000000003 18.43517,-33.8816,365.76 18.43477,-33.88086,365.76 18.43422,-33.88,365.76 18.43382,-33.87955,365.76 18.43287,-33.87872,396.24 18.4322,-33.87822,396.24 18.43117,-33.87765,426.72 18.43052,-33.8773,426.72 18.42934,-33.8768,426.72 18.42865,-33.87658,457.20000000000005 18.42743,-33.87616,457.20000000000005 18.42654,-33.87593,487.68 18.42564,-33.87566,487.68 18.42469,-33.87538,487.68 18.42357,-33.87515,518.1600000000001 18.42278,-33.87497,518.1600000000001 18.42155,-33.87469,518.1600000000001 18.42048,-33.87447,548.64 18.41959,-33.87424,548.64 18.41846,-33.87406,579.12 18.41757,-33.87387,579.12 18.41639,-33.87373,579.12 18.41526,-33.8736,579.12 18.41429,-33.87346,609.6 18.41337,-33.87336,609.6 18.41213,-33.87328,609.6 18.41103,-33.87322,640.08 18.41005,-33.87318,640.08 18.40897,-33.87318,640.08 18.40788,-33.87313,640.08 18.40681,-33.87314,670.5600000000001 18.40602,-33.87314,670.5600000000001 18.40473,-33.87318,670.5600000000001 18.40328,-33.87323,670.5600000000001 18.40244,-33.87323,701.0400000000001 18.40107,-33.87327,701.0400000000001 18.39986,-33.87337,701.0400000000001 18.39879,-33.87346,701.0400000000001 18.39769,-33.8736,701.0400000000001 18.39638,-33.87378,701.0400000000001 18.39532,-33.87396,701.0400000000001 18.39432,-33.87415,701.0400000000001 18.39294,-33.87453,701.0400000000001 18.39214,-33.87476,701.0400000000001 18.39067,-33.87524,701.0400000000001 18.38966,-33.87556,731.52 18.3887,-33.87593,731.52 18.38774,-33.8763,731.52 18.38659,-33.87676,731.52 18.38556,-33.87718,731.52 18.38448,-33.87769,731.52 18.38356,-33.87816,731.52 18.38253,-33.87867,731.52 18.38158,-33.87918,731.52 18.38035,-33.87987,731.52 18.3794,-33.88042,731.52 18.37822,-33.8811,731.52 18.37733,-33.8817,731.52 18.37637,-33.88229,731.52 18.37521,-33.88314,731.52 18.37435,-33.88379,731.52 18.37309,-33.88477,731.52 18.37223,-33.88547,731.52 18.37121,-33.88632,731.52 18.37051,-33.88696,731.52 18.36943,-33.88789,731.52 18.36864,-33.88861,731.52 18.36754,-33.88961,731.52 18.36684,-33.8903,731.52 18.366,-33.89108,731.52 18.36519,-33.89194,731.52 18.36449,-33.89264,731.52 18.36365,-33.89361,762 18.36303,-33.89429,762 18.36239,-33.8951,762 18.36164,-33.89608,762 18.36107,-33.89682,762 18.36034,-33.89777,762 18.35964,-33.89869,762 18.35911,-33.89946,762 18.35849,-33.90024,762 18.35776,-33.90125,762 18.35709,-33.90216,762 18.35642,-33.90321,762 18.35587,-33.904,762 18.35518,-33.905,762 18.35473,-33.90573,762 18.35421,-33.90656,762 18.35375,-33.90734,762 18.35311,-33.90839,792.48 18.35266,-33.90926,792.48 18.3521,-33.91031,792.48 18.35154,-33.91141,792.48 18.35104,-33.91246,792.48 18.3506,-33.91335,792.48 18.35025,-33.9142,792.48 18.34986,-33.91503,792.48 18.3494,-33.9161,792.48 18.349,-33.91698,792.48 18.34848,-33.91838,762 18.34812,-33.91928,762 18.34767,-33.92052,762 18.34734,-33.92141,762 18.347,-33.9223,762 18.34661,-33.9234,762 18.34616,-33.92464,762 18.34591,-33.92532,762 18.34549,-33.92642,762 18.34522,-33.92713,762 18.34499,-33.92783,762 18.34252,-33.93462,762 18.34139,-33.9377,792.48 18.34036,-33.94049,762 18.33904,-33.94432,792.48 18.33769,-33.94798,792.48 18.33674,-33.95064,792.48 18.33538,-33.95506,792.48 18.33551,-33.95988,762 18.33693,-33.96237,762 18.33939,-33.96432,762 18.33534,-33.9554,792.48 18.3494,-33.96377,731.52 18.35157,-33.96153,701.0400000000001 18.35278,-33.95851,701.0400000000001 18.35306,-33.95702,701.0400000000001 18.35328,-33.95604,701.0400000000001 18.35346,-33.95478,670.5600000000001 18.35378,-33.95334,670.5600000000001 18.35426,-33.95176,670.5600000000001 18.35468,-33.95045,670.5600000000001 18.35513,-33.94922,670.5600000000001 18.35563,-33.94785,670.5600000000001 18.35614,-33.94661,670.5600000000001 18.35658,-33.94547,640.08 18.35701,-33.9445,640.08 18.35758,-33.943,640.08 18.35804,-33.94171,640.08 18.35855,-33.94029,640.08 18.35894,-33.93915,640.08 18.35941,-33.93789,640.08 18.35993,-33.93649,640.08 18.3605,-33.93504,640.08 18.36096,-33.93384,640.08 18.36142,-33.93267,640.08 18.36193,-33.93132,640.08 18.36387,-33.92638,640.08 18.36536,-33.92276,640.08 18.36691,-33.91936,640.08 18.36754,-33.91805,640.08 18.36819,-33.9169,640.08 18.36885,-33.91563,640.08 18.3696,-33.91438,640.08 18.37009,-33.91347,640.08 18.3708,-33.91237,640.08 18.37149,-33.91135,640.08 18.37234,-33.91008,640.08 18.37329,-33.9088,640.08 18.37407,-33.90784,640.08 18.37486,-33.90692,640.08 18.37566,-33.90604,640.08 18.37654,-33.90504,640.08 18.37744,-33.90413,640.08 18.37828,-33.90326,640.08 18.37944,-33.90204,640.08 18.38029,-33.9012,640.08 18.38161,-33.89994,640.08 18.38259,-33.89905,640.08 18.38349,-33.89822,640.08 18.38465,-33.89724,640.08 18.38551,-33.89644,640.08 18.38652,-33.89561,640.08 18.38747,-33.89488,640.08 18.38888,-33.89384,640.08 18.39003,-33.89315,640.08 18.39117,-33.8925,640.08 18.39235,-33.89191,640.08 18.39352,-33.8914,640.08 18.39509,-33.89081,609.6 18.39633,-33.89044,609.6 18.39764,-33.89003,609.6 18.39913,-33.88962,579.12 18.40036,-33.88934,579.12 18.40176,-33.88902,579.12 18.40339,-33.8887,548.64 18.40468,-33.88847,548.64 18.4057,-33.88831,548.64 18.40754,-33.88803,518.1600000000001 18.40866,-33.88788,518.1600000000001 18.40988,-33.8877,487.68 18.41137,-33.88756,487.68 18.41253,-33.88742,487.68 18.41381,-33.88728,457.20000000000005 18.41522,-33.88719,457.20000000000005 18.41611,-33.8871,426.72 18.41726,-33.88696,426.72 18.41875,-33.88682,426.72 18.41984,-33.88668,396.24 18.42093,-33.88654,396.24 18.42239,-33.88637,396.24 18.42458,-33.88614,365.76 18.42609,-33.886,335.28000000000003 18.42716,-33.88593,335.28000000000003 18.42833,-33.88591,335.28000000000003 18.42945,-33.88591,335.28000000000003 18.43065,-33.88602,335.28000000000003 18.43198,-33.88628,304.8 18.43294,-33.88649,304.8 18.43399,-33.88678,304.8 18.43523,-33.88724,304.8 18.43601,-33.8876,304.8 18.43695,-33.88812,274.32 18.43775,-33.88861,274.32 18.43876,-33.88939,274.32 18.43954,-33.89012,274.32 18.44021,-33.89091,274.32 18.44083,-33.89186,243.84 18.44141,-33.89278,243.84 18.44179,-33.8936,243.84 18.44201,-33.89438,213.36 18.44212,-33.8952,213.36 18.44215,-33.8958,213.36 18.44201,-33.89653,182.88 18.44162,-33.89745,182.88 18.44111,-33.89827,182.88 18.44066,-33.89877,182.88 18.44015,-33.89929,152.4 18.43937,-33.89996,152.4 18.43842,-33.90065,152.4 18.43752,-33.9012,121.92 18.437,-33.90139,121.92 18.43618,-33.90157,121.92 18.43528,-33.90166,121.92 18.43449,-33.90157,121.92 18.43399,-33.90147,121.92 18.4331,-33.90125,91.44 18.43266,-33.90111,91.44 18.43214,-33.90088,91.44 18.43174,-33.90069,91.44 18.43119,-33.90038,91.44 18.43085,-33.90019,91.44 18.4306,-33.90004,60.96 18.43037,-33.8999,60.96 18.42985,-33.8996,60.96 18.42945,-33.89946,60.96 18.42905,-33.89948,60.96 18.42874,-33.89951,0 18.42854,-33.89957,0 18.42788,-33.89919,60.96 18.42751,-33.89846,91.44 18.42751,-33.89799,91.44 18.42768,-33.89762,91.44 18.42805,-33.89699,121.92 18.42842,-33.89645,121.92 18.42888,-33.8958,121.92 18.42928,-33.89524,121.92 18.42991,-33.89441,152.4 18.43048,-33.89361,152.4 18.43102,-33.89291,152.4 18.43147,-33.89232,152.4 18.43203,-33.89157,152.4 18.43259,-33.89085,182.88 18.43323,-33.88998,182.88 18.43382,-33.88916,182.88 18.43449,-33.88817,213.36 18.43511,-33.88724,213.36 18.43567,-33.88641,213.36 18.43629,-33.88545,213.36 18.43678,-33.88467,243.84 18.43729,-33.88379,243.84 18.43781,-33.88307,243.84 18.43843,-33.88216,274.32 18.43901,-33.88123,274.32 18.43958,-33.88039,274.32 18.44022,-33.87946,304.8 18.44078,-33.87872,304.8 18.44145,-33.87776,335.28000000000003 18.44201,-33.87698,335.28000000000003 18.44273,-33.87611,335.28000000000003 18.44335,-33.87538,365.76 18.44398,-33.87476,365.76 18.4449,-33.87402,365.76 18.44593,-33.87341,396.24 18.44689,-33.873,396.24 18.4479,-33.87273,396.24 18.44919,-33.87252,426.72 18.45047,-33.87254,426.72 18.45154,-33.87268,426.72 18.4526,-33.87296,457.20000000000005 18.45356,-33.87332,457.20000000000005 18.45434,-33.87378,457.20000000000005 18.45529,-33.87456,457.20000000000005 18.45591,-33.87524,487.68 18.45634,-33.87606,487.68 18.45663,-33.87695,487.68 18.45675,-33.87797,518.1600000000001 18.45663,-33.87877,518.1600000000001 18.45625,-33.87978,518.1600000000001 18.45563,-33.8806,518.1600000000001 18.45496,-33.88124,548.64 18.45389,-33.88184,548.64 18.453,-33.8822,548.64 18.45182,-33.88244,548.64 18.45081,-33.88252,548.64 18.44963,-33.88252,548.64 18.44822,-33.88244,548.64 18.44705,-33.88234,548.64 18.44599,-33.88216,548.64 18.44464,-33.88193,548.64 18.44364,-33.88174,548.64 18.44233,-33.88146,548.64 18.44111,-33.8812,548.64 18.43964,-33.88086,548.64 18.43861,-33.88063,548.64 18.4374,-33.88034,548.64 18.43618,-33.88,548.64 18.43443,-33.87951,518.1600000000001 18.43332,-33.87918,518.1600000000001 18.4322,-33.87886,548.64 18.4308,-33.87836,548.64 18.42979,-33.87797,548.64 18.42856,-33.87753,548.64 18.42704,-33.87694,548.64 18.42564,-33.87639,579.12 18.42447,-33.87593,579.12 18.42346,-33.87561,579.12 18.4223,-33.87523,579.12 18.42133,-33.87495,579.12 18.42004,-33.87456,579.12 18.41909,-33.87429,609.6 18.41772,-33.87392,609.6 18.41669,-33.87369,609.6 18.41532,-33.87346,609.6 18.41389,-33.87318,609.6 18.41274,-33.87299,609.6 18.41171,-33.87285,609.6 18.41051,-33.87276,609.6 18.40914,-33.87262,609.6 18.40759,-33.87259,609.6 18.4063,-33.87259,609.6 18.40513,-33.87262,609.6 18.40378,-33.87268,640.08 18.4026,-33.87277,640.08 18.40143,-33.87291,640.08 18.40044,-33.87299,640.08 18.39902,-33.87318,640.08 18.3979,-33.87332,640.08 18.39678,-33.8735,640.08 18.39575,-33.87369,670.5600000000001 18.39414,-33.87405,670.5600000000001 18.39294,-33.87439,670.5600000000001 18.39207,-33.87469,670.5600000000001 18.391,-33.87509,670.5600000000001 18.38974,-33.8756,670.5600000000001 18.389,-33.87592,670.5600000000001 18.38774,-33.87653,670.5600000000001 18.38646,-33.87717,670.5600000000001 18.38556,-33.87765,670.5600000000001 18.3845,-33.87822,670.5600000000001 18.38332,-33.87886,670.5600000000001 18.3823,-33.87937,670.5600000000001 18.3813,-33.87996,701.0400000000001 18.38058,-33.88034,701.0400000000001 18.37921,-33.88114,701.0400000000001 18.37816,-33.88179,701.0400000000001 18.37749,-33.8822,701.0400000000001 18.37646,-33.88286,701.0400000000001 18.37538,-33.88361,731.52 18.37458,-33.88416,731.52 18.37332,-33.88509,701.0400000000001 18.37256,-33.88573,701.0400000000001 18.37154,-33.88659,701.0400000000001 18.37069,-33.88728,701.0400000000001 18.36992,-33.88802,701.0400000000001 18.36891,-33.88896,701.0400000000001 18.36802,-33.88985,701.0400000000001 18.3672,-33.89063,701.0400000000001 18.36634,-33.89152,701.0400000000001 18.36548,-33.89245,701.0400000000001 18.36488,-33.8931,701.0400000000001 18.36398,-33.8941,701.0400000000001 18.36331,-33.89488,731.52 18.3625,-33.89585,731.52 18.3618,-33.89676,731.52 18.36102,-33.89771,731.52 18.36045,-33.89845,731.52 18.35981,-33.89929,731.52 18.35905,-33.90038,731.52 18.35844,-33.9012,731.52 18.35787,-33.90202,762 18.35731,-33.9028,762 18.35672,-33.90362,762 18.35615,-33.90442,762 18.35564,-33.90516,762 18.3549,-33.90623,762 18.35432,-33.90707,762 18.35381,-33.90786,792.48 18.35323,-33.90856,792.48 18.35261,-33.90953,792.48 18.35221,-33.91013,792.48 18.35169,-33.91088,792.48 18.34991,-33.91363,792.48 18.3493,-33.91452,792.48 18.34874,-33.91539,822.96 18.34818,-33.91626,822.96 18.34768,-33.91708,822.96 18.347,-33.91815,822.96 18.34644,-33.91901,822.96 18.34599,-33.91978,822.96 18.34543,-33.92079,822.96 18.34487,-33.92175,822.96 18.34431,-33.92267,853.44 18.34368,-33.92369,853.44 18.34319,-33.92445,853.44 18.34253,-33.9255,853.44 18.34196,-33.92633,853.44 18.34145,-33.92715,853.44 18.34042,-33.92937,883.9200000000001 18.34039,-33.93036,883.9200000000001 18.34067,-33.93114,914.4000000000001 18.34117,-33.93187,914.4000000000001 18.34179,-33.93239,944.88 18.34276,-33.93281,944.88 18.34358,-33.93297,975.36 18.34471,-33.9329,975.36 18.34566,-33.93269,975.36 18.34655,-33.93233,975.36 18.34739,-33.93192,975.36 18.34854,-33.93137,975.36 18.34935,-33.93109,975.36 18.35049,-33.93081,975.36 18.35188,-33.93082,975.36 18.35283,-33.931,975.36 18.35378,-33.93137,975.36 18.35466,-33.93197,975.36 18.35541,-33.9329,975.36 18.35597,-33.93402,975.36 18.35609,-33.93495,975.36 18.35602,-33.93562,975.36 18.3558,-33.93677,975.36 18.35535,-33.93789,975.36 18.35495,-33.93872,975.36 18.3544,-33.93979,975.36 18.35381,-33.94072,975.36 18.35318,-33.9418,975.36 18.35249,-33.9429,975.36 18.35199,-33.94359,975.36 18.35126,-33.94464,944.88 18.35053,-33.94569,944.88 18.3498,-33.94675,944.88 18.34923,-33.94766,944.88 18.3486,-33.94854,944.88 18.34795,-33.94949,975.36 18.34723,-33.95055,975.36 18.34649,-33.9516,975.36 18.34599,-33.95229,975.36 18.34505,-33.95357,975.36 18.34442,-33.95432,975.36 18.34375,-33.95512,975.36 18.34296,-33.95604,975.36 18.34235,-33.95673,975.36 18.34134,-33.95787,975.36 18.33687,-33.96298,975.36 18.33509,-33.96521,975.36 18.33321,-33.968,975.36 18.33195,-33.97052,944.88 18.33138,-33.97182,944.88 18.33063,-34.10198,701.0400000000001 18.32966,-34.10566,701.0400000000001 18.32857,-34.1092,670.5600000000001 18.32748,-34.11297,670.5600000000001 18.32703,-34.11432,640.08 18.32674,-34.11525,640.08 18.32628,-34.1166,640.08 18.32587,-34.11772,640.08 18.32542,-34.11891,640.08 18.32503,-34.11996,640.08 18.32445,-34.1214,609.6 18.32402,-34.1223,609.6 18.32336,-34.12377,609.6 18.32262,-34.12532,609.6 18.32195,-34.12656,609.6 18.32144,-34.12747,609.6 18.32079,-34.1287,609.6 18.32021,-34.12976,609.6 18.31965,-34.13072,609.6 18.31896,-34.13192,609.6 18.31853,-34.13264,609.6 18.31776,-34.13415,609.6 18.31724,-34.13513,609.6 18.31673,-34.13617,609.6 18.31634,-34.1369,609.6 18.31589,-34.13795,609.6 18.31541,-34.13913,609.6 18.31495,-34.14043,609.6 18.3146,-34.14166,609.6 18.31432,-34.14299,609.6 18.3141,-34.14404,609.6 18.31398,-34.14532,609.6 18.31398,-34.14821,579.12 18.31427,-34.15007,579.12 18.31455,-34.15133,609.6 18.31484,-34.15235,609.6 18.3153,-34.15361,609.6 18.31578,-34.15466,609.6 18.31633,-34.15594,609.6 18.31679,-34.157,609.6 18.3173,-34.15808,609.6 18.31787,-34.15915,609.6 18.31844,-34.16022,609.6 18.31907,-34.16129,609.6 18.3197,-34.16235,609.6 18.32043,-34.1635,609.6 18.32121,-34.16478,609.6 18.32195,-34.16592,609.6 18.32256,-34.16692,609.6 18.32325,-34.1679,609.6 18.32413,-34.16913,609.6 18.3248,-34.17014,609.6 18.3256,-34.17125,609.6 18.32632,-34.17224,609.6 18.3271,-34.17334,579.12 18.32788,-34.17428,579.12 18.32862,-34.17526,609.6 18.3296,-34.17646,609.6 18.33063,-34.17768,609.6 18.33132,-34.17847,609.6 18.33235,-34.17963,609.6 18.33315,-34.18052,609.6 18.33416,-34.18167,609.6 18.33504,-34.18261,609.6 18.33584,-34.18349,609.6 18.33681,-34.18461,609.6 18.33742,-34.18533,609.6 18.33926,-34.18739,609.6 18.3427,-34.19141,609.6 18.34522,-34.19462,609.6 18.34678,-34.19673,609.6 18.34763,-34.19793,609.6 18.34834,-34.19893,609.6 18.34902,-34.19989,609.6 18.34974,-34.201,609.6 18.3506,-34.2023,609.6 18.35129,-34.20333,609.6 18.35188,-34.20433,609.6 18.35266,-34.20552,609.6 18.35335,-34.20668,609.6 18.35398,-34.2077,609.6 18.35507,-34.20964,609.6 18.35563,-34.21065,609.6 18.3563,-34.21188,640.08 18.35701,-34.21315,640.08 18.35754,-34.21417,640.08 18.3581,-34.21527,609.6 18.35867,-34.21645,609.6 18.35944,-34.21802,609.6 18.35993,-34.21911,609.6 18.36021,-34.21976,609.6 18.36135,-34.22237,609.6 18.3621,-34.22423,609.6 18.3625,-34.2253,609.6 18.36292,-34.22644,609.6 18.36337,-34.22768,609.6 18.36388,-34.22902,609.6 18.36433,-34.23019,609.6 18.3646,-34.23093,609.6 18.36516,-34.23248,609.6 18.36555,-34.23349,609.6 18.36594,-34.23461,609.6 18.36714,-34.23805,609.6 18.36828,-34.24178,609.6 18.36931,-34.24532,609.6 18.37046,-34.24899,609.6 18.37116,-34.25148,609.6 18.37149,-34.25272,609.6 18.37189,-34.25407,609.6 18.37217,-34.25514,609.6 18.37309,-34.25886,609.6 18.374,-34.26231,609.6 18.37538,-34.2671,609.6 18.37704,-34.27185,609.6 18.37744,-34.2729,609.6 18.37805,-34.27428,609.6 18.37856,-34.27538,609.6 18.37917,-34.27666,609.6 18.37967,-34.27776,609.6 18.39294,-34.30071,609.6 18.39489,-34.30388,609.6 18.40313,-34.31459,640.08 18.41129,-34.31886,640.08 18.41611,-34.31964,640.08 18.41819,-34.31982,640.08 18.41949,-34.31994,640.08 18.42093,-34.32005,640.08 18.42264,-34.32013,640.08 18.42413,-34.32019,640.08 18.42567,-34.32027,640.08 18.42716,-34.32031,640.08 18.42895,-34.32033,640.08 18.43057,-34.32033,640.08 18.43203,-34.32036,640.08 18.43328,-34.32036,640.08 18.43506,-34.32033,640.08 18.43649,-34.32031,640.08 18.43798,-34.32031,640.08 18.43987,-34.32027,640.08 18.44151,-34.32024,640.08 18.44296,-34.32022,640.08 18.44448,-34.32019,640.08 18.44604,-34.32014,640.08 18.44748,-34.32017,640.08 18.44925,-34.32022,640.08 18.45074,-34.32027,640.08 18.45221,-34.32033,609.6 18.45367,-34.32042,609.6 18.45529,-34.32051,609.6 18.45714,-34.32065,609.6 18.4586,-34.32083,609.6 18.46028,-34.32101,609.6 18.46167,-34.32124,609.6 18.46337,-34.32161,609.6 18.46488,-34.32198,609.6 18.46619,-34.32236,609.6 18.46751,-34.3228,609.6 18.46888,-34.32329,609.6 18.47043,-34.32394,609.6 18.47162,-34.32446,609.6 18.47311,-34.32511,609.6 18.47452,-34.32578,609.6 18.47591,-34.32641,609.6 18.47734,-34.32711,609.6 18.47866,-34.32776,609.6 18.47979,-34.32834,609.6 18.48089,-34.32892,609.6 18.4822,-34.32962,609.6 18.48371,-34.3304,609.6 18.48483,-34.33099,609.6 18.48562,-34.33141,640.08 18.48753,-34.33242,640.08 18.4887,-34.33305,640.08 18.48999,-34.33377,640.08 18.49102,-34.33437,640.08 18.49251,-34.33525,640.08 18.49342,-34.33586,640.08 18.49474,-34.3367,640.08 18.49577,-34.33739,640.08 18.497,-34.33823,640.08 18.49823,-34.33914,640.08 18.49941,-34.33997,640.08 18.50042,-34.3407,640.08 18.50137,-34.34138,640.08 18.50275,-34.34242,640.08 18.50395,-34.34335,640.08 18.50501,-34.34418,640.08 18.50619,-34.34518,640.08 18.50716,-34.34605,640.08 18.50807,-34.34689,640.08 18.50899,-34.34792,640.08 18.50985,-34.3489,640.08 18.51059,-34.34987,640.08 18.51135,-34.35114,640.08 18.51173,-34.35192,640.08 18.51231,-34.35327,640.08 18.51264,-34.35439,640.08 18.51286,-34.35548,640.08 18.51299,-34.35681,670.5600000000001 18.51292,-34.35782,670.5600000000001 18.51275,-34.35887,670.5600000000001 18.51236,-34.36006,670.5600000000001 18.51173,-34.36142,670.5600000000001 18.51122,-34.3623,670.5600000000001 18.5103,-34.36333,670.5600000000001 18.50933,-34.36421,670.5600000000001 18.50801,-34.36505,670.5600000000001 18.50687,-34.3657,670.5600000000001 18.50578,-34.36621,670.5600000000001 18.50423,-34.36674,670.5600000000001 18.50327,-34.36705,670.5600000000001 18.50206,-34.36728,640.08 18.50081,-34.36752,640.08 18.49929,-34.36771,640.08 18.49806,-34.36775,640.08 18.49657,-34.36784,640.08 18.49537,-34.36784,640.08 18.49394,-34.36784,640.08 18.49251,-34.36775,640.08 18.49125,-34.3677,640.08 18.49016,-34.36761,609.6 18.48876,-34.36748,609.6 18.48736,-34.36733,609.6 18.48587,-34.36714,609.6 18.48478,-34.36702,609.6 18.48326,-34.36684,609.6 18.4822,-34.36665,609.6 18.48066,-34.36644,609.6 18.47952,-34.36631,609.6 18.47797,-34.36617,609.6 18.47712,-34.36607,609.6 18.47558,-34.36606,609.6 18.47452,-34.36615,609.6 18.47374,-34.36631,609.6 18.47273,-34.3667,579.12 18.47155,-34.36766,579.12 18.47401,-34.37315,609.6 18.47553,-34.37343,609.6 18.47694,-34.37343,579.12 18.47809,-34.37333,609.6 18.4794,-34.37315,609.6 18.48063,-34.37302,609.6 18.48198,-34.37283,609.6 18.48321,-34.3727,609.6 18.4849,-34.37254,609.6 18.48627,-34.3724,609.6 18.48742,-34.37226,609.6 18.48885,-34.37212,609.6 18.4901,-34.37194,609.6 18.49154,-34.37175,640.08 18.49297,-34.37157,640.08 18.49422,-34.37133,640.08 18.49583,-34.37101,640.08 18.49711,-34.37073,640.08 18.49862,-34.37027,640.08 18.49989,-34.3698,640.08 18.50126,-34.36914,609.6 18.50238,-34.36858,609.6 18.50367,-34.3677,609.6 18.50464,-34.36696,609.6 18.50591,-34.36574,609.6 18.50669,-34.36464,609.6 18.50731,-34.36359,609.6 18.50779,-34.36263,609.6 18.50809,-34.36157,609.6 18.50836,-34.36049,609.6 18.50847,-34.35913,609.6 18.50849,-34.35782,609.6 18.50836,-34.35662,609.6 18.50815,-34.35553,609.6 18.50793,-34.35461,609.6 18.5075,-34.35313,609.6 18.50714,-34.3521,609.6 18.50681,-34.35132,609.6 18.50619,-34.35013,609.6 18.50567,-34.34917,609.6 18.50501,-34.34816,609.6 18.50451,-34.34738,609.6 18.50384,-34.34629,609.6 18.50322,-34.34532,609.6 18.50266,-34.34445,609.6 18.50193,-34.34326,609.6 18.50143,-34.34242,609.6 18.5008,-34.34145,609.6 18.50014,-34.34038,609.6 18.49966,-34.33963,609.6 18.49915,-34.33865,609.6 18.49846,-34.33749,609.6 18.49795,-34.33662,640.08 18.49737,-34.33563,640.08 18.49691,-34.33474,640.08 18.49583,-34.33265,640.08 18.49531,-34.33158,640.08 18.49491,-34.3306,640.08 18.49453,-34.32962,640.08 18.49408,-34.32834,640.08 18.49369,-34.32715,640.08 18.49341,-34.32614,609.6 18.49308,-34.32478,609.6 18.49285,-34.32376,609.6 18.49262,-34.32275,609.6 18.49239,-34.32171,609.6 18.49216,-34.3204,609.6 18.49199,-34.31933,609.6 18.49188,-34.3185,609.6 18.49173,-34.31721,609.6 18.49156,-34.31616,640.08 18.49142,-34.31487,609.6 18.49139,-34.31401,609.6 18.49128,-34.31296,609.6 18.49117,-34.31149,609.6 18.49111,-34.31044,609.6 18.49102,-34.30919,609.6 18.49096,-34.30811,609.6 18.49091,-34.30681,609.6 18.49085,-34.30555,609.6 18.49077,-34.30449,609.6 18.49049,-34.29964,609.6 18.49022,-34.29503,579.12 18.48988,-34.29172,579.12 18.48937,-34.28682,579.12 18.48915,-34.28467,579.12 18.48909,-34.2832,579.12 18.48907,-34.28186,579.12 18.48907,-34.28088,579.12 18.48913,-34.27967,609.6 18.48915,-34.27863,609.6 18.48925,-34.27734,609.6 18.48936,-34.27604,609.6 18.48943,-34.27496,609.6 18.48948,-34.2739,609.6 18.48954,-34.27263,609.6 18.4896,-34.27139,609.6 18.48965,-34.27025,609.6 18.4897,-34.26901,609.6 18.4897,-34.26799,609.6 18.48976,-34.26664,609.6 18.48982,-34.26224,579.12 18.48982,-34.25984,579.12 18.4897,-34.25523,579.12 18.4896,-34.25153,579.12 18.48949,-34.24823,548.64 18.48936,-34.24592,548.64 18.48925,-34.24466,548.64 18.48907,-34.24327,548.64 18.48893,-34.24223,548.64 18.48876,-34.24095,548.64 18.4885,-34.23964,548.64 18.48831,-34.23875,548.64 18.48797,-34.23734,548.64 18.48764,-34.236,548.64 18.48741,-34.235,548.64 18.48713,-34.23399,548.64 18.48679,-34.2327,548.64 18.48652,-34.23175,548.64 18.48623,-34.23074,548.64 18.4859,-34.22951,548.64 18.48564,-34.22879,548.64 18.48523,-34.22754,548.64 18.48483,-34.22649,548.64 18.4845,-34.22558,548.64 18.4841,-34.2246,579.12 18.48371,-34.2236,579.12 18.48321,-34.22237,579.12 18.48287,-34.2215,579.12 18.48238,-34.22036,579.12 18.48192,-34.21925,579.12 18.48141,-34.21806,579.12 18.48102,-34.21706,579.12 18.47975,-34.21403,579.12 18.47766,-34.20978,579.12 18.47706,-34.20863,579.12 18.47637,-34.20742,579.12 18.47598,-34.20657,579.12 18.47528,-34.20538,579.12 18.47463,-34.20419,579.12 18.47407,-34.20323,579.12 18.47346,-34.20222,579.12 18.47288,-34.20123,579.12 18.47228,-34.20026,579.12 18.47144,-34.19893,579.12 18.47076,-34.19797,609.6 18.47009,-34.19701,579.12 18.46945,-34.19602,579.12 18.46876,-34.19509,579.12 18.46813,-34.19416,579.12 18.4674,-34.19307,579.12 18.46662,-34.19197,579.12 18.46611,-34.19124,579.12 18.46527,-34.19011,579.12 18.46471,-34.18927,579.12 18.46393,-34.18813,579.12 18.46337,-34.18726,579.12 18.46275,-34.18602,579.12 18.46241,-34.18503,579.12 18.4623,-34.18401,579.12 18.46241,-34.18304,579.12 18.46275,-34.18204,579.12 18.46325,-34.18112,579.12 18.46393,-34.18039,579.12 18.46477,-34.17975,609.6 18.46573,-34.17926,609.6 18.46718,-34.17888,609.6 18.46819,-34.17884,609.6 18.46951,-34.17902,609.6 18.47048,-34.17938,609.6 18.47151,-34.18005,609.6 18.47214,-34.18075,609.6 18.47254,-34.18145,609.6 18.47282,-34.18242,609.6 18.47284,-34.18318,640.08 18.47273,-34.18387,609.6 18.47222,-34.18469,609.6 18.47166,-34.18524,609.6 18.47082,-34.18565,609.6 18.46973,-34.18582,609.6 18.46888,-34.18582,609.6 18.46802,-34.18556,609.6 18.4671,-34.18517,579.12 18.46622,-34.1846,579.12 18.46555,-34.18401,579.12 18.46482,-34.18304,579.12 18.46436,-34.18224,579.12 18.46393,-34.18112,579.12 18.4637,-34.17989,579.12 18.46361,-34.17898,548.64 18.46365,-34.17792,548.64 18.4637,-34.17691,548.64 18.46381,-34.17567,548.64 18.46398,-34.17462,548.64 18.46415,-34.17343,548.64 18.46437,-34.1722,548.64 18.46453,-34.17111,548.64 18.46471,-34.17004,579.12 18.46487,-34.16916,579.12 18.46516,-34.16795,579.12 18.46538,-34.16684,579.12 18.46555,-34.16583,579.12 18.46584,-34.16473,579.12 18.46607,-34.16362,579.12 18.46636,-34.16231,579.12 18.46662,-34.16125,579.12 18.46745,-34.1578,579.12 18.46852,-34.15324,579.12 18.46942,-34.1483,579.12 18.47026,-34.14354,579.12 18.47099,-34.13855,548.64 18.47157,-34.13471,518.1600000000001 18.47219,-34.13057,487.68 18.47273,-34.12669,457.20000000000005 18.47351,-34.12148,396.24 18.47379,-34.12029,396.24 18.47413,-34.11877,365.76 18.47452,-34.11763,365.76 18.47491,-34.11639,335.28000000000003 18.47546,-34.11515,335.28000000000003 18.47591,-34.11413,335.28000000000003 18.47677,-34.11278,304.8 18.47763,-34.11157,304.8 18.47844,-34.11049,304.8 18.47928,-34.10962,274.32 18.48026,-34.10873,274.32 18.48153,-34.10774,274.32 18.48259,-34.1071,274.32 18.48381,-34.1064,274.32 18.48495,-34.10591,243.84 18.48623,-34.10536,243.84 18.4878,-34.10481,243.84 18.48902,-34.1044,243.84 18.49022,-34.10398,213.36 18.49178,-34.10349,213.36 18.49302,-34.10307,213.36 18.49447,-34.10262,213.36 18.49583,-34.10217,213.36 18.497,-34.10175,213.36 18.49812,-34.10138,213.36 18.49932,-34.10105,182.88 18.50046,-34.10068,182.88 18.50142,-34.10037,182.88 18.50258,-34.10003,182.88 18.50361,-34.09975,182.88 18.5049,-34.09941,182.88 18.5059,-34.09914,182.88 18.50709,-34.09886,182.88 18.50819,-34.09863,182.88 18.50922,-34.0984,152.4 18.51034,-34.09813,152.4 18.51139,-34.09789,152.4 18.5128,-34.09758,152.4 18.51408,-34.09728,152.4 18.51517,-34.097,152.4 18.51622,-34.09676,152.4 18.51751,-34.09649,152.4 18.51866,-34.09621,152.4 18.52209,-34.09542,152.4 18.52455,-34.09481,152.4 18.52777,-34.0941,152.4 18.53052,-34.09351,152.4 18.53142,-34.09328,152.4 18.53225,-34.09309,152.4 18.53326,-34.09291,152.4 18.53405,-34.09272,152.4 18.53485,-34.09258,152.4 18.53584,-34.09236,152.4 18.53662,-34.09221,152.4 18.53754,-34.09207,152.4 18.53836,-34.09195,152.4 18.53954,-34.09183,152.4 18.54049,-34.09172,152.4 18.5415,-34.09167,152.4 18.54286,-34.09155,152.4 18.54397,-34.09149,121.92 18.54549,-34.09137,121.92 18.54647,-34.09132,121.92 18.54806,-34.09122,121.92 18.54941,-34.09113,121.92 18.5507,-34.091,121.92 18.55207,-34.09081,121.92 18.55339,-34.09058,121.92 18.55501,-34.09016,91.44 18.55602,-34.08984,91.44 18.5577,-34.08925,91.44 18.55888,-34.08881,91.44 18.56049,-34.08815,91.44 18.56174,-34.08774,91.44 18.56314,-34.08733,91.44 18.56461,-34.0869,91.44 18.56604,-34.08652,91.44 18.56785,-34.08604,91.44 18.56914,-34.08572,91.44 18.57038,-34.08541,91.44 18.57188,-34.08504,91.44 18.57345,-34.08467,91.44 18.57491,-34.08434,91.44 18.57654,-34.08398,91.44 18.57771,-34.08376,91.44 18.57911,-34.08344,91.44 18.5808,-34.08311,91.44 18.58217,-34.0828,91.44 18.58382,-34.08243,91.44 18.58539,-34.08206,91.44 18.58664,-34.08173,91.44 18.58825,-34.08133,91.44 18.58961,-34.08103,91.44 18.59104,-34.0808,91.44 18.59236,-34.08057,91.44 18.59363,-34.08037,91.44 18.59498,-34.08018,91.44 18.59643,-34.07996,91.44 18.59802,-34.07968,91.44 18.59907,-34.07954,91.44 18.60041,-34.07936,91.44 18.6022,-34.07917,91.44 18.60346,-34.07903,91.44 18.60495,-34.0789,91.44 18.60664,-34.07872,91.44 18.60792,-34.07857,91.44 18.60964,-34.07843,91.44 18.61084,-34.07833,91.44 18.61246,-34.07817,91.44 18.61382,-34.07805,91.44 18.61507,-34.07796,91.44 18.61673,-34.07785,91.44 18.61816,-34.07773,91.44 18.61947,-34.07762,91.44 18.6208,-34.07745,91.44 18.62188,-34.07731,91.44 18.62349,-34.07703,91.44 18.6248,-34.07684,91.44 18.62642,-34.07657,91.44 18.62772,-34.07633,91.44 18.629,-34.07616,91.44 18.63075,-34.07587,91.44 18.63207,-34.07568,91.44 18.6336,-34.07547,91.44 18.63499,-34.07531,91.44 18.63674,-34.0751,91.44 18.63796,-34.07498,91.44 18.63928,-34.07494,91.44 18.64111,-34.07483,91.44 18.64237,-34.07475,91.44 18.64352,-34.07469,91.44 18.64517,-34.07461,91.44 18.64666,-34.07455,91.44 18.64786,-34.07452,91.44 18.64924,-34.07451,91.44 18.65092,-34.07446,91.44 18.65226,-34.07446,91.44 18.65355,-34.07442,91.44 18.65484,-34.07442,91.44 18.65658,-34.07437,91.44 18.66095,-34.07437,91.44 18.66228,-34.07442,91.44 18.66371,-34.07447,91.44 18.66527,-34.07455,91.44 18.66697,-34.07465,91.44 18.66823,-34.07475,91.44 18.66986,-34.07483,91.44 18.67121,-34.07492,91.44 18.67264,-34.07503,91.44 18.6739,-34.07515,91.44 18.67552,-34.07524,91.44 18.67698,-34.07533,91.44 18.67836,-34.07545,91.44 18.68303,-34.07579,91.44 18.68427,-34.07579,91.44 18.68595,-34.07579,91.44 18.68711,-34.07573,91.44 18.68837,-34.07554,91.44 18.68982,-34.07529,91.44 18.69106,-34.07494,91.44 18.69212,-34.07465,152.4 18.69301,-34.07433,182.88 18.69397,-34.07396,213.36 18.69453,-34.07368,213.36 18.69547,-34.07331,243.84 18.69626,-34.07291,243.84 18.69716,-34.07249,243.84 18.69816,-34.07205,274.32 18.69923,-34.07158,274.32 18.7001,-34.07116,274.32 18.70103,-34.07071,274.32 18.70193,-34.07028,304.8 18.7031,-34.0697,304.8 18.70422,-34.06921,304.8 18.7052,-34.0687,304.8 18.70619,-34.06824,304.8 18.70737,-34.06772,304.8 18.70865,-34.06709,304.8 18.70966,-34.06664,304.8 18.71075,-34.06614,304.8 18.71544,-34.06398,335.28000000000003 18.71902,-34.06229,335.28000000000003 18.72306,-34.06046,304.8 18.72412,-34.05991,304.8 18.72552,-34.05922,304.8 18.72643,-34.05873,304.8 18.72782,-34.05794,304.8 18.72917,-34.05711,304.8 18.73026,-34.0565,304.8 18.73163,-34.05566,304.8 18.73275,-34.05501,304.8 18.73393,-34.05432,304.8 18.73541,-34.05347,304.8 18.73662,-34.05281,304.8 18.7378,-34.05208,304.8 18.73915,-34.0513,304.8 18.7405,-34.05054,335.28000000000003 18.74159,-34.04984,335.28000000000003 18.74296,-34.04901,335.28000000000003 18.74411,-34.04831,335.28000000000003 18.74553,-34.04741,335.28000000000003 18.74645,-34.04691,335.28000000000003 18.74777,-34.04607,304.8 18.75177,-34.04374,304.8 18.75293,-34.04315,304.8 18.75422,-34.04242,304.8 18.75538,-34.04184,304.8 18.75698,-34.041,304.8 18.75818,-34.04035,304.8 18.75932,-34.03976,304.8 18.76076,-34.03904,304.8 18.76225,-34.0383,304.8 18.76345,-34.03774,304.8 18.76499,-34.03699,304.8 18.76611,-34.03647,304.8 18.76757,-34.03583,304.8 18.76917,-34.03513,304.8 18.77042,-34.03464,304.8 18.7716,-34.03413,335.28000000000003 18.77312,-34.03355,335.28000000000003 18.77446,-34.03308,335.28000000000003 18.77597,-34.03262,335.28000000000003 18.77729,-34.03229,335.28000000000003 18.77894,-34.03189,335.28000000000003 18.78021,-34.03159,335.28000000000003 18.78186,-34.03125,335.28000000000003 18.7832,-34.03093,335.28000000000003 18.7846,-34.03061,335.28000000000003 18.78595,-34.03024,335.28000000000003 18.78735,-34.02992,335.28000000000003 18.78892,-34.02951,365.76 18.7904,-34.02913,365.76 18.792,-34.02864,365.76 18.79312,-34.02827,365.76 18.79475,-34.02777,365.76 18.79604,-34.02736,365.76 18.79721,-34.02699,365.76 18.79873,-34.02649,365.76 18.80019,-34.02603,365.76 18.8012,-34.02571,365.76 18.80316,-34.02502,396.24 18.80436,-34.02466,396.24 18.80568,-34.02419,365.76 18.80719,-34.0237,365.76 18.80848,-34.02324,365.76 18.81014,-34.0227,396.24 18.81174,-34.02219,396.24 18.813,-34.02177,396.24 18.81592,-34.02079,365.76 18.81751,-34.02031,365.76 18.81908,-34.01976,365.76 18.82031,-34.0193,365.76 18.82147,-34.01884,365.76 18.823,-34.0182,365.76 18.8244,-34.01756,365.76 18.82565,-34.01693,365.76 18.82673,-34.01637,365.76 18.82816,-34.01564,396.24 18.82931,-34.01498,396.24 18.83051,-34.01422,396.24 18.83154,-34.01348,396.24 18.83291,-34.01255,396.24 18.83389,-34.01186,396.24 18.83497,-34.01116,396.24 18.83635,-34.01023,396.24 18.83735,-34.00946,396.24 18.83858,-34.0085,396.24 18.83932,-34.0079,426.72 18.84047,-34.00687,426.72 18.84144,-34.0059,426.72 18.84224,-34.00506,426.72 18.84307,-34.00415,426.72 18.84396,-34.00301,426.72 18.84469,-34.00204,426.72 18.84531,-34.00113,457.20000000000005 18.84602,-34.00013,457.20000000000005 18.84677,-33.99902,457.20000000000005 18.8475,-33.99784,457.20000000000005 18.84813,-33.99687,457.20000000000005 18.84873,-33.99591,457.20000000000005 18.84957,-33.99454,487.68 18.85002,-33.9937,487.68 18.8508,-33.99229,487.68 18.85153,-33.9911,487.68 18.85214,-33.99002,487.68 18.85299,-33.98854,487.68 18.85355,-33.98758,518.1600000000001 18.85414,-33.98653,518.1600000000001 18.85477,-33.98537,518.1600000000001 18.85669,-33.98186,548.64 18.85904,-33.97751,548.64 18.86083,-33.97417,579.12 18.86141,-33.97313,579.12 18.86198,-33.97215,579.12 18.86272,-33.97084,609.6 18.86325,-33.96991,609.6 18.86381,-33.9689,609.6 18.86442,-33.9679,609.6 18.86515,-33.96652,609.6 18.86581,-33.96544,609.6 18.86644,-33.96437,609.6 18.86713,-33.9633,609.6 18.86782,-33.96218,609.6 18.86852,-33.96112,640.08 18.86924,-33.96002,609.6 18.86993,-33.95893,609.6 18.87199,-33.9559,609.6 18.873,-33.95448,640.08 18.87383,-33.95334,640.08 18.87457,-33.95229,640.08 18.87537,-33.95124,609.6 18.87623,-33.95013,609.6 18.87715,-33.94894,640.08 18.87821,-33.94762,640.08 18.87894,-33.94666,640.08 18.87972,-33.94574,640.08 18.88046,-33.94487,640.08 18.88132,-33.94389,640.08 18.88241,-33.94268,640.08 18.88314,-33.94189,640.08 18.88399,-33.94102,640.08 18.88504,-33.93993,640.08 18.88611,-33.93887,640.08 18.88718,-33.93782,640.08 18.88813,-33.93695,640.08 18.88909,-33.93613,640.08 18.88993,-33.93539,640.08 18.89094,-33.93452,640.08 18.89196,-33.93365,640.08 18.89305,-33.93286,640.08 18.89441,-33.93192,640.08 18.89557,-33.93113,640.08 18.89666,-33.93044,670.5600000000001 18.89814,-33.92955,640.08 18.89923,-33.92889,640.08 18.90043,-33.92825,640.08 18.90192,-33.92751,640.08 18.90295,-33.92694,640.08 18.90422,-33.92633,640.08 18.90558,-33.92569,640.08 18.90719,-33.92496,640.08 18.90848,-33.92436,640.08 18.90971,-33.92386,640.08 18.91095,-33.92331,640.08 18.91256,-33.92266,640.08 18.91382,-33.92215,640.08 18.91554,-33.92148,640.08 18.91683,-33.92102,640.08 18.91857,-33.92038,640.08 18.91997,-33.91983,640.08 18.92126,-33.91937,640.08 18.92286,-33.9188,640.08 18.92435,-33.91833,640.08 18.92567,-33.91787,640.08 18.92738,-33.91731,640.08 18.92887,-33.91684,640.08 18.93056,-33.91631,640.08 18.93196,-33.91587,640.08 18.9332,-33.91548,640.08 18.93477,-33.91498,640.08 18.93634,-33.91447,640.08 18.93791,-33.91391,640.08 18.93957,-33.91335,640.08 18.94094,-33.91284,640.08 18.94217,-33.91237,640.08 18.94385,-33.91168,640.08 18.94508,-33.91113,640.08 18.94627,-33.91056,640.08 18.94747,-33.90995,640.08 18.94917,-33.90894,640.08 18.9501,-33.90828,640.08 18.95142,-33.90724,640.08 18.95233,-33.90641,640.08 18.95304,-33.90573,640.08 18.95416,-33.90455,640.08 18.95517,-33.90344,640.08 18.95605,-33.90241,640.08 18.95697,-33.9012,640.08 18.95775,-33.90015,670.5600000000001 18.95828,-33.89929,670.5600000000001 18.96207,-33.87003,640.08 18.96309,-33.86396,609.6 18.96391,-33.85863,548.64 18.96481,-33.85279,518.1600000000001 18.96509,-33.85009,487.68 18.96526,-33.84755,457.20000000000005 18.96543,-33.84599,426.72 18.96576,-33.84283,396.24 18.96624,-33.83812,365.76 18.96624,-33.83561,365.76 18.96589,-33.83328,365.76 18.96509,-33.83098,365.76 18.96423,-33.8297,365.76 18.96263,-33.82788,335.28000000000003 18.96235,-33.82494,335.28000000000003 18.96406,-33.8243,304.8 18.96515,-33.82484,304.8 18.96572,-33.82597,304.8 18.96571,-33.82796,274.32 18.96571,-33.8291,274.32 18.96601,-33.83081,243.84 18.96727,-33.83249,213.36 18.96582,-33.82983,274.32 18.96463,-33.82816,304.8 18.96326,-33.82635,335.28000000000003 18.96173,-33.82484,365.76 18.95977,-33.8231,365.76 18.95845,-33.82211,396.24 18.95737,-33.82132,396.24 18.95657,-33.82072,396.24 18.95545,-33.81995,426.72 18.95433,-33.81918,426.72 18.95313,-33.81839,426.72 18.95216,-33.81778,457.20000000000005 18.95102,-33.81704,457.20000000000005 18.95001,-33.81642,457.20000000000005 18.94901,-33.81578,457.20000000000005 18.94798,-33.81522,457.20000000000005 18.94699,-33.81464,457.20000000000005 18.9457,-33.81395,487.68 18.94469,-33.81345,457.20000000000005 18.94375,-33.81294,457.20000000000005 18.94262,-33.81239,457.20000000000005 18.9414,-33.81182,457.20000000000005 18.93991,-33.81121,457.20000000000005 18.93886,-33.81084,457.20000000000005 18.93757,-33.81038,457.20000000000005 18.93625,-33.81001,457.20000000000005 18.93488,-33.8096,457.20000000000005 18.93365,-33.80923,457.20000000000005 18.93259,-33.80889,457.20000000000005 18.93141,-33.80855,457.20000000000005 18.92996,-33.80814,457.20000000000005 18.92876,-33.80777,457.20000000000005 18.92761,-33.80745,457.20000000000005 18.9263,-33.80712,457.20000000000005 18.92513,-33.80681,457.20000000000005 18.92389,-33.80656,457.20000000000005 18.92252,-33.80624,457.20000000000005 18.92149,-33.806,457.20000000000005 18.91989,-33.80568,457.20000000000005 18.91897,-33.80549,457.20000000000005 18.91748,-33.80516,457.20000000000005 18.91594,-33.80484,457.20000000000005 18.91468,-33.80461,457.20000000000005 18.91331,-33.80437,457.20000000000005 18.91211,-33.80414,457.20000000000005 18.91062,-33.80386,457.20000000000005 18.90902,-33.80363,487.68 18.90804,-33.80344,487.68 18.90661,-33.8033,457.20000000000005 18.90512,-33.8031,457.20000000000005 18.90366,-33.80292,457.20000000000005 18.90226,-33.80279,457.20000000000005 18.901,-33.80265,457.20000000000005 18.89935,-33.80251,457.20000000000005 18.89814,-33.80242,457.20000000000005 18.89665,-33.80232,457.20000000000005 18.89508,-33.80223,457.20000000000005 18.89385,-33.80219,457.20000000000005 18.89262,-33.80214,426.72 18.89139,-33.80209,426.72 18.89025,-33.80209,457.20000000000005 18.88881,-33.80214,457.20000000000005 18.88752,-33.80214,457.20000000000005 18.88634,-33.80219,457.20000000000005 18.88498,-33.80223,457.20000000000005 18.88348,-33.80228,457.20000000000005 18.88214,-33.80241,457.20000000000005 18.88109,-33.80256,457.20000000000005 18.87933,-33.80287,457.20000000000005 18.87829,-33.80302,457.20000000000005 18.87647,-33.80328,457.20000000000005 18.87552,-33.80342,457.20000000000005 18.87417,-33.80363,457.20000000000005 18.87305,-33.80383,426.72 18.87188,-33.80405,426.72 18.87056,-33.80433,426.72 18.86902,-33.80461,426.72 18.86782,-33.80489,426.72 18.86673,-33.80516,426.72 18.86524,-33.80549,426.72 18.8641,-33.80582,426.72 18.86296,-33.80612,426.72 18.8619,-33.8064,457.20000000000005 18.86083,-33.80667,426.72 18.85943,-33.80699,426.72 18.85826,-33.80731,426.72 18.85672,-33.80777,426.72 18.8558,-33.808,426.72 18.85444,-33.80836,426.72 18.85344,-33.80869,426.72 18.85231,-33.80898,426.72 18.84901,-33.80992,426.72 18.84419,-33.8112,426.72 18.84064,-33.8121,426.72 18.8374,-33.81299,457.20000000000005 18.83274,-33.81415,457.20000000000005 18.82811,-33.81522,457.20000000000005 18.82433,-33.8162,457.20000000000005 18.81908,-33.81761,457.20000000000005 18.81493,-33.81866,457.20000000000005 18.81134,-33.81955,457.20000000000005 18.80756,-33.82048,457.20000000000005 18.80293,-33.8216,426.72 18.7991,-33.82257,457.20000000000005 18.79549,-33.82346,426.72 18.79038,-33.82452,426.72 18.78903,-33.8248,426.72 18.78763,-33.82507,426.72 18.78662,-33.82528,426.72 18.78522,-33.82553,426.72 18.78371,-33.82585,426.72 18.78236,-33.82613,426.72 18.78107,-33.82639,426.72 18.77989,-33.82668,426.72 18.77877,-33.827,426.72 18.77735,-33.82737,426.72 18.77604,-33.82779,426.72 18.77496,-33.82809,426.72 18.77384,-33.82841,426.72 18.77272,-33.82877,426.72 18.7714,-33.82914,426.72 18.77025,-33.82951,426.72 18.76923,-33.82984,426.72 18.7679,-33.83025,457.20000000000005 18.76683,-33.83057,457.20000000000005 18.76577,-33.83093,457.20000000000005 18.76448,-33.8313,457.20000000000005 18.76314,-33.83167,457.20000000000005 18.76207,-33.83198,457.20000000000005 18.75837,-33.83304,426.72 18.75692,-33.83352,426.72 18.75316,-33.83469,426.72 18.75215,-33.83501,457.20000000000005 18.75074,-33.83547,457.20000000000005 18.74834,-33.83629,457.20000000000005 18.74725,-33.83664,457.20000000000005 18.74391,-33.83784,426.72 18.74033,-33.83924,426.72 18.73926,-33.83972,426.72 18.73804,-33.84031,426.72 18.73696,-33.84087,426.72 18.73592,-33.84138,426.72 18.73505,-33.84201,426.72 18.73427,-33.84265,426.72 18.73365,-33.84334,426.72 18.73301,-33.84431,426.72 18.7327,-33.84521,426.72 18.73253,-33.84604,426.72 18.73255,-33.84702,426.72 18.7327,-33.84796,426.72 18.73306,-33.84906,426.72 18.73343,-33.84984,426.72 18.73393,-33.85066,426.72 18.73444,-33.85144,426.72 18.73507,-33.85241,426.72 18.73569,-33.85349,426.72 18.7361,-33.85428,426.72 18.7365,-33.85516,426.72 18.73679,-33.85593,426.72 18.73707,-33.85679,426.72 18.73746,-33.85776,426.72 18.73816,-33.85856,426.72 18.73913,-33.85921,426.72 18.74004,-33.85945,457.20000000000005 18.74107,-33.8594,457.20000000000005 18.74195,-33.85909,457.20000000000005 18.74302,-33.85828,457.20000000000005 18.74348,-33.85749,426.72 18.74374,-33.85657,426.72 18.74376,-33.85567,426.72 18.74368,-33.85474,426.72 18.74331,-33.85349,426.72 18.74296,-33.8526,426.72 18.74256,-33.85172,426.72 18.74206,-33.8508,426.72 18.74161,-33.85002,426.72 18.74107,-33.8492,426.72 18.74056,-33.84846,426.72 18.74004,-33.84776,426.72 18.73943,-33.84709,426.72 18.73867,-33.84627,426.72 18.73804,-33.84562,426.72 18.7373,-33.84492,426.72 18.73651,-33.84412,426.72 18.73567,-33.84329,426.72 18.73494,-33.84265,426.72 18.73392,-33.84189,426.72 18.73318,-33.84148,426.72 18.73197,-33.84105,426.72 18.73091,-33.84091,426.72 18.73001,-33.841,426.72 18.729,-33.84138,426.72 18.72837,-33.8418,426.72 18.72774,-33.84236,426.72 18.72721,-33.84325,426.72 18.72704,-33.84407,426.72 18.727,-33.84511,426.72 18.72717,-33.84594,426.72 18.72751,-33.84674,426.72 18.72814,-33.84762,426.72 18.72894,-33.84833,426.72 18.72997,-33.84888,426.72 18.73091,-33.8492,426.72 18.73169,-33.8493,426.72 18.73295,-33.8493,426.72 18.73392,-33.84911,426.72 18.73477,-33.84874,426.72 18.73573,-33.84805,426.72 18.73627,-33.8472,426.72 18.73651,-33.84645,426.72 18.73661,-33.84562,426.72 18.73651,-33.84462,426.72 18.73632,-33.84394,396.24 18.73589,-33.84297,396.24 18.73547,-33.84222,396.24 18.73483,-33.84137,396.24 18.73426,-33.84059,396.24 18.73352,-33.83975,396.24 18.73281,-33.83904,396.24 18.73203,-33.83839,396.24 18.7313,-33.83794,396.24 18.73043,-33.83757,396.24 18.72939,-33.83743,396.24 18.72826,-33.83752,396.24 18.72749,-33.8378,396.24 18.7267,-33.8383,396.24 18.72603,-33.83913,396.24 18.72564,-33.84009,396.24 18.72557,-33.84087,396.24 18.72569,-33.84174,396.24 18.72603,-33.84274,396.24 18.72653,-33.84357,396.24 18.72715,-33.8443,426.72 18.72791,-33.84483,426.72 18.729,-33.8454,426.72 18.73001,-33.84563,426.72 18.731,-33.84571,426.72 18.73203,-33.84558,426.72 18.73343,-33.84512,426.72 18.7341,-33.84471,426.72 18.73488,-33.84407,426.72 18.7355,-33.84325,426.72 18.73598,-33.84222,426.72 18.73617,-33.84137,396.24 18.73621,-33.84059,396.24 18.7361,-33.83971,396.24 18.73578,-33.83867,396.24 18.73535,-33.83798,396.24 18.73461,-33.83724,426.72 18.73392,-33.83677,426.72 18.73306,-33.8364,426.72 18.73208,-33.83624,426.72 18.73107,-33.83624,426.72 18.72992,-33.83645,426.72 18.72894,-33.83687,396.24 18.72791,-33.83752,396.24 18.72704,-33.83821,396.24 18.72653,-33.83876,396.24 18.72585,-33.83957,365.76 18.72511,-33.84055,396.24 18.7244,-33.84146,365.76 18.72356,-33.84247,365.76 18.72276,-33.84343,365.76 18.72179,-33.84446,365.76 18.72076,-33.84552,365.76 18.72013,-33.84627,365.76 18.71919,-33.84727,335.28000000000003 18.71853,-33.84799,335.28000000000003 18.71756,-33.84897,335.28000000000003 18.71678,-33.84988,335.28000000000003 18.71578,-33.85093,335.28000000000003 18.71469,-33.85204,335.28000000000003 18.71389,-33.85293,335.28000000000003 18.71309,-33.85376,335.28000000000003 18.71218,-33.85474,335.28000000000003 18.71132,-33.85567,335.28000000000003 18.71056,-33.85643,335.28000000000003 18.70977,-33.8573,335.28000000000003 18.70892,-33.85828,335.28000000000003 18.70829,-33.85893,304.8 18.70731,-33.86,335.28000000000003 18.70657,-33.86079,304.8 18.70417,-33.86343,304.8 18.70256,-33.86536,304.8 18.70193,-33.8662,304.8 18.70113,-33.8675,304.8 18.70064,-33.86829,304.8 18.70008,-33.86938,335.28000000000003 18.69957,-33.87044,304.8 18.69907,-33.87149,335.28000000000003 18.69862,-33.87248,304.8 18.6981,-33.87355,304.8 18.69761,-33.8746,304.8 18.69716,-33.87556,304.8 18.69667,-33.87648,304.8 18.69615,-33.87749,304.8 18.69558,-33.87872,304.8 18.69513,-33.8797,304.8 18.69453,-33.88092,304.8 18.69402,-33.88197,304.8 18.69352,-33.88307,304.8 18.69307,-33.88412,304.8 18.69255,-33.88519,304.8 18.69206,-33.88628,304.8 18.6915,-33.88737,304.8 18.69105,-33.88834,304.8 18.69055,-33.88948,304.8 18.68998,-33.89068,304.8 18.68946,-33.8917,304.8 18.68895,-33.89259,304.8 18.68826,-33.89371,304.8 18.68769,-33.89456,304.8 18.687,-33.89548,304.8 18.68623,-33.89648,304.8 18.6854,-33.89743,304.8 18.68471,-33.89827,304.8 18.68388,-33.89919,304.8 18.68322,-33.89985,304.8 18.68242,-33.90074,304.8 18.68139,-33.90171,304.8 18.68059,-33.90246,304.8 18.67967,-33.90335,304.8 18.67894,-33.90399,304.8 18.67807,-33.90469,304.8 18.67704,-33.90555,304.8 18.67608,-33.90628,304.8 18.67519,-33.90692,304.8 18.67435,-33.90749,304.8 18.67338,-33.90818,304.8 18.67244,-33.90884,304.8 18.67126,-33.90963,304.8 18.67029,-33.91023,304.8 18.66926,-33.91093,304.8 18.66824,-33.91164,304.8 18.66737,-33.91219,304.8 18.66634,-33.91289,304.8 18.66531,-33.91359,304.8 18.66446,-33.91419,304.8 18.66336,-33.91493,304.8 18.6623,-33.91566,304.8 18.66119,-33.91642,304.8 18.66028,-33.91703,304.8 18.65944,-33.91754,304.8 18.65839,-33.91824,304.8 18.65759,-33.91882,304.8 18.65639,-33.91959,304.8 18.65535,-33.92033,304.8 18.65445,-33.92097,304.8 18.6533,-33.92173,304.8 18.65243,-33.9223,304.8 18.65142,-33.92294,304.8 18.65019,-33.92372,304.8 18.64935,-33.92422,304.8 18.64823,-33.92477,304.8 18.64716,-33.92519,304.8 18.64569,-33.92569,304.8 18.6446,-33.92597,304.8 18.64351,-33.92625,304.8 18.64206,-33.92651,304.8 18.64116,-33.9267,304.8 18.63982,-33.92697,304.8 18.63871,-33.92718,304.8 18.6373,-33.92743,304.8 18.63629,-33.92761,304.8 18.63494,-33.92784,304.8 18.63361,-33.92806,304.8 18.63224,-33.9283,304.8 18.6311,-33.92848,304.8 18.62962,-33.92876,304.8 18.62844,-33.92894,304.8 18.62703,-33.92918,304.8 18.6244,-33.92965,304.8 18.62326,-33.92988,304.8 18.62171,-33.93013,304.8 18.62051,-33.93034,304.8 18.61919,-33.93058,304.8 18.61782,-33.93085,304.8 18.6165,-33.93109,304.8 18.61525,-33.93127,304.8 18.61364,-33.93155,304.8 18.61238,-33.93179,304.8 18.6109,-33.93206,304.8 18.60978,-33.93228,304.8 18.60855,-33.93248,304.8 18.60686,-33.93279,304.8 18.60306,-33.93351,304.8 18.59762,-33.93449,304.8 18.59408,-33.93507,304.8 18.59251,-33.93535,304.8 18.58892,-33.93599,304.8 18.58769,-33.93622,304.8 18.58641,-33.93644,304.8 18.58489,-33.93672,304.8 18.58377,-33.9369,304.8 18.58253,-33.93713,304.8 18.58136,-33.93732,304.8 18.57988,-33.93761,304.8 18.57868,-33.93784,304.8 18.57748,-33.93807,304.8 18.57616,-33.9383,304.8 18.57497,-33.93851,304.8 18.57362,-33.93869,304.8 18.57211,-33.93892,304.8 18.57096,-33.93914,304.8 18.56947,-33.93937,304.8 18.5681,-33.93956,304.8 18.56678,-33.93979,304.8 18.56555,-33.93997,304.8 18.5642,-33.9402,304.8 18.559,-33.94101,304.8 18.55467,-33.94171,304.8 18.55042,-33.9424,304.8 18.54537,-33.94322,304.8 18.54012,-33.94417,304.8 18.53534,-33.94496,304.8 18.53148,-33.94556,304.8 18.52603,-33.94638,304.8 18.52452,-33.94647,304.8 18.52351,-33.94652,304.8 18.52221,-33.94645,304.8 18.52088,-33.94629,304.8 18.51931,-33.94601,304.8 18.51797,-33.94566,304.8 18.51648,-33.94519,304.8 18.51561,-33.94487,304.8 18.51437,-33.94437,304.8 18.5132,-33.94382,304.8 18.51208,-33.94331,304.8 18.51065,-33.94254,304.8 18.50955,-33.94194,304.8 18.50832,-33.94125,304.8 18.50731,-33.9407,304.8 18.50624,-33.94007,304.8 18.50504,-33.93937,304.8 18.50389,-33.93869,304.8 18.50294,-33.9381,304.8 18.50229,-33.9377,304.8 18.50092,-33.93677,304.8 18.49991,-33.93617,304.8 18.49873,-33.93539,304.8 18.49777,-33.93476,304.8 18.49686,-33.93416,304.8 18.49583,-33.93346,304.8 18.49468,-33.93272,304.8 18.49369,-33.9321,304.8 18.49268,-33.93141,304.8 18.49178,-33.93082,304.8 18.48881,-33.92885,304.8 18.48567,-33.92665,304.8 18.48253,-33.92441,304.8 18.4786,-33.92145,304.8 18.47683,-33.9201,304.8 18.47306,-33.91713,304.8 18.47015,-33.91489,304.8 18.46723,-33.91264,304.8 18.46331,-33.90967,304.8 18.46039,-33.90738,304.8 18.4577,-33.90523,274.32 18.45384,-33.90234,243.84 18.45277,-33.90161,243.84 18.45217,-33.9012,243.84 18.45103,-33.90056,243.84 18.44997,-33.90001,213.36 18.44907,-33.89955,213.36 18.4481,-33.89915,213.36 18.447,-33.89882,182.88 18.44604,-33.89854,182.88 18.44487,-33.89832,182.88 18.44375,-33.89813,152.4 18.44255,-33.89808,152.4 18.4417,-33.89813,152.4 18.44066,-33.89827,121.92 18.43958,-33.8985,121.92 18.4387,-33.89873,121.92 18.43809,-33.89887,121.92 18.43708,-33.89905,121.92 18.43609,-33.8992,91.44 18.43534,-33.89932,91.44 18.43461,-33.89946,91.44 18.43382,-33.89955,91.44 18.43317,-33.89962,91.44 18.43237,-33.89973,91.44 18.43119,-33.89987,60.96 18.4308,-33.89987,60.96 18.42905,-33.90022,60.96 18.42878,-33.90033,60.96 18.42796,-33.9006,30.48 18.42772,-33.9007,0 18.42752,-33.90075,0 18.42756,-33.90032,60.96 18.42751,-33.89915,60.96 18.4276,-33.89864,91.44 18.42788,-33.89799,91.44 18.42825,-33.89738,91.44 18.42872,-33.8968,91.44 18.42928,-33.89608,91.44 18.42979,-33.89548,121.92 18.43041,-33.8947,121.92 18.43102,-33.89397,121.92 18.43158,-33.89333,152.4 18.43214,-33.89268,152.4 18.43271,-33.89203,152.4 18.43355,-33.89099,182.88 18.43405,-33.8903,182.88 18.43467,-33.88943,182.88 18.43517,-33.8887,182.88 18.43573,-33.88779,213.36 18.43618,-33.88701,213.36 18.43652,-33.88618,213.36 18.43685,-33.88518,213.36 18.43706,-33.8843,243.84 18.43713,-33.88344,243.84 18.43708,-33.88266,243.84 18.43696,-33.88193,243.84 18.43674,-33.8811,274.32 18.43624,-33.87991,274.32 18.43573,-33.87904,274.32 18.43512,-33.8783,304.8 18.43466,-33.87783,304.8 18.43382,-33.87717,304.8 18.43317,-33.87676,335.28000000000003 18.43231,-33.87634,335.28000000000003 18.4314,-33.87602,335.28000000000003 18.43042,-33.87579,365.76 18.42957,-33.87561,365.76 18.42876,-33.87546,365.76 18.42802,-33.87537,396.24 18.42693,-33.87523,396.24 18.42609,-33.87511,396.24 18.42508,-33.87502,426.72 18.42447,-33.87497,426.72 18.4231,-33.8749,426.72 18.42183,-33.87488,457.20000000000005 18.42098,-33.8749,457.20000000000005 18.41998,-33.87492,487.68 18.41909,-33.87499,487.68 18.41841,-33.87502,487.68 18.41732,-33.87509,487.68 18.41651,-33.87515,518.1600000000001 18.4155,-33.8752,518.1600000000001 18.41446,-33.87527,518.1600000000001 18.4136,-33.87532,548.64 18.41269,-33.87538,548.64 18.4116,-33.87546,548.64 18.41074,-33.87555,548.64 18.40989,-33.8757,579.12 18.40871,-33.87584,579.12 18.40759,-33.87606,579.12 18.4067,-33.87621,579.12 18.40576,-33.87639,579.12 18.40485,-33.87657,579.12 18.40372,-33.8768,609.6 18.40273,-33.87695,609.6 18.40176,-33.87717,609.6 18.40098,-33.8773,609.6 18.3997,-33.87755,609.6 18.39872,-33.87778,609.6 18.39781,-33.87802,640.08 18.39684,-33.87825,640.08 18.39586,-33.87853,640.08 18.3952,-33.87872,640.08 18.3938,-33.87918,640.08 18.3926,-33.8796,640.08 18.39167,-33.87996,640.08 18.39043,-33.88049,670.5600000000001 18.38963,-33.88081,670.5600000000001 18.38877,-33.88123,670.5600000000001 18.38764,-33.88179,670.5600000000001 18.38682,-33.88221,670.5600000000001 18.38601,-33.88266,670.5600000000001 18.38511,-33.88314,701.0400000000001 18.38385,-33.88384,701.0400000000001 18.38316,-33.88421,701.0400000000001 18.38213,-33.88482,701.0400000000001 18.38116,-33.88542,701.0400000000001 18.38029,-33.88596,701.0400000000001 18.37921,-33.88672,701.0400000000001 18.37858,-33.88719,701.0400000000001 18.37755,-33.88794,701.0400000000001 18.37654,-33.88866,701.0400000000001 18.3757,-33.88925,701.0400000000001 18.37475,-33.88998,701.0400000000001 18.37372,-33.89077,701.0400000000001 18.37292,-33.89143,701.0400000000001 18.37217,-33.89203,731.52 18.37144,-33.89268,731.52 18.37051,-33.89352,731.52 18.36983,-33.89422,731.52 18.36885,-33.89515,731.52 18.36819,-33.89584,731.52 18.36742,-33.89664,731.52 18.36657,-33.89753,701.0400000000001 18.36589,-33.89822,701.0400000000001 18.36491,-33.89915,701.0400000000001 18.36426,-33.89987,701.0400000000001 18.36337,-33.90088,701.0400000000001 18.36247,-33.90193,701.0400000000001 18.36174,-33.9028,701.0400000000001 18.36101,-33.90363,701.0400000000001 18.36004,-33.90479,701.0400000000001 18.35936,-33.90567,701.0400000000001 18.35867,-33.90651,670.5600000000001 18.35804,-33.90729,670.5600000000001 18.35743,-33.9082,670.5600000000001 18.35661,-33.9093,701.0400000000001 18.35604,-33.91014,701.0400000000001 18.35546,-33.91104,701.0400000000001 18.3549,-33.91196,701.0400000000001 18.35445,-33.91283,701.0400000000001 18.35392,-33.91372,701.0400000000001 18.35346,-33.91461,701.0400000000001 18.35295,-33.91558,701.0400000000001 18.35255,-33.91644,701.0400000000001 18.35197,-33.91763,731.52 18.35154,-33.91859,731.52 18.35117,-33.91945,731.52 18.35083,-33.92033,731.52 18.35037,-33.92145,731.52 18.34997,-33.92262,731.52 18.34963,-33.9235,731.52 18.34923,-33.92457,731.52 18.34891,-33.92564,731.52 18.34857,-33.92656,731.52 18.34826,-33.9276,731.52 18.34797,-33.92867,731.52 18.34773,-33.92953,731.52 18.34745,-33.93076,731.52 18.34717,-33.93179,731.52 18.34694,-33.93281,731.52 18.34672,-33.93379,731.52 18.34637,-33.935,731.52 18.34616,-33.93599,731.52 18.34597,-33.93672,762 18.34557,-33.93807,762 18.34522,-33.93937,762 18.34494,-33.9404,762 18.34471,-33.94128,762 18.34436,-33.94254,762 18.34414,-33.94357,762 18.34379,-33.94492,762 18.34341,-33.94615,731.52 18.34293,-33.94771,731.52 18.34263,-33.94885,731.52 18.34229,-33.94995,762 18.34202,-33.95097,762 18.34173,-33.95222,762 18.34145,-33.95329,762 18.34111,-33.95444,762 18.34089,-33.95531,762 18.33836,-33.96484,762 18.33691,-33.97005,762 18.3354,-33.97581,731.52 18.33389,-33.98206,731.52 18.42755,-33.90074,30.48 18.42755,-33.90048,0 18.42738,-33.89978,60.96 18.42738,-33.89941,60.96 18.42749,-33.899,60.96 18.42773,-33.89846,91.44 18.42802,-33.89794,91.44 18.42836,-33.89748,91.44 18.42867,-33.89708,91.44 18.42928,-33.89627,91.44 18.42968,-33.89571,121.92 18.43014,-33.89501,121.92 18.43057,-33.89433,121.92 18.43111,-33.89361,152.4 18.43163,-33.89287,152.4 18.43203,-33.89222,152.4 18.43254,-33.89154,182.88 18.4331,-33.89063,182.88 18.4336,-33.88994,182.88 18.43422,-33.88907,213.36 18.43456,-33.88857,213.36 18.43517,-33.8876,213.36 18.43546,-33.88714,213.36 18.43609,-33.88612,243.84 18.43649,-33.88542,243.84 18.437,-33.88444,274.32 18.43735,-33.88361,274.32 18.43752,-33.883,274.32 18.43769,-33.88206,304.8 18.43775,-33.88128,304.8 18.43775,-33.88067,304.8 18.43769,-33.87993,335.28000000000003 18.43752,-33.87895,335.28000000000003 18.43735,-33.87825,365.76 18.43713,-33.87753,365.76 18.43678,-33.87681,365.76 18.43635,-33.87602,396.24 18.4359,-33.87547,396.24 18.43552,-33.87495,426.72 18.43489,-33.87428,426.72 18.43433,-33.87387,457.20000000000005 18.43369,-33.87341,457.20000000000005 18.43321,-33.87314,457.20000000000005 18.4322,-33.87267,487.68 18.43147,-33.87241,487.68 18.43041,-33.87213,518.1600000000001 18.42979,-33.87206,518.1600000000001 18.42899,-33.87192,548.64 18.42802,-33.87183,548.64 18.42733,-33.87178,579.12 18.42648,-33.87177,579.12 18.42562,-33.87173,609.6 18.42476,-33.87178,609.6 18.4239,-33.87186,609.6 18.42299,-33.87192,609.6 18.42213,-33.87197,640.08 18.42133,-33.87201,640.08 18.42026,-33.8719,640.08 18.41944,-33.87164,640.08 18.41864,-33.87108,640.08 18.41813,-33.87044,670.5600000000001 18.41778,-33.86954,670.5600000000001 18.41768,-33.86856,670.5600000000001 18.41796,-33.86765,670.5600000000001 18.41847,-33.86687,670.5600000000001 18.41925,-33.86609,640.08 18.42041,-33.8654,640.08 18.4215,-33.86508,670.5600000000001 18.42295,-33.86481,670.5600000000001 18.42413,-33.8648,670.5600000000001 18.42519,-33.8649,670.5600000000001 18.4263,-33.86512,670.5600000000001 18.42751,-33.86554,670.5600000000001 18.42856,-33.86613,670.5600000000001 18.42912,-33.86664,670.5600000000001 18.42973,-33.86746,670.5600000000001 18.42996,-33.86842,670.5600000000001 18.42996,-33.86911,670.5600000000001 18.42979,-33.86989,670.5600000000001 18.42939,-33.87062,670.5600000000001 18.42889,-33.87126,640.08 18.42808,-33.87201,640.08 18.42716,-33.87257,640.08 18.4263,-33.87299,640.08 18.42533,-33.87336,640.08 18.42413,-33.87369,640.08 18.42299,-33.87392,609.6 18.42173,-33.87415,609.6 18.42026,-33.87442,609.6 18.41914,-33.87456,609.6 18.41795,-33.87471,609.6 18.41663,-33.87485,609.6 18.41543,-33.87499,609.6 18.41394,-33.87513,609.6 18.41275,-33.87524,609.6 18.41166,-33.87532,609.6 18.41034,-33.87541,609.6 18.40922,-33.87552,609.6 18.4081,-33.87561,609.6 18.40696,-33.87574,609.6 18.40565,-33.87588,609.6 18.40451,-33.87598,609.6 18.4035,-33.87611,609.6 18.40215,-33.8763,609.6 18.40098,-33.87648,640.08 18.39993,-33.87672,640.08 18.3989,-33.87695,640.08 18.39778,-33.87721,640.08 18.39705,-33.87744,640.08 18.39581,-33.87783,640.08 18.3947,-33.87822,640.08 18.39369,-33.87858,640.08 18.39254,-33.879,670.5600000000001 18.3914,-33.87946,670.5600000000001 18.39043,-33.87988,670.5600000000001 18.38945,-33.88039,670.5600000000001 18.38837,-33.88095,670.5600000000001 18.38753,-33.88138,670.5600000000001 18.3864,-33.88202,670.5600000000001 18.3854,-33.88261,670.5600000000001 18.38442,-33.88319,670.5600000000001 18.38327,-33.88393,670.5600000000001 18.38248,-33.88454,670.5600000000001 18.38156,-33.88519,670.5600000000001 18.38064,-33.88589,670.5600000000001 18.37961,-33.88672,640.08 18.3787,-33.88747,640.08 18.37784,-33.88821,640.08 18.37688,-33.88902,640.08 18.37604,-33.88976,640.08 18.37503,-33.89072,640.08 18.37419,-33.89154,640.08 18.37323,-33.89246,640.08 18.37222,-33.89346,609.6 18.37149,-33.8942,640.08 18.37069,-33.89501,640.08 18.36976,-33.89594,640.08 18.36897,-33.8968,640.08 18.3683,-33.89749,640.08 18.36757,-33.89832,640.08 18.36674,-33.8992,670.5600000000001 18.36622,-33.89976,670.5600000000001 18.36548,-33.90064,670.5600000000001 18.36479,-33.90144,670.5600000000001 18.36398,-33.90234,670.5600000000001 18.36336,-33.90306,701.0400000000001 18.36267,-33.9039,701.0400000000001 18.3621,-33.9046,701.0400000000001 18.36135,-33.90555,701.0400000000001 18.36079,-33.90628,701.0400000000001 18.36,-33.90724,701.0400000000001 18.35941,-33.908,701.0400000000001 18.35883,-33.90889,701.0400000000001 18.35827,-33.90967,701.0400000000001 18.35764,-33.91047,701.0400000000001 18.35709,-33.91127,731.52 18.35649,-33.91214,731.52 18.35591,-33.91296,731.52 18.35529,-33.91382,731.52 18.3534,-33.91656,731.52 18.35104,-33.92006,731.52 18.34924,-33.92285,731.52 18.34879,-33.92358,731.52 18.34823,-33.92464,731.52 18.34767,-33.9256,731.52 18.34717,-33.92653,762 18.34654,-33.92755,762 18.34599,-33.92862,762 18.34551,-33.92955,762 18.34505,-33.93044,762 18.3447,-33.93137,762 18.34431,-33.93343,762 18.34442,-33.93452,792.48 18.34471,-33.93533,792.48 18.34534,-33.93626,822.96 18.3462,-33.93714,822.96 18.34705,-33.93765,822.96 18.34801,-33.938,822.96 18.34934,-33.9383,822.96 18.35032,-33.9383,853.44 18.35135,-33.93812,853.44 18.35238,-33.93768,853.44 18.35335,-33.93705,853.44 18.35401,-33.9364,853.44 18.35489,-33.9357,883.9200000000001 18.35575,-33.93514,883.9200000000001 18.35672,-33.93481,883.9200000000001 18.35804,-33.93463,883.9200000000001 18.35907,-33.93472,914.4000000000001 18.36017,-33.93517,914.4000000000001 18.3609,-33.9357,914.4000000000001 18.36142,-33.93639,914.4000000000001 18.36168,-33.93736,914.4000000000001 18.36163,-33.93828,914.4000000000001 18.36135,-33.93929,883.9200000000001 18.3609,-33.94021,883.9200000000001 18.3605,-33.94101,883.9200000000001 18.35999,-33.94184,883.9200000000001 18.35941,-33.94273,883.9200000000001 18.3589,-33.94352,853.44 18.35815,-33.94455,853.44 18.35748,-33.94556,853.44 18.35686,-33.94643,853.44 18.35625,-33.94734,853.44 18.35558,-33.94836,853.44 18.35501,-33.9492,853.44 18.35432,-33.95027,853.44 18.3539,-33.95096,883.9200000000001 18.35311,-33.95219,883.9200000000001 18.35249,-33.95306,883.9200000000001 18.3518,-33.95418,883.9200000000001 18.35126,-33.95494,883.9200000000001 18.35081,-33.95563,883.9200000000001 18.34808,-33.95958,883.9200000000001 18.34499,-33.96451,883.9200000000001 18.34208,-33.96945,883.9200000000001 18.33926,-33.9743,883.9200000000001 18.33807,-33.9768,883.9200000000001 18.39662,-34.11891,640.08 18.40095,-34.12154,609.6 18.40658,-34.12457,609.6 18.41071,-34.12686,609.6 18.41389,-34.12835,609.6 18.41539,-34.12901,609.6 18.41731,-34.1298,609.6 18.42319,-34.13274,609.6 18.42888,-34.1354,609.6 18.43314,-34.13727,609.6 18.43436,-34.13771,609.6 18.43569,-34.13834,609.6 18.43748,-34.13908,609.6 18.43902,-34.13968,609.6 18.44072,-34.14011,609.6 18.44213,-34.1402,609.6 18.44351,-34.14038,609.6 18.44517,-34.14065,609.6 18.44678,-34.14112,609.6 18.44826,-34.14146,609.6 18.44995,-34.14175,609.6 18.45166,-34.14213,609.6 18.45313,-34.1423,609.6 18.45467,-34.14246,609.6 18.45634,-34.14268,609.6 18.45794,-34.14268,609.6 18.45964,-34.14255,609.6 18.46112,-34.1423,609.6 18.4628,-34.14185,609.6 18.46407,-34.14126,579.12 18.46526,-34.14062,579.12 18.4667,-34.13966,579.12 18.46775,-34.13873,579.12 18.46898,-34.13766,579.12 18.46993,-34.13672,579.12 18.4708,-34.1356,579.12 18.47187,-34.13424,548.64 18.47265,-34.13321,548.64 18.47354,-34.13207,548.64 18.47437,-34.13092,548.64 18.47506,-34.12934,548.64 18.4754,-34.12843,548.64 18.47598,-34.12706,548.64 18.47639,-34.12609,548.64 18.47682,-34.12502,548.64 18.47727,-34.1238,548.64 18.47762,-34.12271,548.64 18.47794,-34.1215,548.64 18.47839,-34.12043,548.64 18.47874,-34.11938,548.64 18.47889,-34.11819,579.12 18.47916,-34.11689,579.12 18.47945,-34.11589,548.64 18.47969,-34.11485,579.12 18.47982,-34.1135,548.64 18.47993,-34.11241,579.12 18.48021,-34.11116,548.64 18.48038,-34.10985,579.12 18.48055,-34.10855,579.12 18.48069,-34.10767,579.12 18.48072,-34.10638,579.12 18.48084,-34.10529,579.12 18.48103,-34.10426,579.12 18.48086,-34.1032,579.12 18.48085,-34.10195,579.12 18.48093,-34.10069,579.12 18.48113,-34.09958,579.12 18.48078,-34.09882,579.12 18.48042,-34.09769,579.12 18.48042,-34.0966,579.12 18.48039,-34.09529,579.12 18.48078,-34.09145,579.12 18.48123,-34.08676,579.12 18.48154,-34.08306,548.64 18.48135,-34.08183,548.64 18.48116,-34.08067,579.12 18.48104,-34.07967,548.64 18.48086,-34.07854,548.64 18.48055,-34.07738,548.64 18.48033,-34.07622,548.64 18.47999,-34.07485,548.64 18.47991,-34.07375,548.64 18.47964,-34.07271,548.64 18.47886,-34.07191,548.64 18.47841,-34.07078,548.64 18.47813,-34.0696,548.64 18.4779,-34.06851,548.64 18.47807,-34.06713,548.64 18.47755,-34.0661,579.12 18.47719,-34.06498,579.12 18.47679,-34.06398,579.12 18.47607,-34.06258,579.12 18.47486,-34.06169,579.12 18.47449,-34.06076,579.12 18.47409,-34.05959,548.64 18.47266,-34.05663,548.64 18.47231,-34.05569,548.64 18.47175,-34.05456,579.12 18.47134,-34.05347,579.12 18.47112,-34.05234,548.64 18.47088,-34.05116,579.12 18.47074,-34.05015,579.12 18.47038,-34.04886,579.12 18.47002,-34.04807,548.64 18.46978,-34.04695,548.64 18.46945,-34.04579,548.64 18.46834,-34.04263,548.64 18.46711,-34.03825,548.64 18.46619,-34.0349,548.64 18.46502,-34.03306,548.64 18.46474,-34.03184,548.64 18.46449,-34.03059,579.12 18.46434,-34.02939,579.12 18.46421,-34.02816,579.12 18.46413,-34.02708,579.12 18.46386,-34.02595,579.12 18.46367,-34.02467,579.12 18.46336,-34.02372,579.12 18.46346,-34.0225,579.12 18.46342,-34.02128,579.12 18.46319,-34.02028,579.12 18.46277,-34.01895,548.64 18.46251,-34.01777,579.12 18.46224,-34.01669,579.12 18.46214,-34.01556,579.12 18.46199,-34.01446,579.12 18.46198,-34.01339,579.12 18.46185,-34.01221,579.12 18.46175,-34.01121,579.12 18.46173,-34.00986,579.12 18.46157,-34.00885,579.12 18.46161,-34.00773,548.64 18.46153,-34.00659,579.12 18.46123,-34.00542,548.64 18.46132,-34.00431,548.64 18.46172,-34.00319,548.64 18.46181,-34.00201,548.64 18.46208,-34.00081,548.64 18.46235,-33.9995,548.64 18.46261,-33.99843,548.64 18.46311,-33.99723,518.1600000000001 18.46412,-33.9962,518.1600000000001 18.46485,-33.99522,518.1600000000001 18.46584,-33.99385,518.1600000000001 18.46653,-33.9927,548.64 18.46772,-33.99134,518.1600000000001 18.46833,-33.99052,518.1600000000001 18.46924,-33.98939,518.1600000000001 18.47014,-33.98806,518.1600000000001 18.47101,-33.98631,487.68 18.47166,-33.98539,487.68 18.47245,-33.98416,487.68 18.4733,-33.98312,457.20000000000005 18.47382,-33.9822,457.20000000000005 18.47449,-33.98109,457.20000000000005 18.4746,-33.97966,457.20000000000005 18.47547,-33.9783,457.20000000000005 18.47596,-33.97725,457.20000000000005 18.47655,-33.97602,457.20000000000005 18.47695,-33.97503,457.20000000000005 18.47762,-33.97378,426.72 18.47862,-33.97213,426.72 18.47964,-33.97066,426.72 18.48065,-33.96872,457.20000000000005 18.48122,-33.9678,457.20000000000005 18.48208,-33.9665,457.20000000000005 18.4829,-33.96531,457.20000000000005 18.48335,-33.96445,457.20000000000005 18.48356,-33.96321,457.20000000000005 18.48351,-33.96241,426.72 18.48374,-33.96132,426.72 18.48389,-33.96024,426.72 18.48416,-33.9587,426.72 18.48412,-33.95796,426.72 18.4842,-33.95687,426.72 18.48443,-33.9557,426.72 18.4846,-33.95462,426.72 18.48469,-33.95369,426.72 18.4849,-33.95214,426.72 18.4848,-33.95156,426.72 18.48477,-33.95053,426.72 18.48364,-33.94808,396.24 18.48341,-33.94706,396.24 18.48315,-33.94592,396.24 18.48284,-33.94463,396.24 18.48255,-33.94357,396.24 18.48221,-33.94245,396.24 18.48192,-33.94142,396.24 18.48158,-33.94044,365.76 18.48112,-33.93905,365.76 18.48078,-33.93812,365.76 18.48041,-33.93718,365.76 18.47992,-33.93593,365.76 18.47946,-33.93481,365.76 18.47906,-33.93379,365.76 18.47855,-33.93262,365.76 18.4782,-33.93183,365.76 18.4776,-33.93063,365.76 18.47712,-33.92969,335.28000000000003 18.47643,-33.92844,335.28000000000003 18.47603,-33.92775,335.28000000000003 18.47511,-33.9262,335.28000000000003 18.47448,-33.92517,335.28000000000003 18.4739,-33.92432,335.28000000000003 18.47322,-33.92331,335.28000000000003 18.47245,-33.92221,335.28000000000003 18.47155,-33.92107,335.28000000000003 18.47076,-33.92001,335.28000000000003 18.47008,-33.91922,335.28000000000003 18.46922,-33.91824,335.28000000000003 18.4683,-33.91717,335.28000000000003 18.46762,-33.9164,335.28000000000003 18.46676,-33.91545,335.28000000000003 18.46607,-33.91465,335.28000000000003 18.46522,-33.91374,335.28000000000003 18.46441,-33.91289,304.8 18.46353,-33.91187,335.28000000000003 18.4628,-33.91109,335.28000000000003 18.46196,-33.91013,335.28000000000003 18.46118,-33.90926,335.28000000000003 18.46052,-33.90851,335.28000000000003 18.45812,-33.90586,335.28000000000003 18.45574,-33.90321,335.28000000000003 18.45423,-33.90167,335.28000000000003 18.45331,-33.90083,304.8 18.45255,-33.90024,304.8 18.45143,-33.89955,304.8 18.45057,-33.89911,274.32 18.44975,-33.89882,274.32 18.44868,-33.89855,243.84 18.44756,-33.89832,243.84 18.44672,-33.89822,243.84 18.44604,-33.89818,213.36 18.44492,-33.89818,213.36 18.4438,-33.89822,182.88 18.44255,-33.89832,182.88 18.44152,-33.89841,182.88 18.4405,-33.89854,152.4 18.43964,-33.89864,152.4 18.43884,-33.89874,152.4 18.43792,-33.89887,152.4 18.43708,-33.899,152.4 18.4362,-33.89915,121.92 18.43539,-33.89928,121.92 18.43454,-33.89943,121.92 18.43391,-33.89952,121.92 18.43328,-33.89957,121.92 18.4327,-33.89964,91.44 18.43214,-33.89971,91.44 18.43168,-33.89976,91.44 18.43085,-33.89987,91.44 18.43014,-33.89999,60.96 18.42825,-33.90055,60.96 18.42794,-33.9006,60.96 18.42768,-33.90071,0 18.42755,-33.90038,60.96 18.42732,-33.89964,60.96 18.42732,-33.89919,91.44 18.42743,-33.89868,91.44 18.42768,-33.89813,91.44 18.42808,-33.89757,91.44 18.42878,-33.8968,121.92 18.42934,-33.89636,121.92 18.43007,-33.89584,121.92 18.43097,-33.89525,152.4 18.43185,-33.89482,152.4 18.43288,-33.89441,152.4 18.43409,-33.89408,182.88 18.43534,-33.89383,182.88 18.43637,-33.8938,213.36 18.43764,-33.89388,213.36 18.43872,-33.89408,213.36 18.43998,-33.89445,243.84 18.44094,-33.89484,243.84 18.44223,-33.89543,243.84 18.4433,-33.89608,274.32 18.44436,-33.89676,274.32 18.44519,-33.89738,274.32 18.44604,-33.89799,304.8 18.44707,-33.89887,304.8 18.4481,-33.89976,304.8 18.44902,-33.90055,304.8 18.44988,-33.90134,304.8 18.45086,-33.9023,304.8 18.45176,-33.90317,304.8 18.4526,-33.90399,304.8 18.45361,-33.90495,335.28000000000003 18.45445,-33.90582,335.28000000000003 18.45537,-33.90679,304.8 18.4564,-33.90791,335.28000000000003 18.4572,-33.90874,335.28000000000003 18.45798,-33.90967,335.28000000000003 18.45882,-33.91058,335.28000000000003 18.45966,-33.91158,335.28000000000003 18.46092,-33.91293,335.28000000000003 18.46167,-33.91377,335.28000000000003 18.46269,-33.91489,335.28000000000003 18.46325,-33.91548,335.28000000000003 18.46447,-33.9168,335.28000000000003 18.46538,-33.91777,335.28000000000003 18.46647,-33.91894,335.28000000000003 18.46733,-33.91987,335.28000000000003 18.46835,-33.92102,335.28000000000003 18.46936,-33.92216,335.28000000000003 18.47032,-33.92331,335.28000000000003 18.47111,-33.9242,335.28000000000003 18.47183,-33.92514,335.28000000000003 18.47273,-33.92628,335.28000000000003 18.47357,-33.92741,304.8 18.47429,-33.92848,304.8 18.47497,-33.92953,304.8 18.47581,-33.93086,304.8 18.47637,-33.93183,335.28000000000003 18.477,-33.933,304.8 18.47749,-33.93402,304.8 18.47805,-33.9353,304.8 18.4785,-33.93631,304.8 18.47906,-33.93768,304.8 18.47952,-33.93886,304.8 18.47992,-33.94003,304.8 18.48035,-33.9413,304.8 18.48066,-33.94245,304.8 18.48112,-33.94412,304.8 18.48135,-33.94529,304.8 18.48169,-33.9471,304.8 18.48192,-33.94858,304.8 18.48209,-33.94976,335.28000000000003 18.48231,-33.95128,335.28000000000003 18.48244,-33.95259,335.28000000000003 18.48255,-33.95376,335.28000000000003 18.48261,-33.95525,335.28000000000003 18.4827,-33.95659,335.28000000000003 18.48276,-33.95769,335.28000000000003 18.48278,-33.95916,335.28000000000003 18.48281,-33.96034,335.28000000000003 18.48287,-33.96208,335.28000000000003 18.48287,-33.96341,335.28000000000003 18.48289,-33.96474,335.28000000000003 18.48295,-33.96591,335.28000000000003 18.48298,-33.96716,335.28000000000003 18.48298,-33.96872,335.28000000000003 18.48298,-33.96991,335.28000000000003 18.48307,-33.97112,335.28000000000003 18.48312,-33.97247,335.28000000000003 18.48312,-33.97373,365.76 18.48318,-33.97485,335.28000000000003 18.48324,-33.97606,335.28000000000003 18.48326,-33.97733,365.76 18.48335,-33.97881,365.76 18.48341,-33.97987,335.28000000000003 18.48347,-33.9809,335.28000000000003 18.48354,-33.98213,335.28000000000003 18.48358,-33.98355,335.28000000000003 18.48366,-33.98456,335.28000000000003 18.48364,-33.9856,335.28000000000003 18.48364,-33.98705,335.28000000000003 18.48364,-33.98844,335.28000000000003 18.48364,-33.98942,365.76 18.48364,-33.99282,396.24 18.4836,-33.99376,396.24 18.48364,-33.99603,396.24 18.48366,-33.9971,396.24 18.48364,-33.99812,396.24 18.4836,-33.99916,396.24 18.48358,-34.00013,396.24 18.48349,-34.00117,426.72 18.48335,-34.00469,396.24 18.48324,-34.00599,396.24 18.48312,-34.00743,426.72 18.48307,-34.00864,426.72 18.48301,-34.00948,426.72 18.48298,-34.01097,426.72 18.48295,-34.012,426.72 18.48293,-34.01335,396.24 18.48287,-34.01472,396.24 18.48278,-34.01842,426.72 18.48272,-34.0221,426.72 18.48259,-34.02452,426.72 18.48261,-34.02554,426.72 18.48255,-34.02689,426.72 18.48253,-34.03038,426.72 18.48248,-34.03473,426.72 18.48238,-34.03835,426.72 18.48225,-34.04283,426.72 18.48209,-34.04659,426.72 18.48192,-34.05006,426.72 18.48164,-34.05359,426.72 18.48135,-34.05734,426.72 18.48125,-34.061,426.72 18.48106,-34.06525,426.72 18.48106,-34.06968,426.72 18.48101,-34.07363,426.72 18.48102,-34.07739,426.72 18.48095,-34.08234,426.72 18.4808,-34.08701,426.72 18.48069,-34.09062,396.24 18.48066,-34.09495,426.72 18.48066,-34.0984,426.72 18.48052,-34.10202,457.20000000000005 18.48043,-34.10659,457.20000000000005 18.48046,-34.11058,426.72 18.48055,-34.11436,426.72 18.48091,-34.11932,426.72 18.48118,-34.12065,426.72 18.48158,-34.12218,426.72 18.48186,-34.12321,457.20000000000005 18.48209,-34.12432,457.20000000000005 18.48231,-34.1255,457.20000000000005 18.48242,-34.12697,457.20000000000005 18.48242,-34.12816,457.20000000000005 18.48244,-34.12949,457.20000000000005 18.48244,-34.13047,457.20000000000005 18.48242,-34.13182,426.72 18.48238,-34.13298,426.72 18.48231,-34.13452,426.72 18.48231,-34.13539,426.72 18.48227,-34.1368,426.72 18.48221,-34.13824,426.72 18.4822,-34.13942,426.72 18.4822,-34.14029,426.72 18.48214,-34.14175,426.72 18.48215,-34.1429,426.72 18.48203,-34.14775,426.72 18.48203,-34.15123,457.20000000000005 18.48198,-34.15538,457.20000000000005 18.48198,-34.15896,457.20000000000005 18.48198,-34.16309,457.20000000000005 18.48198,-34.16795,426.72 18.48192,-34.1719,457.20000000000005 18.48198,-34.17581,457.20000000000005 18.4822,-34.18085,457.20000000000005 18.48238,-34.18461,457.20000000000005 18.48265,-34.18849,457.20000000000005 18.48298,-34.19243,457.20000000000005 18.48335,-34.19741,457.20000000000005 18.48366,-34.20181,457.20000000000005 18.48371,-34.20557,457.20000000000005 18.48364,-34.2104,426.72 18.48364,-34.21408,396.24 18.48366,-34.21541,396.24 18.4837,-34.21659,396.24 18.48377,-34.21866,365.76 18.48382,-34.21971,335.28000000000003 18.48398,-34.22176,335.28000000000003 18.48398,-34.22264,304.8 18.48405,-34.22383,304.8 18.4841,-34.22475,274.32 18.4841,-34.22577,274.32 18.4841,-34.22694,243.84 18.4841,-34.22781,243.84 18.48404,-34.22874,243.84 18.48399,-34.22969,213.36 18.48381,-34.23084,213.36 18.48366,-34.23166,213.36 18.48347,-34.23261,213.36 18.48318,-34.23335,182.88 18.48284,-34.23424,182.88 18.48248,-34.23495,182.88 18.48209,-34.23555,182.88 18.4817,-34.23605,152.4 18.48124,-34.23652,152.4 18.48055,-34.23703,152.4 18.4798,-34.2374,152.4 18.47929,-34.2375,152.4 18.4786,-34.23759,121.92 18.47805,-34.23756,121.92 18.47749,-34.23743,121.92 18.47721,-34.23729,91.44 18.47689,-34.23708,91.44 18.4766,-34.23689,91.44 18.47643,-34.23666,91.44 18.4762,-34.23647,91.44 18.47597,-34.23629,91.44 18.47569,-34.236,60.96 18.47547,-34.23573,60.96 18.47526,-34.23555,0 18.47506,-34.23533,0 18.475,-34.23512,60.96 18.47525,-34.23495,60.96 18.47603,-34.23395,91.44 18.47643,-34.23354,91.44 18.47706,-34.23312,91.44 18.47771,-34.23285,121.92 18.47844,-34.23276,121.92 18.47923,-34.23271,152.4 18.48001,-34.2328,152.4 18.48085,-34.23299,152.4 18.48181,-34.23335,182.88 18.48249,-34.23377,182.88 18.48324,-34.23428,182.88 18.48392,-34.23507,182.88 18.48438,-34.23582,213.36 18.48473,-34.2368,213.36 18.48495,-34.23775,243.84 18.48513,-34.2387,243.84 18.48524,-34.23959,274.32 18.48539,-34.24049,274.32 18.48547,-34.24117,274.32 18.48556,-34.24237,274.32 18.4857,-34.24345,274.32 18.4857,-34.24424,274.32 18.48573,-34.2453,304.8 18.48573,-34.24649,304.8 18.48567,-34.24741,335.28000000000003 18.48564,-34.24862,335.28000000000003 18.48564,-34.2496,335.28000000000003 18.48562,-34.25056,335.28000000000003 18.48556,-34.25157,335.28000000000003 18.48553,-34.25281,365.76 18.48545,-34.25377,365.76 18.48547,-34.25509,365.76 18.48545,-34.25615,365.76 18.48541,-34.25742,365.76 18.48541,-34.25844,396.24 18.48541,-34.25965,396.24 18.48541,-34.26068,396.24 18.48547,-34.2617,396.24 18.48547,-34.26273,396.24 18.48556,-34.26398,396.24 18.48564,-34.2651,396.24 18.48567,-34.26636,396.24 18.4857,-34.26724,396.24 18.48573,-34.26851,396.24 18.48579,-34.26984,426.72 18.48579,-34.27107,426.72 18.48573,-34.27217,426.72 18.48567,-34.27318,426.72 18.48567,-34.27419,426.72 18.48562,-34.27542,426.72 18.48558,-34.2765,426.72 18.48553,-34.27753,426.72 18.48547,-34.27907,426.72 18.48539,-34.28014,426.72 18.48528,-34.28137,426.72 18.48523,-34.28238,426.72 18.48507,-34.28368,426.72 18.48495,-34.28467,426.72 18.48466,-34.28696,426.72 18.4845,-34.28819,426.72 18.48438,-34.2894,426.72 18.48422,-34.29071,426.72 18.4841,-34.29153,426.72 18.48398,-34.29266,426.72 18.48382,-34.29396,426.72 18.48364,-34.29508,426.72 18.48318,-34.29904,426.72 18.48289,-34.30151,426.72 18.4827,-34.30266,426.72 18.48249,-34.30397,426.72 18.48232,-34.30537,426.72 18.48215,-34.30621,426.72 18.48198,-34.30733,426.72 18.48181,-34.30853,426.72 18.48164,-34.30952,426.72 18.48152,-34.31063,396.24 18.48141,-34.312,396.24 18.48141,-34.31305,396.24 18.48141,-34.3141,426.72 18.48152,-34.31528,426.72 18.48175,-34.31682,426.72 18.48186,-34.31763,426.72 18.48227,-34.31915,426.72 18.48261,-34.32027,426.72 18.48307,-34.32143,426.72 18.4833,-34.32199,426.72 18.48466,-34.32477,426.72 18.48719,-34.32827,426.72 18.48803,-34.3293,426.72 18.48902,-34.33046,426.72 18.48982,-34.33136,426.72 18.49073,-34.33232,426.72 18.49156,-34.33315,426.72 18.49257,-34.33418,426.72 18.49371,-34.33521,426.72 18.49474,-34.33619,426.72 18.49593,-34.33727,457.20000000000005 18.49689,-34.33813,457.20000000000005 18.49812,-34.33923,457.20000000000005 18.49913,-34.34019,457.20000000000005 18.50002,-34.34102,457.20000000000005 18.50098,-34.34184,457.20000000000005 18.50166,-34.34247,457.20000000000005 18.50406,-34.34464,457.20000000000005 18.50496,-34.34546,487.68 18.50585,-34.34633,487.68 18.50709,-34.34756,487.68 18.50796,-34.34857,487.68 18.5087,-34.34945,487.68 18.50945,-34.35038,487.68 18.51028,-34.35155,487.68 18.5109,-34.35274,487.68 18.51133,-34.35378,487.68 18.51168,-34.35493,487.68 18.51185,-34.35602,487.68 18.51191,-34.35704,487.68 18.51185,-34.3583,487.68 18.51173,-34.35909,487.68 18.51145,-34.3603,487.68 18.51112,-34.36116,487.68 18.51053,-34.36221,487.68 18.50996,-34.36295,487.68 18.50927,-34.3637,487.68 18.50824,-34.36444,487.68 18.50739,-34.36491,487.68 18.50675,-34.36519,487.68 18.50555,-34.36556,487.68 18.50434,-34.36583,487.68 18.50332,-34.36593,487.68 18.50212,-34.36598,487.68 18.50109,-34.36598,487.68 18.49997,-34.36597,487.68 18.49873,-34.36592,487.68 18.49784,-34.36588,487.68 18.49674,-34.36579,487.68 18.49548,-34.36575,487.68 18.49453,-34.36569,487.68 18.49314,-34.36561,457.20000000000005 18.49205,-34.36556,457.20000000000005 18.49094,-34.36551,457.20000000000005 18.48977,-34.36546,457.20000000000005 18.48845,-34.36542,457.20000000000005 18.48747,-34.36537,457.20000000000005 18.4861,-34.36533,457.20000000000005 18.48495,-34.36533,426.72 18.48399,-34.36533,426.72 18.48276,-34.36533,426.72 18.48147,-34.36537,426.72 18.48038,-34.36538,426.72 18.47906,-34.36542,396.24 18.47805,-34.36542,396.24 18.47694,-34.36538,396.24 18.47574,-34.36538,426.72 18.47469,-34.36537,426.72 18.47368,-34.36551,426.72 18.47267,-34.36574,426.72 18.47172,-34.36624,426.72 18.47111,-34.36686,426.72 18.47071,-34.36775,426.72 18.4725,-34.37119,426.72 18.47414,-34.37194,426.72 18.4753,-34.37215,426.72 18.47643,-34.37219,426.72 18.47786,-34.37212,426.72 18.47906,-34.37192,426.72 18.48046,-34.3716,426.72 18.48164,-34.37132,426.72 18.48307,-34.37096,457.20000000000005 18.48404,-34.37077,457.20000000000005 18.48562,-34.37041,457.20000000000005 18.48696,-34.37013,457.20000000000005 18.48825,-34.36986,487.68 18.48976,-34.36966,487.68 18.49119,-34.36952,487.68 18.49262,-34.36938,487.68 18.49386,-34.36931,487.68 18.49526,-34.36922,518.1600000000001 18.49686,-34.3691,518.1600000000001 18.49852,-34.36891,518.1600000000001 18.49957,-34.36876,518.1600000000001 18.50086,-34.36858,548.64 18.50252,-34.36831,548.64 18.50367,-34.36803,548.64 18.50475,-34.3677,579.12 18.50585,-34.36734,579.12 18.50716,-34.36682,579.12 18.50826,-34.36629,609.6 18.50922,-34.36565,609.6 18.51,-34.36514,609.6 18.51107,-34.36427,640.08 18.51196,-34.36336,640.08 18.51275,-34.36244,640.08 18.51328,-34.36156,670.5600000000001 18.51357,-34.36095,670.5600000000001 18.51387,-34.35983,670.5600000000001 18.51391,-34.35918,670.5600000000001 18.51385,-34.35797,670.5600000000001 18.5137,-34.35704,701.0400000000001 18.51345,-34.35616,701.0400000000001 18.51303,-34.3553,701.0400000000001 18.51259,-34.35453,701.0400000000001 18.51208,-34.35374,701.0400000000001 18.51151,-34.35306,701.0400000000001 18.51084,-34.35228,701.0400000000001 18.51011,-34.35136,670.5600000000001 18.50933,-34.35054,670.5600000000001 18.50866,-34.34981,670.5600000000001 18.5079,-34.34908,670.5600000000001 18.50721,-34.34843,670.5600000000001 18.50653,-34.34773,701.0400000000001 18.50584,-34.34703,670.5600000000001 18.50504,-34.34633,701.0400000000001 18.50423,-34.3455,701.0400000000001 18.50349,-34.3448,701.0400000000001 18.50277,-34.34413,701.0400000000001 18.50206,-34.34345,701.0400000000001 18.37806,-34.22697,731.52 18.37485,-34.22391,731.52 18.37279,-34.22119,731.52 18.37167,-34.22038,731.52 18.3706,-34.21973,731.52 18.37019,-34.2188,731.52 18.36954,-34.21796,731.52 18.36886,-34.21724,762 18.36794,-34.21655,731.52 18.36729,-34.21593,762 18.36712,-34.21495,762 18.36708,-34.21386,762 18.3659,-34.21327,762 18.36569,-34.21229,762 18.36528,-34.21136,762 18.36465,-34.20893,762 18.36284,-34.20857,731.52 18.36112,-34.20781,731.52 18.36022,-34.20599,731.52 18.36222,-34.20184,731.52 18.36146,-34.20062,731.52 18.35964,-34.19769,731.52 18.35787,-34.19481,731.52 18.35627,-34.19188,731.52 18.35581,-34.19094,731.52 18.35426,-34.18801,731.52 18.35369,-34.1868,731.52 18.35328,-34.18597,731.52 18.35266,-34.18484,762 18.35226,-34.18415,762 18.35169,-34.18307,762 18.3512,-34.18217,762 18.35066,-34.18103,762 18.35019,-34.18016,762 18.3498,-34.17921,762 18.3494,-34.17828,762 18.34902,-34.17732,762 18.34851,-34.17613,762 18.3482,-34.17535,762 18.34773,-34.17412,762 18.34734,-34.1732,792.48 18.34706,-34.17233,792.48 18.3466,-34.17107,792.48 18.34625,-34.17009,792.48 18.34591,-34.16892,792.48 18.34557,-34.16795,792.48 18.34526,-34.16689,792.48 18.34499,-34.16576,792.48 18.34465,-34.16459,792.48 18.34442,-34.16338,762 18.34408,-34.1619,792.48 18.34391,-34.16082,792.48 18.34369,-34.15974,792.48 18.34358,-34.15869,792.48 18.34341,-34.15764,792.48 18.34324,-34.15636,792.48 18.34316,-34.15519,762 18.34305,-34.15403,762 18.34296,-34.15288,762 18.34285,-34.1516,762 18.3428,-34.15022,762 18.3428,-34.14908,762 18.34276,-34.14802,762 18.34274,-34.1467,762 18.3428,-34.14565,762 18.3428,-34.14455,762 18.34285,-34.14336,731.52 18.34288,-34.14178,731.52 18.34293,-34.14067,731.52 18.34299,-34.1395,731.52 18.34302,-34.13828,731.52 18.34308,-34.1369,731.52 18.34311,-34.13601,731.52 18.34311,-34.13485,731.52 18.34313,-34.13342,731.52 18.34311,-34.13238,701.0400000000001 18.34311,-34.13094,701.0400000000001 18.34311,-34.12987,731.52 18.34316,-34.12875,731.52 18.34316,-34.12768,731.52 18.34316,-34.12628,731.52 18.34324,-34.12523,731.52 18.34333,-34.12386,731.52 18.34364,-34.1228,731.52 18.34425,-34.12158,701.0400000000001 18.34498,-34.12056,701.0400000000001 18.34593,-34.11942,701.0400000000001 18.34671,-34.11846,701.0400000000001 18.3474,-34.11744,701.0400000000001 18.34795,-34.11639,701.0400000000001 18.34846,-34.11507,701.0400000000001 18.34871,-34.11395,731.52 18.34883,-34.11264,701.0400000000001 18.34879,-34.11154,701.0400000000001 18.34863,-34.11049,701.0400000000001 18.34834,-34.10934,701.0400000000001 18.34808,-34.10831,701.0400000000001 18.34768,-34.1072,701.0400000000001 18.34728,-34.10614,670.5600000000001 18.34671,-34.10492,670.5600000000001 18.34616,-34.1039,670.5600000000001 18.3456,-34.10298,670.5600000000001 18.34499,-34.10207,670.5600000000001 18.34436,-34.10124,670.5600000000001 18.34368,-34.10035,670.5600000000001 18.3428,-34.09918,640.08 18.34202,-34.09807,640.08 18.34139,-34.09717,640.08 18.34076,-34.09621,640.08 18.34007,-34.09505,640.08 18.33954,-34.09401,640.08 18.33893,-34.09273,609.6 18.33847,-34.09165,609.6 18.33809,-34.09044,609.6 18.33778,-34.08946,609.6 18.33742,-34.08806,609.6 18.33719,-34.08705,609.6 18.33685,-34.08572,609.6 18.33657,-34.08472,609.6 18.33629,-34.08339,609.6 18.33596,-34.08224,609.6 18.33568,-34.08124,609.6 18.33534,-34.08032,609.6 18.33487,-34.07908,609.6 18.33433,-34.0779,609.6 18.33377,-34.07684,609.6 18.3331,-34.07579,609.6 18.33246,-34.07489,609.6 18.3317,-34.07378,609.6 18.33103,-34.07293,609.6 18.3304,-34.07205,609.6 18.3296,-34.07107,609.6 18.32878,-34.07011,579.12 18.32811,-34.06929,579.12 18.32727,-34.06828,579.12 18.32651,-34.06749,579.12 18.32553,-34.06645,579.12 18.32486,-34.06572,579.12 18.32391,-34.06485,579.12 18.32296,-34.0639,579.12 18.32222,-34.0632,579.12 18.32133,-34.06233,579.12 18.3205,-34.06139,579.12 18.31993,-34.06059,579.12 18.31909,-34.05959,579.12 18.31858,-34.05899,609.6 18.31747,-34.0579,579.12 18.31673,-34.05721,579.12 18.31638,-34.05683,579.12 18.31026,-34.05185,579.12 18.30912,-34.05096,579.12 18.30826,-34.0504,579.12 18.30723,-34.04961,579.12 18.30397,-34.047,579.12 18.30196,-34.04472,579.12 18.30092,-34.04228,579.12 18.30637,-34.049,579.12 18.30143,-34.03697,609.6 18.30221,-34.03487,609.6 18.30305,-34.03317,609.6 18.3042,-34.03122,609.6 18.30482,-34.03024,640.08 18.30558,-34.0291,640.08 18.30631,-34.0281,640.08 18.30715,-34.02695,640.08 18.30786,-34.02605,640.08 18.30866,-34.02517,640.08 18.30978,-34.02397,640.08 18.31079,-34.02287,640.08 18.31169,-34.02196,640.08 18.31275,-34.02081,640.08 18.31358,-34.01991,640.08 18.3145,-34.01893,640.08 18.31535,-34.01805,640.08 18.31696,-34.01637,640.08 18.31796,-34.01532,640.08 18.31896,-34.01418,640.08 18.32005,-34.01293,640.08 18.3209,-34.01195,640.08 18.32189,-34.01074,640.08 18.32256,-34.00995,640.08 18.32354,-34.00879,640.08 18.3243,-34.00781,670.5600000000001 18.32508,-34.00676,670.5600000000001 18.32594,-34.00566,670.5600000000001 18.32654,-34.00479,670.5600000000001 18.32738,-34.00356,670.5600000000001 18.32811,-34.00237,701.0400000000001 18.32867,-34.00145,701.0400000000001 18.32923,-34.00049,701.0400000000001 18.3299,-33.99939,701.0400000000001 18.33052,-33.99836,701.0400000000001 18.33464,-33.99174,640.08 18.3363,-33.98891,640.08 18.33767,-33.98611,640.08 18.33927,-33.98304,640.08 18.34093,-33.98006,670.5600000000001 18.34252,-33.97733,670.5600000000001 18.34425,-33.97453,670.5600000000001 18.34597,-33.97178,670.5600000000001 18.34757,-33.96903,670.5600000000001 18.34906,-33.96577,670.5600000000001 18.34963,-33.96437,670.5600000000001 18.35031,-33.96268,670.5600000000001 18.35109,-33.96062,670.5600000000001 18.35148,-33.9597,670.5600000000001 18.35193,-33.95837,670.5600000000001 18.35243,-33.95697,670.5600000000001 18.35289,-33.95572,670.5600000000001 18.35329,-33.95446,670.5600000000001 18.35367,-33.95329,670.5600000000001 18.35406,-33.95219,670.5600000000001 18.35434,-33.95114,670.5600000000001 18.35461,-33.94976,670.5600000000001 18.35468,-33.9489,670.5600000000001 18.35455,-33.94766,701.0400000000001 18.35415,-33.94654,731.52 18.35375,-33.94589,731.52 18.35318,-33.94543,762 18.35249,-33.9451,792.48 18.35186,-33.94501,792.48 18.35126,-33.9451,822.96 18.35089,-33.94524,822.96 18.35019,-33.94592,822.96 18.34991,-33.94668,853.44 18.34986,-33.94771,853.44 18.35014,-33.94859,853.44 18.35054,-33.94938,853.44 18.35169,-33.95041,853.44 18.35272,-33.951,853.44 18.35406,-33.95142,822.96 18.35524,-33.95155,822.96 18.35701,-33.95134,822.96 18.35821,-33.95097,792.48 18.35936,-33.95027,792.48 18.36045,-33.94917,762 18.36113,-33.94812,731.52 18.36159,-33.94696,731.52 18.36193,-33.94571,701.0400000000001 18.36213,-33.94405,670.5600000000001 18.36227,-33.94277,670.5600000000001 18.36236,-33.94144,640.08 18.36247,-33.94011,640.08 18.36258,-33.9386,640.08 18.36269,-33.93732,640.08 18.36281,-33.93617,609.6 18.36302,-33.93425,609.6 18.3632,-33.93306,609.6 18.36342,-33.93169,609.6 18.36359,-33.93062,609.6 18.36387,-33.92935,609.6 18.36422,-33.92802,609.6 18.3646,-33.92679,609.6 18.36516,-33.92542,609.6 18.36567,-33.92427,609.6 18.36617,-33.92317,609.6 18.36674,-33.92192,609.6 18.36725,-33.92089,609.6 18.368,-33.9195,609.6 18.36852,-33.91855,609.6 18.36937,-33.91718,609.6 18.36998,-33.91612,609.6 18.37077,-33.91493,609.6 18.37149,-33.91383,609.6 18.37234,-33.91261,609.6 18.37292,-33.91177,609.6 18.37395,-33.91047,609.6 18.37475,-33.90944,609.6 18.37549,-33.90856,609.6 18.37632,-33.90761,609.6 18.37744,-33.90646,609.6 18.37833,-33.90555,609.6 18.37951,-33.9044,609.6 18.38047,-33.90353,579.12 18.38127,-33.90283,609.6 18.38259,-33.90167,609.6 18.38394,-33.90056,609.6 18.38516,-33.89957,609.6 18.38631,-33.89869,609.6 18.38741,-33.8979,579.12 18.38876,-33.89694,579.12 18.39003,-33.89613,579.12 18.39094,-33.89552,579.12 18.39252,-33.89465,579.12 18.39397,-33.89384,579.12 18.39532,-33.89319,579.12 18.39678,-33.89259,548.64 18.39851,-33.89191,548.64 18.39997,-33.89145,518.1600000000001 18.40164,-33.89091,518.1600000000001 18.403,-33.89053,518.1600000000001 18.4045,-33.89017,518.1600000000001 18.40636,-33.88971,487.68 18.40771,-33.88942,487.68 18.40948,-33.8891,457.20000000000005 18.41101,-33.88879,457.20000000000005 18.41281,-33.88852,457.20000000000005 18.41423,-33.88826,426.72 18.41578,-33.88802,426.72 18.41732,-33.88775,426.72 18.41864,-33.88752,426.72 18.42001,-33.88728,426.72 18.42144,-33.8871,426.72 18.42344,-33.88691,426.72 18.42476,-33.88686,426.72 18.42613,-33.88691,426.72 18.42773,-33.88696,396.24 18.42894,-33.88705,396.24 18.43063,-33.88715,426.72 18.43197,-33.88724,426.72 18.43343,-33.88737,426.72 18.43489,-33.88747,426.72 18.43635,-33.88756,426.72 18.43775,-33.8877,426.72 18.43915,-33.88788,426.72 18.44067,-33.88812,457.20000000000005 18.44233,-33.8884,457.20000000000005 18.44352,-33.88866,457.20000000000005 18.44509,-33.88911,457.20000000000005 18.44627,-33.88961,457.20000000000005 18.44722,-33.89012,426.72 18.4481,-33.89073,426.72 18.44908,-33.89166,426.72 18.44963,-33.89241,426.72 18.45008,-33.89342,396.24 18.4503,-33.89424,396.24 18.45036,-33.89497,396.24 18.45019,-33.89589,365.76 18.44994,-33.89655,365.76 18.44948,-33.89715,365.76 18.44874,-33.89781,335.28000000000003 18.4481,-33.89817,335.28000000000003 18.44719,-33.89855,304.8 18.44644,-33.89877,304.8 18.44548,-33.899,274.32 18.44421,-33.89915,274.32 18.44313,-33.89925,243.84 18.44212,-33.89932,243.84 18.44156,-33.89937,213.36 18.44032,-33.89943,213.36 18.4396,-33.89951,182.88 18.43881,-33.89955,182.88 18.43814,-33.8996,182.88 18.43718,-33.89967,152.4 18.43649,-33.89971,152.4 18.43584,-33.89978,121.92 18.43506,-33.89983,121.92 18.43444,-33.89987,121.92 18.43366,-33.89996,121.92 18.4331,-33.90001,121.92 18.43237,-33.90009,91.44 18.43191,-33.90013,91.44 18.43125,-33.90015,91.44 18.4308,-33.90019,91.44 18.43041,-33.90019,91.44 18.43002,-33.90018,60.96 18.42939,-33.90018,60.96 18.42916,-33.90013,60.96 18.42895,-33.90005,60.96 18.42865,-33.8999,60.96 18.42844,-33.89969,0 18.42865,-33.8978,60.96 18.43013,-33.89685,60.96 18.43097,-33.89648,91.44 18.43192,-33.89612,91.44 18.43266,-33.89585,91.44 18.4338,-33.89571,91.44 18.43489,-33.89603,91.44 18.43567,-33.89671,91.44 18.43607,-33.8974,121.92 18.4359,-33.89841,121.92 18.43523,-33.89891,91.44 18.43466,-33.89911,91.44 18.43282,-33.89937,91.44 18.4322,-33.89946,91.44 18.43151,-33.89952,91.44 18.43069,-33.89969,60.96 18.42985,-33.89992,60.96 18.42929,-33.90005,60.96 18.42861,-33.90024,60.96 18.42822,-33.90038,60.96 18.42794,-33.90051,60.96 18.42766,-33.90065,60.96 18.42738,-33.90079,30.48 18.4271,-33.90088,30.48 18.42689,-33.90102,0</coordinates>
      </LineString>
    </Placemark>
  </Document>
</kml>
