<?xml version="1.0" encoding="UTF-8"?>
<kml xmlns="http://www.opengis.net/kml/2.2">
  <Document>
    <name>FR24 ZSHGD 3e0681b7</name>
    <Placemark>
      <name>FR24 ZSHGD 3e0681b7</name>
      <description><![CDATA[Source: ADS-B
Start (SAST): 2026-01-23 09:35:21
End (SAST): 2026-01-23 18:22:20
Points: 1584]]></description>
      <Style><LineStyle><color>ff0000ff</color><width>4</width></LineStyle></Style>
      <LineString>
        <tessellate>1</tessellate>
        <altitudeMode>absolute</altitudeMode>
        <coordinates>18.43237,-33.90193,53.34 18.43351,-33.90148,76.2 18.43416,-33.90115,83.82000000000001 18.43483,-33.90074,99.06 18.43528,-33.90047,99.06 18.43601,-33.90001,114.30000000000001 18.43668,-33.8996,121.92 18.43735,-33.89915,129.54000000000002 18.43786,-33.89883,137.16 18.43853,-33.89832,152.4 18.43912,-33.8979,160.02 18.43964,-33.89743,175.26000000000002 18.44022,-33.8968,182.88 18.44061,-33.89626,190.5 18.4409,-33.89571,198.12 18.44124,-33.89492,213.36 18.44141,-33.89422,220.98000000000002 18.44152,-33.89343,228.60000000000002 18.44158,-33.89278,236.22 18.44158,-33.89189,243.84 18.44152,-33.89124,251.46 18.44147,-33.89054,259.08000000000004 18.44134,-33.88976,266.7 18.44123,-33.88907,274.32 18.44101,-33.88821,281.94 18.44078,-33.88756,289.56 18.44055,-33.88682,297.18 18.44015,-33.88593,304.8 18.43981,-33.88523,304.8 18.43929,-33.88435,312.42 18.43887,-33.88376,312.42 18.43825,-33.88298,320.04 18.43752,-33.88216,335.28000000000003 18.43691,-33.88147,342.90000000000003 18.43629,-33.88097,350.52000000000004 18.43551,-33.88033,358.14000000000004 18.4345,-33.87964,365.76 18.4338,-33.87918,373.38 18.43277,-33.87853,381 18.43175,-33.87794,396.24 18.43085,-33.87749,403.86 18.42979,-33.877,411.48 18.42876,-33.87653,419.1 18.42772,-33.87616,426.72 18.42676,-33.87583,434.34000000000003 18.42587,-33.87552,441.96000000000004 18.42491,-33.87524,449.58000000000004 18.42379,-33.87495,457.20000000000005 18.4227,-33.87467,464.82000000000005 18.42172,-33.87447,472.44 18.42054,-33.87424,480.06 18.41955,-33.87406,480.06 18.41847,-33.87392,480.06 18.41757,-33.87383,487.68 18.41652,-33.87369,495.3 18.41549,-33.8736,502.92 18.41421,-33.87346,502.92 18.41348,-33.87341,510.54 18.41234,-33.87336,518.1600000000001 18.41125,-33.87336,518.1600000000001 18.41051,-33.87336,525.78 18.40937,-33.87341,525.78 18.40838,-33.87346,533.4 18.40748,-33.8736,533.4 18.40614,-33.87378,541.02 18.40529,-33.87392,541.02 18.40412,-33.87415,541.02 18.40319,-33.87434,548.64 18.40199,-33.87465,548.64 18.40092,-33.87492,556.26 18.39998,-33.87523,556.26 18.39902,-33.87556,563.88 18.39792,-33.87602,571.5 18.39711,-33.87634,571.5 18.39605,-33.8768,579.12 18.3952,-33.87717,579.12 18.3942,-33.87765,586.74 18.3934,-33.87807,586.74 18.39243,-33.87858,594.36 18.39169,-33.879,594.36 18.39078,-33.87955,594.36 18.38999,-33.88,594.36 18.38915,-33.88055,594.36 18.38837,-33.88101,601.98 18.38722,-33.88174,601.98 18.38636,-33.8823,609.6 18.38556,-33.88286,617.22 18.38478,-33.88339,617.22 18.38413,-33.88388,624.84 18.38322,-33.88458,632.46 18.38237,-33.88522,640.08 18.38173,-33.88575,647.7 18.38097,-33.88637,655.32 18.38036,-33.88686,662.94 18.37961,-33.88752,662.94 18.37898,-33.88807,670.5600000000001 18.37822,-33.88875,678.1800000000001 18.37755,-33.88934,685.8000000000001 18.37693,-33.88998,685.8000000000001 18.37624,-33.89063,693.4200000000001 18.37549,-33.89138,701.0400000000001 18.37481,-33.89203,701.0400000000001 18.37424,-33.89259,708.6600000000001 18.37366,-33.8932,716.2800000000001 18.37301,-33.89388,716.2800000000001 18.37228,-33.89465,723.9000000000001 18.37172,-33.89534,723.9000000000001 18.37105,-33.89603,723.9000000000001 18.37049,-33.89667,723.9000000000001 18.36998,-33.89726,731.52 18.36914,-33.89827,731.52 18.3684,-33.89911,731.52 18.36782,-33.89981,731.52 18.36724,-33.90047,731.52 18.36651,-33.90138,731.52 18.36605,-33.90195,731.52 18.36531,-33.90288,731.52 18.3641,-33.9044,739.14 18.36342,-33.90532,739.14 18.36225,-33.90688,739.14 18.36157,-33.90779,739.14 18.36102,-33.9086,739.14 18.36023,-33.90971,739.14 18.35958,-33.91056,731.52 18.35884,-33.91163,731.52 18.35821,-33.91246,731.52 18.35752,-33.91349,723.9000000000001 18.35703,-33.91415,723.9000000000001 18.35636,-33.91521,723.9000000000001 18.3558,-33.91608,723.9000000000001 18.35518,-33.91713,723.9000000000001 18.35468,-33.91795,723.9000000000001 18.35409,-33.91903,723.9000000000001 18.35352,-33.9201,723.9000000000001 18.35311,-33.92093,716.2800000000001 18.35272,-33.92178,716.2800000000001 18.35221,-33.92294,723.9000000000001 18.3518,-33.92401,723.9000000000001 18.3514,-33.92504,723.9000000000001 18.35112,-33.92592,723.9000000000001 18.35076,-33.92688,731.52 18.35042,-33.92802,731.52 18.35014,-33.92889,731.52 18.34991,-33.92978,723.9000000000001 18.34963,-33.93105,723.9000000000001 18.34941,-33.93192,723.9000000000001 18.34924,-33.93279,723.9000000000001 18.34902,-33.93375,723.9000000000001 18.34888,-33.93458,723.9000000000001 18.34871,-33.93565,723.9000000000001 18.34851,-33.93677,723.9000000000001 18.34837,-33.93761,716.2800000000001 18.34826,-33.93854,716.2800000000001 18.34803,-33.9397,708.6600000000001 18.34785,-33.94059,708.6600000000001 18.34767,-33.94157,708.6600000000001 18.34745,-33.94267,701.0400000000001 18.34723,-33.9438,701.0400000000001 18.347,-33.94496,701.0400000000001 18.34677,-33.94631,701.0400000000001 18.3466,-33.94729,693.4200000000001 18.34637,-33.94841,693.4200000000001 18.34616,-33.94954,693.4200000000001 18.34591,-33.95082,693.4200000000001 18.34577,-33.95178,693.4200000000001 18.3456,-33.95306,693.4200000000001 18.34545,-33.9539,693.4200000000001 18.34526,-33.95499,693.4200000000001 18.34505,-33.95599,693.4200000000001 18.34487,-33.95732,693.4200000000001 18.34471,-33.95818,693.4200000000001 18.34454,-33.95939,693.4200000000001 18.34436,-33.96028,701.0400000000001 18.34385,-33.96274,701.0400000000001 18.34179,-33.96812,708.6600000000001 18.34059,-33.97028,708.6600000000001 18.3391,-33.97275,716.2800000000001 18.33767,-33.97494,716.2800000000001 18.33487,-33.97936,701.0400000000001 18.33212,-33.98378,701.0400000000001 18.32945,-33.98854,685.8000000000001 18.32822,-33.99097,685.8000000000001 18.32708,-33.99337,678.1800000000001 18.32605,-33.99584,678.1800000000001 18.32542,-33.99752,670.5600000000001 18.3252,-33.9984,662.94 18.32485,-33.99961,662.94 18.32462,-34.00055,655.32 18.32451,-34.00129,655.32 18.32428,-34.00269,647.7 18.32419,-34.00356,647.7 18.32411,-34.00469,647.7 18.32407,-34.00584,647.7 18.32407,-34.00662,647.7 18.32413,-34.00768,647.7 18.32424,-34.00854,655.32 18.32445,-34.00962,655.32 18.32469,-34.01047,655.32 18.32497,-34.01139,662.94 18.32525,-34.01218,662.94 18.32565,-34.01321,662.94 18.32605,-34.01405,662.94 18.32651,-34.01493,662.94 18.32703,-34.01591,662.94 18.32755,-34.01674,662.94 18.32806,-34.01749,662.94 18.32863,-34.01838,662.94 18.3292,-34.01912,662.94 18.32979,-34.01994,662.94 18.33035,-34.02066,662.94 18.33108,-34.02145,670.5600000000001 18.33198,-34.02228,670.5600000000001 18.33263,-34.02289,678.1800000000001 18.33349,-34.02364,678.1800000000001 18.33416,-34.02425,678.1800000000001 18.33484,-34.02484,678.1800000000001 18.33562,-34.02553,678.1800000000001 18.33635,-34.02626,678.1800000000001 18.33702,-34.02686,685.8000000000001 18.33786,-34.02768,685.8000000000001 18.33848,-34.02832,685.8000000000001 18.33927,-34.02908,685.8000000000001 18.34002,-34.02987,685.8000000000001 18.34064,-34.03053,685.8000000000001 18.34145,-34.03134,685.8000000000001 18.34288,-34.03271,685.8000000000001 18.34364,-34.03349,678.1800000000001 18.34442,-34.03427,678.1800000000001 18.34505,-34.03495,678.1800000000001 18.34582,-34.03583,678.1800000000001 18.34649,-34.03661,678.1800000000001 18.34706,-34.03748,678.1800000000001 18.34745,-34.0383,678.1800000000001 18.34778,-34.03935,678.1800000000001 18.34785,-34.04016,678.1800000000001 18.3479,-34.04128,678.1800000000001 18.34785,-34.04221,678.1800000000001 18.3478,-34.04319,685.8000000000001 18.34778,-34.0443,678.1800000000001 18.34768,-34.04514,678.1800000000001 18.34762,-34.04626,678.1800000000001 18.3475,-34.04718,678.1800000000001 18.3474,-34.04836,678.1800000000001 18.34723,-34.04952,678.1800000000001 18.34706,-34.05034,685.8000000000001 18.34688,-34.05143,685.8000000000001 18.34666,-34.05254,685.8000000000001 18.34642,-34.05385,685.8000000000001 18.3462,-34.05482,685.8000000000001 18.34593,-34.05574,685.8000000000001 18.34574,-34.05659,685.8000000000001 18.34543,-34.05766,685.8000000000001 18.34505,-34.05883,685.8000000000001 18.34476,-34.05981,685.8000000000001 18.34436,-34.06087,685.8000000000001 18.34402,-34.06176,685.8000000000001 18.34362,-34.06274,685.8000000000001 18.34316,-34.06376,685.8000000000001 18.3428,-34.06462,685.8000000000001 18.34248,-34.06553,685.8000000000001 18.34201,-34.06659,678.1800000000001 18.34151,-34.06787,670.5600000000001 18.34116,-34.06879,670.5600000000001 18.34082,-34.06981,670.5600000000001 18.34047,-34.07079,662.94 18.34013,-34.07177,662.94 18.33979,-34.07279,662.94 18.33949,-34.07378,662.94 18.33921,-34.07484,670.5600000000001 18.33899,-34.07582,670.5600000000001 18.33876,-34.07666,670.5600000000001 18.33853,-34.07777,670.5600000000001 18.33831,-34.07886,670.5600000000001 18.33818,-34.07978,670.5600000000001 18.33809,-34.08064,670.5600000000001 18.33796,-34.08173,670.5600000000001 18.33786,-34.08284,670.5600000000001 18.33775,-34.08376,670.5600000000001 18.33773,-34.0848,670.5600000000001 18.33773,-34.08597,670.5600000000001 18.33775,-34.08714,670.5600000000001 18.33784,-34.08815,670.5600000000001 18.33792,-34.08916,670.5600000000001 18.33807,-34.09007,670.5600000000001 18.33825,-34.09126,678.1800000000001 18.33853,-34.09253,678.1800000000001 18.33881,-34.09356,678.1800000000001 18.33915,-34.09465,678.1800000000001 18.33954,-34.09584,670.5600000000001 18.3399,-34.09668,670.5600000000001 18.34059,-34.09798,662.94 18.34105,-34.09877,655.32 18.34167,-34.09973,647.7 18.34242,-34.10068,647.7 18.34313,-34.10156,640.08 18.34385,-34.10231,640.08 18.34476,-34.10321,640.08 18.34577,-34.10403,632.46 18.34694,-34.10487,632.46 18.34795,-34.1055,632.46 18.34906,-34.10608,632.46 18.35066,-34.10678,640.08 18.35188,-34.10733,640.08 18.35295,-34.10775,640.08 18.35398,-34.10817,640.08 18.35552,-34.10878,640.08 18.35681,-34.10925,632.46 18.35798,-34.10971,632.46 18.35907,-34.11008,632.46 18.36034,-34.11053,632.46 18.3617,-34.11101,624.84 18.36297,-34.11145,624.84 18.36451,-34.11199,617.22 18.36542,-34.11232,617.22 18.36679,-34.11278,624.84 18.36802,-34.11324,624.84 18.36926,-34.11367,617.22 18.37037,-34.11406,617.22 18.37143,-34.11451,609.6 18.37269,-34.11497,609.6 18.37374,-34.11539,609.6 18.37618,-34.11627,601.98 18.37961,-34.11753,601.98 18.3807,-34.11786,601.98 18.38192,-34.11827,601.98 18.38528,-34.11939,601.98 18.38865,-34.12047,601.98 18.39195,-34.12161,594.36 18.39537,-34.12271,586.74 18.39975,-34.12418,571.5 18.4029,-34.12521,571.5 18.40389,-34.1256,571.5 18.40507,-34.12601,571.5 18.40748,-34.12688,563.88 18.40843,-34.12729,563.88 18.40967,-34.12775,563.88 18.41062,-34.12811,563.88 18.41168,-34.12852,563.88 18.41297,-34.12903,556.26 18.41404,-34.12944,556.26 18.41499,-34.12981,556.26 18.41623,-34.13028,556.26 18.41944,-34.13159,548.64 18.42373,-34.13331,548.64 18.42716,-34.13471,541.02 18.43125,-34.13626,541.02 18.43254,-34.13671,533.4 18.4336,-34.13704,533.4 18.43506,-34.13745,533.4 18.43618,-34.13768,533.4 18.43718,-34.13787,533.4 18.43853,-34.138,541.02 18.43998,-34.13801,533.4 18.4413,-34.13792,533.4 18.44261,-34.13769,533.4 18.44375,-34.13741,533.4 18.4447,-34.13708,533.4 18.44599,-34.13657,533.4 18.44705,-34.13608,525.78 18.44829,-34.13535,525.78 18.44918,-34.1347,525.78 18.45022,-34.13378,525.78 18.45102,-34.13303,525.78 18.45193,-34.13214,525.78 18.45274,-34.13131,518.1600000000001 18.45367,-34.13026,518.1600000000001 18.45445,-34.12949,518.1600000000001 18.45526,-34.12865,510.54 18.45629,-34.12768,510.54 18.45731,-34.12669,502.92 18.45815,-34.12592,502.92 18.45898,-34.12516,502.92 18.46006,-34.12423,495.3 18.46084,-34.12354,495.3 18.46184,-34.1227,495.3 18.46297,-34.1218,487.68 18.46393,-34.12106,487.68 18.46499,-34.12033,480.06 18.46636,-34.11944,480.06 18.46722,-34.11893,480.06 18.46865,-34.11809,472.44 18.46979,-34.11744,472.44 18.47116,-34.11676,472.44 18.47228,-34.11612,472.44 18.47317,-34.11567,472.44 18.47463,-34.11484,472.44 18.47553,-34.1142,480.06 18.4766,-34.11329,487.68 18.47729,-34.1125,487.68 18.47816,-34.11136,495.3 18.47866,-34.11041,495.3 18.47906,-34.10934,502.92 18.47928,-34.10838,510.54 18.4794,-34.10682,518.1600000000001 18.47929,-34.10598,525.78 18.47906,-34.10463,533.4 18.47878,-34.10367,541.02 18.47843,-34.10258,541.02 18.47816,-34.10188,541.02 18.47771,-34.10065,541.02 18.47732,-34.09973,548.64 18.47676,-34.09845,541.02 18.47637,-34.09765,541.02 18.47581,-34.09644,541.02 18.47534,-34.09542,541.02 18.47477,-34.09425,541.02 18.47424,-34.09323,541.02 18.47374,-34.09227,541.02 18.47311,-34.09104,541.02 18.4726,-34.09007,541.02 18.47205,-34.08907,541.02 18.47134,-34.08769,548.64 18.47071,-34.08643,548.64 18.47019,-34.08546,548.64 18.46968,-34.08448,548.64 18.46903,-34.08316,548.64 18.46785,-34.08089,548.64 18.46673,-34.07895,556.26 18.46561,-34.07703,563.88 18.4651,-34.0761,563.88 18.46447,-34.07498,571.5 18.46393,-34.07396,571.5 18.46331,-34.07286,571.5 18.46269,-34.07176,579.12 18.46224,-34.07088,579.12 18.46167,-34.06977,586.74 18.46118,-34.06883,586.74 18.46062,-34.06778,594.36 18.46006,-34.06673,594.36 18.45943,-34.06558,594.36 18.45892,-34.06455,594.36 18.45843,-34.06361,601.98 18.45778,-34.0625,601.98 18.45714,-34.06133,601.98 18.45647,-34.06018,601.98 18.45591,-34.05922,601.98 18.45537,-34.05836,601.98 18.45474,-34.05734,601.98 18.45423,-34.05647,601.98 18.45354,-34.05538,601.98 18.45126,-34.05185,594.36 18.44931,-34.04887,594.36 18.44793,-34.04682,594.36 18.44725,-34.0457,594.36 18.44672,-34.0448,594.36 18.44604,-34.04356,601.98 18.4456,-34.04256,601.98 18.4452,-34.0416,601.98 18.44479,-34.04035,601.98 18.4445,-34.03913,601.98 18.44427,-34.03811,609.6 18.44404,-34.03714,609.6 18.44387,-34.03569,609.6 18.44376,-34.03467,609.6 18.4437,-34.03387,609.6 18.44369,-34.03262,617.22 18.4437,-34.03136,624.84 18.44376,-34.03024,624.84 18.44397,-34.02887,632.46 18.44416,-34.02778,624.84 18.44442,-34.02667,632.46 18.44461,-34.02578,632.46 18.44507,-34.02424,632.46 18.44536,-34.02317,632.46 18.44565,-34.02196,632.46 18.44593,-34.02109,632.46 18.44622,-34.0201,624.84 18.44661,-34.01884,624.84 18.44689,-34.01784,624.84 18.44728,-34.01674,624.84 18.44759,-34.01567,624.84 18.44799,-34.01451,617.22 18.44846,-34.01326,617.22 18.44879,-34.01232,617.22 18.44924,-34.01111,617.22 18.44965,-34.01009,617.22 18.45011,-34.00902,624.84 18.45053,-34.008,624.84 18.45119,-34.00641,632.46 18.45165,-34.00539,632.46 18.45204,-34.00443,632.46 18.45249,-34.00346,632.46 18.45305,-34.00232,624.84 18.4535,-34.00131,624.84 18.45406,-34.00013,617.22 18.45463,-33.99896,617.22 18.45518,-33.99792,617.22 18.45572,-33.99696,609.6 18.45646,-33.99584,609.6 18.45709,-33.99496,601.98 18.45782,-33.99403,601.98 18.45869,-33.99291,594.36 18.45938,-33.99211,586.74 18.46039,-33.99101,586.74 18.46109,-33.99026,586.74 18.46219,-33.98918,579.12 18.46297,-33.9884,571.5 18.46409,-33.9873,571.5 18.4651,-33.9863,563.88 18.4659,-33.98555,563.88 18.46678,-33.98474,556.26 18.46779,-33.98369,563.88 18.46852,-33.98291,563.88 18.46922,-33.98211,571.5 18.46991,-33.98127,571.5 18.47065,-33.98021,579.12 18.47138,-33.97916,586.74 18.47211,-33.97806,586.74 18.47256,-33.97728,586.74 18.47323,-33.97609,586.74 18.47363,-33.97527,586.74 18.47414,-33.97406,586.74 18.47443,-33.97317,594.36 18.47477,-33.97196,594.36 18.47502,-33.97046,594.36 18.47517,-33.9694,601.98 18.47528,-33.96814,594.36 18.47534,-33.96693,594.36 18.47534,-33.966,586.74 18.47528,-33.96456,586.74 18.47519,-33.96355,594.36 18.47508,-33.96236,586.74 18.47488,-33.96111,594.36 18.47463,-33.96002,594.36 18.47431,-33.95869,594.36 18.47401,-33.95778,594.36 18.47368,-33.95668,594.36 18.47322,-33.95539,594.36 18.47282,-33.95427,586.74 18.47231,-33.95297,586.74 18.47189,-33.95201,579.12 18.47144,-33.95082,571.5 18.47094,-33.94966,571.5 18.47036,-33.94836,563.88 18.46985,-33.94729,563.88 18.46933,-33.94608,556.26 18.46897,-33.94533,556.26 18.46813,-33.94394,556.26 18.46751,-33.94304,556.26 18.46651,-33.94194,548.64 18.46561,-33.94107,541.02 18.4647,-33.94026,541.02 18.4635,-33.93924,533.4 18.46258,-33.93849,533.4 18.46152,-33.93759,525.78 18.46058,-33.93681,533.4 18.45983,-33.93617,525.78 18.45866,-33.93521,533.4 18.45782,-33.93452,533.4 18.4567,-33.93356,533.4 18.45589,-33.93286,525.78 18.45497,-33.93211,525.78 18.45384,-33.93114,525.78 18.453,-33.9304,525.78 18.45199,-33.92958,525.78 18.45115,-33.92885,525.78 18.45005,-33.92802,525.78 18.44656,-33.92522,510.54 18.44553,-33.92443,502.92 18.44464,-33.92372,502.92 18.44363,-33.92285,495.3 18.44274,-33.92203,480.06 18.44218,-33.92139,472.44 18.44134,-33.92038,464.82000000000005 18.44072,-33.91951,457.20000000000005 18.4401,-33.91827,449.58000000000004 18.43971,-33.91731,441.96000000000004 18.43949,-33.91603,434.34000000000003 18.43943,-33.91493,426.72 18.43946,-33.91401,426.72 18.43969,-33.91275,419.1 18.44005,-33.91159,411.48 18.44038,-33.91063,403.86 18.44078,-33.90972,403.86 18.44118,-33.90879,396.24 18.44167,-33.9077,396.24 18.44206,-33.90683,396.24 18.44251,-33.90591,388.62 18.44291,-33.90504,396.24 18.44324,-33.90409,388.62 18.44364,-33.90302,388.62 18.44386,-33.90221,381 18.44408,-33.90129,381 18.44427,-33.90004,381 18.44436,-33.89905,381 18.44442,-33.89809,373.38 18.44442,-33.89717,373.38 18.44433,-33.89622,373.38 18.44419,-33.89525,373.38 18.44393,-33.89413,373.38 18.44369,-33.8931,373.38 18.44335,-33.89223,373.38 18.44291,-33.89117,373.38 18.44251,-33.89044,373.38 18.4419,-33.88948,365.76 18.44135,-33.88877,365.76 18.44072,-33.88798,358.14000000000004 18.44005,-33.88724,350.52000000000004 18.43926,-33.88641,350.52000000000004 18.43859,-33.88573,350.52000000000004 18.43775,-33.885,342.90000000000003 18.43695,-33.8844,342.90000000000003 18.43597,-33.88361,342.90000000000003 18.43523,-33.88312,342.90000000000003 18.43433,-33.88261,342.90000000000003 18.4336,-33.88225,342.90000000000003 18.43271,-33.88193,342.90000000000003 18.43175,-33.8817,342.90000000000003 18.43082,-33.88151,335.28000000000003 18.4299,-33.88147,327.66 18.42911,-33.88151,320.04 18.42844,-33.8817,312.42 18.42779,-33.88207,304.8 18.42745,-33.88239,304.8 18.4271,-33.88309,297.18 18.4271,-33.88348,289.56 18.42715,-33.88417,281.94 18.42732,-33.88472,274.32 18.42772,-33.88545,266.7 18.42816,-33.88618,259.08000000000004 18.42854,-33.88677,259.08000000000004 18.42894,-33.88733,259.08000000000004 18.42934,-33.88789,259.08000000000004 18.42985,-33.88858,251.46 18.43029,-33.88916,251.46 18.43063,-33.88962,243.84 18.43105,-33.89031,236.22 18.43151,-33.89096,228.60000000000002 18.43186,-33.89163,220.98000000000002 18.4322,-33.89227,213.36 18.43265,-33.89305,198.12 18.43311,-33.89403,190.5 18.43349,-33.89474,175.26000000000002 18.43369,-33.89524,167.64000000000001 18.43399,-33.8958,160.02 18.43422,-33.8963,144.78 18.43444,-33.89685,137.16 18.43467,-33.89731,129.54000000000002 18.43523,-33.89771,121.92 18.4359,-33.89781,121.92 18.43643,-33.89757,121.92 18.43674,-33.89713,121.92 18.43672,-33.89673,114.30000000000001 18.43646,-33.89635,106.68 18.43596,-33.89616,91.44 18.43534,-33.89618,83.82000000000001 18.43444,-33.89635,68.58 18.4338,-33.8965,60.96 18.43311,-33.89673,53.34 18.43248,-33.89694,53.34 18.43181,-33.89713,45.72 18.43157,-33.89724,38.1 18.43111,-33.89738,38.1 18.43085,-33.89749,30.48 18.43054,-33.89766,30.48 18.43031,-33.89776,22.86 18.43008,-33.89785,22.86 18.42968,-33.89804,15.24 18.42945,-33.89817,15.24 18.42894,-33.89846,7.62 18.42856,-33.89873,0 18.42805,-33.89909,0 18.42768,-33.89939,0 18.42733,-33.89976,0 18.4271,-33.90009,0 18.42693,-33.90036,0 18.42699,-33.9007,0 18.42716,-33.90092,0 18.42738,-33.90111,0 18.42728,-33.90088,0 18.42721,-33.90047,0 18.42722,-33.90022,0 18.42728,-33.89999,0 18.42743,-33.89978,0 18.42755,-33.89955,0 18.42779,-33.89925,0 18.42819,-33.89883,0 18.42848,-33.89846,0 18.42888,-33.89794,7.62 18.42923,-33.89749,15.24 18.42951,-33.89711,15.24 18.42979,-33.89673,22.86 18.43013,-33.89616,30.48 18.43031,-33.89589,30.48 18.43046,-33.89566,38.1 18.43085,-33.89502,45.72 18.43119,-33.89447,53.34 18.43157,-33.89389,68.58 18.43197,-33.8932,76.2 18.43226,-33.89268,83.82000000000001 18.43266,-33.89198,99.06 18.43294,-33.89133,99.06 18.43323,-33.89087,106.68 18.4338,-33.8898,114.30000000000001 18.43409,-33.88914,121.92 18.43431,-33.88849,121.92 18.43467,-33.8877,137.16 18.43483,-33.88705,137.16 18.43506,-33.88632,152.4 18.43517,-33.88565,152.4 18.43529,-33.88477,167.64000000000001 18.43534,-33.88408,182.88 18.43529,-33.88337,190.5 18.43517,-33.88277,198.12 18.43489,-33.88202,213.36 18.43456,-33.88142,213.36 18.43416,-33.88087,220.98000000000002 18.43369,-33.8803,220.98000000000002 18.433,-33.87974,228.60000000000002 18.43242,-33.87932,228.60000000000002 18.43157,-33.87886,236.22 18.43057,-33.87845,236.22 18.42979,-33.87817,243.84 18.42894,-33.87793,243.84 18.42791,-33.87769,251.46 18.42682,-33.87753,259.08000000000004 18.42573,-33.87746,266.7 18.42491,-33.87744,266.7 18.42361,-33.87746,274.32 18.42264,-33.87751,274.32 18.42149,-33.87762,281.94 18.42047,-33.87774,289.56 18.41964,-33.87781,289.56 18.41852,-33.87797,297.18 18.41763,-33.87813,304.8 18.41681,-33.8783,312.42 18.41572,-33.87853,320.04 18.41486,-33.87872,327.66 18.41398,-33.87895,327.66 18.41309,-33.87918,335.28000000000003 18.41213,-33.87946,350.52000000000004 18.41125,-33.87974,350.52000000000004 18.41028,-33.88005,365.76 18.40942,-33.8803,373.38 18.40849,-33.8806,381 18.40765,-33.88086,388.62 18.4067,-33.8812,396.24 18.40593,-33.88146,403.86 18.40501,-33.88179,411.48 18.40401,-33.88216,419.1 18.4033,-33.88244,419.1 18.40244,-33.88277,426.72 18.40165,-33.88307,434.34000000000003 18.40078,-33.88346,441.96000000000004 18.39997,-33.8838,441.96000000000004 18.39896,-33.88426,449.58000000000004 18.39806,-33.88463,457.20000000000005 18.39712,-33.88505,464.82000000000005 18.39644,-33.88541,472.44 18.39554,-33.88582,480.06 18.39476,-33.88618,480.06 18.39386,-33.88668,487.68 18.393,-33.8871,495.3 18.39229,-33.88742,495.3 18.39134,-33.88794,502.92 18.39077,-33.88826,502.92 18.38982,-33.88875,510.54 18.38911,-33.8891,518.1600000000001 18.38808,-33.88961,518.1600000000001 18.38734,-33.89003,525.78 18.38636,-33.89054,525.78 18.38556,-33.89099,525.78 18.38476,-33.89147,525.78 18.38396,-33.89198,525.78 18.38316,-33.89245,525.78 18.3822,-33.89305,533.4 18.38144,-33.89361,533.4 18.38064,-33.89413,533.4 18.37968,-33.89484,533.4 18.37893,-33.89534,533.4 18.37811,-33.89589,533.4 18.37733,-33.89644,541.02 18.37637,-33.89713,541.02 18.37549,-33.89776,541.02 18.37458,-33.89846,541.02 18.37379,-33.89905,541.02 18.37323,-33.89955,541.02 18.37246,-33.90018,548.64 18.37144,-33.90111,548.64 18.3708,-33.90171,548.64 18.37,-33.90246,556.26 18.3692,-33.90334,556.26 18.3684,-33.90409,563.88 18.36788,-33.90465,563.88 18.36714,-33.90544,563.88 18.36634,-33.90628,563.88 18.36582,-33.90688,563.88 18.36494,-33.90784,563.88 18.36433,-33.90846,563.88 18.36353,-33.90939,563.88 18.36297,-33.91003,563.88 18.36219,-33.91086,571.5 18.36163,-33.91154,571.5 18.36102,-33.91224,579.12 18.36045,-33.91301,579.12 18.35993,-33.91372,579.12 18.35922,-33.91461,579.12 18.35873,-33.91531,579.12 18.35798,-33.91629,586.74 18.35747,-33.91703,586.74 18.35675,-33.918,586.74 18.35619,-33.91882,586.74 18.35564,-33.91954,594.36 18.35518,-33.9202,594.36 18.35457,-33.92102,594.36 18.35406,-33.92175,594.36 18.3535,-33.92258,601.98 18.35306,-33.92322,601.98 18.35249,-33.924,601.98 18.35098,-33.92628,609.6 18.34934,-33.92867,617.22 18.34791,-33.93072,624.84 18.34734,-33.93146,632.46 18.3466,-33.93248,632.46 18.34616,-33.93311,632.46 18.34562,-33.93388,632.46 18.34504,-33.93475,632.46 18.34448,-33.93551,632.46 18.3427,-33.93802,640.08 18.34076,-33.94072,647.7 18.33916,-33.943,655.32 18.33859,-33.944,655.32 18.33831,-33.94478,655.32 18.33803,-33.9456,655.32 18.33786,-33.94675,655.32 18.3379,-33.94775,655.32 18.33803,-33.94858,655.32 18.33837,-33.94954,655.32 18.33898,-33.95045,655.32 18.33973,-33.95129,655.32 18.34042,-33.95185,647.7 18.34156,-33.95251,647.7 18.34242,-33.95292,655.32 18.34356,-33.95325,655.32 18.34488,-33.95343,655.32 18.34608,-33.95343,662.94 18.34723,-33.95334,662.94 18.34823,-33.95311,670.5600000000001 18.34957,-33.95274,670.5600000000001 18.35049,-33.95236,678.1800000000001 18.35137,-33.95187,678.1800000000001 18.35238,-33.9512,678.1800000000001 18.35339,-33.95041,678.1800000000001 18.35417,-33.94972,678.1800000000001 18.35495,-33.94892,678.1800000000001 18.35564,-33.94817,678.1800000000001 18.35627,-33.94743,670.5600000000001 18.35709,-33.94633,678.1800000000001 18.35776,-33.94537,678.1800000000001 18.3585,-33.94426,678.1800000000001 18.359,-33.94341,678.1800000000001 18.35953,-33.94254,678.1800000000001 18.35999,-33.9417,678.1800000000001 18.36051,-33.94066,670.5600000000001 18.36101,-33.9397,670.5600000000001 18.36152,-33.93855,670.5600000000001 18.36197,-33.93764,670.5600000000001 18.36233,-33.93681,662.94 18.36285,-33.93579,662.94 18.36325,-33.93494,662.94 18.36382,-33.93383,662.94 18.36432,-33.93279,655.32 18.36479,-33.93179,655.32 18.36544,-33.93045,655.32 18.36599,-33.9295,655.32 18.36651,-33.92848,655.32 18.36714,-33.92732,647.7 18.36768,-33.92633,640.08 18.36819,-33.92537,640.08 18.36886,-33.92418,632.46 18.36942,-33.92322,632.46 18.36992,-33.9223,632.46 18.3706,-33.9212,624.84 18.37127,-33.9201,624.84 18.37206,-33.91891,624.84 18.37263,-33.91805,624.84 18.37343,-33.91689,624.84 18.37402,-33.91612,617.22 18.37497,-33.91484,617.22 18.37566,-33.91401,617.22 18.37643,-33.91306,617.22 18.37721,-33.91205,617.22 18.37783,-33.91136,617.22 18.37858,-33.91042,617.22 18.37951,-33.90944,617.22 18.3803,-33.90856,617.22 18.38127,-33.90753,617.22 18.38196,-33.90679,617.22 18.38282,-33.90587,624.84 18.38356,-33.90506,624.84 18.38444,-33.90417,624.84 18.3854,-33.90326,624.84 18.38602,-33.9026,624.84 18.38691,-33.90175,624.84 18.38757,-33.90106,624.84 18.38877,-33.89999,617.22 18.38977,-33.89909,609.6 18.39048,-33.8985,609.6 18.39162,-33.89758,601.98 18.3924,-33.89694,601.98 18.39369,-33.89594,594.36 18.39455,-33.89529,594.36 18.39575,-33.89441,586.74 18.39695,-33.89361,586.74 18.39795,-33.89296,579.12 18.39895,-33.89231,579.12 18.40008,-33.89163,579.12 18.40107,-33.89105,571.5 18.40204,-33.8905,571.5 18.40307,-33.88993,563.88 18.40427,-33.88929,563.88 18.4053,-33.88873,556.26 18.40681,-33.88797,548.64 18.40811,-33.88733,548.64 18.40914,-33.88682,548.64 18.41023,-33.88628,541.02 18.41129,-33.88582,541.02 18.41263,-33.88523,533.4 18.41376,-33.88477,533.4 18.4151,-33.88422,533.4 18.41617,-33.8838,533.4 18.41763,-33.88335,525.78 18.41869,-33.88305,518.1600000000001 18.42035,-33.88272,510.54 18.42189,-33.88248,502.92 18.42323,-33.88239,502.92 18.42447,-33.88234,495.3 18.42603,-33.88239,495.3 18.42733,-33.88249,495.3 18.42884,-33.88266,487.68 18.43001,-33.8828,480.06 18.43136,-33.88303,480.06 18.43254,-33.88321,472.44 18.43366,-33.88344,472.44 18.43528,-33.8838,464.82000000000005 18.43663,-33.88412,464.82000000000005 18.43775,-33.8844,464.82000000000005 18.43895,-33.88472,457.20000000000005 18.44038,-33.88513,457.20000000000005 18.44158,-33.88551,449.58000000000004 18.44267,-33.88584,449.58000000000004 18.4438,-33.88623,449.58000000000004 18.4449,-33.88659,449.58000000000004 18.44604,-33.88705,449.58000000000004 18.44705,-33.88742,441.96000000000004 18.44829,-33.88788,441.96000000000004 18.44919,-33.88826,441.96000000000004 18.45025,-33.88889,434.34000000000003 18.45126,-33.88962,426.72 18.45193,-33.89026,419.1 18.4526,-33.89113,411.48 18.45314,-33.89208,396.24 18.45354,-33.89296,388.62 18.45372,-33.89365,381 18.45383,-33.89473,365.76 18.45384,-33.89561,358.14000000000004 18.45372,-33.89644,350.52000000000004 18.45343,-33.89748,335.28000000000003 18.453,-33.89832,327.66 18.45245,-33.89915,312.42 18.45182,-33.89985,297.18 18.45103,-33.90051,281.94 18.45008,-33.90111,266.7 18.4489,-33.90166,243.84 18.44793,-33.9019,236.22 18.44666,-33.90202,213.36 18.4456,-33.90202,205.74 18.44436,-33.90189,182.88 18.44313,-33.9017,167.64000000000001 18.44223,-33.90157,160.02 18.441,-33.90134,144.78 18.43982,-33.90106,137.16 18.4387,-33.90083,129.54000000000002 18.43763,-33.9006,114.30000000000001 18.43672,-33.90041,106.68 18.43562,-33.90024,91.44 18.43483,-33.9001,83.82000000000001 18.43386,-33.90004,76.2 18.43323,-33.89999,60.96 18.43231,-33.90001,53.34 18.43158,-33.90001,45.72 18.43128,-33.90004,38.1 18.43088,-33.90004,30.48 18.4306,-33.90004,30.48 18.43037,-33.90004,22.86 18.43008,-33.90009,22.86 18.42968,-33.90009,15.24 18.42934,-33.90009,7.62 18.42894,-33.90013,0 18.42825,-33.90009,0 18.42794,-33.89996,0 18.42773,-33.8999,0 18.42749,-33.89978,0 18.4267,-33.89948,0 18.42637,-33.89923,0 18.42619,-33.89897,0 18.42602,-33.89859,7.62 18.42598,-33.89832,7.62 18.42602,-33.8979,15.24 18.42609,-33.89767,15.24 18.42613,-33.89738,15.24 18.42636,-33.89697,15.24 18.42653,-33.89664,15.24 18.42699,-33.89603,22.86 18.42716,-33.89576,22.86 18.4276,-33.8952,30.48 18.42811,-33.89461,30.48 18.4285,-33.89424,38.1 18.42871,-33.89399,38.1 18.429,-33.89369,38.1 18.42968,-33.89296,53.34 18.43042,-33.89227,60.96 18.43088,-33.89185,60.96 18.43158,-33.89113,68.58 18.4322,-33.89053,68.58 18.43293,-33.8898,76.2 18.4336,-33.88916,83.82000000000001 18.43439,-33.88824,83.82000000000001 18.43494,-33.88761,91.44 18.43557,-33.88682,99.06 18.43597,-33.88621,99.06 18.43643,-33.88528,106.68 18.43663,-33.88454,114.30000000000001 18.43674,-33.88376,121.92 18.4366,-33.88291,137.16 18.43637,-33.88226,137.16 18.43592,-33.88142,144.78 18.43528,-33.88074,152.4 18.43477,-33.8803,160.02 18.43422,-33.87996,160.02 18.43338,-33.8795,167.64000000000001 18.4326,-33.87918,167.64000000000001 18.43192,-33.87895,175.26000000000002 18.43094,-33.87867,182.88 18.4299,-33.87849,182.88 18.42899,-33.87839,190.5 18.42802,-33.87835,198.12 18.42687,-33.87836,205.74 18.42609,-33.87836,205.74 18.42514,-33.8784,213.36 18.42424,-33.87849,220.98000000000002 18.42356,-33.87853,220.98000000000002 18.42253,-33.87862,228.60000000000002 18.42149,-33.87872,236.22 18.42064,-33.87886,243.84 18.41992,-33.87895,251.46 18.41903,-33.87904,251.46 18.41813,-33.87918,259.08000000000004 18.41709,-33.87932,259.08000000000004 18.41612,-33.87946,266.7 18.41532,-33.8796,266.7 18.41443,-33.87973,266.7 18.41337,-33.87993,274.32 18.41246,-33.88007,274.32 18.41143,-33.88025,281.94 18.41068,-33.88042,289.56 18.40965,-33.88063,289.56 18.40866,-33.88083,297.18 18.40759,-33.88106,304.8 18.40662,-33.88128,304.8 18.40576,-33.88146,304.8 18.40462,-33.88179,304.8 18.40376,-33.88207,312.42 18.40267,-33.88239,312.42 18.40165,-33.88275,320.04 18.40087,-33.88298,320.04 18.39963,-33.88344,327.66 18.39862,-33.88376,327.66 18.39784,-33.88408,335.28000000000003 18.39701,-33.8844,335.28000000000003 18.39616,-33.88472,342.90000000000003 18.39523,-33.88514,350.52000000000004 18.39449,-33.88551,358.14000000000004 18.39341,-33.88614,365.76 18.3926,-33.88659,373.38 18.39209,-33.88691,373.38 18.39117,-33.88751,381 18.3906,-33.88789,388.62 18.38985,-33.88845,396.24 18.38917,-33.88896,403.86 18.38853,-33.88943,411.48 18.38779,-33.88998,419.1 18.38708,-33.89058,426.72 18.38665,-33.89091,426.72 18.38591,-33.89157,434.34000000000003 18.38522,-33.89212,441.96000000000004 18.38465,-33.89259,449.58000000000004 18.38394,-33.89323,457.20000000000005 18.38332,-33.89369,464.82000000000005 18.38259,-33.89431,472.44 18.38207,-33.89478,472.44 18.38136,-33.89543,480.06 18.3807,-33.89594,487.68 18.38007,-33.89648,487.68 18.37933,-33.89706,495.3 18.3785,-33.89763,495.3 18.37794,-33.89809,502.92 18.37704,-33.89874,502.92 18.37643,-33.89923,510.54 18.37576,-33.89973,510.54 18.37503,-33.90027,518.1600000000001 18.37406,-33.90106,525.78 18.37343,-33.90157,525.78 18.37257,-33.90227,533.4 18.372,-33.9028,533.4 18.37127,-33.90349,541.02 18.37063,-33.90413,541.02 18.36992,-33.90482,548.64 18.36931,-33.90541,548.64 18.36858,-33.90623,556.26 18.368,-33.90693,556.26 18.36748,-33.90758,556.26 18.36697,-33.90823,556.26 18.36617,-33.90921,563.88 18.36571,-33.90981,563.88 18.36508,-33.91074,571.5 18.36456,-33.91144,571.5 18.36393,-33.91228,571.5 18.36348,-33.91301,579.12 18.36297,-33.91374,579.12 18.36239,-33.91465,579.12 18.36174,-33.91553,586.74 18.36119,-33.91633,594.36 18.36067,-33.91703,594.36 18.36012,-33.91782,601.98 18.35956,-33.91859,601.98 18.35855,-33.9201,617.22 18.3581,-33.92075,617.22 18.35765,-33.92148,624.84 18.35712,-33.92238,632.46 18.35658,-33.92326,640.08 18.35619,-33.924,640.08 18.35564,-33.92499,640.08 18.35535,-33.92559,640.08 18.35485,-33.92647,647.7 18.35438,-33.92732,647.7 18.35398,-33.92811,647.7 18.35345,-33.92903,647.7 18.35305,-33.92981,647.7 18.35249,-33.93085,655.32 18.3521,-33.93169,655.32 18.35163,-33.93258,655.32 18.35123,-33.93337,655.32 18.34991,-33.93602,662.94 18.34854,-33.93882,662.94 18.34812,-33.9397,670.5600000000001 18.34763,-33.94068,670.5600000000001 18.34705,-33.94175,670.5600000000001 18.34566,-33.94446,678.1800000000001 18.34373,-33.94813,693.4200000000001 18.34218,-33.95119,701.0400000000001 18.34082,-33.95371,708.6600000000001 18.33938,-33.95622,716.2800000000001 18.33727,-33.95986,716.2800000000001 18.33618,-33.96172,716.2800000000001 18.33383,-33.96574,723.9000000000001 18.3313,-33.96991,739.14 18.32895,-33.9738,746.76 18.32714,-33.9768,746.76 18.32463,-33.98099,746.76 18.32228,-33.98495,739.14 18.31892,-33.99023,746.76 18.31684,-33.99321,739.14 18.31518,-33.9957,739.14 18.31478,-33.99626,739.14 18.31415,-33.99728,739.14 18.31258,-33.9998,739.14 18.31221,-34.0004,739.14 18.31163,-34.0015,739.14 18.31107,-34.00237,739.14 18.31066,-34.00315,739.14 18.31012,-34.00406,739.14 18.30956,-34.00497,739.14 18.30905,-34.00589,746.76 18.3086,-34.00655,746.76 18.3081,-34.0074,746.76 18.30757,-34.00832,746.76 18.30709,-34.00919,746.76 18.30664,-34.00996,746.76 18.3062,-34.01074,746.76 18.30569,-34.01175,746.76 18.3053,-34.01257,746.76 18.30496,-34.01331,746.76 18.30448,-34.01423,746.76 18.30418,-34.01495,746.76 18.30379,-34.01586,746.76 18.30339,-34.01683,746.76 18.30311,-34.01754,746.76 18.30282,-34.01828,739.14 18.30244,-34.0193,739.14 18.3021,-34.02026,731.52 18.30182,-34.02104,731.52 18.30143,-34.02205,731.52 18.30109,-34.02301,723.9000000000001 18.30081,-34.02379,723.9000000000001 18.30059,-34.02461,723.9000000000001 18.30025,-34.02554,716.2800000000001 18.30002,-34.02643,716.2800000000001 18.29979,-34.02726,708.6600000000001 18.2995,-34.02843,708.6600000000001 18.29933,-34.02922,701.0400000000001 18.29913,-34.03029,701.0400000000001 18.29905,-34.03117,701.0400000000001 18.29899,-34.03201,693.4200000000001 18.29899,-34.03308,693.4200000000001 18.29905,-34.03411,693.4200000000001 18.29913,-34.0351,685.8000000000001 18.2993,-34.03592,685.8000000000001 18.29947,-34.03693,685.8000000000001 18.29967,-34.03769,685.8000000000001 18.2999,-34.03839,685.8000000000001 18.30025,-34.03946,678.1800000000001 18.30048,-34.04013,678.1800000000001 18.30092,-34.04114,670.5600000000001 18.30139,-34.04207,670.5600000000001 18.30185,-34.043,670.5600000000001 18.30236,-34.04388,662.94 18.30289,-34.04471,662.94 18.30328,-34.04542,662.94 18.30395,-34.04645,662.94 18.30451,-34.04736,655.32 18.30502,-34.0481,655.32 18.30568,-34.0491,655.32 18.30631,-34.05003,647.7 18.30692,-34.05089,647.7 18.30748,-34.05171,640.08 18.30809,-34.05259,640.08 18.30877,-34.0535,640.08 18.30929,-34.05431,640.08 18.30995,-34.05524,632.46 18.31051,-34.05597,632.46 18.31118,-34.05692,632.46 18.31297,-34.05949,624.84 18.31432,-34.06137,617.22 18.3149,-34.06213,617.22 18.31668,-34.06471,609.6 18.31791,-34.06654,601.98 18.31858,-34.0675,601.98 18.3193,-34.06846,601.98 18.31993,-34.06938,601.98 18.32049,-34.07021,601.98 18.3211,-34.07103,601.98 18.32161,-34.07176,601.98 18.32222,-34.07263,594.36 18.3229,-34.07359,594.36 18.32342,-34.07438,594.36 18.32405,-34.07521,586.74 18.32445,-34.07582,586.74 18.32514,-34.07671,586.74 18.32565,-34.0774,579.12 18.32637,-34.07835,579.12 18.32708,-34.07927,579.12 18.32766,-34.08006,579.12 18.32829,-34.08084,571.5 18.32909,-34.08187,571.5 18.32966,-34.08257,571.5 18.33018,-34.08325,571.5 18.33103,-34.08429,571.5 18.33172,-34.08508,571.5 18.33235,-34.08583,571.5 18.33298,-34.08652,563.88 18.33366,-34.08736,563.88 18.33452,-34.08825,563.88 18.33509,-34.0889,563.88 18.33579,-34.08961,563.88 18.3367,-34.09048,563.88 18.33767,-34.09142,563.88 18.33825,-34.092,563.88 18.33899,-34.09262,563.88 18.3399,-34.09337,563.88 18.3405,-34.09392,563.88 18.34139,-34.09465,571.5 18.34229,-34.09534,563.88 18.34322,-34.09598,563.88 18.34392,-34.09648,563.88 18.34492,-34.09712,556.26 18.34568,-34.09761,548.64 18.34683,-34.09822,548.64 18.34767,-34.09868,548.64 18.34863,-34.09918,548.64 18.34951,-34.09966,556.26 18.35066,-34.10017,556.26 18.35148,-34.10056,563.88 18.35261,-34.10106,571.5 18.35352,-34.10147,571.5 18.3544,-34.10184,571.5 18.35546,-34.10231,571.5 18.35653,-34.10275,579.12 18.35759,-34.10321,579.12 18.3586,-34.10362,579.12 18.35939,-34.10394,579.12 18.36051,-34.1044,579.12 18.36146,-34.10477,579.12 18.36451,-34.10594,579.12 18.36542,-34.10627,579.12 18.36662,-34.10673,579.12 18.36746,-34.10706,571.5 18.36868,-34.10752,571.5 18.36977,-34.10794,571.5 18.37278,-34.10912,563.88 18.37612,-34.11041,563.88 18.37693,-34.11072,563.88 18.3811,-34.11227,563.88 18.38517,-34.11378,563.88 18.38915,-34.11525,563.88 18.39195,-34.1163,571.5 18.39306,-34.11669,579.12 18.39403,-34.11707,579.12 18.39532,-34.11749,586.74 18.39621,-34.11786,586.74 18.39729,-34.11827,594.36 18.39846,-34.11877,601.98 18.39935,-34.11914,601.98 18.40047,-34.11955,609.6 18.40137,-34.11992,609.6 18.40227,-34.12032,617.22 18.4033,-34.12074,617.22 18.40429,-34.1212,617.22 18.40513,-34.12153,617.22 18.40633,-34.12209,617.22 18.40726,-34.12244,617.22 18.4081,-34.12285,617.22 18.40883,-34.12312,617.22 18.40978,-34.12354,617.22 18.41084,-34.12399,617.22 18.41377,-34.12526,601.98 18.41662,-34.12651,594.36 18.41992,-34.12802,579.12 18.42361,-34.12977,571.5 18.42665,-34.13122,563.88 18.43046,-34.13297,556.26 18.43164,-34.13342,556.26 18.43254,-34.13379,556.26 18.43355,-34.13416,556.26 18.43454,-34.13448,556.26 18.43557,-34.13475,548.64 18.4368,-34.13507,548.64 18.43775,-34.1353,548.64 18.43904,-34.13553,548.64 18.44005,-34.13567,548.64 18.4413,-34.13573,548.64 18.44255,-34.13578,548.64 18.44358,-34.13568,548.64 18.4449,-34.13554,548.64 18.44604,-34.1353,548.64 18.4475,-34.13489,541.02 18.44828,-34.13461,541.02 18.44936,-34.1342,541.02 18.45062,-34.13364,541.02 18.45171,-34.1331,541.02 18.45268,-34.13256,541.02 18.45348,-34.13205,541.02 18.45462,-34.13136,541.02 18.45554,-34.13075,541.02 18.45636,-34.13017,533.4 18.45742,-34.12935,533.4 18.45823,-34.12875,533.4 18.4595,-34.1277,533.4 18.46041,-34.12703,533.4 18.46138,-34.12624,533.4 18.46235,-34.1254,525.78 18.4632,-34.12468,525.78 18.46407,-34.12386,525.78 18.46487,-34.12316,525.78 18.46584,-34.12223,525.78 18.46667,-34.12152,525.78 18.46746,-34.12079,525.78 18.46842,-34.11986,518.1600000000001 18.46916,-34.11911,518.1600000000001 18.47032,-34.11804,518.1600000000001 18.47121,-34.11717,518.1600000000001 18.47202,-34.11641,518.1600000000001 18.47277,-34.11567,518.1600000000001 18.47345,-34.11488,525.78 18.47454,-34.11376,525.78 18.47528,-34.11278,525.78 18.47591,-34.11199,525.78 18.47654,-34.11122,525.78 18.47715,-34.11021,525.78 18.4778,-34.10925,525.78 18.47832,-34.10817,525.78 18.47878,-34.1071,525.78 18.47917,-34.106,518.1600000000001 18.47946,-34.10501,518.1600000000001 18.47962,-34.10431,518.1600000000001 18.47986,-34.1031,518.1600000000001 18.48003,-34.10212,518.1600000000001 18.48021,-34.10091,518.1600000000001 18.48029,-34.09987,518.1600000000001 18.48041,-34.09886,518.1600000000001 18.48057,-34.09763,510.54 18.48066,-34.09649,510.54 18.48069,-34.09547,510.54 18.48078,-34.09449,510.54 18.48085,-34.09328,510.54 18.48089,-34.09225,510.54 18.48097,-34.09126,502.92 18.48101,-34.09011,502.92 18.48102,-34.08893,502.92 18.48106,-34.08792,502.92 18.48113,-34.08678,502.92 18.48118,-34.08569,495.3 18.48125,-34.08467,495.3 18.48129,-34.08355,495.3 18.48135,-34.08038,487.68 18.48146,-34.076,472.44 18.48153,-34.07263,464.82000000000005 18.4817,-34.06847,449.58000000000004 18.48186,-34.06488,441.96000000000004 18.48203,-34.06165,434.34000000000003 18.48221,-34.05841,434.34000000000003 18.48237,-34.05391,434.34000000000003 18.48232,-34.0518,434.34000000000003 18.48238,-34.05063,441.96000000000004 18.48238,-34.04947,441.96000000000004 18.48248,-34.04846,441.96000000000004 18.48248,-34.04736,441.96000000000004 18.48248,-34.04622,441.96000000000004 18.48253,-34.04521,441.96000000000004 18.48249,-34.04407,449.58000000000004 18.48253,-34.04288,449.58000000000004 18.48249,-34.04184,449.58000000000004 18.48248,-34.04068,441.96000000000004 18.48248,-34.03963,449.58000000000004 18.48248,-34.03848,449.58000000000004 18.48248,-34.03752,457.20000000000005 18.48242,-34.03445,449.58000000000004 18.48238,-34.03117,449.58000000000004 18.48237,-34.0302,449.58000000000004 18.48237,-34.02924,449.58000000000004 18.48231,-34.02791,449.58000000000004 18.48231,-34.02699,449.58000000000004 18.48227,-34.0261,449.58000000000004 18.48221,-34.02498,449.58000000000004 18.4822,-34.02406,449.58000000000004 18.48214,-34.02315,449.58000000000004 18.48214,-34.02191,441.96000000000004 18.48214,-34.02077,441.96000000000004 18.48214,-34.01999,434.34000000000003 18.48215,-34.01875,434.34000000000003 18.48215,-34.01758,426.72 18.48209,-34.01423,419.1 18.48209,-34.00983,419.1 18.48209,-34.00529,411.48 18.48203,-34.00099,419.1 18.48203,-33.99664,411.48 18.48209,-33.99328,411.48 18.48215,-33.9924,411.48 18.4822,-33.99142,411.48 18.48227,-33.99039,403.86 18.48231,-33.98964,403.86 18.48244,-33.98867,396.24 18.48253,-33.98753,388.62 18.48261,-33.98663,381 18.48267,-33.98537,381 18.48276,-33.98419,381 18.48284,-33.98323,381 18.48295,-33.98215,381 18.48304,-33.98099,381 18.48315,-33.98007,381 18.48324,-33.97894,373.38 18.48332,-33.97797,373.38 18.48341,-33.97685,365.76 18.48347,-33.97592,358.14000000000004 18.48358,-33.97471,358.14000000000004 18.48366,-33.97357,342.90000000000003 18.4837,-33.97266,335.28000000000003 18.48375,-33.97173,327.66 18.48382,-33.9706,327.66 18.48387,-33.96964,320.04 18.48388,-33.96872,312.42 18.48399,-33.96538,304.8 18.48394,-33.96318,304.8 18.48392,-33.96223,304.8 18.48388,-33.96121,297.18 18.48381,-33.96028,297.18 18.48382,-33.95943,289.56 18.48375,-33.95846,289.56 18.4837,-33.95739,281.94 18.48364,-33.9566,281.94 18.48354,-33.95554,274.32 18.48343,-33.95453,274.32 18.48335,-33.95357,274.32 18.48321,-33.95251,274.32 18.48304,-33.95164,274.32 18.48284,-33.95059,274.32 18.48265,-33.94963,274.32 18.48242,-33.94872,274.32 18.48221,-33.94757,274.32 18.48192,-33.94661,281.94 18.48169,-33.94575,281.94 18.48136,-33.94464,289.56 18.48108,-33.94368,289.56 18.48069,-33.94263,289.56 18.48046,-33.94185,289.56 18.48003,-33.94068,289.56 18.47975,-33.93989,289.56 18.47935,-33.93891,281.94 18.47895,-33.93805,281.94 18.47844,-33.937,281.94 18.47803,-33.93621,281.94 18.47757,-33.93542,281.94 18.47712,-33.93467,281.94 18.47654,-33.93384,281.94 18.47591,-33.9329,274.32 18.47546,-33.93216,274.32 18.47477,-33.93118,274.32 18.47413,-33.93027,274.32 18.47357,-33.92953,274.32 18.47289,-33.92862,266.7 18.47228,-33.92789,274.32 18.47151,-33.92699,266.7 18.47099,-33.92638,266.7 18.47019,-33.92546,266.7 18.46933,-33.92448,266.7 18.46869,-33.92377,266.7 18.46802,-33.92308,266.7 18.46733,-33.92229,266.7 18.46642,-33.92126,266.7 18.46573,-33.92057,266.7 18.4651,-33.91982,266.7 18.46437,-33.91905,266.7 18.46355,-33.91815,259.08000000000004 18.46286,-33.91736,259.08000000000004 18.46213,-33.91658,266.7 18.46146,-33.91589,274.32 18.46067,-33.91507,274.32 18.46006,-33.91443,281.94 18.45943,-33.91372,274.32 18.45869,-33.91289,274.32 18.45804,-33.91223,274.32 18.45749,-33.91163,274.32 18.45692,-33.91098,274.32 18.45634,-33.91037,266.7 18.45577,-33.90972,266.7 18.45513,-33.90907,266.7 18.45428,-33.90825,259.08000000000004 18.45366,-33.90763,243.84 18.45285,-33.90688,236.22 18.452,-33.90614,220.98000000000002 18.45131,-33.90559,213.36 18.45051,-33.90497,205.74 18.44963,-33.90431,190.5 18.44879,-33.90372,190.5 18.44812,-33.90326,182.88 18.44742,-33.90283,175.26000000000002 18.44645,-33.90237,167.64000000000001 18.44565,-33.90198,160.02 18.4449,-33.90167,152.4 18.44387,-33.90139,144.78 18.44324,-33.9012,137.16 18.44221,-33.90102,129.54000000000002 18.44117,-33.90092,121.92 18.44033,-33.90083,121.92 18.43935,-33.90078,114.30000000000001 18.43853,-33.90079,99.06 18.43775,-33.90074,91.44 18.43696,-33.90074,83.82000000000001 18.43597,-33.90069,68.58 18.43511,-33.90065,60.96 18.43444,-33.9006,53.34 18.43374,-33.90055,45.72 18.43327,-33.90051,38.1 18.43294,-33.90046,38.1 18.43237,-33.90042,30.48 18.43208,-33.90041,30.48 18.4317,-33.90033,22.86 18.43119,-33.90028,22.86 18.43094,-33.90027,15.24 18.43057,-33.90024,15.24 18.43037,-33.90022,7.62 18.43001,-33.90015,7.62 18.42962,-33.9001,0 18.42928,-33.90004,0 18.42884,-33.89996,0 18.42854,-33.89994,0 18.42833,-33.89987,0 18.428,-33.89983,0 18.42777,-33.89983,0 18.42773,-33.90013,0 18.42773,-33.90041,0 18.42768,-33.90064,0 18.42755,-33.90088,0 18.42739,-33.90111,0</coordinates>
      </LineString>
    </Placemark>
  </Document>
</kml>
