<?xml version="1.0" encoding="UTF-8"?>
<kml xmlns="http://www.opengis.net/kml/2.2">
  <Document>
    <name>FR24 ZSHIE 3e0ad5f2</name>
    <Placemark>
      <name>FR24 ZSHIE 3e0ad5f2</name>
      <description><![CDATA[Source: ADS-B
Start (SAST): 2026-01-24 17:17:11
End (SAST): 2026-01-24 17:46:40
Points: 537]]></description>
      <Style><LineStyle><color>ff0000ff</color><width>4</width></LineStyle></Style>
      <LineString>
        <tessellate>1</tessellate>
        <altitudeMode>absolute</altitudeMode>
        <coordinates>18.43227,-33.88173,220.98000000000002 18.42293,-33.8764,289.56 18.41953,-33.87535,320.04 18.40586,-33.87831,457.20000000000005 18.39492,-33.88268,510.54 18.39181,-33.88305,518.1600000000001 18.39178,-33.88373,525.78 18.39074,-33.8839,533.4 18.38728,-33.88451,533.4 18.38479,-33.88436,541.02 18.39049,-33.88586,548.64 18.38902,-33.88737,556.26 18.39214,-33.88868,563.88 18.37881,-33.88728,571.5 18.3796,-33.88812,579.12 18.37901,-33.88848,586.74 18.37815,-33.89004,601.98 18.38283,-33.89294,609.6 18.37186,-33.89457,624.84 18.37148,-33.89574,632.46 18.3776,-33.89702,640.08 18.37499,-33.89905,647.7 18.3708,-33.90153,655.32 18.36771,-33.90446,662.94 18.3669,-33.90527,670.5600000000001 18.36606,-33.90605,670.5600000000001 18.36525,-33.90683,678.1800000000001 18.36433,-33.90763,678.1800000000001 18.36365,-33.90825,685.8000000000001 18.3629,-33.90893,685.8000000000001 18.36199,-33.90981,693.4200000000001 18.36113,-33.91061,693.4200000000001 18.36044,-33.91126,701.0400000000001 18.35972,-33.912,701.0400000000001 18.359,-33.91273,701.0400000000001 18.35821,-33.91354,708.6600000000001 18.35759,-33.9142,708.6600000000001 18.35701,-33.91489,708.6600000000001 18.35638,-33.91563,708.6600000000001 18.35558,-33.91653,708.6600000000001 18.35495,-33.91731,716.2800000000001 18.35426,-33.91815,716.2800000000001 18.35352,-33.91903,708.6600000000001 18.35294,-33.91974,716.2800000000001 18.3522,-33.92066,716.2800000000001 18.3516,-33.92143,716.2800000000001 18.35092,-33.92235,716.2800000000001 18.3506,-33.92276,716.2800000000001 18.34963,-33.92404,716.2800000000001 18.34911,-33.92466,716.2800000000001 18.347,-33.92734,716.2800000000001 18.34498,-33.92995,716.2800000000001 18.34442,-33.93068,716.2800000000001 18.34381,-33.93146,716.2800000000001 18.34087,-33.93491,708.6600000000001 18.34011,-33.93581,708.6600000000001 18.33954,-33.93649,708.6600000000001 18.33887,-33.93728,708.6600000000001 18.3368,-33.93974,701.0400000000001 18.33424,-33.94291,693.4200000000001 18.33143,-33.94636,701.0400000000001 18.32951,-33.9489,701.0400000000001 18.32705,-33.95215,701.0400000000001 18.32497,-33.95488,708.6600000000001 18.32351,-33.95695,708.6600000000001 18.32116,-33.9603,708.6600000000001 18.32033,-33.96144,708.6600000000001 18.3197,-33.96236,708.6600000000001 18.31914,-33.96313,708.6600000000001 18.31844,-33.96405,708.6600000000001 18.3178,-33.96492,708.6600000000001 18.31735,-33.96552,708.6600000000001 18.31628,-33.96684,708.6600000000001 18.31152,-33.97298,708.6600000000001 18.30923,-33.97606,716.2800000000001 18.3072,-33.97893,716.2800000000001 18.30547,-33.98163,716.2800000000001 18.30208,-33.98756,708.6600000000001 18.30104,-33.98978,708.6600000000001 18.30036,-33.99124,708.6600000000001 18.2999,-33.99231,701.0400000000001 18.29947,-33.99339,701.0400000000001 18.29899,-33.99445,701.0400000000001 18.29859,-33.99542,701.0400000000001 18.29744,-33.9984,708.6600000000001 18.29717,-33.99911,708.6600000000001 18.29683,-34.00021,708.6600000000001 18.29655,-34.00099,708.6600000000001 18.29622,-34.00209,708.6600000000001 18.29588,-34.00319,708.6600000000001 18.29566,-34.00392,708.6600000000001 18.29538,-34.00501,708.6600000000001 18.29504,-34.00603,708.6600000000001 18.29487,-34.00683,708.6600000000001 18.29459,-34.0079,708.6600000000001 18.29442,-34.00877,708.6600000000001 18.29418,-34.00995,708.6600000000001 18.29407,-34.01083,708.6600000000001 18.2939,-34.01186,708.6600000000001 18.29386,-34.01266,708.6600000000001 18.29375,-34.01367,708.6600000000001 18.29369,-34.01472,708.6600000000001 18.29358,-34.01587,708.6600000000001 18.29355,-34.0167,708.6600000000001 18.29355,-34.01767,708.6600000000001 18.29355,-34.01884,708.6600000000001 18.29361,-34.01954,708.6600000000001 18.29364,-34.02045,708.6600000000001 18.29367,-34.0214,708.6600000000001 18.29375,-34.02246,708.6600000000001 18.29381,-34.02338,708.6600000000001 18.29392,-34.02448,708.6600000000001 18.29403,-34.02534,708.6600000000001 18.29414,-34.0264,708.6600000000001 18.29425,-34.02727,708.6600000000001 18.29435,-34.02819,708.6600000000001 18.29453,-34.02914,708.6600000000001 18.2947,-34.02996,708.6600000000001 18.29487,-34.03104,708.6600000000001 18.29498,-34.03169,708.6600000000001 18.29521,-34.03262,701.0400000000001 18.2955,-34.03364,701.0400000000001 18.29561,-34.03425,701.0400000000001 18.29594,-34.03546,701.0400000000001 18.29622,-34.03624,701.0400000000001 18.29644,-34.03716,701.0400000000001 18.29676,-34.0382,701.0400000000001 18.297,-34.03908,701.0400000000001 18.29728,-34.04008,701.0400000000001 18.29756,-34.04091,701.0400000000001 18.2979,-34.04187,701.0400000000001 18.29812,-34.0426,701.0400000000001 18.29847,-34.04351,701.0400000000001 18.2987,-34.0443,701.0400000000001 18.29907,-34.0453,701.0400000000001 18.29933,-34.04607,701.0400000000001 18.30014,-34.04846,708.6600000000001 18.30143,-34.05199,716.2800000000001 18.30248,-34.05445,716.2800000000001 18.30282,-34.05524,716.2800000000001 18.30401,-34.05789,716.2800000000001 18.30552,-34.06123,716.2800000000001 18.30666,-34.06367,716.2800000000001 18.30843,-34.0673,723.9000000000001 18.31026,-34.07074,723.9000000000001 18.31169,-34.07331,731.52 18.31214,-34.07401,731.52 18.31261,-34.07479,731.52 18.3132,-34.07579,731.52 18.31365,-34.07643,731.52 18.31427,-34.07735,739.14 18.31478,-34.07805,739.14 18.31541,-34.07889,739.14 18.31598,-34.07964,739.14 18.31679,-34.08055,739.14 18.31736,-34.08117,739.14 18.31813,-34.08202,746.76 18.31881,-34.08266,746.76 18.31942,-34.0833,746.76 18.32032,-34.08408,746.76 18.32105,-34.08476,746.76 18.32172,-34.08536,754.38 18.32262,-34.08611,746.76 18.32331,-34.08671,754.38 18.32428,-34.08746,754.38 18.32497,-34.08806,754.38 18.32587,-34.08879,754.38 18.32688,-34.08952,754.38 18.32761,-34.09007,754.38 18.32856,-34.09076,754.38 18.32929,-34.09131,754.38 18.33023,-34.09197,754.38 18.33102,-34.09254,754.38 18.332,-34.09323,754.38 18.33282,-34.09378,754.38 18.33377,-34.09447,754.38 18.33478,-34.09511,754.38 18.33549,-34.09556,754.38 18.33652,-34.09616,754.38 18.33736,-34.09666,754.38 18.33813,-34.09705,754.38 18.33887,-34.09749,754.38 18.3399,-34.09798,754.38 18.34072,-34.09845,754.38 18.34173,-34.09891,754.38 18.34246,-34.09927,754.38 18.3433,-34.09969,754.38 18.34419,-34.10007,754.38 18.34504,-34.10046,754.38 18.34605,-34.10088,762 18.34711,-34.10133,754.38 18.34785,-34.10161,754.38 18.34757,-34.10208,754.38 18.34879,-34.10246,754.38 18.34972,-34.10293,754.38 18.35038,-34.10325,746.76 18.35062,-34.10364,746.76 18.35185,-34.10396,746.76 18.35307,-34.1043,746.76 18.35586,-34.10544,739.14 18.35983,-34.10698,723.9000000000001 18.3636,-34.10858,716.2800000000001 18.36662,-34.10989,708.6600000000001 18.37021,-34.11158,701.0400000000001 18.37279,-34.11283,693.4200000000001 18.37374,-34.1133,693.4200000000001 18.37664,-34.11446,685.8000000000001 18.38017,-34.11607,685.8000000000001 18.38474,-34.11761,685.8000000000001 18.38753,-34.11874,678.1800000000001 18.38838,-34.11922,678.1800000000001 18.38894,-34.11964,678.1800000000001 18.38985,-34.11992,678.1800000000001 18.3911,-34.12035,670.5600000000001 18.39191,-34.12071,670.5600000000001 18.39297,-34.12107,670.5600000000001 18.39421,-34.12141,670.5600000000001 18.39529,-34.12179,662.94 18.3963,-34.12221,662.94 18.39721,-34.12252,662.94 18.39804,-34.12297,655.32 18.39884,-34.1234,655.32 18.40165,-34.12428,647.7 18.40255,-34.12464,647.7 18.40347,-34.12497,640.08 18.40446,-34.12527,640.08 18.40533,-34.12559,632.46 18.40649,-34.12603,632.46 18.40763,-34.12654,632.46 18.40872,-34.12699,632.46 18.40964,-34.12729,624.84 18.41057,-34.12764,624.84 18.41172,-34.12817,624.84 18.41273,-34.12859,624.84 18.41361,-34.12896,624.84 18.41451,-34.12927,617.22 18.41538,-34.12961,617.22 18.41628,-34.13013,617.22 18.41722,-34.13066,617.22 18.41826,-34.13121,617.22 18.41913,-34.13159,617.22 18.42,-34.13187,609.6 18.42096,-34.13229,609.6 18.42186,-34.1327,609.6 18.42285,-34.13324,609.6 18.42636,-34.13486,609.6 18.4273,-34.1352,609.6 18.43004,-34.13634,609.6 18.43096,-34.13672,609.6 18.43208,-34.13712,609.6 18.43295,-34.13739,609.6 18.43405,-34.13771,609.6 18.43505,-34.13766,609.6 18.43609,-34.13799,609.6 18.43714,-34.13817,601.98 18.43818,-34.13818,601.98 18.43932,-34.13823,601.98 18.44039,-34.13816,601.98 18.4414,-34.13812,601.98 18.44255,-34.13797,601.98 18.44356,-34.13781,601.98 18.44472,-34.13771,601.98 18.44577,-34.13753,601.98 18.44606,-34.1375,601.98 18.44786,-34.13675,601.98 18.44887,-34.13651,594.36 18.44981,-34.13617,594.36 18.45092,-34.13581,594.36 18.45184,-34.13538,594.36 18.45293,-34.13495,586.74 18.45378,-34.1345,586.74 18.45469,-34.13401,586.74 18.45555,-34.13343,586.74 18.45641,-34.13295,594.36 18.45732,-34.13248,586.74 18.45819,-34.13196,586.74 18.45924,-34.13134,586.74 18.45997,-34.13084,586.74 18.46084,-34.13036,586.74 18.46161,-34.12983,586.74 18.46248,-34.12922,579.12 18.46338,-34.12864,579.12 18.46421,-34.12796,579.12 18.46517,-34.12724,579.12 18.46593,-34.1266,579.12 18.46683,-34.12582,586.74 18.46759,-34.12536,586.74 18.46844,-34.12456,594.36 18.4692,-34.12389,594.36 18.46983,-34.12336,594.36 18.47059,-34.12264,601.98 18.47128,-34.12206,601.98 18.47198,-34.12136,601.98 18.47265,-34.12052,601.98 18.47338,-34.11977,609.6 18.47401,-34.119,609.6 18.47464,-34.11827,609.6 18.47526,-34.11737,609.6 18.47579,-34.11665,609.6 18.47632,-34.11589,617.22 18.47685,-34.11479,609.6 18.47727,-34.114,609.6 18.47766,-34.11306,609.6 18.47801,-34.11219,617.22 18.47828,-34.1115,617.22 18.47869,-34.1106,617.22 18.47898,-34.10985,609.6 18.47921,-34.10895,609.6 18.47939,-34.10798,609.6 18.4796,-34.10701,609.6 18.47978,-34.10606,601.98 18.47994,-34.1052,601.98 18.48015,-34.1043,601.98 18.48031,-34.1033,601.98 18.4805,-34.10217,594.36 18.48058,-34.1011,594.36 18.48058,-34.10025,594.36 18.48046,-34.09938,594.36 18.48041,-34.09848,586.74 18.48054,-34.09737,586.74 18.48053,-34.09639,586.74 18.4807,-34.09531,586.74 18.48074,-34.09427,579.12 18.48079,-34.09345,579.12 18.48087,-34.09244,579.12 18.48093,-34.09142,579.12 18.48126,-34.0904,571.5 18.48131,-34.08842,571.5 18.48178,-34.08658,571.5 18.48204,-34.08368,563.88 18.48197,-34.0821,556.26 18.48192,-34.08121,556.26 18.48209,-34.08008,548.64 18.48226,-34.07905,548.64 18.4826,-34.07817,541.02 18.48252,-34.07734,541.02 18.48268,-34.07643,541.02 18.48301,-34.07542,533.4 18.4832,-34.07426,533.4 18.48342,-34.0734,533.4 18.48369,-34.07251,525.78 18.48378,-34.07168,525.78 18.484,-34.07076,525.78 18.4841,-34.06986,525.78 18.48541,-34.06681,518.1600000000001 18.48588,-34.06513,518.1600000000001 18.48615,-34.06336,518.1600000000001 18.48613,-34.06232,518.1600000000001 18.48666,-34.06136,510.54 18.48726,-34.05942,518.1600000000001 18.48765,-34.0584,518.1600000000001 18.48788,-34.05742,518.1600000000001 18.48814,-34.05658,518.1600000000001 18.48839,-34.05571,518.1600000000001 18.48856,-34.05476,518.1600000000001 18.48851,-34.0539,510.54 18.48872,-34.05305,510.54 18.48866,-34.05199,510.54 18.48859,-34.05125,502.92 18.48889,-34.05022,502.92 18.48915,-34.04924,510.54 18.48911,-34.0484,510.54 18.48925,-34.04726,510.54 18.4892,-34.04635,510.54 18.48945,-34.0455,510.54 18.48954,-34.04458,510.54 18.48976,-34.04367,510.54 18.48983,-34.04255,510.54 18.48973,-34.0416,510.54 18.49001,-34.04062,510.54 18.49024,-34.0397,510.54 18.49066,-34.03879,510.54 18.4903,-34.0379,510.54 18.49022,-34.03702,518.1600000000001 18.49038,-34.03624,518.1600000000001 18.49054,-34.03536,510.54 18.49067,-34.03435,510.54 18.49101,-34.03328,510.54 18.49139,-34.03223,502.92 18.49148,-34.03126,502.92 18.49135,-34.0305,502.92 18.49138,-34.02958,502.92 18.49153,-34.02868,502.92 18.49169,-34.02772,502.92 18.49172,-34.02686,502.92 18.49178,-34.02596,495.3 18.49174,-34.02509,495.3 18.4916,-34.02423,495.3 18.49156,-34.02327,495.3 18.49167,-34.02227,487.68 18.49174,-34.02126,487.68 18.49173,-34.02055,487.68 18.49187,-34.01954,487.68 18.49176,-34.01858,487.68 18.49185,-34.01754,487.68 18.49179,-34.01657,487.68 18.49166,-34.01585,487.68 18.49152,-34.01506,480.06 18.49148,-34.01398,480.06 18.49167,-34.013,472.44 18.49167,-34.01197,472.44 18.49156,-34.01107,472.44 18.49157,-34.01004,472.44 18.49136,-34.00929,464.82000000000005 18.49142,-34.00832,464.82000000000005 18.49111,-34.00474,457.20000000000005 18.4913,-34.0011,457.20000000000005 18.49115,-33.998,457.20000000000005 18.49099,-33.99517,449.58000000000004 18.49098,-33.99132,441.96000000000004 18.49082,-33.98837,441.96000000000004 18.49092,-33.98465,441.96000000000004 18.49018,-33.98084,426.72 18.49004,-33.97791,419.1 18.49061,-33.97361,411.48 18.4908,-33.97115,403.86 18.49114,-33.96933,403.86 18.49114,-33.96876,403.86 18.49108,-33.96734,403.86 18.49104,-33.96651,403.86 18.4896,-33.9656,396.24 18.48963,-33.96471,396.24 18.48928,-33.96383,396.24 18.48893,-33.96305,396.24 18.48858,-33.96185,396.24 18.4884,-33.96087,388.62 18.48839,-33.95988,388.62 18.48777,-33.95913,388.62 18.48747,-33.9581,388.62 18.48736,-33.95713,388.62 18.48714,-33.95595,388.62 18.48701,-33.95498,381 18.48694,-33.95422,381 18.48674,-33.95321,381 18.48661,-33.95226,381 18.48639,-33.95139,373.38 18.48621,-33.95048,373.38 18.48594,-33.94931,373.38 18.48553,-33.94753,365.76 18.48569,-33.94672,365.76 18.48444,-33.94395,358.14000000000004 18.48421,-33.9431,358.14000000000004 18.48388,-33.94208,358.14000000000004 18.48364,-33.94119,358.14000000000004 18.48332,-33.94016,358.14000000000004 18.48304,-33.93919,350.52000000000004 18.48278,-33.93821,350.52000000000004 18.48255,-33.93732,350.52000000000004 18.48221,-33.93616,350.52000000000004 18.48192,-33.93539,350.52000000000004 18.48158,-33.93425,350.52000000000004 18.48119,-33.93315,342.90000000000003 18.48085,-33.93228,342.90000000000003 18.48046,-33.93114,342.90000000000003 18.48013,-33.93027,342.90000000000003 18.47979,-33.9294,342.90000000000003 18.47945,-33.92853,342.90000000000003 18.479,-33.92743,335.28000000000003 18.47866,-33.92662,335.28000000000003 18.47826,-33.92578,335.28000000000003 18.47775,-33.92466,335.28000000000003 18.47738,-33.92386,327.66 18.47693,-33.92294,327.66 18.47654,-33.92212,327.66 18.47603,-33.92122,320.04 18.47557,-33.92038,320.04 18.47494,-33.91931,312.42 18.47446,-33.9185,312.42 18.47397,-33.91768,312.42 18.47328,-33.91661,304.8 18.47267,-33.91571,297.18 18.47208,-33.91489,297.18 18.47149,-33.91411,289.56 18.47076,-33.9131,289.56 18.47019,-33.91237,289.56 18.46947,-33.9115,281.94 18.46886,-33.91072,281.94 18.46813,-33.90994,274.32 18.46739,-33.90902,274.32 18.46678,-33.90829,274.32 18.46605,-33.90742,266.7 18.46544,-33.90679,259.08000000000004 18.46477,-33.90605,259.08000000000004 18.46421,-33.90532,251.46 18.46367,-33.9046,243.84 18.46298,-33.90376,243.84 18.46224,-33.90288,236.22 18.46167,-33.90213,228.60000000000002 18.46095,-33.90129,228.60000000000002 18.46023,-33.90047,220.98000000000002 18.45955,-33.89985,213.36 18.45877,-33.89919,213.36 18.45778,-33.89846,205.74 18.45709,-33.89804,198.12 18.45608,-33.89754,190.5 18.45518,-33.89717,182.88 18.45417,-33.89692,175.26000000000002 18.4532,-33.89669,167.64000000000001 18.45199,-33.89653,160.02 18.45079,-33.89645,152.4 18.44986,-33.89644,152.4 18.4489,-33.89644,144.78 18.44767,-33.89648,144.78 18.44673,-33.89655,144.78 18.44559,-33.89664,152.4 18.44476,-33.89671,152.4 18.44364,-33.89669,152.4 18.44273,-33.89673,144.78 18.44175,-33.89664,129.54000000000002 18.44123,-33.89662,129.54000000000002 18.44009,-33.89664,129.54000000000002 18.43918,-33.89678,121.92 18.43838,-33.89701,121.92 18.43769,-33.89734,114.30000000000001 18.43718,-33.89766,106.68 18.4366,-33.89804,99.06 18.4359,-33.89854,83.82000000000001 18.43546,-33.89892,83.82000000000001 18.43489,-33.89932,76.2 18.43431,-33.89967,68.58 18.43349,-33.89996,53.34 18.43287,-33.9001,53.34 18.43231,-33.90018,45.72 18.43136,-33.90015,45.72 18.43128,-33.90046,38.1 18.42929,-33.9006,30.48 18.42895,-33.90083,30.48 18.42856,-33.90051,30.48 18.42839,-33.90088,22.86 18.42788,-33.9006,22.86 18.42768,-33.90064,22.86 18.42745,-33.90074,15.24 18.42722,-33.90078,22.86 18.42699,-33.90088,15.24 18.42678,-33.90097,0 18.42699,-33.90097,0 18.42678,-33.901,0</coordinates>
      </LineString>
    </Placemark>
  </Document>
</kml>
