<?xml version="1.0" encoding="UTF-8"?>
<kml xmlns="http://www.opengis.net/kml/2.2">
  <Document>
    <name>FR24 ZTHOT 3dd85068</name>
    <Placemark>
      <name>FR24 ZTHOT 3dd85068</name>
      <description><![CDATA[Source: ADS-B
Start (SAST): 2026-01-10 10:29:49
End (SAST): 2026-01-10 17:26:46
Points: 2101]]></description>
      <Style><LineStyle><color>ff0000ff</color><width>4</width></LineStyle></Style>
      <LineString>
        <tessellate>1</tessellate>
        <altitudeMode>absolute</altitudeMode>
        <coordinates>18.42848,-33.90097,60.96 18.43041,-33.90143,91.44 18.43094,-33.90153,91.44 18.43168,-33.90167,121.92 18.4322,-33.90171,121.92 18.43283,-33.90176,152.4 18.43351,-33.90181,152.4 18.43416,-33.90184,182.88 18.435,-33.90181,182.88 18.43586,-33.90171,182.88 18.43663,-33.90157,213.36 18.43747,-33.90129,213.36 18.43815,-33.90097,213.36 18.43889,-33.90055,213.36 18.43975,-33.89994,243.84 18.44027,-33.89948,243.84 18.44111,-33.89854,243.84 18.44173,-33.89781,274.32 18.44229,-33.89703,274.32 18.44267,-33.89622,274.32 18.44301,-33.89534,274.32 18.44318,-33.89417,304.8 18.44313,-33.89287,304.8 18.44296,-33.89194,304.8 18.44255,-33.89096,304.8 18.4419,-33.88985,304.8 18.4413,-33.88887,304.8 18.44055,-33.88788,335.28000000000003 18.43987,-33.887,335.28000000000003 18.43906,-33.88602,335.28000000000003 18.43803,-33.88477,335.28000000000003 18.43735,-33.88384,335.28000000000003 18.43626,-33.88249,365.76 18.43551,-33.88161,365.76 18.43472,-33.88081,365.76 18.43369,-33.87988,365.76 18.43294,-33.87937,396.24 18.43168,-33.87853,396.24 18.4306,-33.87793,396.24 18.42939,-33.87732,396.24 18.42808,-33.87681,426.72 18.42699,-33.87639,426.72 18.42579,-33.87606,426.72 18.42463,-33.87575,426.72 18.4231,-33.87546,426.72 18.42196,-33.87527,457.20000000000005 18.42075,-33.87518,457.20000000000005 18.41925,-33.87506,457.20000000000005 18.41789,-33.87499,457.20000000000005 18.41675,-33.87499,457.20000000000005 18.41505,-33.87502,487.68 18.41387,-33.87511,487.68 18.41269,-33.8752,487.68 18.41125,-33.87541,487.68 18.40988,-33.87564,487.68 18.40871,-33.87593,518.1600000000001 18.40754,-33.8762,518.1600000000001 18.40647,-33.87653,518.1600000000001 18.40507,-33.87698,518.1600000000001 18.40378,-33.87744,518.1600000000001 18.4025,-33.87797,518.1600000000001 18.40115,-33.87854,518.1600000000001 18.40038,-33.87886,518.1600000000001 18.39901,-33.87946,548.64 18.39798,-33.87997,548.64 18.39695,-33.88044,548.64 18.39565,-33.8811,548.64 18.39459,-33.88165,548.64 18.39357,-33.88216,548.64 18.39237,-33.88281,548.64 18.39134,-33.88333,548.64 18.39027,-33.88394,548.64 18.389,-33.88463,579.12 18.38809,-33.88509,579.12 18.38705,-33.8857,579.12 18.38596,-33.88631,579.12 18.385,-33.88683,579.12 18.38396,-33.88742,579.12 18.38074,-33.88925,579.12 18.37945,-33.89003,609.6 18.3783,-33.89073,609.6 18.37738,-33.89128,609.6 18.37646,-33.89189,609.6 18.37532,-33.89264,609.6 18.3744,-33.89329,609.6 18.37349,-33.89394,640.08 18.37252,-33.89464,640.08 18.37143,-33.89543,640.08 18.37054,-33.89616,640.08 18.36966,-33.89692,640.08 18.36897,-33.89748,640.08 18.36796,-33.89836,640.08 18.36702,-33.89929,670.5600000000001 18.36628,-33.89999,670.5600000000001 18.3655,-33.90074,670.5600000000001 18.3646,-33.90161,670.5600000000001 18.3637,-33.90255,701.0400000000001 18.36297,-33.90331,701.0400000000001 18.36225,-33.90408,701.0400000000001 18.36124,-33.90511,701.0400000000001 18.36056,-33.90586,731.52 18.35995,-33.90646,762 18.3593,-33.90711,762 18.3589,-33.90758,792.48 18.35832,-33.90825,822.96 18.35781,-33.90888,822.96 18.35726,-33.90962,853.44 18.35686,-33.91013,853.44 18.35627,-33.91093,853.44 18.35574,-33.91159,853.44 18.35513,-33.91241,853.44 18.35457,-33.9131,853.44 18.35384,-33.91402,853.44 18.35316,-33.91489,853.44 18.35266,-33.91549,853.44 18.35186,-33.91652,853.44 18.35132,-33.91727,853.44 18.35048,-33.91837,853.44 18.34975,-33.91951,853.44 18.34957,-33.91978,853.44 18.34888,-33.92178,883.9200000000001 18.34877,-33.92276,914.4000000000001 18.34891,-33.92349,914.4000000000001 18.34929,-33.92443,944.88 18.34975,-33.92491,944.88 18.35019,-33.92528,944.88 18.35083,-33.92559,975.36 18.3516,-33.92583,975.36 18.35221,-33.92587,975.36 18.353,-33.92583,1005.84 18.35361,-33.92569,1005.84 18.35423,-33.92542,1005.84 18.3549,-33.925,1005.84 18.35529,-33.92462,1005.84 18.35563,-33.92404,1005.84 18.3558,-33.92345,1005.84 18.35575,-33.92294,1036.3200000000002 18.35558,-33.92239,1036.3200000000002 18.35513,-33.92194,1036.3200000000002 18.35434,-33.92152,1036.3200000000002 18.35367,-33.92143,1036.3200000000002 18.35272,-33.92164,1036.3200000000002 18.35203,-33.92201,1036.3200000000002 18.35143,-33.92244,1036.3200000000002 18.35098,-33.92294,1036.3200000000002 18.35025,-33.9239,1005.84 18.34986,-33.92459,1005.84 18.34941,-33.92578,1005.84 18.34896,-33.92706,1005.84 18.34866,-33.92811,1005.84 18.34767,-33.93201,1036.3200000000002 18.34751,-33.93277,1036.3200000000002 18.3474,-33.93351,1066.8 18.34723,-33.93444,1066.8 18.3466,-33.93774,1066.8 18.34621,-33.93988,1097.28 18.34585,-33.94184,1097.28 18.34568,-33.94277,1097.28 18.34505,-33.94585,1097.28 18.34437,-33.94876,1097.28 18.34375,-33.95087,1097.28 18.34356,-33.95143,1097.28 18.34319,-33.95265,1097.28 18.34291,-33.95357,1097.28 18.34257,-33.95444,1066.8 18.34235,-33.95522,1066.8 18.3419,-33.95645,1066.8 18.34156,-33.95728,1066.8 18.34117,-33.95824,1066.8 18.34078,-33.95934,1066.8 18.33865,-33.96487,1066.8 18.33714,-33.96872,1066.8 18.33478,-33.97472,1066.8 18.33293,-33.97943,1066.8 18.33147,-33.98341,1066.8 18.3303,-33.98708,1066.8 18.32983,-33.98877,1066.8 18.32966,-33.98956,1066.8 18.32943,-33.99058,1066.8 18.32929,-33.99115,1066.8 18.32903,-33.99216,1066.8 18.32884,-33.99298,1066.8 18.32867,-33.9938,1066.8 18.3285,-33.99472,1066.8 18.32833,-33.99564,1097.28 18.32822,-33.99641,1097.28 18.32811,-33.99747,1097.28 18.32805,-33.99825,1097.28 18.328,-33.99921,1097.28 18.32794,-33.99989,1097.28 18.32788,-34.00096,1097.28 18.32789,-34.00172,1097.28 18.32789,-34.00273,1097.28 18.32789,-34.00356,1097.28 18.32789,-34.00461,1097.28 18.32794,-34.00557,1127.76 18.328,-34.00612,1127.76 18.32805,-34.00699,1127.76 18.32817,-34.008,1127.76 18.32823,-34.00869,1127.76 18.32833,-34.00937,1127.76 18.32839,-34.0101,1127.76 18.32846,-34.01088,1158.24 18.32857,-34.01158,1158.24 18.32869,-34.01228,1158.24 18.32895,-34.01331,1158.24 18.32914,-34.01409,1158.24 18.32932,-34.01484,1158.24 18.32945,-34.01555,1158.24 18.32979,-34.01669,1158.24 18.32996,-34.01747,1158.24 18.33017,-34.01823,1158.24 18.3304,-34.01917,1127.76 18.33069,-34.02017,1127.76 18.33086,-34.021,1127.76 18.33103,-34.02177,1127.76 18.33125,-34.0226,1127.76 18.33142,-34.02361,1127.76 18.33164,-34.02461,1127.76 18.33218,-34.02731,1127.76 18.33237,-34.02827,1127.76 18.33254,-34.02933,1127.76 18.33265,-34.03015,1127.76 18.33282,-34.03125,1127.76 18.33293,-34.03212,1127.76 18.33309,-34.03318,1127.76 18.33315,-34.03404,1127.76 18.33332,-34.03514,1127.76 18.33338,-34.03592,1127.76 18.33349,-34.0369,1097.28 18.33355,-34.03778,1097.28 18.33366,-34.03912,1097.28 18.33378,-34.04007,1097.28 18.33383,-34.04118,1097.28 18.334,-34.0442,1097.28 18.33418,-34.04719,1097.28 18.33441,-34.0511,1097.28 18.33461,-34.05515,1066.8 18.33478,-34.05798,1066.8 18.33478,-34.0621,1066.8 18.33469,-34.06297,1066.8 18.33458,-34.06409,1066.8 18.33441,-34.06511,1097.28 18.33435,-34.06595,1066.8 18.33444,-34.06691,1097.28 18.33467,-34.06755,1097.28 18.33512,-34.06815,1097.28 18.33567,-34.0686,1097.28 18.33635,-34.06892,1097.28 18.33708,-34.06911,1127.76 18.33797,-34.06915,1127.76 18.33859,-34.06911,1127.76 18.33921,-34.06898,1127.76 18.33973,-34.06884,1127.76 18.34036,-34.06856,1127.76 18.34095,-34.06819,1127.76 18.34134,-34.06787,1127.76 18.34162,-34.06746,1158.24 18.34184,-34.06696,1158.24 18.3419,-34.06654,1158.24 18.34185,-34.06614,1158.24 18.34167,-34.06577,1158.24 18.34145,-34.06544,1158.24 18.34095,-34.06512,1158.24 18.34053,-34.06497,1158.24 18.34005,-34.0649,1158.24 18.33938,-34.06485,1158.24 18.33882,-34.06494,1158.24 18.3383,-34.06516,1158.24 18.33773,-34.06548,1158.24 18.33733,-34.06586,1158.24 18.33691,-34.06636,1158.24 18.33657,-34.06686,1127.76 18.33618,-34.06755,1127.76 18.33585,-34.06819,1127.76 18.3354,-34.06892,1097.28 18.33495,-34.06975,1066.8 18.33439,-34.07089,1066.8 18.33389,-34.07196,1036.3200000000002 18.33344,-34.07309,1036.3200000000002 18.3331,-34.07414,1036.3200000000002 18.33269,-34.07521,1005.84 18.33223,-34.07652,1005.84 18.33181,-34.07767,1005.84 18.33143,-34.07889,1005.84 18.33097,-34.08033,975.36 18.33069,-34.08151,975.36 18.33041,-34.08261,975.36 18.33007,-34.08408,944.88 18.32983,-34.08513,944.88 18.32957,-34.08632,944.88 18.32926,-34.08769,944.88 18.32903,-34.08899,944.88 18.32878,-34.09026,914.4000000000001 18.32856,-34.09163,914.4000000000001 18.32828,-34.09296,914.4000000000001 18.32811,-34.09411,914.4000000000001 18.32788,-34.09551,914.4000000000001 18.32766,-34.09686,914.4000000000001 18.32748,-34.09807,883.9200000000001 18.32703,-34.10114,883.9200000000001 18.32657,-34.10329,883.9200000000001 18.32582,-34.10654,883.9200000000001 18.32531,-34.10892,883.9200000000001 18.32525,-34.10976,883.9200000000001 18.32514,-34.11069,883.9200000000001 18.32508,-34.11185,883.9200000000001 18.32508,-34.11292,883.9200000000001 18.32508,-34.11383,883.9200000000001 18.32508,-34.11479,883.9200000000001 18.3252,-34.11599,883.9200000000001 18.32536,-34.11703,883.9200000000001 18.32571,-34.11827,883.9200000000001 18.326,-34.11916,883.9200000000001 18.32654,-34.12042,883.9200000000001 18.32697,-34.1213,883.9200000000001 18.32748,-34.12237,883.9200000000001 18.328,-34.1233,883.9200000000001 18.32869,-34.12451,883.9200000000001 18.32929,-34.1256,883.9200000000001 18.32994,-34.12666,883.9200000000001 18.33046,-34.12754,883.9200000000001 18.33108,-34.12848,883.9200000000001 18.33175,-34.12958,883.9200000000001 18.33241,-34.13052,883.9200000000001 18.33303,-34.1314,853.44 18.33378,-34.13243,853.44 18.33441,-34.13331,853.44 18.335,-34.13406,853.44 18.33567,-34.13499,853.44 18.33624,-34.13573,853.44 18.3368,-34.13649,883.9200000000001 18.33753,-34.1375,883.9200000000001 18.33803,-34.13818,883.9200000000001 18.33848,-34.13887,883.9200000000001 18.33921,-34.13983,883.9200000000001 18.33977,-34.14061,883.9200000000001 18.34024,-34.14127,883.9200000000001 18.34072,-34.14194,883.9200000000001 18.34139,-34.14285,883.9200000000001 18.34196,-34.1436,883.9200000000001 18.34268,-34.1445,883.9200000000001 18.34333,-34.14528,883.9200000000001 18.34402,-34.14616,883.9200000000001 18.34471,-34.147,914.4000000000001 18.34545,-34.14788,914.4000000000001 18.34616,-34.14862,914.4000000000001 18.34694,-34.14951,914.4000000000001 18.34757,-34.15012,914.4000000000001 18.34837,-34.15091,914.4000000000001 18.34902,-34.1516,914.4000000000001 18.34986,-34.15242,914.4000000000001 18.35053,-34.15311,914.4000000000001 18.3514,-34.15403,914.4000000000001 18.35209,-34.15472,914.4000000000001 18.35272,-34.15542,914.4000000000001 18.35361,-34.15636,914.4000000000001 18.35445,-34.15723,914.4000000000001 18.35513,-34.15796,914.4000000000001 18.35604,-34.15887,914.4000000000001 18.3586,-34.16153,914.4000000000001 18.36136,-34.1645,914.4000000000001 18.36296,-34.16632,883.9200000000001 18.36376,-34.16721,883.9200000000001 18.36468,-34.16832,883.9200000000001 18.36544,-34.16927,883.9200000000001 18.36617,-34.17023,883.9200000000001 18.36714,-34.17139,883.9200000000001 18.36788,-34.17232,883.9200000000001 18.36868,-34.17321,883.9200000000001 18.36948,-34.17416,883.9200000000001 18.37026,-34.17517,883.9200000000001 18.37116,-34.17632,853.44 18.37212,-34.17749,853.44 18.37295,-34.17856,853.44 18.37372,-34.17954,853.44 18.37463,-34.18076,853.44 18.37538,-34.18177,853.44 18.37626,-34.18304,822.96 18.37704,-34.18424,822.96 18.37766,-34.1852,822.96 18.37828,-34.1862,822.96 18.37884,-34.18716,822.96 18.37961,-34.18852,822.96 18.38013,-34.18954,822.96 18.3808,-34.19083,822.96 18.38136,-34.19183,822.96 18.38186,-34.19289,822.96 18.38242,-34.19397,822.96 18.38305,-34.19522,822.96 18.38367,-34.19653,822.96 18.38416,-34.19746,822.96 18.38472,-34.1987,822.96 18.38523,-34.19975,822.96 18.38579,-34.20099,822.96 18.38635,-34.20227,822.96 18.38685,-34.20355,822.96 18.38837,-34.20714,792.48 18.38968,-34.21049,792.48 18.39005,-34.21152,792.48 18.39094,-34.21371,792.48 18.39151,-34.21509,792.48 18.39203,-34.21631,792.48 18.39341,-34.21948,792.48 18.39386,-34.22058,792.48 18.39425,-34.22159,792.48 18.39478,-34.22297,822.96 18.39515,-34.22401,822.96 18.39552,-34.22493,822.96 18.39592,-34.226,822.96 18.39649,-34.22725,822.96 18.39689,-34.22818,822.96 18.39729,-34.22916,822.96 18.39787,-34.23046,822.96 18.39849,-34.23196,792.48 18.39902,-34.23303,792.48 18.39947,-34.23404,822.96 18.40003,-34.23537,792.48 18.40067,-34.23666,822.96 18.40113,-34.23768,822.96 18.40176,-34.23894,792.48 18.40238,-34.24013,792.48 18.40283,-34.24095,792.48 18.40344,-34.24214,792.48 18.40401,-34.24324,792.48 18.40467,-34.24453,792.48 18.40536,-34.24569,792.48 18.40591,-34.24681,792.48 18.40647,-34.24773,792.48 18.40888,-34.25221,792.48 18.41125,-34.25649,792.48 18.41314,-34.25979,792.48 18.41515,-34.26296,792.48 18.41651,-34.26503,792.48 18.41726,-34.26627,792.48 18.41801,-34.26748,792.48 18.41858,-34.26846,762 18.41932,-34.26966,762 18.41995,-34.27064,762 18.4207,-34.27185,762 18.4215,-34.27306,762 18.42241,-34.2746,762 18.42304,-34.27557,762 18.42361,-34.27646,762 18.42442,-34.27762,762 18.42505,-34.27855,762 18.42592,-34.27991,762 18.42665,-34.28091,762 18.42715,-34.28165,762 18.42791,-34.28275,762 18.42859,-34.28368,762 18.42934,-34.28476,762 18.43007,-34.28572,762 18.43074,-34.28659,762 18.43158,-34.28773,762 18.43231,-34.28865,762 18.43495,-34.29204,762 18.43552,-34.29275,762 18.43637,-34.29382,762 18.43723,-34.29485,762 18.43792,-34.29568,762 18.43893,-34.29684,762 18.4396,-34.29762,762 18.44055,-34.29868,762 18.44134,-34.29959,762 18.44221,-34.30048,762 18.44302,-34.30133,762 18.44358,-34.30197,762 18.44448,-34.30289,762 18.44501,-34.3035,731.52 18.44633,-34.3049,762 18.44707,-34.30569,731.52 18.44782,-34.30644,731.52 18.44851,-34.30719,731.52 18.44941,-34.30806,731.52 18.45028,-34.30886,701.0400000000001 18.45137,-34.30988,701.0400000000001 18.45234,-34.31077,701.0400000000001 18.45297,-34.31133,701.0400000000001 18.45451,-34.31258,701.0400000000001 18.4556,-34.31347,701.0400000000001 18.45625,-34.31401,701.0400000000001 18.45737,-34.31493,701.0400000000001 18.45852,-34.3158,701.0400000000001 18.45927,-34.31635,701.0400000000001 18.46129,-34.31776,701.0400000000001 18.46195,-34.31822,701.0400000000001 18.46337,-34.31918,701.0400000000001 18.4643,-34.3198,701.0400000000001 18.46607,-34.32101,670.5600000000001 18.4669,-34.32161,701.0400000000001 18.46807,-34.32241,701.0400000000001 18.46919,-34.32321,701.0400000000001 18.47284,-34.32582,701.0400000000001 18.47569,-34.3279,701.0400000000001 18.47788,-34.32939,701.0400000000001 18.47906,-34.33014,701.0400000000001 18.48001,-34.33072,701.0400000000001 18.48095,-34.3313,701.0400000000001 18.48186,-34.33181,701.0400000000001 18.48307,-34.33246,701.0400000000001 18.48341,-34.3327,701.0400000000001 18.48507,-34.33367,731.52 18.48646,-34.33447,731.52 18.48736,-34.33502,731.52 18.4882,-34.33557,731.52 18.48909,-34.33612,731.52 18.49028,-34.33693,731.52 18.49102,-34.33744,731.52 18.49211,-34.33819,731.52 18.49307,-34.33887,731.52 18.49417,-34.33963,731.52 18.49504,-34.34024,731.52 18.49599,-34.34093,731.52 18.49677,-34.34148,731.52 18.49812,-34.34248,731.52 18.49892,-34.34307,731.52 18.49986,-34.34381,762 18.50098,-34.34468,762 18.50182,-34.34532,762 18.50277,-34.3461,762 18.50356,-34.34674,762 18.50624,-34.34889,762 18.50686,-34.3494,762 18.50798,-34.35059,792.48 18.50871,-34.35146,762 18.50922,-34.35233,762 18.50972,-34.35333,762 18.51002,-34.35457,762 18.51011,-34.35553,762 18.51006,-34.35709,731.52 18.50996,-34.35807,731.52 18.50979,-34.35942,731.52 18.50962,-34.36044,731.52 18.50933,-34.36153,731.52 18.50899,-34.36258,731.52 18.50847,-34.3637,731.52 18.50784,-34.36477,731.52 18.50697,-34.36592,701.0400000000001 18.50613,-34.36688,701.0400000000001 18.50515,-34.36779,701.0400000000001 18.50378,-34.36871,701.0400000000001 18.50277,-34.36922,701.0400000000001 18.50092,-34.36998,701.0400000000001 18.49957,-34.37036,701.0400000000001 18.49806,-34.37064,701.0400000000001 18.49657,-34.37077,701.0400000000001 18.49474,-34.37077,701.0400000000001 18.49331,-34.37073,701.0400000000001 18.49159,-34.37059,670.5600000000001 18.48982,-34.3704,670.5600000000001 18.48797,-34.37022,670.5600000000001 18.4865,-34.37003,670.5600000000001 18.48467,-34.36975,670.5600000000001 18.4831,-34.36949,670.5600000000001 18.48141,-34.36922,670.5600000000001 18.48003,-34.36891,670.5600000000001 18.47872,-34.36868,670.5600000000001 18.47693,-34.3683,670.5600000000001 18.47528,-34.36794,670.5600000000001 18.47385,-34.36761,670.5600000000001 18.47254,-34.36737,670.5600000000001 18.47094,-34.36719,670.5600000000001 18.46959,-34.36716,701.0400000000001 18.46813,-34.36728,701.0400000000001 18.46664,-34.3677,701.0400000000001 18.46516,-34.36845,731.52 18.46436,-34.3691,701.0400000000001 18.46348,-34.37013,701.0400000000001 18.46292,-34.37133,701.0400000000001 18.46286,-34.37233,701.0400000000001 18.46381,-34.37439,670.5600000000001 18.4647,-34.3751,670.5600000000001 18.46567,-34.37538,670.5600000000001 18.46682,-34.37538,670.5600000000001 18.46785,-34.37529,670.5600000000001 18.4688,-34.37512,670.5600000000001 18.46987,-34.37494,670.5600000000001 18.47093,-34.37471,670.5600000000001 18.47189,-34.37448,640.08 18.47289,-34.37425,670.5600000000001 18.47401,-34.37398,670.5600000000001 18.47523,-34.37371,670.5600000000001 18.47609,-34.37347,670.5600000000001 18.47721,-34.3732,670.5600000000001 18.4782,-34.37296,670.5600000000001 18.47917,-34.37274,670.5600000000001 18.48043,-34.37245,670.5600000000001 18.48141,-34.37224,670.5600000000001 18.48238,-34.37203,670.5600000000001 18.48364,-34.37175,640.08 18.48478,-34.37151,640.08 18.48803,-34.37077,640.08 18.48907,-34.37054,640.08 18.49033,-34.37017,640.08 18.49139,-34.36981,640.08 18.49234,-34.36949,640.08 18.49308,-34.36919,640.08 18.49422,-34.36868,640.08 18.49508,-34.36826,640.08 18.49588,-34.36771,640.08 18.49669,-34.36714,640.08 18.4976,-34.36644,640.08 18.49829,-34.36579,640.08 18.49903,-34.365,640.08 18.49963,-34.36427,640.08 18.50029,-34.36337,640.08 18.50075,-34.36263,640.08 18.50126,-34.3617,640.08 18.50166,-34.36076,640.08 18.50204,-34.3596,640.08 18.50221,-34.35887,640.08 18.50235,-34.35769,640.08 18.50229,-34.35667,640.08 18.50215,-34.35571,640.08 18.50182,-34.35461,640.08 18.50131,-34.35329,640.08 18.5008,-34.3522,640.08 18.50029,-34.35122,640.08 18.49957,-34.34995,640.08 18.49897,-34.34894,640.08 18.49834,-34.34797,640.08 18.49754,-34.34661,640.08 18.49705,-34.34583,640.08 18.49621,-34.3445,640.08 18.49548,-34.34322,640.08 18.4947,-34.34193,640.08 18.49405,-34.34089,640.08 18.49347,-34.33983,640.08 18.49279,-34.33859,640.08 18.49229,-34.33759,640.08 18.49173,-34.33658,640.08 18.49117,-34.33543,640.08 18.49061,-34.33424,640.08 18.49022,-34.33325,640.08 18.4897,-34.3319,640.08 18.4893,-34.33102,670.5600000000001 18.48885,-34.32967,670.5600000000001 18.48848,-34.3287,670.5600000000001 18.48797,-34.32715,670.5600000000001 18.48758,-34.32605,670.5600000000001 18.4873,-34.32501,670.5600000000001 18.48702,-34.32399,670.5600000000001 18.48674,-34.32303,670.5600000000001 18.48646,-34.3217,670.5600000000001 18.48621,-34.32073,670.5600000000001 18.48598,-34.31961,670.5600000000001 18.48581,-34.31831,670.5600000000001 18.48564,-34.31729,670.5600000000001 18.48545,-34.31598,670.5600000000001 18.48536,-34.31491,670.5600000000001 18.48524,-34.31375,670.5600000000001 18.48513,-34.31277,670.5600000000001 18.485,-34.31149,670.5600000000001 18.48495,-34.31049,670.5600000000001 18.48483,-34.30925,670.5600000000001 18.48473,-34.30825,670.5600000000001 18.48461,-34.30705,670.5600000000001 18.4845,-34.30573,670.5600000000001 18.48415,-34.30099,670.5600000000001 18.4841,-34.29741,670.5600000000001 18.48398,-34.29396,670.5600000000001 18.48399,-34.29057,670.5600000000001 18.48399,-34.28673,670.5600000000001 18.48388,-34.28197,670.5600000000001 18.48377,-34.27716,670.5600000000001 18.48364,-34.27246,640.08 18.48347,-34.26868,640.08 18.48318,-34.26389,640.08 18.48289,-34.2604,640.08 18.48253,-34.2567,640.08 18.48237,-34.25528,640.08 18.48221,-34.25425,640.08 18.48198,-34.25299,640.08 18.48175,-34.25183,640.08 18.48146,-34.25048,640.08 18.48129,-34.24965,609.6 18.48095,-34.2482,609.6 18.48069,-34.24709,609.6 18.48041,-34.24599,609.6 18.48007,-34.24471,609.6 18.47968,-34.24329,609.6 18.47928,-34.24191,609.6 18.47906,-34.24104,609.6 18.47878,-34.23987,609.6 18.47843,-34.23861,609.6 18.47809,-34.23731,609.6 18.47775,-34.23596,609.6 18.47752,-34.23494,640.08 18.47717,-34.23377,609.6 18.47687,-34.23271,609.6 18.47643,-34.23134,609.6 18.47603,-34.23009,640.08 18.47564,-34.22905,640.08 18.4753,-34.22809,640.08 18.47474,-34.22658,609.6 18.47429,-34.22534,640.08 18.4739,-34.22429,609.6 18.4734,-34.22297,640.08 18.47294,-34.22171,609.6 18.47256,-34.22054,609.6 18.47214,-34.21948,640.08 18.47161,-34.21815,640.08 18.47111,-34.21678,640.08 18.47065,-34.21571,640.08 18.47009,-34.21449,640.08 18.46953,-34.21321,640.08 18.4691,-34.21231,640.08 18.46842,-34.21077,640.08 18.46802,-34.20993,640.08 18.46745,-34.20863,640.08 18.46693,-34.20756,640.08 18.4663,-34.20631,640.08 18.46583,-34.20529,640.08 18.46522,-34.20401,640.08 18.4646,-34.20287,640.08 18.46395,-34.20169,640.08 18.46333,-34.20063,640.08 18.46275,-34.19965,640.08 18.46208,-34.19856,670.5600000000001 18.46124,-34.19728,670.5600000000001 18.46062,-34.19632,670.5600000000001 18.45995,-34.19532,670.5600000000001 18.45909,-34.19411,670.5600000000001 18.45843,-34.19312,670.5600000000001 18.4576,-34.19188,670.5600000000001 18.45692,-34.19094,670.5600000000001 18.45608,-34.18987,670.5600000000001 18.4549,-34.18881,701.0400000000001 18.45395,-34.18817,701.0400000000001 18.453,-34.18744,701.0400000000001 18.45199,-34.18652,701.0400000000001 18.45119,-34.18573,701.0400000000001 18.45045,-34.18484,701.0400000000001 18.44948,-34.18377,701.0400000000001 18.44862,-34.18275,701.0400000000001 18.44801,-34.18195,701.0400000000001 18.44707,-34.1807,701.0400000000001 18.44655,-34.17989,701.0400000000001 18.44564,-34.17847,701.0400000000001 18.44513,-34.17758,701.0400000000001 18.44448,-34.17645,701.0400000000001 18.44391,-34.17535,701.0400000000001 18.44341,-34.17437,701.0400000000001 18.44296,-34.17329,701.0400000000001 18.44246,-34.17192,701.0400000000001 18.44212,-34.17096,701.0400000000001 18.44179,-34.16991,701.0400000000001 18.44139,-34.16853,670.5600000000001 18.44117,-34.16721,670.5600000000001 18.44101,-34.16618,670.5600000000001 18.44089,-34.16492,670.5600000000001 18.44078,-34.16352,670.5600000000001 18.44078,-34.16222,670.5600000000001 18.44083,-34.16084,670.5600000000001 18.44095,-34.15971,670.5600000000001 18.44123,-34.15837,670.5600000000001 18.44147,-34.15724,670.5600000000001 18.44179,-34.15622,640.08 18.44221,-34.15491,640.08 18.44261,-34.15375,640.08 18.44296,-34.15279,640.08 18.44335,-34.15178,640.08 18.44403,-34.15036,640.08 18.44456,-34.14933,640.08 18.44507,-34.1483,640.08 18.44565,-34.14729,640.08 18.44627,-34.14611,640.08 18.4469,-34.14504,640.08 18.44739,-34.14413,640.08 18.44801,-34.14313,640.08 18.44879,-34.14194,640.08 18.44941,-34.14102,640.08 18.4503,-34.13974,640.08 18.45091,-34.1389,640.08 18.45159,-34.13795,640.08 18.45245,-34.13685,640.08 18.45314,-34.13592,640.08 18.45384,-34.13498,609.6 18.45463,-34.13396,609.6 18.45552,-34.13287,609.6 18.45617,-34.13205,609.6 18.45686,-34.13123,609.6 18.45778,-34.13015,609.6 18.45843,-34.1293,609.6 18.46172,-34.12535,609.6 18.46487,-34.12158,609.6 18.46723,-34.11896,609.6 18.46998,-34.11603,609.6 18.47082,-34.11525,609.6 18.47172,-34.11452,609.6 18.47288,-34.11367,609.6 18.4739,-34.11301,609.6 18.47488,-34.11255,609.6 18.47592,-34.11205,609.6 18.47704,-34.11136,609.6 18.47777,-34.11067,609.6 18.47867,-34.10957,579.12 18.47923,-34.10852,579.12 18.47963,-34.10752,579.12 18.48003,-34.10612,579.12 18.48024,-34.10495,579.12 18.48032,-34.1038,579.12 18.48024,-34.10239,579.12 18.47998,-34.10133,579.12 18.47958,-34.10017,579.12 18.47912,-34.09904,579.12 18.47866,-34.09803,579.12 18.47815,-34.09663,579.12 18.47786,-34.09556,579.12 18.47755,-34.09424,579.12 18.4774,-34.09309,579.12 18.47727,-34.092,579.12 18.47721,-34.09113,579.12 18.47721,-34.08984,579.12 18.47723,-34.08857,579.12 18.47732,-34.08755,579.12 18.47738,-34.08618,579.12 18.4774,-34.08504,579.12 18.47749,-34.08394,579.12 18.4776,-34.08275,579.12 18.47771,-34.08156,579.12 18.47783,-34.08032,579.12 18.47803,-34.07898,579.12 18.47826,-34.07792,579.12 18.47844,-34.0768,579.12 18.47866,-34.07568,579.12 18.47889,-34.07456,579.12 18.47917,-34.07314,579.12 18.47946,-34.07214,579.12 18.47973,-34.07103,579.12 18.48003,-34.06991,579.12 18.48035,-34.06865,579.12 18.48063,-34.06755,579.12 18.48095,-34.06628,579.12 18.4813,-34.06499,579.12 18.48152,-34.06395,579.12 18.48186,-34.06274,579.12 18.48209,-34.06178,579.12 18.48237,-34.06073,579.12 18.48272,-34.05943,579.12 18.48304,-34.0583,579.12 18.48338,-34.05716,579.12 18.48366,-34.05624,579.12 18.48404,-34.05473,579.12 18.48433,-34.05357,579.12 18.48455,-34.05264,579.12 18.48484,-34.05128,579.12 18.48507,-34.05017,579.12 18.48534,-34.04887,579.12 18.48556,-34.04782,579.12 18.48581,-34.04649,579.12 18.4861,-34.04528,579.12 18.48629,-34.04425,579.12 18.48674,-34.04201,579.12 18.48691,-34.04095,579.12 18.48713,-34.03963,579.12 18.4873,-34.03848,579.12 18.48747,-34.03709,579.12 18.48759,-34.03611,579.12 18.4877,-34.03462,579.12 18.48782,-34.0336,579.12 18.48787,-34.03229,579.12 18.48793,-34.03117,579.12 18.48799,-34.02983,579.12 18.48797,-34.02882,609.6 18.48799,-34.02782,609.6 18.48797,-34.02658,609.6 18.48792,-34.02534,609.6 18.48787,-34.02401,609.6 18.48782,-34.02293,609.6 18.48776,-34.02187,609.6 18.48764,-34.02054,609.6 18.48758,-34.01958,609.6 18.48747,-34.01828,609.6 18.48736,-34.01706,609.6 18.4873,-34.01623,609.6 18.48719,-34.015,640.08 18.48713,-34.01381,640.08 18.48708,-34.01266,609.6 18.48702,-34.01157,640.08 18.48702,-34.01047,640.08 18.48707,-34.00911,640.08 18.48719,-34.00786,640.08 18.4873,-34.00687,640.08 18.48741,-34.00575,640.08 18.48759,-34.00446,640.08 18.48775,-34.00333,640.08 18.48787,-34.00231,640.08 18.48803,-34.00104,670.5600000000001 18.48816,-34.00003,640.08 18.48833,-33.99882,609.6 18.48856,-33.99728,609.6 18.4887,-33.99632,609.6 18.4889,-33.99491,579.12 18.48909,-33.99339,579.12 18.48925,-33.99212,579.12 18.48936,-33.99091,579.12 18.48948,-33.9897,579.12 18.4896,-33.98863,579.12 18.48977,-33.98708,548.64 18.48988,-33.98593,548.64 18.49005,-33.98448,548.64 18.49016,-33.98351,548.64 18.49038,-33.98199,548.64 18.49055,-33.98094,548.64 18.49068,-33.97969,518.1600000000001 18.49085,-33.97843,518.1600000000001 18.49094,-33.97696,518.1600000000001 18.49102,-33.97569,518.1600000000001 18.49105,-33.97435,518.1600000000001 18.49108,-33.97308,518.1600000000001 18.49111,-33.9716,518.1600000000001 18.49111,-33.97041,518.1600000000001 18.49102,-33.96907,487.68 18.49096,-33.96791,487.68 18.49083,-33.96666,487.68 18.49068,-33.96516,487.68 18.49049,-33.96387,487.68 18.49027,-33.96263,487.68 18.4901,-33.96153,487.68 18.48982,-33.96018,487.68 18.48953,-33.95893,487.68 18.4893,-33.95781,487.68 18.48896,-33.95637,487.68 18.48865,-33.95517,487.68 18.48816,-33.95371,487.68 18.48786,-33.95274,487.68 18.4873,-33.95128,487.68 18.48674,-33.94991,487.68 18.48639,-33.94887,487.68 18.48593,-33.94752,487.68 18.48556,-33.94643,487.68 18.48506,-33.9451,487.68 18.48466,-33.94395,487.68 18.48421,-33.94277,487.68 18.48377,-33.94167,487.68 18.48332,-33.94057,487.68 18.48255,-33.93886,487.68 18.48203,-33.93773,487.68 18.48152,-33.93663,487.68 18.48095,-33.93556,487.68 18.48024,-33.9342,487.68 18.47969,-33.93314,487.68 18.47889,-33.93169,487.68 18.47809,-33.93039,487.68 18.47746,-33.92932,487.68 18.47654,-33.92802,487.68 18.4758,-33.92699,518.1600000000001 18.47491,-33.92583,518.1600000000001 18.47413,-33.92491,518.1600000000001 18.47323,-33.92381,518.1600000000001 18.47217,-33.92267,487.68 18.47134,-33.92178,518.1600000000001 18.47042,-33.92089,518.1600000000001 18.46928,-33.91968,518.1600000000001 18.4683,-33.91873,518.1600000000001 18.46716,-33.91759,518.1600000000001 18.46617,-33.91663,487.68 18.46527,-33.91571,487.68 18.46413,-33.91461,487.68 18.46292,-33.91342,487.68 18.46191,-33.91241,457.20000000000005 18.46098,-33.91149,457.20000000000005 18.45989,-33.91032,457.20000000000005 18.45877,-33.90916,426.72 18.45787,-33.9082,426.72 18.4567,-33.90701,426.72 18.45585,-33.9061,426.72 18.45486,-33.90506,396.24 18.45395,-33.90417,396.24 18.453,-33.90321,396.24 18.45217,-33.90246,396.24 18.45126,-33.90166,365.76 18.45019,-33.90083,365.76 18.44931,-33.90027,365.76 18.44812,-33.89964,365.76 18.4473,-33.89929,365.76 18.44604,-33.89886,365.76 18.44515,-33.89864,365.76 18.44416,-33.89841,335.28000000000003 18.44313,-33.89813,335.28000000000003 18.44229,-33.89799,304.8 18.44111,-33.89777,304.8 18.44032,-33.89762,304.8 18.43935,-33.89753,274.32 18.43832,-33.89738,274.32 18.43752,-33.89734,274.32 18.43573,-33.89726,243.84 18.43506,-33.89731,243.84 18.43427,-33.89735,213.36 18.43363,-33.89743,213.36 18.43317,-33.89748,213.36 18.43214,-33.89766,182.88 18.43158,-33.89781,182.88 18.43094,-33.89794,152.4 18.43019,-33.89813,152.4 18.42951,-33.89836,121.92 18.42899,-33.8985,121.92 18.42785,-33.89901,91.44 18.42745,-33.89939,91.44 18.42733,-33.89962,91.44 18.42715,-33.90024,91.44 18.42716,-33.90051,60.96 18.42704,-33.90083,60.96 18.42728,-33.90097,60.96 18.42828,-33.90102,91.44 18.42895,-33.90111,91.44 18.4299,-33.90134,91.44 18.43037,-33.90144,121.92 18.43097,-33.90161,121.92 18.43158,-33.90175,121.92 18.4322,-33.90193,152.4 18.43294,-33.90208,152.4 18.43357,-33.90223,182.88 18.4341,-33.90234,182.88 18.43483,-33.90248,213.36 18.4354,-33.90255,213.36 18.43626,-33.90255,243.84 18.43683,-33.9025,243.84 18.43769,-33.90232,243.84 18.43831,-33.90207,274.32 18.43898,-33.90175,274.32 18.43975,-33.90115,274.32 18.44032,-33.9006,304.8 18.44094,-33.89973,304.8 18.44134,-33.89896,304.8 18.44167,-33.89799,335.28000000000003 18.44193,-33.89692,335.28000000000003 18.44201,-33.89598,335.28000000000003 18.44201,-33.89484,365.76 18.4419,-33.89397,365.76 18.44167,-33.89301,365.76 18.44134,-33.89195,365.76 18.44089,-33.89099,365.76 18.44044,-33.88998,396.24 18.43975,-33.88877,396.24 18.43915,-33.88765,396.24 18.43865,-33.88683,396.24 18.43792,-33.88565,396.24 18.43713,-33.88449,396.24 18.43646,-33.88358,396.24 18.43573,-33.88261,426.72 18.43489,-33.88152,426.72 18.43427,-33.88074,426.72 18.43346,-33.87974,426.72 18.43254,-33.87867,426.72 18.43174,-33.87783,426.72 18.43077,-33.87685,426.72 18.42979,-33.87607,426.72 18.42876,-33.87537,457.20000000000005 18.42772,-33.87469,457.20000000000005 18.42659,-33.87415,457.20000000000005 18.42508,-33.8735,457.20000000000005 18.4229,-33.87286,457.20000000000005 18.42133,-33.87259,457.20000000000005 18.42004,-33.87241,457.20000000000005 18.41887,-33.87234,457.20000000000005 18.41749,-33.87225,457.20000000000005 18.41589,-33.87225,487.68 18.41452,-33.87234,487.68 18.41286,-33.8725,487.68 18.41146,-33.87268,487.68 18.41017,-33.87291,518.1600000000001 18.40902,-33.87309,518.1600000000001 18.40765,-33.87337,518.1600000000001 18.40691,-33.8735,518.1600000000001 18.40542,-33.87383,548.64 18.40433,-33.87411,548.64 18.40313,-33.87444,548.64 18.40187,-33.87476,548.64 18.4007,-33.87511,579.12 18.39941,-33.8755,579.12 18.39832,-33.87588,579.12 18.39729,-33.87625,579.12 18.39603,-33.87676,579.12 18.39515,-33.87717,609.6 18.39375,-33.87783,609.6 18.39277,-33.8783,609.6 18.39179,-33.87881,609.6 18.3905,-33.8795,640.08 18.38945,-33.88007,640.08 18.38848,-33.88065,640.08 18.38719,-33.88138,640.08 18.38614,-33.88198,640.08 18.38472,-33.88293,670.5600000000001 18.38383,-33.88353,670.5600000000001 18.38276,-33.88431,670.5600000000001 18.38179,-33.88505,670.5600000000001 18.38093,-33.88575,670.5600000000001 18.37985,-33.8866,701.0400000000001 18.3791,-33.88728,701.0400000000001 18.37818,-33.88803,701.0400000000001 18.37738,-33.88875,701.0400000000001 18.37637,-33.88966,701.0400000000001 18.37538,-33.89059,701.0400000000001 18.37441,-33.89154,731.52 18.37362,-33.89232,731.52 18.37257,-33.89338,731.52 18.37183,-33.89415,731.52 18.37091,-33.89515,731.52 18.37015,-33.89598,762 18.36914,-33.89706,762 18.36834,-33.89804,762 18.36763,-33.89886,762 18.3669,-33.89964,762 18.36611,-33.90055,762 18.36531,-33.90148,762 18.36438,-33.90253,792.48 18.36365,-33.9034,792.48 18.36297,-33.90431,792.48 18.36227,-33.90511,792.48 18.36147,-33.90614,792.48 18.36068,-33.9072,822.96 18.35981,-33.90837,822.96 18.359,-33.90948,822.96 18.35838,-33.91035,822.96 18.35782,-33.91118,853.44 18.35709,-33.91228,853.44 18.35642,-33.91333,853.44 18.35587,-33.91414,853.44 18.35518,-33.91521,853.44 18.35466,-33.916,853.44 18.35406,-33.91699,883.9200000000001 18.35358,-33.91787,853.44 18.35289,-33.91905,853.44 18.35249,-33.91978,822.96 18.35157,-33.92145,822.96 18.35098,-33.92258,822.96 18.35036,-33.92377,792.48 18.34986,-33.9248,792.48 18.34913,-33.92615,792.48 18.3486,-33.92718,792.48 18.34803,-33.92834,792.48 18.34745,-33.92953,792.48 18.34661,-33.93123,792.48 18.34574,-33.93304,792.48 18.34494,-33.93495,792.48 18.34431,-33.9363,792.48 18.34392,-33.93732,792.48 18.34347,-33.93842,792.48 18.34248,-33.94082,792.48 18.34207,-33.9418,792.48 18.34139,-33.94342,792.48 18.34089,-33.94446,792.48 18.3405,-33.94533,792.48 18.33979,-33.94696,762 18.33899,-33.94906,762 18.33876,-33.95087,792.48 18.33904,-33.95246,792.48 18.33961,-33.95353,792.48 18.34055,-33.95457,762 18.34167,-33.95531,792.48 18.34274,-33.95572,792.48 18.34369,-33.95595,792.48 18.34574,-33.95581,792.48 18.34683,-33.95549,792.48 18.34778,-33.95503,792.48 18.34906,-33.95409,792.48 18.34991,-33.95311,792.48 18.35059,-33.95219,792.48 18.35115,-33.95128,762 18.35154,-33.95059,762 18.35227,-33.94913,762 18.35283,-33.94798,762 18.35329,-33.94701,762 18.35373,-33.94606,762 18.35434,-33.94473,762 18.35489,-33.9437,762 18.35541,-33.94268,762 18.35604,-33.94142,762 18.35653,-33.94043,762 18.35712,-33.93933,762 18.35764,-33.93821,762 18.35815,-33.93718,762 18.35861,-33.93616,762 18.35913,-33.93495,762 18.35972,-33.9337,731.52 18.36021,-33.93262,701.0400000000001 18.36079,-33.93155,670.5600000000001 18.36159,-33.93016,670.5600000000001 18.36227,-33.92899,670.5600000000001 18.36285,-33.92806,670.5600000000001 18.36348,-33.92697,670.5600000000001 18.36416,-33.92578,670.5600000000001 18.36494,-33.9245,640.08 18.36542,-33.92364,640.08 18.36611,-33.92235,640.08 18.36662,-33.92136,640.08 18.36724,-33.9202,640.08 18.36782,-33.91922,640.08 18.36847,-33.91805,640.08 18.36897,-33.91713,640.08 18.36948,-33.91621,640.08 18.37086,-33.91396,640.08 18.37138,-33.9131,670.5600000000001 18.37323,-33.91017,670.5600000000001 18.37587,-33.9061,640.08 18.37665,-33.905,640.08 18.37716,-33.90436,670.5600000000001 18.378,-33.90335,670.5600000000001 18.37889,-33.90239,670.5600000000001 18.37957,-33.9017,670.5600000000001 18.38035,-33.90088,670.5600000000001 18.38136,-33.89987,670.5600000000001 18.38213,-33.89915,670.5600000000001 18.38287,-33.89841,670.5600000000001 18.38385,-33.89748,670.5600000000001 18.3845,-33.89676,670.5600000000001 18.38551,-33.8958,670.5600000000001 18.3864,-33.89493,670.5600000000001 18.3873,-33.89406,670.5600000000001 18.38803,-33.89337,670.5600000000001 18.38881,-33.89264,670.5600000000001 18.38988,-33.89168,670.5600000000001 18.39066,-33.89101,670.5600000000001 18.39151,-33.8903,670.5600000000001 18.39229,-33.88966,670.5600000000001 18.39329,-33.88887,670.5600000000001 18.39415,-33.88817,670.5600000000001 18.39509,-33.88747,670.5600000000001 18.39605,-33.88678,670.5600000000001 18.39705,-33.88614,670.5600000000001 18.39821,-33.88537,670.5600000000001 18.39919,-33.88472,670.5600000000001 18.40021,-33.88412,701.0400000000001 18.40137,-33.88344,670.5600000000001 18.40233,-33.88291,670.5600000000001 18.40342,-33.88244,701.0400000000001 18.40468,-33.88193,701.0400000000001 18.40608,-33.88142,670.5600000000001 18.40698,-33.88115,701.0400000000001 18.40839,-33.88076,670.5600000000001 18.4095,-33.88046,670.5600000000001 18.41091,-33.88016,701.0400000000001 18.41202,-33.87991,701.0400000000001 18.41348,-33.87964,670.5600000000001 18.41469,-33.87946,670.5600000000001 18.41583,-33.87941,670.5600000000001 18.41709,-33.87941,670.5600000000001 18.41858,-33.8796,640.08 18.41972,-33.87983,640.08 18.42087,-33.88011,640.08 18.42224,-33.88058,609.6 18.42334,-33.88097,609.6 18.4248,-33.88161,579.12 18.42585,-33.88216,579.12 18.42676,-33.88266,548.64 18.42791,-33.88342,518.1600000000001 18.42895,-33.88417,518.1600000000001 18.42997,-33.88505,487.68 18.43069,-33.88568,487.68 18.43134,-33.88631,457.20000000000005 18.43209,-33.8871,457.20000000000005 18.4326,-33.88765,457.20000000000005 18.43334,-33.88849,426.72 18.43386,-33.88914,426.72 18.43439,-33.88971,396.24 18.435,-33.89049,396.24 18.43545,-33.89108,365.76 18.43592,-33.89161,365.76 18.43629,-33.89218,365.76 18.43668,-33.89282,365.76 18.43691,-33.89337,365.76 18.437,-33.89394,365.76 18.43695,-33.89441,335.28000000000003 18.43663,-33.89493,335.28000000000003 18.43615,-33.89534,335.28000000000003 18.43551,-33.89571,304.8 18.4342,-33.89618,274.32 18.43349,-33.89639,274.32 18.43288,-33.89655,274.32 18.43254,-33.89662,274.32 18.43125,-33.89694,243.84 18.43065,-33.89706,243.84 18.42997,-33.89724,213.36 18.42968,-33.89731,182.88 18.42911,-33.89748,182.88 18.42876,-33.89766,152.4 18.42831,-33.89794,121.92 18.42796,-33.89827,121.92 18.4276,-33.89868,91.44 18.42732,-33.89932,91.44 18.42728,-33.89952,91.44 18.42732,-33.89987,91.44 18.42738,-33.90019,60.96 18.42745,-33.90041,60.96 18.42739,-33.90062,0 18.42785,-33.90041,91.44 18.42917,-33.89987,91.44 18.43065,-33.89925,121.92 18.4313,-33.89896,121.92 18.43225,-33.8985,121.92 18.43287,-33.89832,152.4 18.43391,-33.89822,152.4 18.43478,-33.89841,152.4 18.43552,-33.89869,152.4 18.43632,-33.89906,182.88 18.43691,-33.89937,182.88 18.43769,-33.89981,182.88 18.43848,-33.90019,213.36 18.43909,-33.90056,213.36 18.43982,-33.90097,213.36 18.44027,-33.90125,243.84 18.44111,-33.90175,243.84 18.44164,-33.90204,243.84 18.44221,-33.90241,274.32 18.4429,-33.90288,274.32 18.44347,-33.9033,274.32 18.44419,-33.90381,274.32 18.44481,-33.90427,274.32 18.44548,-33.90477,304.8 18.44622,-33.9053,304.8 18.44667,-33.90567,304.8 18.44742,-33.90623,304.8 18.44801,-33.90669,304.8 18.44873,-33.9073,335.28000000000003 18.44942,-33.90786,335.28000000000003 18.45003,-33.90829,335.28000000000003 18.45085,-33.90898,335.28000000000003 18.4516,-33.90953,335.28000000000003 18.45221,-33.91003,335.28000000000003 18.45451,-33.91177,335.28000000000003 18.458,-33.91447,335.28000000000003 18.46041,-33.91624,335.28000000000003 18.46395,-33.9188,335.28000000000003 18.46464,-33.91927,335.28000000000003 18.46561,-33.91997,335.28000000000003 18.46653,-33.92061,335.28000000000003 18.46919,-33.92249,335.28000000000003 18.47278,-33.92496,335.28000000000003 18.4762,-33.92727,365.76 18.47889,-33.92908,365.76 18.48238,-33.93142,365.76 18.48517,-33.93324,365.76 18.48604,-33.93383,365.76 18.48719,-33.93462,365.76 18.48827,-33.93533,365.76 18.48902,-33.93579,365.76 18.49319,-33.93872,335.28000000000003 18.49594,-33.94068,365.76 18.49773,-33.94194,365.76 18.50064,-33.94395,365.76 18.50148,-33.94455,365.76 18.50246,-33.94515,365.76 18.50367,-33.94589,365.76 18.5047,-33.94654,365.76 18.5058,-33.94716,335.28000000000003 18.50693,-33.94771,365.76 18.50807,-33.94827,365.76 18.50916,-33.94872,365.76 18.51025,-33.9492,365.76 18.51135,-33.94963,365.76 18.51236,-33.95,365.76 18.5137,-33.9505,365.76 18.51488,-33.95087,365.76 18.51597,-33.95129,365.76 18.51706,-33.95164,365.76 18.51849,-33.95208,365.76 18.51953,-33.95242,365.76 18.52089,-33.95283,365.76 18.52172,-33.95306,365.76 18.52289,-33.95334,335.28000000000003 18.52446,-33.95366,335.28000000000003 18.52564,-33.95385,335.28000000000003 18.52713,-33.95404,335.28000000000003 18.52839,-33.95413,335.28000000000003 18.52979,-33.95425,335.28000000000003 18.53107,-33.95441,335.28000000000003 18.5327,-33.95471,335.28000000000003 18.53382,-33.95506,335.28000000000003 18.53522,-33.95549,304.8 18.53623,-33.95586,335.28000000000003 18.53788,-33.95646,335.28000000000003 18.53909,-33.95688,304.8 18.54027,-33.95737,304.8 18.54139,-33.95782,304.8 18.54262,-33.95833,304.8 18.54406,-33.95893,304.8 18.54538,-33.95944,304.8 18.54643,-33.95988,304.8 18.54784,-33.96046,304.8 18.54898,-33.96093,274.32 18.55008,-33.96135,304.8 18.55137,-33.96185,304.8 18.55249,-33.96231,304.8 18.55367,-33.96277,274.32 18.55482,-33.96326,274.32 18.55972,-33.96529,274.32 18.56363,-33.96707,274.32 18.56712,-33.96863,274.32 18.57204,-33.97084,243.84 18.57342,-33.97154,243.84 18.57456,-33.97215,243.84 18.57565,-33.97275,243.84 18.57679,-33.97336,243.84 18.57811,-33.9741,243.84 18.57917,-33.97467,243.84 18.58028,-33.97527,243.84 18.58137,-33.97578,243.84 18.58276,-33.97641,213.36 18.58412,-33.97704,213.36 18.58545,-33.9776,213.36 18.5864,-33.97801,213.36 18.5878,-33.97856,213.36 18.58932,-33.97906,213.36 18.59064,-33.9795,213.36 18.5919,-33.97987,182.88 18.59352,-33.98026,182.88 18.5951,-33.98057,182.88 18.59643,-33.98071,182.88 18.59819,-33.98071,182.88 18.59957,-33.98058,152.4 18.60123,-33.9802,152.4 18.6026,-33.97989,152.4 18.604,-33.97952,152.4 18.60523,-33.97916,182.88 18.60695,-33.97866,182.88 18.60798,-33.97839,182.88 18.60929,-33.97801,182.88 18.61073,-33.97759,213.36 18.61204,-33.97718,213.36 18.61353,-33.97668,213.36 18.61439,-33.97638,213.36 18.61553,-33.97601,243.84 18.61667,-33.97554,243.84 18.61805,-33.97499,243.84 18.61919,-33.97452,243.84 18.62026,-33.97408,243.84 18.62155,-33.97348,274.32 18.62239,-33.97307,274.32 18.62345,-33.97256,274.32 18.62457,-33.97202,274.32 18.62586,-33.97137,274.32 18.62693,-33.97087,274.32 18.62827,-33.97018,304.8 18.62962,-33.9695,304.8 18.63064,-33.96898,304.8 18.63167,-33.96842,304.8 18.63304,-33.96768,304.8 18.63413,-33.96707,304.8 18.63545,-33.96634,304.8 18.63659,-33.96572,335.28000000000003 18.63741,-33.96519,335.28000000000003 18.63859,-33.96451,335.28000000000003 18.63976,-33.96382,335.28000000000003 18.64116,-33.96304,335.28000000000003 18.64225,-33.96242,335.28000000000003 18.64334,-33.96181,335.28000000000003 18.64466,-33.96107,335.28000000000003 18.64574,-33.96046,335.28000000000003 18.64699,-33.95975,335.28000000000003 18.65187,-33.95705,335.28000000000003 18.65576,-33.95478,335.28000000000003 18.66022,-33.95219,304.8 18.66521,-33.94926,304.8 18.66639,-33.94849,335.28000000000003 18.66737,-33.9478,304.8 18.66863,-33.94691,304.8 18.66975,-33.94606,335.28000000000003 18.67104,-33.94515,335.28000000000003 18.67201,-33.94445,335.28000000000003 18.67321,-33.94357,335.28000000000003 18.67429,-33.94281,335.28000000000003 18.67547,-33.94194,335.28000000000003 18.67636,-33.94124,335.28000000000003 18.67765,-33.94025,335.28000000000003 18.67842,-33.93966,335.28000000000003 18.67945,-33.93886,335.28000000000003 18.68059,-33.93807,335.28000000000003 18.68158,-33.93736,335.28000000000003 18.68277,-33.93658,335.28000000000003 18.68402,-33.9357,335.28000000000003 18.68494,-33.93504,335.28000000000003 18.68603,-33.93435,335.28000000000003 18.68735,-33.93347,335.28000000000003 18.68859,-33.93265,365.76 18.68952,-33.93202,365.76 18.69089,-33.93113,365.76 18.69192,-33.93048,365.76 18.69295,-33.92983,365.76 18.69402,-33.92921,365.76 18.69535,-33.92839,365.76 18.69638,-33.92778,365.76 18.6973,-33.92722,396.24 18.69862,-33.92638,396.24 18.69959,-33.92583,396.24 18.70073,-33.92508,396.24 18.70188,-33.92439,396.24 18.70305,-33.92363,396.24 18.70411,-33.92299,396.24 18.70551,-33.92207,396.24 18.70669,-33.92134,396.24 18.70775,-33.92065,396.24 18.71115,-33.91852,396.24 18.71224,-33.91786,396.24 18.71706,-33.91493,396.24 18.72173,-33.91209,396.24 18.72316,-33.91126,396.24 18.72435,-33.91063,396.24 18.7254,-33.91009,396.24 18.72698,-33.9093,396.24 18.72838,-33.90862,396.24 18.72952,-33.908,396.24 18.73068,-33.90742,396.24 18.73219,-33.90669,396.24 18.73335,-33.90609,396.24 18.73472,-33.90541,396.24 18.73589,-33.90477,396.24 18.73707,-33.90417,396.24 18.73858,-33.90344,396.24 18.73982,-33.90289,396.24 18.74094,-33.90239,426.72 18.74245,-33.90176,426.72 18.74391,-33.9012,426.72 18.74502,-33.90078,426.72 18.74657,-33.90018,426.72 18.74778,-33.89973,426.72 18.7492,-33.89915,426.72 18.75069,-33.89864,457.20000000000005 18.75189,-33.89822,457.20000000000005 18.75282,-33.8979,457.20000000000005 18.75439,-33.8974,457.20000000000005 18.75557,-33.89708,457.20000000000005 18.75681,-33.89673,457.20000000000005 18.75831,-33.8963,457.20000000000005 18.75961,-33.89599,457.20000000000005 18.76081,-33.89571,457.20000000000005 18.7619,-33.89543,487.68 18.7635,-33.8951,487.68 18.76493,-33.89479,487.68 18.76659,-33.8945,487.68 18.76802,-33.89431,487.68 18.76925,-33.89415,487.68 18.77077,-33.89399,487.68 18.77238,-33.89388,487.68 18.77357,-33.8938,487.68 18.77496,-33.89374,487.68 18.77655,-33.89371,518.1600000000001 18.77793,-33.89369,487.68 18.77918,-33.89371,487.68 18.78084,-33.89375,518.1600000000001 18.78222,-33.89384,518.1600000000001 18.78336,-33.89389,487.68 18.78494,-33.89406,518.1600000000001 18.78622,-33.89417,518.1600000000001 18.78765,-33.89436,518.1600000000001 18.78914,-33.89452,548.64 18.79034,-33.89468,548.64 18.7915,-33.89484,548.64 18.79269,-33.89501,579.12 18.79385,-33.89516,579.12 18.79469,-33.89529,579.12 18.79595,-33.89548,579.12 18.79744,-33.89571,579.12 18.79892,-33.89589,579.12 18.80041,-33.89616,579.12 18.80433,-33.8968,609.6 18.8055,-33.89697,609.6 18.80697,-33.89722,609.6 18.81094,-33.89776,640.08 18.81483,-33.89836,640.08 18.81627,-33.89859,640.08 18.81758,-33.89878,640.08 18.81907,-33.89906,640.08 18.82055,-33.89929,609.6 18.82181,-33.89948,609.6 18.82311,-33.89969,609.6 18.82468,-33.89996,609.6 18.82619,-33.90024,609.6 18.82765,-33.90055,609.6 18.82908,-33.90078,609.6 18.83039,-33.90102,609.6 18.83163,-33.90125,609.6 18.8332,-33.90153,609.6 18.83483,-33.9017,609.6 18.83646,-33.90185,609.6 18.83795,-33.9019,609.6 18.83932,-33.90195,609.6 18.8406,-33.90202,609.6 18.84239,-33.90207,609.6 18.84367,-33.90208,579.12 18.8452,-33.90216,579.12 18.84654,-33.90221,579.12 18.84802,-33.90227,579.12 18.84933,-33.90232,579.12 18.85111,-33.90241,548.64 18.85225,-33.9025,548.64 18.85368,-33.9026,548.64 18.85529,-33.90266,548.64 18.85649,-33.90274,548.64 18.85815,-33.90279,548.64 18.85943,-33.9028,518.1600000000001 18.86072,-33.90285,548.64 18.86221,-33.90288,518.1600000000001 18.86358,-33.90288,518.1600000000001 18.86481,-33.90294,518.1600000000001 18.8665,-33.90302,518.1600000000001 18.8677,-33.90306,518.1600000000001 18.86919,-33.90321,518.1600000000001 18.87056,-33.90334,487.68 18.87193,-33.90344,518.1600000000001 18.87305,-33.90358,518.1600000000001 18.87457,-33.90376,518.1600000000001 18.87594,-33.9039,518.1600000000001 18.87726,-33.90404,518.1600000000001 18.87857,-33.90418,518.1600000000001 18.88,-33.90436,487.68 18.88115,-33.90451,487.68 18.88241,-33.90469,487.68 18.88365,-33.90491,487.68 18.88515,-33.9053,487.68 18.88611,-33.90564,487.68 18.8874,-33.90614,487.68 18.88864,-33.90669,518.1600000000001 18.88959,-33.9072,518.1600000000001 18.89088,-33.90788,518.1600000000001 18.89189,-33.90852,518.1600000000001 18.89288,-33.90911,518.1600000000001 18.89368,-33.90968,518.1600000000001 18.8946,-33.91028,518.1600000000001 18.89559,-33.91095,518.1600000000001 18.89648,-33.91164,518.1600000000001 18.89733,-33.91223,518.1600000000001 18.89822,-33.91292,518.1600000000001 18.89912,-33.91363,518.1600000000001 18.8999,-33.91429,518.1600000000001 18.90072,-33.91489,518.1600000000001 18.90175,-33.91573,518.1600000000001 18.90255,-33.91633,548.64 18.9031,-33.91676,548.64 18.90438,-33.91773,548.64 18.9053,-33.91843,548.64 18.90629,-33.91919,548.64 18.90714,-33.91978,548.64 18.90821,-33.92052,548.64 18.90893,-33.92102,579.12 18.90987,-33.92159,579.12 18.91106,-33.92216,579.12 18.91228,-33.92271,579.12 18.91342,-33.92303,579.12 18.91422,-33.92327,579.12 18.91531,-33.92345,579.12 18.91645,-33.92364,579.12 18.91783,-33.92382,579.12 18.91886,-33.92392,579.12 18.92008,-33.92409,579.12 18.92109,-33.92424,579.12 18.92188,-33.92441,579.12 18.92317,-33.92464,579.12 18.92441,-33.92494,579.12 18.92538,-33.92546,579.12 18.92584,-33.92601,609.6 18.92595,-33.92676,609.6 18.92572,-33.92727,640.08 18.92507,-33.92775,640.08 18.9244,-33.92802,640.08 18.92366,-33.9282,640.08 18.92286,-33.92844,609.6 18.92212,-33.92857,609.6 18.92104,-33.92876,609.6 18.92012,-33.9289,609.6 18.91943,-33.92899,609.6 18.91846,-33.92913,609.6 18.91737,-33.92927,609.6 18.91655,-33.92931,609.6 18.91565,-33.92923,579.12 18.91485,-33.92895,579.12 18.91437,-33.92848,579.12 18.91417,-33.92792,579.12 18.91428,-33.92741,579.12 18.91465,-33.92693,579.12 18.91531,-33.92653,579.12 18.91594,-33.92624,579.12 18.91651,-33.92597,548.64 18.91717,-33.92564,548.64 18.91767,-33.92542,548.64 18.91834,-33.92508,548.64 18.91891,-33.92476,518.1600000000001 18.91935,-33.92455,518.1600000000001 18.91977,-33.92434,518.1600000000001 18.92008,-33.92418,518.1600000000001 18.92059,-33.9239,518.1600000000001 18.92109,-33.92358,518.1600000000001 18.92132,-33.92345,518.1600000000001 18.9216,-33.92327,487.68 18.92183,-33.92313,487.68 18.92223,-33.92294,487.68 18.92249,-33.92281,487.68 18.92288,-33.92271,0 18.92263,-33.9228,518.1600000000001 18.92115,-33.92313,518.1600000000001 18.92035,-33.92327,518.1600000000001 18.9196,-33.92341,518.1600000000001 18.91869,-33.92359,518.1600000000001 18.9179,-33.92377,518.1600000000001 18.91697,-33.92382,518.1600000000001 18.9161,-33.92381,518.1600000000001 18.91502,-33.92373,548.64 18.91386,-33.92349,548.64 18.91302,-33.92331,548.64 18.91228,-33.92313,579.12 18.9113,-33.92289,579.12 18.91033,-33.92266,579.12 18.90938,-33.92239,579.12 18.90809,-33.92207,609.6 18.90707,-33.92178,609.6 18.90593,-33.92145,609.6 18.90517,-33.92125,609.6 18.90381,-33.9208,609.6 18.90271,-33.92043,609.6 18.90141,-33.92001,609.6 18.9003,-33.9196,609.6 18.89894,-33.91912,609.6 18.89789,-33.91873,640.08 18.89694,-33.91833,640.08 18.89591,-33.91796,640.08 18.8946,-33.91745,640.08 18.8934,-33.91695,640.08 18.89242,-33.91647,640.08 18.89116,-33.91591,640.08 18.89036,-33.91554,640.08 18.88909,-33.91498,640.08 18.88813,-33.91452,640.08 18.88712,-33.91402,640.08 18.88578,-33.91338,640.08 18.88475,-33.91284,640.08 18.88354,-33.91223,640.08 18.88258,-33.91177,640.08 18.88121,-33.91107,670.5600000000001 18.88018,-33.91051,670.5600000000001 18.87897,-33.90991,670.5600000000001 18.8752,-33.90791,670.5600000000001 18.87412,-33.90733,640.08 18.8732,-33.90674,640.08 18.87081,-33.90536,640.08 18.86942,-33.90455,640.08 18.86835,-33.9039,640.08 18.86696,-33.90306,609.6 18.86566,-33.9023,609.6 18.86442,-33.90157,609.6 18.86296,-33.90074,609.6 18.86181,-33.90013,640.08 18.86032,-33.89934,640.08 18.85941,-33.89887,640.08 18.85786,-33.89813,640.08 18.85672,-33.89757,640.08 18.85534,-33.89692,609.6 18.85411,-33.89635,609.6 18.85276,-33.89575,609.6 18.85153,-33.8952,609.6 18.85013,-33.89456,609.6 18.8489,-33.89406,609.6 18.84738,-33.89342,640.08 18.84615,-33.89291,640.08 18.84459,-33.89231,640.08 18.84333,-33.8918,640.08 18.84207,-33.89128,640.08 18.84052,-33.89068,640.08 18.83937,-33.89021,640.08 18.83795,-33.8897,640.08 18.83675,-33.88929,609.6 18.83509,-33.88873,609.6 18.83348,-33.88826,609.6 18.83208,-33.88783,609.6 18.8309,-33.88751,609.6 18.82948,-33.88714,609.6 18.82776,-33.88668,579.12 18.8265,-33.8864,579.12 18.82513,-33.88609,579.12 18.8233,-33.8857,579.12 18.82187,-33.88542,579.12 18.8205,-33.88519,579.12 18.81924,-33.88499,548.64 18.81767,-33.88477,548.64 18.8161,-33.88454,548.64 18.81476,-33.8844,548.64 18.81325,-33.88426,548.64 18.81203,-33.88412,548.64 18.81071,-33.88403,518.1600000000001 18.8091,-33.8839,518.1600000000001 18.80753,-33.8838,518.1600000000001 18.80624,-33.88367,518.1600000000001 18.80501,-33.88358,518.1600000000001 18.80344,-33.88348,487.68 18.80204,-33.88344,487.68 18.8007,-33.88342,487.68 18.79904,-33.88337,487.68 18.79801,-33.88333,487.68 18.79669,-33.88333,457.20000000000005 18.79509,-33.88335,457.20000000000005 18.7938,-33.88339,457.20000000000005 18.79245,-33.88344,457.20000000000005 18.79114,-33.88346,426.72 18.78988,-33.88351,426.72 18.78862,-33.88361,426.72 18.78701,-33.88367,426.72 18.78553,-33.88379,426.72 18.78428,-33.88384,426.72 18.78292,-33.88394,396.24 18.78158,-33.88408,396.24 18.77998,-33.88421,396.24 18.77883,-33.88435,396.24 18.7772,-33.88454,396.24 18.77597,-33.88467,396.24 18.77466,-33.88477,396.24 18.77339,-33.8849,396.24 18.7722,-33.885,396.24 18.77065,-33.88518,396.24 18.76957,-33.88533,396.24 18.76829,-33.8855,396.24 18.76689,-33.88573,396.24 18.76577,-33.88586,396.24 18.76442,-33.88609,396.24 18.76322,-33.88626,396.24 18.76213,-33.88637,396.24 18.76099,-33.88649,396.24 18.75983,-33.8866,396.24 18.75847,-33.88677,396.24 18.75747,-33.88692,396.24 18.75613,-33.88715,396.24 18.75509,-33.88728,396.24 18.754,-33.88747,396.24 18.75298,-33.88765,396.24 18.75149,-33.88794,365.76 18.75034,-33.88817,396.24 18.74923,-33.88843,396.24 18.74805,-33.88868,396.24 18.74699,-33.88898,396.24 18.74559,-33.88933,365.76 18.74468,-33.88956,365.76 18.74335,-33.88994,365.76 18.74228,-33.89026,365.76 18.74122,-33.89063,365.76 18.74004,-33.89099,365.76 18.73909,-33.89131,365.76 18.73774,-33.89182,365.76 18.73678,-33.89217,365.76 18.73564,-33.89254,365.76 18.7346,-33.89291,365.76 18.73346,-33.89333,365.76 18.73215,-33.8938,365.76 18.73112,-33.89417,335.28000000000003 18.73018,-33.89452,365.76 18.72917,-33.89493,335.28000000000003 18.72786,-33.89548,335.28000000000003 18.72659,-33.89603,335.28000000000003 18.72564,-33.89644,335.28000000000003 18.72454,-33.89697,335.28000000000003 18.72351,-33.89748,335.28000000000003 18.72255,-33.89799,335.28000000000003 18.7216,-33.8985,335.28000000000003 18.72054,-33.89909,335.28000000000003 18.71969,-33.89955,335.28000000000003 18.71859,-33.90013,335.28000000000003 18.71773,-33.9006,335.28000000000003 18.71661,-33.9012,335.28000000000003 18.71566,-33.90166,335.28000000000003 18.71476,-33.90211,335.28000000000003 18.71367,-33.90274,335.28000000000003 18.7128,-33.90317,335.28000000000003 18.71183,-33.90362,335.28000000000003 18.71063,-33.90418,335.28000000000003 18.70977,-33.9046,335.28000000000003 18.70882,-33.90509,335.28000000000003 18.70771,-33.90567,335.28000000000003 18.7068,-33.90614,335.28000000000003 18.70588,-33.90665,335.28000000000003 18.70485,-33.90721,335.28000000000003 18.70389,-33.9077,335.28000000000003 18.70296,-33.90818,335.28000000000003 18.70005,-33.90968,335.28000000000003 18.69616,-33.91191,335.28000000000003 18.69312,-33.9136,335.28000000000003 18.68992,-33.9154,335.28000000000003 18.68791,-33.91649,335.28000000000003 18.68402,-33.91861,304.8 18.68096,-33.92029,304.8 18.67793,-33.92194,304.8 18.6767,-33.92257,304.8 18.67573,-33.92303,304.8 18.67481,-33.9235,304.8 18.67367,-33.92406,335.28000000000003 18.67261,-33.92455,335.28000000000003 18.67166,-33.92496,335.28000000000003 18.67041,-33.9255,335.28000000000003 18.66949,-33.92592,335.28000000000003 18.66863,-33.92628,335.28000000000003 18.6674,-33.92683,335.28000000000003 18.66656,-33.92715,335.28000000000003 18.66526,-33.92769,335.28000000000003 18.66423,-33.92815,335.28000000000003 18.66325,-33.92862,335.28000000000003 18.6623,-33.92908,335.28000000000003 18.66108,-33.92965,335.28000000000003 18.66011,-33.93011,335.28000000000003 18.65913,-33.93058,335.28000000000003 18.6581,-33.93104,335.28000000000003 18.65697,-33.93155,335.28000000000003 18.65579,-33.9321,335.28000000000003 18.65484,-33.93253,335.28000000000003 18.65361,-33.93311,335.28000000000003 18.6526,-33.93356,335.28000000000003 18.65164,-33.93402,335.28000000000003 18.64923,-33.93509,335.28000000000003 18.645,-33.93686,304.8 18.64402,-33.93727,304.8 18.643,-33.93761,304.8 18.64184,-33.93796,304.8 18.64042,-33.93835,304.8 18.63928,-33.93867,304.8 18.63831,-33.93887,304.8 18.63679,-33.93919,304.8 18.63544,-33.93947,304.8 18.63424,-33.9397,304.8 18.63298,-33.93993,304.8 18.63152,-33.94016,304.8 18.63029,-33.94038,304.8 18.62889,-33.94061,304.8 18.62772,-33.94082,304.8 18.62652,-33.94101,274.32 18.62486,-33.94124,274.32 18.6236,-33.94142,274.32 18.62244,-33.94157,274.32 18.62121,-33.94176,274.32 18.61964,-33.94199,274.32 18.61835,-33.94212,274.32 18.61719,-33.94226,274.32 18.6156,-33.94244,274.32 18.61403,-33.94263,274.32 18.6128,-33.94276,274.32 18.61168,-33.9429,274.32 18.61039,-33.94304,274.32 18.60918,-33.94315,274.32 18.60787,-33.94331,274.32 18.60366,-33.94377,274.32 18.59851,-33.94441,243.84 18.5931,-33.94515,243.84 18.58791,-33.94574,243.84 18.58646,-33.94589,243.84 18.58532,-33.94598,274.32 18.58418,-33.94603,274.32 18.58303,-33.94608,274.32 18.58186,-33.94611,274.32 18.58074,-33.94608,304.8 18.57967,-33.94606,304.8 18.5784,-33.94603,335.28000000000003 18.57748,-33.94603,335.28000000000003 18.57656,-33.94598,335.28000000000003 18.57553,-33.94592,335.28000000000003 18.57439,-33.94589,365.76 18.57328,-33.94583,365.76 18.57222,-33.9458,365.76 18.57113,-33.94575,365.76 18.56975,-33.94569,365.76 18.56873,-33.94566,365.76 18.56751,-33.9456,365.76 18.56633,-33.94556,365.76 18.56506,-33.94547,365.76 18.56375,-33.94543,365.76 18.56255,-33.94538,365.76 18.561,-33.94529,365.76 18.55997,-33.94524,365.76 18.55831,-33.94515,365.76 18.5568,-33.94505,365.76 18.55568,-33.94501,365.76 18.55434,-33.94496,365.76 18.55288,-33.94492,365.76 18.55154,-33.94487,365.76 18.55002,-33.94487,365.76 18.54879,-33.94482,365.76 18.54733,-33.94478,365.76 18.54627,-33.94473,365.76 18.5433,-33.94464,335.28000000000003 18.54189,-33.94459,335.28000000000003 18.53909,-33.94441,335.28000000000003 18.53747,-33.94427,335.28000000000003 18.53645,-33.94422,335.28000000000003 18.53483,-33.94395,304.8 18.53349,-33.94377,304.8 18.53181,-33.94354,304.8 18.53046,-33.94336,304.8 18.52913,-33.94324,304.8 18.52766,-33.94318,304.8 18.5265,-33.94319,304.8 18.52518,-33.94324,304.8 18.52427,-33.94328,335.28000000000003 18.52272,-33.94331,335.28000000000003 18.52149,-33.94331,335.28000000000003 18.52043,-33.94331,335.28000000000003 18.51925,-33.94322,335.28000000000003 18.5178,-33.94305,335.28000000000003 18.5166,-33.94291,335.28000000000003 18.51522,-33.94263,365.76 18.51408,-33.9424,365.76 18.51271,-33.94203,365.76 18.51168,-33.94167,365.76 18.51023,-33.94116,365.76 18.50916,-33.94075,365.76 18.50798,-33.94025,365.76 18.50664,-33.9397,365.76 18.50557,-33.93919,365.76 18.50447,-33.93867,365.76 18.50321,-33.93802,365.76 18.50187,-33.93736,365.76 18.50075,-33.93677,365.76 18.49974,-33.93626,396.24 18.49857,-33.93567,396.24 18.49731,-33.935,396.24 18.49627,-33.93448,396.24 18.49515,-33.93393,396.24 18.494,-33.93332,396.24 18.49285,-33.93274,396.24 18.49165,-33.93216,396.24 18.49061,-33.93159,396.24 18.48915,-33.93091,396.24 18.48804,-33.93034,396.24 18.48679,-33.92969,396.24 18.48562,-33.92908,365.76 18.48421,-33.9283,365.76 18.48032,-33.92625,365.76 18.47659,-33.92432,365.76 18.47546,-33.92373,365.76 18.47026,-33.92079,335.28000000000003 18.46928,-33.9202,335.28000000000003 18.46796,-33.9194,365.76 18.46695,-33.91873,365.76 18.46561,-33.91792,365.76 18.46453,-33.91722,365.76 18.46344,-33.91647,365.76 18.46212,-33.91554,335.28000000000003 18.46112,-33.91479,335.28000000000003 18.45989,-33.9137,335.28000000000003 18.45888,-33.91269,335.28000000000003 18.45787,-33.91159,335.28000000000003 18.45686,-33.91035,335.28000000000003 18.45608,-33.90939,335.28000000000003 18.45535,-33.90852,335.28000000000003 18.4544,-33.90734,335.28000000000003 18.45331,-33.90609,335.28000000000003 18.45257,-33.90506,335.28000000000003 18.45182,-33.90409,335.28000000000003 18.45115,-33.90298,335.28000000000003 18.45053,-33.90189,335.28000000000003 18.44994,-33.90078,335.28000000000003 18.44924,-33.89941,335.28000000000003 18.44862,-33.89817,335.28000000000003 18.44805,-33.89711,335.28000000000003 18.4475,-33.89612,365.76 18.44679,-33.89487,365.76 18.4461,-33.89384,365.76 18.44513,-33.89264,365.76 18.44431,-33.89177,365.76 18.44347,-33.89073,396.24 18.44279,-33.88962,365.76 18.44267,-33.88854,365.76 18.44261,-33.88737,365.76 18.44204,-33.88626,365.76 18.4413,-33.88542,365.76 18.44021,-33.88458,365.76 18.43915,-33.88385,396.24 18.43842,-33.88348,426.72 18.43763,-33.88333,426.72 18.43663,-33.88385,426.72 18.43629,-33.88472,365.76 18.43615,-33.88537,365.76 18.43601,-33.88641,335.28000000000003 18.43601,-33.88705,335.28000000000003 18.43603,-33.88794,365.76 18.43609,-33.88858,365.76 18.43615,-33.88933,365.76 18.43618,-33.88989,365.76 18.43632,-33.8905,335.28000000000003 18.43649,-33.8911,335.28000000000003 18.43672,-33.8918,335.28000000000003 18.43666,-33.89245,304.8 18.43629,-33.89282,304.8 18.43556,-33.89301,304.8 18.43444,-33.89296,274.32 18.43338,-33.89278,243.84 18.43266,-33.89264,243.84 18.43181,-33.89246,243.84 18.42985,-33.89296,243.84 18.42957,-33.89319,213.36 18.42906,-33.89401,213.36 18.42872,-33.89456,182.88 18.42828,-33.89502,182.88 18.42756,-33.89543,182.88 18.42693,-33.89575,182.88 18.42648,-33.89608,182.88 18.42642,-33.89682,152.4 18.4267,-33.89724,152.4 18.42693,-33.89767,152.4 18.4271,-33.89804,121.92 18.42732,-33.89854,121.92 18.42743,-33.89886,121.92 18.42755,-33.89914,121.92 18.42768,-33.89952,121.92 18.42779,-33.90004,91.44 18.42773,-33.90051,91.44 18.42758,-33.90072,0</coordinates>
      </LineString>
    </Placemark>
  </Document>
</kml>
