<?xml version="1.0" encoding="UTF-8"?>
<kml xmlns="http://www.opengis.net/kml/2.2">
  <Document>
    <name>FR24 3e132031</name>
    <Placemark>
      <name>FR24 3e132031</name>
      <description><![CDATA[Source: ADS-B
Start (SAST): 2026-01-27 13:27:02
End (SAST): 2026-01-27 17:01:18
Points: 2324]]></description>
      <Style><LineStyle><color>ff0000ff</color><width>4</width></LineStyle></Style>
      <LineString>
        <tessellate>1</tessellate>
        <altitudeMode>absolute</altitudeMode>
        <coordinates>18.43117,-33.89422,45.72 18.4326,-33.89217,83.82000000000001 18.43405,-33.88994,106.68 18.4354,-33.8877,137.16 18.43573,-33.88705,152.4 18.43612,-33.88628,152.4 18.4364,-33.88541,160.02 18.43657,-33.88467,160.02 18.43666,-33.88361,167.64000000000001 18.4366,-33.88295,175.26000000000002 18.43643,-33.88202,182.88 18.43624,-33.88124,190.5 18.4359,-33.88023,198.12 18.43546,-33.87932,205.74 18.43512,-33.87858,213.36 18.43489,-33.87767,220.98000000000002 18.435,-33.87675,236.22 18.43529,-33.8762,251.46 18.43596,-33.87561,259.08000000000004 18.43655,-33.87537,274.32 18.4373,-33.8752,281.94 18.43786,-33.8752,289.56 18.43842,-33.87529,289.56 18.43906,-33.87555,297.18 18.43946,-33.87588,297.18 18.43975,-33.8763,297.18 18.43994,-33.87689,304.8 18.43988,-33.87758,304.8 18.43964,-33.87807,304.8 18.43921,-33.87863,312.42 18.4387,-33.87895,312.42 18.43781,-33.87928,320.04 18.43689,-33.87946,327.66 18.43596,-33.8795,327.66 18.43506,-33.87941,335.28000000000003 18.43437,-33.87932,342.90000000000003 18.4331,-33.87909,350.52000000000004 18.4322,-33.87895,350.52000000000004 18.43125,-33.87872,358.14000000000004 18.43007,-33.87849,365.76 18.42905,-33.87825,373.38 18.42816,-33.87804,381 18.4271,-33.87781,388.62 18.42596,-33.87755,396.24 18.42505,-33.87737,403.86 18.42402,-33.87713,419.1 18.42287,-33.8769,426.72 18.42177,-33.87671,434.34000000000003 18.42054,-33.87653,434.34000000000003 18.41959,-33.87639,441.96000000000004 18.41852,-33.8762,449.58000000000004 18.41768,-33.87611,449.58000000000004 18.41635,-33.87602,457.20000000000005 18.41515,-33.87592,464.82000000000005 18.41393,-33.87593,472.44 18.41286,-33.87592,472.44 18.41188,-33.87597,480.06 18.41062,-33.87607,487.68 18.40948,-33.8762,487.68 18.40815,-33.87634,487.68 18.40714,-33.87653,495.3 18.40591,-33.87675,502.92 18.40485,-33.877,510.54 18.40378,-33.87721,510.54 18.40277,-33.87749,518.1600000000001 18.40181,-33.87778,518.1600000000001 18.40055,-33.8782,525.78 18.39935,-33.87867,533.4 18.39838,-33.87904,533.4 18.39712,-33.8796,533.4 18.39615,-33.88002,541.02 18.39481,-33.8806,548.64 18.39386,-33.88109,548.64 18.39257,-33.88174,556.26 18.39146,-33.88235,563.88 18.39054,-33.88281,571.5 18.3894,-33.88346,579.12 18.38848,-33.88403,579.12 18.38762,-33.88454,586.74 18.38685,-33.88504,586.74 18.38579,-33.88575,594.36 18.38472,-33.88641,601.98 18.38367,-33.88714,601.98 18.38276,-33.88779,601.98 18.38167,-33.88854,609.6 18.38086,-33.88916,609.6 18.38001,-33.8898,617.22 18.37906,-33.89053,617.22 18.37833,-33.89113,624.84 18.37721,-33.89208,624.84 18.37646,-33.89273,632.46 18.3757,-33.89342,632.46 18.37491,-33.8941,640.08 18.374,-33.89492,640.08 18.37326,-33.89557,640.08 18.3724,-33.89636,647.7 18.3716,-33.89711,647.7 18.37077,-33.89786,655.32 18.37009,-33.89854,655.32 18.3692,-33.89939,662.94 18.36841,-33.90019,662.94 18.36768,-33.90092,662.94 18.36685,-33.90181,670.5600000000001 18.36611,-33.90253,670.5600000000001 18.36542,-33.90325,670.5600000000001 18.36466,-33.90413,678.1800000000001 18.36376,-33.90514,678.1800000000001 18.36313,-33.90586,678.1800000000001 18.36236,-33.90674,685.8000000000001 18.36157,-33.90775,685.8000000000001 18.36096,-33.90848,685.8000000000001 18.36012,-33.90962,693.4200000000001 18.35958,-33.91032,693.4200000000001 18.35901,-33.91107,693.4200000000001 18.35844,-33.91186,693.4200000000001 18.35793,-33.9126,693.4200000000001 18.35731,-33.91351,701.0400000000001 18.35664,-33.91457,701.0400000000001 18.35615,-33.91535,708.6600000000001 18.35569,-33.9161,708.6600000000001 18.35512,-33.91698,716.2800000000001 18.35462,-33.91777,723.9000000000001 18.35406,-33.91878,731.52 18.35381,-33.91945,746.76 18.35378,-33.92015,769.62 18.35395,-33.92075,792.48 18.35438,-33.92131,822.96 18.35485,-33.92157,845.82 18.35541,-33.92164,861.0600000000001 18.35602,-33.92152,876.3000000000001 18.35661,-33.92131,876.3000000000001 18.35726,-33.92088,876.3000000000001 18.35781,-33.92043,876.3000000000001 18.35832,-33.91969,883.9200000000001 18.35844,-33.91912,891.5400000000001 18.35821,-33.91852,906.7800000000001 18.35759,-33.91814,914.4000000000001 18.35698,-33.91814,914.4000000000001 18.35615,-33.91843,899.1600000000001 18.35558,-33.91882,891.5400000000001 18.35479,-33.9196,876.3000000000001 18.35429,-33.92024,868.6800000000001 18.35381,-33.92103,861.0600000000001 18.35329,-33.92187,861.0600000000001 18.35272,-33.92294,861.0600000000001 18.35215,-33.92406,861.0600000000001 18.35176,-33.92491,861.0600000000001 18.3512,-33.92596,853.44 18.3507,-33.92711,853.44 18.35026,-33.92806,853.44 18.3498,-33.92903,853.44 18.34934,-33.93002,853.44 18.34883,-33.93118,853.44 18.34823,-33.93242,853.44 18.3478,-33.93332,853.44 18.34734,-33.93444,853.44 18.34689,-33.93544,853.44 18.34638,-33.93658,845.82 18.34579,-33.93789,845.82 18.34538,-33.93887,845.82 18.34482,-33.94017,845.82 18.34397,-33.94208,853.44 18.34358,-33.94304,853.44 18.34311,-33.94422,853.44 18.34257,-33.94551,853.44 18.34213,-33.94659,853.44 18.34095,-33.94963,853.44 18.3391,-33.95409,845.82 18.33736,-33.9581,838.2 18.33601,-33.96117,830.58 18.33418,-33.96558,822.96 18.33349,-33.96744,815.34 18.33299,-33.96886,815.34 18.33258,-33.97001,807.72 18.33218,-33.97103,807.72 18.33175,-33.97229,807.72 18.33136,-33.97334,800.1 18.33097,-33.97453,800.1 18.33052,-33.97578,800.1 18.33018,-33.97691,800.1 18.32977,-33.97815,800.1 18.32945,-33.9792,792.48 18.32897,-33.98062,792.48 18.32867,-33.98167,800.1 18.32833,-33.98264,792.48 18.32789,-33.98401,792.48 18.32754,-33.98509,792.48 18.32727,-33.98602,792.48 18.32688,-33.98721,784.86 18.32654,-33.98831,784.86 18.32587,-33.99069,784.86 18.32554,-33.99184,784.86 18.32531,-33.99295,777.24 18.32508,-33.99393,777.24 18.32486,-33.99518,777.24 18.32468,-33.99622,777.24 18.32452,-33.99747,769.62 18.32441,-33.99857,769.62 18.32434,-33.99961,762 18.32424,-34.0009,762 18.32419,-34.00209,762 18.32413,-34.00314,754.38 18.32417,-34.00441,754.38 18.32419,-34.0058,754.38 18.3243,-34.0069,746.76 18.32447,-34.00836,746.76 18.32462,-34.00962,746.76 18.32485,-34.01093,746.76 18.32514,-34.01239,739.14 18.32542,-34.01353,739.14 18.32571,-34.01456,739.14 18.32594,-34.01549,739.14 18.32626,-34.01651,731.52 18.3266,-34.01752,731.52 18.32708,-34.01898,731.52 18.32749,-34.02022,731.52 18.32789,-34.02122,731.52 18.32839,-34.02242,723.9000000000001 18.3288,-34.02335,723.9000000000001 18.32932,-34.02466,723.9000000000001 18.32973,-34.02571,723.9000000000001 18.33013,-34.02672,716.2800000000001 18.33057,-34.02796,716.2800000000001 18.33097,-34.02901,716.2800000000001 18.3313,-34.03001,716.2800000000001 18.33164,-34.03116,716.2800000000001 18.33192,-34.03217,716.2800000000001 18.33229,-34.03336,708.6600000000001 18.33254,-34.03436,708.6600000000001 18.33292,-34.03569,701.0400000000001 18.33315,-34.03674,701.0400000000001 18.33344,-34.03778,693.4200000000001 18.33372,-34.03904,693.4200000000001 18.33401,-34.04021,685.8000000000001 18.33428,-34.04123,685.8000000000001 18.33447,-34.04226,685.8000000000001 18.33469,-34.04342,685.8000000000001 18.33495,-34.04466,685.8000000000001 18.33509,-34.04589,678.1800000000001 18.33527,-34.04705,678.1800000000001 18.33544,-34.0484,678.1800000000001 18.33557,-34.04961,678.1800000000001 18.33567,-34.05031,678.1800000000001 18.33579,-34.05144,678.1800000000001 18.3359,-34.05281,678.1800000000001 18.33601,-34.0538,685.8000000000001 18.33612,-34.05487,685.8000000000001 18.33618,-34.0558,685.8000000000001 18.3363,-34.05706,693.4200000000001 18.33635,-34.05794,693.4200000000001 18.33635,-34.05915,701.0400000000001 18.33641,-34.06027,701.0400000000001 18.33641,-34.06115,708.6600000000001 18.33641,-34.06213,708.6600000000001 18.33635,-34.0632,716.2800000000001 18.3363,-34.064,723.9000000000001 18.33618,-34.06517,731.52 18.33612,-34.06614,739.14 18.33596,-34.06723,739.14 18.33578,-34.06828,746.76 18.33557,-34.06915,754.38 18.33534,-34.06998,754.38 18.33521,-34.07103,769.62 18.33545,-34.07199,777.24 18.33613,-34.07277,784.86 18.33715,-34.07335,784.86 18.33825,-34.07359,777.24 18.33988,-34.07364,784.86 18.34105,-34.07344,784.86 18.34235,-34.07318,784.86 18.34339,-34.07298,784.86 18.34521,-34.07277,777.24 18.34625,-34.0727,777.24 18.34778,-34.07277,769.62 18.34952,-34.07295,769.62 18.35066,-34.07312,769.62 18.35192,-34.07335,769.62 18.35316,-34.07368,762 18.35449,-34.0741,762 18.35597,-34.0746,762 18.35765,-34.07529,762 18.35901,-34.07596,754.38 18.3601,-34.07656,754.38 18.3609,-34.07703,762 18.36225,-34.0779,754.38 18.36309,-34.07845,754.38 18.36422,-34.07927,754.38 18.36516,-34.08,754.38 18.36605,-34.08061,754.38 18.36697,-34.08136,754.38 18.36794,-34.0821,754.38 18.36897,-34.08293,754.38 18.37006,-34.08383,746.76 18.37093,-34.08453,739.14 18.37183,-34.08527,739.14 18.37295,-34.08627,731.52 18.374,-34.08713,731.52 18.37486,-34.08788,723.9000000000001 18.37612,-34.08895,723.9000000000001 18.37698,-34.08969,723.9000000000001 18.37788,-34.09053,723.9000000000001 18.37895,-34.09154,716.2800000000001 18.37985,-34.09236,716.2800000000001 18.38069,-34.09314,716.2800000000001 18.38153,-34.09392,716.2800000000001 18.3823,-34.09463,716.2800000000001 18.3859,-34.0979,701.0400000000001 18.38842,-34.10007,701.0400000000001 18.39151,-34.10263,701.0400000000001 18.3924,-34.10335,693.4200000000001 18.39453,-34.105,701.0400000000001 18.39563,-34.10585,693.4200000000001 18.39649,-34.1065,693.4200000000001 18.39745,-34.10719,693.4200000000001 18.39838,-34.10789,693.4200000000001 18.3998,-34.1088,693.4200000000001 18.40073,-34.10943,685.8000000000001 18.40204,-34.11021,678.1800000000001 18.40372,-34.11113,678.1800000000001 18.40473,-34.11171,678.1800000000001 18.40602,-34.11237,678.1800000000001 18.40748,-34.11314,670.5600000000001 18.40871,-34.11378,670.5600000000001 18.40988,-34.11441,670.5600000000001 18.41084,-34.11488,670.5600000000001 18.41228,-34.11557,670.5600000000001 18.41331,-34.11604,662.94 18.41457,-34.11665,662.94 18.41606,-34.11731,662.94 18.41723,-34.11786,662.94 18.41875,-34.11851,662.94 18.42026,-34.11914,662.94 18.42138,-34.11963,662.94 18.42276,-34.12014,662.94 18.42396,-34.12056,670.5600000000001 18.42547,-34.12111,670.5600000000001 18.42705,-34.12167,678.1800000000001 18.42828,-34.12212,678.1800000000001 18.42957,-34.12253,678.1800000000001 18.43102,-34.12299,685.8000000000001 18.43271,-34.12344,685.8000000000001 18.43403,-34.12381,685.8000000000001 18.43567,-34.12418,685.8000000000001 18.43702,-34.12445,685.8000000000001 18.43859,-34.12468,678.1800000000001 18.43994,-34.12486,678.1800000000001 18.44164,-34.12498,670.5600000000001 18.44301,-34.12507,678.1800000000001 18.44476,-34.12509,670.5600000000001 18.4461,-34.12505,662.94 18.44782,-34.12493,662.94 18.44919,-34.12479,670.5600000000001 18.45051,-34.12465,678.1800000000001 18.45193,-34.12445,678.1800000000001 18.45337,-34.12423,693.4200000000001 18.45446,-34.12405,701.0400000000001 18.45613,-34.12372,693.4200000000001 18.45737,-34.1234,685.8000000000001 18.45869,-34.12293,678.1800000000001 18.45995,-34.12239,670.5600000000001 18.46115,-34.12177,662.94 18.46224,-34.12111,655.32 18.46337,-34.12038,655.32 18.46436,-34.11963,647.7 18.4655,-34.11879,640.08 18.4669,-34.11763,640.08 18.46785,-34.11681,632.46 18.46897,-34.11571,632.46 18.46992,-34.11484,632.46 18.47127,-34.11346,632.46 18.47228,-34.11241,632.46 18.47317,-34.11143,632.46 18.47414,-34.11027,624.84 18.475,-34.10906,624.84 18.47569,-34.10803,624.84 18.47643,-34.10669,624.84 18.4771,-34.10527,624.84 18.47749,-34.10431,624.84 18.47805,-34.10275,632.46 18.47833,-34.10165,632.46 18.47866,-34.10026,640.08 18.47889,-34.09909,640.08 18.47906,-34.09799,640.08 18.47928,-34.09644,640.08 18.47946,-34.09505,640.08 18.47958,-34.0937,640.08 18.47969,-34.09258,640.08 18.47979,-34.09135,640.08 18.47986,-34.0902,640.08 18.47998,-34.08908,632.46 18.48007,-34.08769,640.08 18.48018,-34.08659,640.08 18.48029,-34.08527,632.46 18.48041,-34.08421,632.46 18.48052,-34.08302,632.46 18.48069,-34.08202,632.46 18.48083,-34.08075,632.46 18.48106,-34.07964,624.84 18.48129,-34.0781,624.84 18.48153,-34.07703,617.22 18.48186,-34.07556,609.6 18.48214,-34.07446,609.6 18.48237,-34.07332,609.6 18.4827,-34.07185,601.98 18.48301,-34.07084,594.36 18.48332,-34.0697,594.36 18.4837,-34.06833,586.74 18.48404,-34.06697,579.12 18.48427,-34.0659,571.5 18.48455,-34.0646,571.5 18.48483,-34.06339,563.88 18.48507,-34.06218,556.26 18.48536,-34.06069,556.26 18.48558,-34.05934,556.26 18.48579,-34.05826,548.64 18.48601,-34.05688,548.64 18.48623,-34.05574,541.02 18.48639,-34.05455,541.02 18.48663,-34.05309,541.02 18.48685,-34.05171,541.02 18.48702,-34.05057,533.4 18.48719,-34.04942,533.4 18.48736,-34.04845,533.4 18.48764,-34.04682,533.4 18.48782,-34.04565,533.4 18.48803,-34.0442,533.4 18.48816,-34.04291,533.4 18.48827,-34.04142,533.4 18.48842,-34.04022,533.4 18.48856,-34.039,541.02 18.48865,-34.0378,541.02 18.48873,-34.03634,541.02 18.48885,-34.03499,548.64 18.48893,-34.03368,548.64 18.48893,-34.03249,556.26 18.48896,-34.03094,556.26 18.4889,-34.02992,556.26 18.4889,-34.02871,563.88 18.48885,-34.02731,571.5 18.48885,-34.0262,563.88 18.48879,-34.02503,571.5 18.4887,-34.0237,571.5 18.48859,-34.02232,571.5 18.48853,-34.02127,579.12 18.48845,-34.01991,579.12 18.48831,-34.01848,579.12 18.48816,-34.01712,579.12 18.48804,-34.01595,571.5 18.48793,-34.01442,563.88 18.48759,-34.0106,556.26 18.48747,-34.00905,548.64 18.48747,-34.00809,541.02 18.48747,-34.00687,541.02 18.48747,-34.00552,533.4 18.48752,-34.00401,518.1600000000001 18.48759,-34.00278,518.1600000000001 18.48764,-34.00168,510.54 18.48775,-34.00044,510.54 18.48792,-33.99893,510.54 18.48804,-33.99761,502.92 18.4882,-33.99641,502.92 18.48839,-33.99529,502.92 18.48856,-33.99393,502.92 18.48873,-33.99268,502.92 18.48896,-33.99142,502.92 18.48907,-33.99026,495.3 18.48932,-33.98863,495.3 18.48949,-33.98744,487.68 18.48965,-33.9863,487.68 18.48988,-33.98483,487.68 18.49005,-33.98383,487.68 18.49027,-33.98241,480.06 18.49045,-33.98095,480.06 18.49066,-33.97952,472.44 18.49079,-33.97829,464.82000000000005 18.49089,-33.97705,457.20000000000005 18.49096,-33.97596,449.58000000000004 18.49108,-33.97443,441.96000000000004 18.49113,-33.97326,441.96000000000004 18.49117,-33.97215,441.96000000000004 18.49119,-33.9707,441.96000000000004 18.49113,-33.96977,434.34000000000003 18.49113,-33.96842,426.72 18.49105,-33.96707,434.34000000000003 18.49094,-33.96588,426.72 18.49077,-33.96423,419.1 18.49068,-33.96312,419.1 18.49045,-33.96158,419.1 18.49022,-33.96041,419.1 18.48993,-33.95893,419.1 18.48965,-33.95776,411.48 18.48937,-33.95673,411.48 18.48909,-33.95563,403.86 18.48876,-33.95453,396.24 18.48833,-33.95292,381 18.48799,-33.95185,373.38 18.48764,-33.95069,358.14000000000004 18.48724,-33.94952,350.52000000000004 18.48696,-33.94873,342.90000000000003 18.48646,-33.94743,327.66 18.4861,-33.94645,320.04 18.48567,-33.94519,312.42 18.48534,-33.94427,304.8 18.48478,-33.94291,297.18 18.48444,-33.94194,289.56 18.48405,-33.94098,289.56 18.48358,-33.93993,289.56 18.48304,-33.93869,281.94 18.48248,-33.93755,281.94 18.48192,-33.93645,274.32 18.48146,-33.93551,274.32 18.48095,-33.93435,266.7 18.48041,-33.93333,266.7 18.47986,-33.93221,259.08000000000004 18.4794,-33.93127,266.7 18.47884,-33.93027,266.7 18.47822,-33.92935,266.7 18.4774,-33.9282,266.7 18.47687,-33.92757,274.32 18.47574,-33.92639,274.32 18.47477,-33.92541,274.32 18.47401,-33.92468,274.32 18.47301,-33.92368,281.94 18.47217,-33.92294,274.32 18.47132,-33.92221,274.32 18.47031,-33.92131,274.32 18.46928,-33.92043,266.7 18.46842,-33.91973,266.7 18.46734,-33.91887,259.08000000000004 18.46651,-33.91823,251.46 18.46544,-33.91735,259.08000000000004 18.46449,-33.91667,259.08000000000004 18.46344,-33.91577,251.46 18.46236,-33.91493,251.46 18.46161,-33.91438,251.46 18.46069,-33.91363,251.46 18.45882,-33.91209,251.46 18.45612,-33.90981,243.84 18.45348,-33.90744,236.22 18.4526,-33.90651,236.22 18.45187,-33.90569,236.22 18.45115,-33.90482,236.22 18.45045,-33.90395,236.22 18.44965,-33.90297,236.22 18.44896,-33.90218,236.22 18.44816,-33.90148,236.22 18.44717,-33.90074,236.22 18.44633,-33.90027,228.60000000000002 18.44507,-33.89971,228.60000000000002 18.44414,-33.89937,220.98000000000002 18.44307,-33.89906,213.36 18.44238,-33.89892,213.36 18.44061,-33.89869,190.5 18.43977,-33.89864,182.88 18.43881,-33.89859,167.64000000000001 18.43781,-33.89855,152.4 18.437,-33.89855,137.16 18.43626,-33.8985,129.54000000000002 18.43534,-33.89854,114.30000000000001 18.4346,-33.89859,106.68 18.43371,-33.89864,91.44 18.4331,-33.89873,83.82000000000001 18.43226,-33.89882,68.58 18.4314,-33.89897,45.72 18.43082,-33.89906,38.1 18.43037,-33.89915,30.48 18.42974,-33.89929,15.24 18.42934,-33.89941,7.62 18.42878,-33.89955,0 18.42831,-33.89976,0 18.42794,-33.90005,0 18.42772,-33.90024,0 18.42756,-33.90046,0 18.42733,-33.9006,0 18.42727,-33.90033,0 18.42727,-33.90005,0 18.42728,-33.89985,0 18.42738,-33.89964,0 18.42749,-33.89932,0 18.42768,-33.89901,0 18.42816,-33.89841,0 18.42848,-33.89808,7.62 18.42878,-33.89767,7.62 18.42899,-33.89743,7.62 18.42923,-33.89717,7.62 18.42957,-33.89673,15.24 18.43008,-33.89608,30.48 18.43031,-33.89576,38.1 18.43054,-33.89548,38.1 18.43111,-33.89473,53.34 18.43157,-33.89408,60.96 18.4322,-33.89319,68.58 18.4327,-33.89246,76.2 18.43317,-33.8917,83.82000000000001 18.4336,-33.89104,99.06 18.43427,-33.88989,106.68 18.43472,-33.8891,114.30000000000001 18.43523,-33.88815,121.92 18.43569,-33.88733,137.16 18.43607,-33.88646,144.78 18.43637,-33.88551,152.4 18.43652,-33.88445,160.02 18.43637,-33.88342,167.64000000000001 18.4362,-33.88258,175.26000000000002 18.43586,-33.88169,182.88 18.43545,-33.88065,190.5 18.43506,-33.87978,205.74 18.4346,-33.879,213.36 18.43397,-33.87807,220.98000000000002 18.43349,-33.8774,228.60000000000002 18.43288,-33.87672,228.60000000000002 18.4322,-33.87598,236.22 18.43142,-33.87524,243.84 18.43069,-33.87469,251.46 18.42974,-33.87406,259.08000000000004 18.42916,-33.87369,266.7 18.42811,-33.87318,266.7 18.42716,-33.87285,274.32 18.42602,-33.87257,289.56 18.42514,-33.87245,297.18 18.42384,-33.87229,304.8 18.4231,-33.87225,312.42 18.42183,-33.87218,327.66 18.42054,-33.87218,335.28000000000003 18.41959,-33.87222,335.28000000000003 18.41858,-33.87227,342.90000000000003 18.41743,-33.87239,350.52000000000004 18.41639,-33.87245,358.14000000000004 18.41526,-33.87257,365.76 18.41429,-33.87271,365.76 18.41326,-33.87285,373.38 18.41219,-33.87305,381 18.41125,-33.87322,388.62 18.41011,-33.87346,396.24 18.40925,-33.87369,403.86 18.40799,-33.87402,411.48 18.40691,-33.87434,426.72 18.40602,-33.8746,426.72 18.40507,-33.87492,441.96000000000004 18.40417,-33.87524,441.96000000000004 18.40316,-33.87561,449.58000000000004 18.40239,-33.87592,457.20000000000005 18.40136,-33.87634,464.82000000000005 18.40055,-33.87672,472.44 18.39975,-33.87709,480.06 18.39867,-33.8776,480.06 18.39769,-33.87807,487.68 18.39689,-33.87844,495.3 18.39609,-33.87886,502.92 18.39506,-33.87937,510.54 18.39414,-33.87987,510.54 18.39324,-33.88033,518.1600000000001 18.39249,-33.88072,525.78 18.39139,-33.88133,533.4 18.39061,-33.88179,541.02 18.38954,-33.88239,548.64 18.38893,-33.88275,548.64 18.38786,-33.88339,556.26 18.38708,-33.8839,563.88 18.38631,-33.8844,563.88 18.38539,-33.885,571.5 18.38442,-33.8856,579.12 18.38366,-33.88618,586.74 18.38276,-33.88683,594.36 18.38192,-33.88747,601.98 18.38121,-33.88798,601.98 18.38029,-33.88866,609.6 18.37951,-33.88925,609.6 18.3785,-33.89003,617.22 18.37784,-33.89059,624.84 18.37699,-33.89127,624.84 18.37615,-33.892,632.46 18.37549,-33.89259,640.08 18.37475,-33.89328,647.7 18.37391,-33.8941,655.32 18.37329,-33.89474,655.32 18.37267,-33.89534,662.94 18.37183,-33.89616,662.94 18.37116,-33.89685,662.94 18.37029,-33.89771,670.5600000000001 18.36964,-33.89841,670.5600000000001 18.36903,-33.89911,670.5600000000001 18.36845,-33.89976,678.1800000000001 18.36765,-33.90064,678.1800000000001 18.36701,-33.90134,685.8000000000001 18.36645,-33.90199,685.8000000000001 18.36561,-33.90289,693.4200000000001 18.36496,-33.90358,693.4200000000001 18.36432,-33.90436,701.0400000000001 18.3637,-33.90506,701.0400000000001 18.36309,-33.90573,708.6600000000001 18.36241,-33.90656,708.6600000000001 18.36174,-33.90729,716.2800000000001 18.3613,-33.90791,716.2800000000001 18.36057,-33.9088,716.2800000000001 18.3601,-33.90944,723.9000000000001 18.35939,-33.9104,731.52 18.35883,-33.91113,731.52 18.35798,-33.91233,739.14 18.35737,-33.91319,739.14 18.35684,-33.91391,746.76 18.35632,-33.9147,746.76 18.35552,-33.91587,754.38 18.35501,-33.91667,754.38 18.35449,-33.9175,762 18.35401,-33.91827,762 18.35339,-33.91928,769.62 18.35289,-33.9201,769.62 18.35233,-33.92107,769.62 18.35188,-33.92189,769.62 18.35132,-33.92294,777.24 18.35087,-33.92377,777.24 18.35026,-33.92485,777.24 18.3498,-33.92569,777.24 18.3493,-33.92661,777.24 18.34883,-33.92769,777.24 18.34829,-33.92876,777.24 18.3479,-33.92963,777.24 18.34745,-33.93053,777.24 18.34694,-33.93164,777.24 18.34654,-33.93244,784.86 18.34605,-33.93352,784.86 18.34574,-33.93416,784.86 18.34515,-33.93539,784.86 18.34465,-33.93645,792.48 18.34414,-33.93751,792.48 18.34375,-33.93842,792.48 18.34328,-33.93951,800.1 18.34282,-33.94054,800.1 18.34236,-33.94156,800.1 18.34196,-33.94263,800.1 18.3419,-33.94354,800.1 18.34218,-33.94441,792.48 18.34288,-33.94519,784.86 18.34402,-33.9458,769.62 18.34549,-33.94606,754.38 18.34672,-33.94597,746.76 18.34829,-33.94547,731.52 18.34929,-33.94487,723.9000000000001 18.35026,-33.94412,716.2800000000001 18.35137,-33.94304,716.2800000000001 18.35232,-33.94198,708.6600000000001 18.35311,-33.94098,708.6600000000001 18.35403,-33.93975,701.0400000000001 18.35466,-33.93896,693.4200000000001 18.35563,-33.93759,685.8000000000001 18.35653,-33.9364,685.8000000000001 18.35737,-33.93517,685.8000000000001 18.35804,-33.93421,678.1800000000001 18.35907,-33.93267,678.1800000000001 18.35981,-33.93155,670.5600000000001 18.36061,-33.93034,670.5600000000001 18.36135,-33.92926,670.5600000000001 18.36205,-33.92806,662.94 18.36286,-33.92674,655.32 18.36348,-33.92569,655.32 18.36416,-33.92448,655.32 18.36499,-33.92317,647.7 18.3672,-33.91945,640.08 18.36925,-33.91603,632.46 18.37149,-33.91265,624.84 18.37441,-33.90834,632.46 18.37601,-33.90614,640.08 18.37681,-33.90511,640.08 18.37761,-33.90408,632.46 18.3783,-33.90316,640.08 18.37904,-33.90223,632.46 18.37996,-33.90106,632.46 18.38076,-33.90004,624.84 18.3817,-33.89896,624.84 18.38236,-33.89817,617.22 18.38349,-33.89694,617.22 18.3843,-33.89608,617.22 18.38512,-33.89525,609.6 18.38635,-33.89415,609.6 18.38762,-33.89315,601.98 18.3887,-33.89232,594.36 18.39022,-33.89127,586.74 18.39156,-33.8904,586.74 18.3926,-33.88975,586.74 18.3938,-33.88907,579.12 18.39532,-33.88824,579.12 18.39649,-33.8876,571.5 18.39792,-33.88686,571.5 18.39913,-33.88623,563.88 18.40031,-33.88564,563.88 18.40171,-33.88495,563.88 18.40288,-33.8844,563.88 18.40416,-33.88384,563.88 18.40529,-33.88335,563.88 18.40691,-33.88268,556.26 18.40815,-33.88216,556.26 18.40919,-33.88179,556.26 18.41079,-33.88124,548.64 18.41202,-33.88092,548.64 18.4137,-33.88051,548.64 18.41503,-33.88025,541.02 18.41673,-33.88005,541.02 18.41795,-33.87997,541.02 18.41927,-33.88002,541.02 18.42088,-33.88014,533.4 18.42245,-33.88042,518.1600000000001 18.42361,-33.88067,502.92 18.4247,-33.881,495.3 18.42619,-33.88156,472.44 18.42745,-33.88211,449.58000000000004 18.42872,-33.88284,434.34000000000003 18.42968,-33.88346,419.1 18.4308,-33.88422,403.86 18.43191,-33.88505,388.62 18.43287,-33.88582,373.38 18.43369,-33.88649,365.76 18.43483,-33.88742,350.52000000000004 18.43579,-33.88829,335.28000000000003 18.43678,-33.88919,320.04 18.43763,-33.88998,312.42 18.43826,-33.89059,304.8 18.43921,-33.89163,289.56 18.43994,-33.89259,274.32 18.44032,-33.89333,266.7 18.44066,-33.89429,251.46 18.44072,-33.8951,236.22 18.44044,-33.89603,220.98000000000002 18.44005,-33.89662,213.36 18.4396,-33.89703,213.36 18.43859,-33.89767,205.74 18.43786,-33.89799,190.5 18.43713,-33.89822,182.88 18.43646,-33.89841,167.64000000000001 18.43579,-33.89854,152.4 18.43494,-33.89874,137.16 18.43427,-33.89886,121.92 18.43374,-33.89897,106.68 18.43328,-33.89906,99.06 18.43248,-33.8992,76.2 18.43181,-33.89932,68.58 18.43122,-33.89939,53.34 18.43069,-33.89951,45.72 18.43035,-33.89955,38.1 18.43014,-33.89957,30.48 18.42979,-33.89964,30.48 18.42957,-33.89964,22.86 18.42934,-33.89971,22.86 18.42911,-33.89971,15.24 18.42884,-33.89978,7.62 18.42848,-33.89985,7.62 18.42791,-33.89994,0 18.42762,-33.90009,0 18.42751,-33.90032,0 18.42738,-33.90056,0 18.42715,-33.90051,7.62 18.42676,-33.90033,7.62 18.42637,-33.90005,15.24 18.4262,-33.89978,15.24 18.42596,-33.89906,22.86 18.42598,-33.89877,22.86 18.42607,-33.89846,22.86 18.42642,-33.89766,30.48 18.42687,-33.89708,38.1 18.42739,-33.89659,45.72 18.42819,-33.89589,53.34 18.42884,-33.89539,60.96 18.42957,-33.89482,68.58 18.43018,-33.89429,76.2 18.431,-33.89361,83.82000000000001 18.43174,-33.89296,91.44 18.4326,-33.89222,99.06 18.43338,-33.89149,106.68 18.43403,-33.89087,114.30000000000001 18.43472,-33.89026,129.54000000000002 18.43534,-33.88966,137.16 18.43607,-33.88898,144.78 18.43672,-33.88826,152.4 18.43736,-33.88742,160.02 18.43786,-33.88668,167.64000000000001 18.43825,-33.88577,175.26000000000002 18.43849,-33.885,182.88 18.43859,-33.88431,190.5 18.43855,-33.88337,205.74 18.43838,-33.88277,213.36 18.43798,-33.88198,228.60000000000002 18.43758,-33.88151,236.22 18.43696,-33.88092,251.46 18.43652,-33.88065,259.08000000000004 18.43569,-33.88021,266.7 18.43506,-33.87993,274.32 18.43433,-33.87964,281.94 18.43371,-33.87941,289.56 18.433,-33.87918,289.56 18.43225,-33.87895,297.18 18.43145,-33.87872,304.8 18.43057,-33.87845,312.42 18.4299,-33.87827,320.04 18.42923,-33.87808,327.66 18.42848,-33.87793,335.28000000000003 18.42768,-33.87769,342.90000000000003 18.42693,-33.87755,342.90000000000003 18.4259,-33.87732,358.14000000000004 18.42519,-33.87717,358.14000000000004 18.42413,-33.8769,365.76 18.42344,-33.87676,373.38 18.42256,-33.87662,381 18.42184,-33.87648,388.62 18.42076,-33.8763,396.24 18.42001,-33.8762,403.86 18.41897,-33.87607,411.48 18.41829,-33.87611,426.72 18.41755,-33.8762,426.72 18.41675,-33.87653,441.96000000000004 18.41611,-33.87712,449.58000000000004 18.41589,-33.87749,457.20000000000005 18.41566,-33.87813,464.82000000000005 18.41566,-33.87881,472.44 18.41578,-33.87936,472.44 18.41606,-33.88011,480.06 18.41656,-33.88074,487.68 18.41703,-33.88123,495.3 18.41768,-33.88174,502.92 18.41824,-33.88211,502.92 18.41886,-33.88248,510.54 18.41972,-33.88281,518.1600000000001 18.42052,-33.88305,525.78 18.4211,-33.88309,533.4 18.42184,-33.88295,541.02 18.42253,-33.88253,548.64 18.42295,-33.88193,548.64 18.42304,-33.88128,548.64 18.42293,-33.88067,548.64 18.42258,-33.88011,548.64 18.42205,-33.87955,548.64 18.42144,-33.87914,548.64 18.42071,-33.87881,548.64 18.41976,-33.87854,541.02 18.41892,-33.87835,541.02 18.41778,-33.87811,541.02 18.41673,-33.8779,541.02 18.41583,-33.87774,541.02 18.41486,-33.8776,548.64 18.41377,-33.87746,548.64 18.4128,-33.87737,548.64 18.4118,-33.87726,548.64 18.41074,-33.87723,548.64 18.40961,-33.87717,556.26 18.40885,-33.87713,556.26 18.40726,-33.87708,556.26 18.40633,-33.87709,556.26 18.40479,-33.87708,563.88 18.4041,-33.87709,563.88 18.40256,-33.87713,563.88 18.40165,-33.87721,563.88 18.40047,-33.8773,563.88 18.39947,-33.8774,571.5 18.39823,-33.87753,571.5 18.39712,-33.87769,563.88 18.39621,-33.87785,571.5 18.39509,-33.87804,571.5 18.39386,-33.87835,571.5 18.39291,-33.87854,571.5 18.39191,-33.87886,571.5 18.39095,-33.87918,571.5 18.38999,-33.8795,571.5 18.38911,-33.87988,571.5 18.3882,-33.88023,571.5 18.38739,-33.88063,579.12 18.38657,-33.88106,579.12 18.38579,-33.88142,579.12 18.38493,-33.88188,579.12 18.38383,-33.88252,586.74 18.38271,-33.88312,586.74 18.38207,-33.88351,586.74 18.38121,-33.88403,586.74 18.38036,-33.88463,594.36 18.37951,-33.88522,594.36 18.37873,-33.88577,594.36 18.37778,-33.88635,594.36 18.37698,-33.88691,594.36 18.37626,-33.88737,594.36 18.37538,-33.88798,594.36 18.37452,-33.88858,601.98 18.37383,-33.8891,601.98 18.37312,-33.88957,601.98 18.37222,-33.89021,601.98 18.37155,-33.89076,601.98 18.37063,-33.89138,609.6 18.36994,-33.89194,609.6 18.36914,-33.89259,609.6 18.36851,-33.89315,609.6 18.36774,-33.89374,609.6 18.36707,-33.89433,617.22 18.36639,-33.89493,617.22 18.36572,-33.89552,617.22 18.36502,-33.89622,617.22 18.36428,-33.89697,617.22 18.36365,-33.89758,624.84 18.36286,-33.89836,624.84 18.36219,-33.89914,624.84 18.36159,-33.89981,624.84 18.36102,-33.90041,624.84 18.36061,-33.90092,624.84 18.35989,-33.90175,624.84 18.3593,-33.90241,624.84 18.35872,-33.90317,624.84 18.35821,-33.90385,624.84 18.35765,-33.9045,624.84 18.35718,-33.90511,624.84 18.35658,-33.90601,617.22 18.35609,-33.9067,617.22 18.35558,-33.90747,617.22 18.35506,-33.90818,609.6 18.35451,-33.90903,617.22 18.35403,-33.90981,617.22 18.35361,-33.9104,617.22 18.35306,-33.9113,624.84 18.35272,-33.91196,632.46 18.35232,-33.91256,632.46 18.35186,-33.91344,640.08 18.35146,-33.9141,647.7 18.35109,-33.91479,655.32 18.35076,-33.91553,662.94 18.35037,-33.91619,670.5600000000001 18.34997,-33.91699,678.1800000000001 18.34969,-33.91763,685.8000000000001 18.34935,-33.91827,685.8000000000001 18.349,-33.91908,693.4200000000001 18.34874,-33.91978,701.0400000000001 18.34843,-33.92038,708.6600000000001 18.34812,-33.92107,708.6600000000001 18.3478,-33.92187,716.2800000000001 18.3475,-33.92244,723.9000000000001 18.34678,-33.92409,731.52 18.34648,-33.92466,731.52 18.34608,-33.9255,739.14 18.34487,-33.92834,754.38 18.34358,-33.93146,769.62 18.34259,-33.93393,777.24 18.34235,-33.93475,777.24 18.34207,-33.93562,792.48 18.34196,-33.93617,800.1 18.3419,-33.937,807.72 18.34196,-33.93779,822.96 18.34213,-33.93854,830.58 18.3424,-33.93933,838.2 18.34263,-33.93993,845.82 18.34296,-33.94052,853.44 18.34339,-33.9411,853.44 18.34403,-33.94185,861.0600000000001 18.34459,-33.94231,868.6800000000001 18.34543,-33.9429,876.3000000000001 18.34605,-33.94322,883.9200000000001 18.34688,-33.94357,891.5400000000001 18.34785,-33.94389,899.1600000000001 18.34891,-33.94405,906.7800000000001 18.34963,-33.94405,914.4000000000001 18.35072,-33.94394,929.6400000000001 18.35146,-33.9437,929.6400000000001 18.35226,-33.94338,937.26 18.35295,-33.943,944.88 18.35356,-33.94254,952.5 18.35417,-33.94194,960.12 18.35468,-33.94135,967.74 18.35501,-33.94077,975.36 18.35546,-33.93993,982.98 18.35569,-33.93933,990.6 18.35597,-33.93846,1005.84 18.35609,-33.93761,1013.46 18.35614,-33.93681,1013.46 18.35609,-33.93621,1021.08 18.35574,-33.93544,1021.08 18.35524,-33.93491,1021.08 18.35445,-33.93448,1028.7 18.35369,-33.9343,1028.7 18.49731,-34.34445,457.20000000000005 18.49779,-34.3381,464.82000000000005 18.49401,-34.34073,464.82000000000005 18.49499,-34.33532,464.82000000000005 18.49462,-34.33478,464.82000000000005 18.49303,-34.33335,464.82000000000005 18.49227,-34.3344,464.82000000000005 18.49319,-34.32982,457.20000000000005 18.49192,-34.32911,457.20000000000005 18.49377,-34.32087,464.82000000000005 18.49365,-34.31961,464.82000000000005 18.49354,-34.3185,464.82000000000005 18.49347,-34.3174,464.82000000000005 18.49337,-34.31622,464.82000000000005 18.4933,-34.31516,464.82000000000005 18.49313,-34.31383,464.82000000000005 18.49308,-34.31263,464.82000000000005 18.49302,-34.31133,472.44 18.49297,-34.31007,472.44 18.49296,-34.30911,472.44 18.49291,-34.30783,472.44 18.49291,-34.30653,472.44 18.49296,-34.30545,472.44 18.49302,-34.30416,472.44 18.49302,-34.30321,472.44 18.49302,-34.30211,472.44 18.49302,-34.30109,472.44 18.49308,-34.2995,472.44 18.49308,-34.29843,472.44 18.49314,-34.29718,464.82000000000005 18.49324,-34.29341,472.44 18.49331,-34.29005,480.06 18.49342,-34.28591,480.06 18.49347,-34.28238,487.68 18.49352,-34.27881,495.3 18.49358,-34.2756,495.3 18.49363,-34.27144,502.92 18.49365,-34.26748,502.92 18.49371,-34.26417,502.92 18.49369,-34.26068,487.68 18.49352,-34.25821,487.68 18.49341,-34.25697,487.68 18.49337,-34.25588,487.68 18.49324,-34.25473,487.68 18.49319,-34.25349,487.68 18.49313,-34.25249,487.68 18.49302,-34.25116,487.68 18.4929,-34.25011,487.68 18.49279,-34.24881,487.68 18.49268,-34.24786,487.68 18.49257,-34.24652,487.68 18.49205,-34.24238,480.06 18.49165,-34.23991,480.06 18.49145,-34.23871,472.44 18.49128,-34.23756,480.06 18.49111,-34.23656,480.06 18.49089,-34.23555,487.68 18.49061,-34.23422,480.06 18.49039,-34.23331,480.06 18.4901,-34.23219,480.06 18.48977,-34.23088,480.06 18.48943,-34.22987,472.44 18.48919,-34.22893,464.82000000000005 18.48879,-34.22767,457.20000000000005 18.48848,-34.22662,457.20000000000005 18.48816,-34.22567,457.20000000000005 18.48764,-34.22441,457.20000000000005 18.48724,-34.22334,457.20000000000005 18.48685,-34.22223,457.20000000000005 18.48646,-34.22127,457.20000000000005 18.48607,-34.22031,457.20000000000005 18.48562,-34.21921,457.20000000000005 18.48517,-34.21815,457.20000000000005 18.48478,-34.2172,464.82000000000005 18.48433,-34.21605,464.82000000000005 18.48387,-34.21492,464.82000000000005 18.48347,-34.21399,464.82000000000005 18.48307,-34.21301,464.82000000000005 18.48261,-34.2118,464.82000000000005 18.48227,-34.21077,464.82000000000005 18.48181,-34.20959,464.82000000000005 18.48153,-34.20863,464.82000000000005 18.48112,-34.20747,457.20000000000005 18.48074,-34.20653,457.20000000000005 18.48041,-34.20557,457.20000000000005 18.48007,-34.20465,457.20000000000005 18.47895,-34.20135,449.58000000000004 18.47861,-34.20039,449.58000000000004 18.47715,-34.19618,441.96000000000004 18.47564,-34.19202,457.20000000000005 18.47483,-34.19015,472.44 18.47446,-34.18927,472.44 18.47403,-34.18815,472.44 18.47362,-34.18726,472.44 18.47306,-34.18607,480.06 18.47271,-34.18521,480.06 18.47122,-34.182,487.68 18.47082,-34.18112,495.3 18.47037,-34.1803,495.3 18.46987,-34.17924,495.3 18.46933,-34.17842,495.3 18.46875,-34.17755,495.3 18.46796,-34.17659,495.3 18.46733,-34.17572,495.3 18.46664,-34.17456,495.3 18.46619,-34.17363,495.3 18.46573,-34.17251,495.3 18.46544,-34.17169,495.3 18.46516,-34.1705,495.3 18.46493,-34.16906,495.3 18.46477,-34.16803,495.3 18.46471,-34.16711,495.3 18.46464,-34.1659,495.3 18.4646,-34.16515,495.3 18.46454,-34.16386,502.92 18.46454,-34.16258,495.3 18.4646,-34.16139,495.3 18.46464,-34.16036,502.92 18.46465,-34.15919,495.3 18.46471,-34.15819,502.92 18.46481,-34.15715,502.92 18.46493,-34.15594,502.92 18.46504,-34.15468,510.54 18.46522,-34.15375,510.54 18.46533,-34.15279,510.54 18.4655,-34.15182,510.54 18.46573,-34.15063,518.1600000000001 18.466,-34.14954,518.1600000000001 18.46622,-34.14839,510.54 18.46642,-34.14756,510.54 18.46673,-34.14633,510.54 18.46701,-34.14537,510.54 18.46727,-34.14434,502.92 18.46773,-34.14295,502.92 18.46791,-34.14221,502.92 18.46836,-34.14076,495.3 18.46876,-34.13969,495.3 18.46919,-34.13846,495.3 18.46959,-34.13741,495.3 18.47009,-34.13631,487.68 18.4706,-34.13516,487.68 18.47105,-34.13429,487.68 18.47168,-34.13303,487.68 18.47217,-34.13214,487.68 18.47288,-34.13084,480.06 18.47346,-34.12981,480.06 18.47397,-34.12889,472.44 18.47463,-34.1277,472.44 18.4754,-34.12647,464.82000000000005 18.47598,-34.1256,464.82000000000005 18.4766,-34.12456,457.20000000000005 18.47727,-34.12344,457.20000000000005 18.47799,-34.1223,457.20000000000005 18.47867,-34.12115,449.58000000000004 18.47923,-34.12014,449.58000000000004 18.4798,-34.11916,441.96000000000004 18.48049,-34.11786,441.96000000000004 18.48101,-34.11679,449.58000000000004 18.48152,-34.11585,449.58000000000004 18.48209,-34.11465,457.20000000000005 18.48248,-34.11365,457.20000000000005 18.48278,-34.11241,464.82000000000005 18.48293,-34.11136,464.82000000000005 18.48298,-34.1104,464.82000000000005 18.48295,-34.10943,464.82000000000005 18.48265,-34.10811,464.82000000000005 18.48225,-34.10696,464.82000000000005 18.48192,-34.106,457.20000000000005 18.48158,-34.10501,464.82000000000005 18.48118,-34.10384,464.82000000000005 18.48095,-34.10277,464.82000000000005 18.48066,-34.10147,464.82000000000005 18.48055,-34.10068,464.82000000000005 18.48043,-34.09937,472.44 18.48035,-34.09863,472.44 18.48038,-34.09737,480.06 18.48038,-34.09658,472.44 18.48049,-34.09523,472.44 18.48061,-34.09379,472.44 18.48074,-34.09273,472.44 18.48083,-34.09174,472.44 18.48101,-34.0902,472.44 18.48113,-34.0892,472.44 18.48118,-34.08806,472.44 18.48118,-34.08722,472.44 18.48101,-34.08564,480.06 18.48091,-34.08458,480.06 18.48083,-34.08345,480.06 18.4808,-34.08247,487.68 18.48085,-34.08128,487.68 18.48095,-34.08024,480.06 18.48106,-34.07922,480.06 18.48124,-34.07819,472.44 18.48147,-34.07693,472.44 18.48169,-34.07582,472.44 18.48192,-34.07469,464.82000000000005 18.48214,-34.07359,464.82000000000005 18.48242,-34.07259,464.82000000000005 18.48265,-34.0714,457.20000000000005 18.48287,-34.07039,449.58000000000004 18.48312,-34.06907,449.58000000000004 18.4833,-34.06828,441.96000000000004 18.48358,-34.06702,441.96000000000004 18.48377,-34.06599,441.96000000000004 18.48399,-34.06499,434.34000000000003 18.48427,-34.06381,426.72 18.48444,-34.06283,426.72 18.48473,-34.06167,419.1 18.4849,-34.06074,419.1 18.48517,-34.05954,419.1 18.48534,-34.05858,419.1 18.48547,-34.05757,411.48 18.48564,-34.05636,411.48 18.48579,-34.05515,403.86 18.48593,-34.05389,403.86 18.48604,-34.05268,396.24 18.48612,-34.05171,396.24 18.48621,-34.05054,396.24 18.48629,-34.04933,396.24 18.4864,-34.0481,396.24 18.4865,-34.0471,403.86 18.48657,-34.04613,403.86 18.48667,-34.045,411.48 18.4868,-34.04393,411.48 18.48696,-34.04265,411.48 18.48713,-34.04132,419.1 18.48747,-34.03802,434.34000000000003 18.48775,-34.03418,434.34000000000003 18.4878,-34.03308,434.34000000000003 18.48782,-34.03192,434.34000000000003 18.48787,-34.03043,441.96000000000004 18.48787,-34.02945,441.96000000000004 18.48792,-34.02571,441.96000000000004 18.48792,-34.02466,441.96000000000004 18.48793,-34.0234,441.96000000000004 18.48782,-34.01851,441.96000000000004 18.48769,-34.01518,434.34000000000003 18.48742,-34.01018,411.48 18.48707,-34.0066,403.86 18.48691,-34.00525,403.86 18.48679,-34.00404,396.24 18.48667,-34.00287,396.24 18.48663,-34.00168,388.62 18.48656,-34.00045,388.62 18.4864,-33.99911,381 18.48623,-33.99792,373.38 18.4861,-33.99682,373.38 18.48584,-33.99554,373.38 18.48573,-33.99449,373.38 18.48553,-33.99314,365.76 18.48536,-33.99198,365.76 18.48524,-33.991,358.14000000000004 18.48513,-33.98993,350.52000000000004 18.485,-33.98859,350.52000000000004 18.48495,-33.98749,350.52000000000004 18.48484,-33.98597,350.52000000000004 18.48478,-33.985,342.90000000000003 18.48473,-33.98365,350.52000000000004 18.48472,-33.98259,350.52000000000004 18.48467,-33.9815,350.52000000000004 18.48467,-33.98062,342.90000000000003 18.48466,-33.97934,342.90000000000003 18.48467,-33.97815,342.90000000000003 18.48467,-33.97704,342.90000000000003 18.48466,-33.97581,342.90000000000003 18.48467,-33.97136,335.28000000000003 18.48478,-33.9678,335.28000000000003 18.48495,-33.96321,304.8 18.48506,-33.95961,281.94 18.48506,-33.95471,266.7 18.48506,-33.95215,259.08000000000004 18.48495,-33.95111,259.08000000000004 18.48483,-33.94972,259.08000000000004 18.48461,-33.94808,259.08000000000004 18.48444,-33.94702,259.08000000000004 18.48416,-33.94569,251.46 18.48388,-33.94446,251.46 18.4836,-33.94336,259.08000000000004 18.4833,-33.94231,251.46 18.48293,-33.94107,251.46 18.48259,-33.93997,251.46 18.48214,-33.9386,243.84 18.48175,-33.93755,243.84 18.48125,-33.93626,243.84 18.48072,-33.935,243.84 18.48032,-33.93421,236.22 18.47986,-33.93314,236.22 18.47923,-33.93183,236.22 18.47867,-33.93073,236.22 18.47809,-33.92974,243.84 18.47749,-33.9288,236.22 18.47666,-33.92774,236.22 18.47564,-33.9267,236.22 18.47466,-33.92592,236.22 18.4738,-33.92522,236.22 18.47261,-33.92441,236.22 18.47172,-33.92372,228.60000000000002 18.47082,-33.92299,228.60000000000002 18.46987,-33.92221,220.98000000000002 18.46893,-33.92141,220.98000000000002 18.46791,-33.92056,220.98000000000002 18.46693,-33.91978,220.98000000000002 18.46601,-33.91903,220.98000000000002 18.46482,-33.91814,213.36 18.46384,-33.9174,213.36 18.46275,-33.91653,220.98000000000002 18.46184,-33.91587,220.98000000000002 18.46062,-33.91502,213.36 18.45943,-33.91414,213.36 18.45843,-33.91338,220.98000000000002 18.45749,-33.91265,220.98000000000002 18.4564,-33.91177,220.98000000000002 18.45557,-33.91095,228.60000000000002 18.45469,-33.90995,236.22 18.45394,-33.90893,243.84 18.45333,-33.90807,243.84 18.45277,-33.90701,251.46 18.45222,-33.90581,259.08000000000004 18.45176,-33.90491,259.08000000000004 18.45131,-33.904,259.08000000000004 18.45086,-33.90308,259.08000000000004 18.45045,-33.90218,251.46 18.44986,-33.90111,251.46 18.44941,-33.90033,243.84 18.44885,-33.89957,236.22 18.44822,-33.89887,228.60000000000002 18.44742,-33.89817,228.60000000000002 18.44649,-33.89758,220.98000000000002 18.44564,-33.89724,220.98000000000002 18.4449,-33.89706,213.36 18.44369,-33.8969,198.12 18.44296,-33.89687,182.88 18.44184,-33.89703,167.64000000000001 18.44107,-33.89729,160.02 18.44009,-33.89766,144.78 18.43932,-33.89809,137.16 18.43859,-33.8985,121.92 18.43797,-33.89886,114.30000000000001 18.43736,-33.89919,106.68 18.43672,-33.89948,91.44 18.43584,-33.89983,76.2 18.435,-33.89999,68.58 18.4341,-33.9001,53.34 18.43332,-33.90015,45.72 18.43288,-33.90018,38.1 18.43259,-33.90015,38.1 18.43226,-33.90019,30.48 18.43151,-33.90018,22.86 18.43111,-33.90018,22.86 18.43077,-33.90018,15.24 18.43013,-33.90019,15.24 18.42991,-33.90022,7.62 18.42957,-33.90022,7.62 18.42917,-33.90028,0 18.42894,-33.90027,0 18.42871,-33.90032,0 18.42836,-33.90036,0 18.42805,-33.90042,0 18.42773,-33.90051,0 18.42751,-33.90055,0 18.42728,-33.90055,0 18.42682,-33.90036,7.62 18.42654,-33.90019,15.24 18.42619,-33.89985,15.24 18.42603,-33.89964,15.24 18.4259,-33.8992,15.24 18.42587,-33.89896,22.86 18.42596,-33.89804,30.48 18.42615,-33.89767,30.48 18.42632,-33.89735,38.1 18.42654,-33.89708,38.1 18.42728,-33.89622,45.72 18.42813,-33.89548,53.34 18.42899,-33.89478,60.96 18.42974,-33.89417,60.96 18.43063,-33.89346,68.58 18.43134,-33.89291,76.2 18.43226,-33.89218,76.2 18.43293,-33.89163,83.82000000000001 18.43366,-33.89099,91.44 18.43456,-33.89017,106.68 18.43529,-33.88938,114.30000000000001 18.43597,-33.88854,121.92 18.43657,-33.88779,129.54000000000002 18.43708,-33.88692,137.16 18.43746,-33.88598,144.78 18.43769,-33.88518,160.02 18.43769,-33.88422,160.02 18.43746,-33.88342,167.64000000000001 18.43706,-33.88281,175.26000000000002 18.43629,-33.88206,182.88 18.43567,-33.8817,190.5 18.43494,-33.88137,198.12 18.43377,-33.88101,205.74 18.43288,-33.88086,220.98000000000002 18.43203,-33.88074,228.60000000000002 18.43128,-33.88072,236.22 18.43048,-33.88067,243.84 18.42962,-33.88067,251.46 18.42889,-33.88069,259.08000000000004 18.42808,-33.88076,266.7 18.4271,-33.88081,266.7 18.42636,-33.88086,274.32 18.42558,-33.88092,274.32 18.4248,-33.88097,281.94 18.4239,-33.881,281.94 18.4231,-33.88105,289.56 18.42239,-33.88106,289.56 18.42138,-33.88105,297.18 18.42043,-33.88092,304.8 18.41959,-33.88083,312.42 18.41864,-33.88067,320.04 18.41763,-33.88051,327.66 18.41663,-33.88039,342.90000000000003 18.4156,-33.88025,342.90000000000003 18.41446,-33.88011,350.52000000000004 18.41366,-33.88002,358.14000000000004 18.41234,-33.87993,358.14000000000004 18.41157,-33.87987,365.76 18.41051,-33.87979,365.76 18.40984,-33.87978,365.76 18.40888,-33.87973,373.38 18.40771,-33.87968,373.38 18.40673,-33.87965,373.38 18.40576,-33.87965,381 18.4049,-33.87965,381 18.40372,-33.87959,388.62 18.40273,-33.8796,388.62 18.40193,-33.87965,396.24 18.40109,-33.87968,396.24 18.40003,-33.87978,403.86 18.39895,-33.87988,411.48 18.39804,-33.88007,411.48 18.39717,-33.88023,419.1 18.39644,-33.88037,419.1 18.3956,-33.88055,426.72 18.3946,-33.88081,434.34000000000003 18.39363,-33.88109,441.96000000000004 18.3928,-33.88133,441.96000000000004 18.39173,-33.8817,449.58000000000004 18.39071,-33.88202,449.58000000000004 18.39005,-33.88225,449.58000000000004 18.389,-33.88263,457.20000000000005 18.38797,-33.88298,457.20000000000005 18.38717,-33.88333,464.82000000000005 18.38636,-33.88365,472.44 18.38545,-33.88408,472.44 18.38465,-33.88444,480.06 18.38394,-33.88477,480.06 18.38299,-33.88522,480.06 18.38226,-33.88564,480.06 18.3815,-33.88602,480.06 18.38058,-33.88649,480.06 18.37985,-33.88692,480.06 18.37875,-33.88756,487.68 18.37801,-33.88798,487.68 18.37721,-33.88845,487.68 18.37671,-33.88875,495.3 18.37555,-33.88947,495.3 18.37497,-33.8898,502.92 18.37424,-33.8903,502.92 18.37337,-33.89087,510.54 18.37252,-33.89147,510.54 18.37183,-33.89194,518.1600000000001 18.3712,-33.89245,518.1600000000001 18.37046,-33.89301,518.1600000000001 18.36988,-33.89343,518.1600000000001 18.36909,-33.8941,518.1600000000001 18.36847,-33.89461,518.1600000000001 18.36771,-33.89524,518.1600000000001 18.36712,-33.89575,518.1600000000001 18.36639,-33.89641,518.1600000000001 18.36572,-33.89699,525.78 18.36494,-33.89772,525.78 18.36438,-33.89832,525.78 18.36376,-33.89887,525.78 18.36303,-33.89955,533.4 18.36253,-33.9001,533.4 18.36193,-33.90069,533.4 18.36124,-33.90143,541.02 18.36068,-33.90207,541.02 18.36016,-33.90269,548.64 18.35936,-33.90358,556.26 18.35878,-33.90427,563.88 18.35838,-33.90477,563.88 18.35776,-33.90541,571.5 18.35735,-33.90595,579.12 18.35686,-33.90656,579.12 18.3563,-33.90738,586.74 18.35591,-33.90797,586.74 18.35552,-33.90865,586.74 18.35518,-33.90926,586.74 18.35466,-33.91005,594.36 18.35432,-33.9107,586.74 18.35384,-33.9115,586.74 18.35346,-33.91214,586.74 18.35295,-33.91293,586.74 18.35249,-33.91365,586.74 18.35193,-33.91447,579.12 18.35137,-33.91525,579.12 18.35066,-33.91624,579.12 18.35014,-33.9169,586.74 18.34963,-33.91763,594.36 18.34913,-33.91827,594.36 18.34851,-33.91924,601.98 18.34808,-33.92006,609.6 18.34767,-33.92088,617.22 18.34722,-33.92157,624.84 18.34661,-33.9223,632.46 18.34588,-33.92294,647.7 18.34504,-33.92358,655.32 18.34431,-33.924,662.94 18.34358,-33.92436,670.5600000000001 18.34236,-33.9249,678.1800000000001 18.34179,-33.92517,678.1800000000001 18.34072,-33.92564,685.8000000000001 18.33999,-33.92596,693.4200000000001 18.3391,-33.92642,701.0400000000001 18.33836,-33.92685,701.0400000000001 18.33758,-33.92743,708.6600000000001 18.33697,-33.92793,708.6600000000001 18.33635,-33.92853,708.6600000000001 18.33572,-33.92932,708.6600000000001 18.33527,-33.93011,716.2800000000001 18.33492,-33.93095,716.2800000000001 18.33472,-33.93192,708.6600000000001 18.33469,-33.93272,708.6600000000001 18.33481,-33.9336,708.6600000000001 18.335,-33.93443,701.0400000000001 18.33544,-33.93551,701.0400000000001 18.3359,-33.93635,693.4200000000001 18.33647,-33.93709,685.8000000000001 18.33725,-33.938,678.1800000000001 18.33801,-33.93867,670.5600000000001 18.33904,-33.93947,655.32 18.3403,-33.94017,647.7 18.34128,-33.94061,647.7 18.3424,-33.94102,640.08 18.34362,-33.94138,632.46 18.34515,-33.94167,632.46 18.34671,-33.94175,624.84 18.34806,-33.94171,624.84 18.34969,-33.94147,617.22 18.35123,-33.9411,609.6 18.35289,-33.94054,601.98 18.35401,-33.93997,594.36 18.35558,-33.93906,586.74 18.35664,-33.93828,579.12 18.35776,-33.93736,571.5 18.35896,-33.93626,563.88 18.35981,-33.93533,563.88 18.36068,-33.93434,563.88 18.36174,-33.93306,556.26 18.36247,-33.9321,556.26 18.36319,-33.93118,556.26 18.36415,-33.92995,556.26 18.36508,-33.92871,548.64 18.36572,-33.9278,548.64 18.36673,-33.92642,541.02 18.36746,-33.92546,541.02 18.36819,-33.92445,533.4 18.36897,-33.92336,533.4 18.36983,-33.9222,525.78 18.37054,-33.92125,518.1600000000001 18.37144,-33.9201,518.1600000000001 18.37228,-33.91896,510.54 18.37309,-33.91796,502.92 18.374,-33.9168,495.3 18.37503,-33.91553,487.68 18.37578,-33.91465,487.68 18.37676,-33.91351,487.68 18.37944,-33.91037,480.06 18.38119,-33.90839,472.44 18.38202,-33.90753,464.82000000000005 18.38287,-33.9066,464.82000000000005 18.384,-33.90546,457.20000000000005 18.38516,-33.90437,449.58000000000004 18.38612,-33.90349,449.58000000000004 18.38734,-33.90241,441.96000000000004 18.38842,-33.90147,441.96000000000004 18.38943,-33.9006,441.96000000000004 18.39048,-33.89976,441.96000000000004 18.39195,-33.89864,434.34000000000003 18.39306,-33.89785,434.34000000000003 18.39408,-33.89717,434.34000000000003 18.39546,-33.89631,434.34000000000003 18.39655,-33.89566,426.72 18.39769,-33.89506,426.72 18.39907,-33.89442,426.72 18.40075,-33.89369,419.1 18.40216,-33.8931,419.1 18.40336,-33.89268,411.48 18.40485,-33.89212,411.48 18.40625,-33.89168,411.48 18.40759,-33.89122,403.86 18.40883,-33.89085,403.86 18.4104,-33.89045,403.86 18.41166,-33.89008,396.24 18.41331,-33.88966,396.24 18.41432,-33.88943,396.24 18.41595,-33.889,396.24 18.41712,-33.88875,396.24 18.41858,-33.88838,396.24 18.4199,-33.88807,381 18.42149,-33.8877,381 18.42281,-33.88747,373.38 18.42447,-33.88714,373.38 18.4257,-33.88696,373.38 18.42733,-33.88677,365.76 18.42889,-33.88664,358.14000000000004 18.43007,-33.8866,358.14000000000004 18.43151,-33.88663,350.52000000000004 18.43287,-33.88669,342.90000000000003 18.43416,-33.88678,342.90000000000003 18.43567,-33.88701,327.66 18.43695,-33.88724,320.04 18.43821,-33.88752,312.42 18.43975,-33.88789,304.8 18.44107,-33.88831,297.18 18.44244,-33.88887,289.56 18.44352,-33.88943,281.94 18.44442,-33.89008,274.32 18.4452,-33.89081,266.7 18.44604,-33.89182,266.7 18.44649,-33.89259,259.08000000000004 18.44679,-33.89366,251.46 18.44677,-33.89456,243.84 18.44655,-33.89552,236.22 18.44621,-33.89626,228.60000000000002 18.44554,-33.89713,213.36 18.4449,-33.89762,205.74 18.44393,-33.89822,198.12 18.44313,-33.89859,190.5 18.44221,-33.89887,175.26000000000002 18.44117,-33.899,160.02 18.44027,-33.89905,152.4 18.43915,-33.89905,137.16 18.43831,-33.89896,129.54000000000002 18.43729,-33.89883,114.30000000000001 18.43629,-33.89868,99.06 18.43545,-33.89864,91.44 18.43467,-33.89859,76.2 18.43377,-33.89859,60.96 18.43288,-33.89869,53.34 18.43203,-33.89882,38.1 18.43125,-33.899,30.48 18.4306,-33.8992,22.86 18.43018,-33.89928,22.86 18.42974,-33.89943,15.24 18.42945,-33.89952,15.24 18.42917,-33.89964,7.62 18.4285,-33.89992,0 18.428,-33.90024,0 18.42768,-33.90046,0 18.42738,-33.90065,0 18.4271,-33.90088,0 18.42688,-33.90102,0 18.42704,-33.9007,0 18.42704,-33.90047,0 18.4271,-33.90004,0 18.42727,-33.89964,0 18.42745,-33.89929,0 18.42779,-33.89883,0 18.42796,-33.89846,7.62 18.42813,-33.89822,7.62 18.42839,-33.89786,15.24 18.42861,-33.89749,22.86 18.42876,-33.89724,22.86 18.42899,-33.89687,30.48 18.42917,-33.89662,38.1 18.42957,-33.89603,45.72 18.43001,-33.89534,60.96 18.43041,-33.89484,60.96 18.43088,-33.89408,76.2 18.43136,-33.89337,83.82000000000001 18.43181,-33.89273,83.82000000000001 18.4322,-33.89217,91.44 18.4327,-33.8914,99.06 18.43321,-33.89072,114.30000000000001 18.4338,-33.88984,114.30000000000001 18.43422,-33.88916,129.54000000000002 18.43466,-33.88858,129.54000000000002 18.43517,-33.88779,137.16 18.43573,-33.88701,152.4 18.43615,-33.8864,152.4 18.43652,-33.88568,160.02 18.43685,-33.88467,167.64000000000001 18.43702,-33.88376,175.26000000000002 18.43702,-33.88289,175.26000000000002 18.43695,-33.88193,182.88 18.4368,-33.88101,182.88 18.4366,-33.88025,190.5 18.43632,-33.87923,198.12 18.43609,-33.87848,205.74 18.4358,-33.87774,205.74 18.4354,-33.87695,205.74 18.43483,-33.87607,205.74 18.43427,-33.87529,213.36 18.43366,-33.87456,213.36 18.43317,-33.87402,220.98000000000002 18.43231,-33.87299,228.60000000000002 18.43198,-33.87231,243.84 18.43191,-33.87146,259.08000000000004 18.43225,-33.87071,266.7 18.43276,-33.87025,274.32 18.43332,-33.86998,274.32 18.43399,-33.86989,289.56 18.43467,-33.86993,297.18 18.43512,-33.87015,297.18 18.43539,-33.87039,304.8 18.43563,-33.8708,304.8 18.43569,-33.87127,304.8 18.43557,-33.87164,304.8 18.43523,-33.8722,304.8 18.43472,-33.87254,312.42 18.43409,-33.8729,312.42 18.43327,-33.87314,320.04 18.43259,-33.87332,320.04 18.43164,-33.8735,327.66 18.43069,-33.87364,335.28000000000003 18.42985,-33.87378,335.28000000000003 18.429,-33.87392,342.90000000000003 18.42796,-33.87406,358.14000000000004 18.42693,-33.87419,365.76 18.42602,-33.87429,373.38 18.42497,-33.87447,381 18.42413,-33.87453,388.62 18.42304,-33.87467,396.24 18.42196,-33.87481,396.24 18.42098,-33.87495,403.86 18.42012,-33.87504,403.86 18.41887,-33.87518,411.48 18.41795,-33.87532,419.1 18.41469,-33.87574,426.72 18.41383,-33.87588,434.34000000000003 18.41274,-33.87606,434.34000000000003 18.41168,-33.8763,441.96000000000004 18.41051,-33.87653,441.96000000000004 18.40972,-33.87666,441.96000000000004 18.40855,-33.87694,449.58000000000004 18.40765,-33.87712,449.58000000000004 18.40645,-33.87737,449.58000000000004 18.40552,-33.87758,457.20000000000005 18.4045,-33.87778,457.20000000000005 18.40364,-33.87802,464.82000000000005 18.4026,-33.87827,472.44 18.40136,-33.87858,472.44 18.40055,-33.87881,472.44 18.39958,-33.87914,480.06 18.3984,-33.87955,480.06 18.39729,-33.87997,487.68 18.39633,-33.88037,495.3 18.39554,-33.88069,502.92 18.39442,-33.88124,510.54 18.39363,-33.88165,518.1600000000001 18.3926,-33.88216,518.1600000000001 18.39174,-33.88263,525.78 18.39106,-33.88298,533.4 18.38966,-33.88376,541.02 18.38881,-33.88426,548.64 18.38803,-33.88472,548.64 18.38713,-33.88527,556.26 18.38625,-33.88584,563.88 18.38551,-33.88628,571.5 18.38456,-33.88692,579.12 18.38371,-33.88747,579.12 18.38287,-33.88802,586.74 18.38213,-33.88854,586.74 18.3813,-33.88911,594.36 18.38058,-33.88961,594.36 18.37973,-33.89026,601.98 18.37893,-33.89082,609.6 18.37822,-33.89136,609.6 18.37755,-33.89194,617.22 18.37671,-33.89259,617.22 18.37606,-33.8931,617.22 18.37519,-33.89388,624.84 18.37463,-33.89436,624.84 18.37378,-33.8951,632.46 18.37315,-33.89566,632.46 18.37234,-33.89641,640.08 18.37161,-33.89713,640.08 18.37097,-33.89776,647.7 18.37043,-33.89822,647.7 18.36953,-33.89909,647.7 18.36897,-33.89962,655.32 18.36824,-33.90038,655.32 18.36763,-33.90097,655.32 18.36701,-33.90166,655.32 18.36639,-33.90227,655.32 18.3655,-33.90317,655.32 18.36494,-33.90381,662.94 18.36426,-33.90454,662.94 18.3637,-33.90518,662.94 18.36297,-33.90601,662.94 18.3625,-33.90656,670.5600000000001 18.36176,-33.90739,670.5600000000001 18.3613,-33.908,670.5600000000001 18.36073,-33.90866,670.5600000000001 18.36004,-33.90949,670.5600000000001 18.35939,-33.91035,678.1800000000001 18.35884,-33.91098,678.1800000000001 18.35821,-33.91187,678.1800000000001 18.35775,-33.91256,678.1800000000001 18.35712,-33.9134,678.1800000000001 18.35649,-33.91433,685.8000000000001 18.35592,-33.91512,685.8000000000001 18.35541,-33.9158,685.8000000000001 18.35479,-33.91663,685.8000000000001 18.35438,-33.91726,685.8000000000001 18.35378,-33.91818,693.4200000000001 18.35322,-33.91905,693.4200000000001 18.35261,-33.91997,693.4200000000001 18.35232,-33.92066,701.0400000000001 18.3521,-33.92152,723.9000000000001 18.3521,-33.92207,754.38 18.35233,-33.92258,777.24 18.35272,-33.92299,800.1 18.35318,-33.92318,822.96 18.35361,-33.92322,830.58 18.35415,-33.92313,838.2 18.35489,-33.92285,838.2 18.35546,-33.92244,845.82 18.35587,-33.92196,845.82 18.35619,-33.92148,853.44 18.35638,-33.92085,861.0600000000001 18.35627,-33.9201,868.6800000000001 18.35598,-33.91964,868.6800000000001 18.35535,-33.91914,868.6800000000001 18.35466,-33.91898,868.6800000000001 18.35369,-33.91912,861.0600000000001 18.353,-33.91956,853.44 18.35244,-33.92001,845.82 18.35186,-33.92075,838.2 18.35146,-33.9215,838.2 18.35104,-33.92244,822.96 18.3507,-33.92326,822.96 18.35026,-33.92429,815.34 18.34997,-33.92513,815.34 18.34951,-33.92616,815.34 18.34917,-33.92709,807.72 18.34871,-33.92815,807.72 18.34829,-33.92921,807.72 18.34797,-33.93007,807.72 18.3475,-33.93109,800.1 18.34706,-33.93224,800.1 18.34665,-33.93318,800.1 18.34621,-33.93411,800.1 18.34476,-33.93736,792.48 18.34356,-33.94007,792.48 18.3415,-33.94431,800.1 18.34019,-33.94733,792.48 18.33864,-33.95106,792.48 18.33727,-33.9545,777.24 18.33545,-33.95865,769.62 18.33411,-33.96167,762 18.33271,-33.96474,754.38 18.32968,-33.97165,754.38 18.32749,-33.97701,739.14 18.3256,-33.98192,731.52 18.3252,-33.98314,731.52 18.32508,-33.98355,731.52 18.32458,-33.98524,731.52 18.32419,-33.98639,731.52 18.32385,-33.98763,731.52 18.32291,-33.99133,723.9000000000001 18.32268,-33.99235,723.9000000000001 18.3225,-33.99335,723.9000000000001 18.32234,-33.99435,723.9000000000001 18.32216,-33.99556,723.9000000000001 18.32206,-33.99678,723.9000000000001 18.322,-33.99783,716.2800000000001 18.32199,-33.99896,716.2800000000001 18.322,-33.99998,716.2800000000001 18.32205,-34.00115,716.2800000000001 18.32206,-34.00209,708.6600000000001 18.32222,-34.00323,708.6600000000001 18.32233,-34.00431,708.6600000000001 18.3225,-34.00529,701.0400000000001 18.32268,-34.00627,701.0400000000001 18.3229,-34.00722,693.4200000000001 18.32319,-34.00832,693.4200000000001 18.32346,-34.00946,693.4200000000001 18.32368,-34.01033,693.4200000000001 18.32402,-34.01152,685.8000000000001 18.32428,-34.01251,685.8000000000001 18.32475,-34.01363,685.8000000000001 18.32525,-34.01463,685.8000000000001 18.32587,-34.01578,678.1800000000001 18.32632,-34.01656,678.1800000000001 18.32677,-34.01752,678.1800000000001 18.32738,-34.0188,678.1800000000001 18.32771,-34.01958,678.1800000000001 18.32817,-34.02066,670.5600000000001 18.32863,-34.02177,685.8000000000001 18.32897,-34.0227,678.1800000000001 18.32943,-34.02387,678.1800000000001 18.32972,-34.02457,685.8000000000001 18.33017,-34.02591,685.8000000000001 18.33052,-34.02699,685.8000000000001 18.3308,-34.028,685.8000000000001 18.33103,-34.02885,678.1800000000001 18.33126,-34.02969,678.1800000000001 18.33149,-34.03062,670.5600000000001 18.33183,-34.03192,670.5600000000001 18.33206,-34.03294,670.5600000000001 18.33226,-34.03404,670.5600000000001 18.33243,-34.03491,670.5600000000001 18.33254,-34.03596,662.94 18.33263,-34.03676,662.94 18.33276,-34.0378,662.94 18.33286,-34.03886,655.32 18.33292,-34.03993,662.94 18.33298,-34.04086,662.94 18.33309,-34.04216,662.94 18.33321,-34.04311,655.32 18.33332,-34.04407,655.32 18.33344,-34.04523,655.32 18.33361,-34.04617,655.32 18.33377,-34.04713,655.32 18.33394,-34.04814,655.32 18.33412,-34.04924,662.94 18.33428,-34.05029,662.94 18.33439,-34.05121,662.94 18.33458,-34.05236,662.94 18.33469,-34.05329,662.94 18.33481,-34.05403,670.5600000000001 18.33489,-34.05524,670.5600000000001 18.33495,-34.05606,678.1800000000001 18.335,-34.05725,678.1800000000001 18.33506,-34.05835,685.8000000000001 18.33509,-34.0592,685.8000000000001 18.33512,-34.06046,693.4200000000001 18.33517,-34.06119,693.4200000000001 18.33515,-34.06255,701.0400000000001 18.33517,-34.06357,708.6600000000001 18.33509,-34.06451,716.2800000000001 18.335,-34.06558,723.9000000000001 18.33487,-34.06651,723.9000000000001 18.33469,-34.06772,739.14 18.33447,-34.06874,739.14 18.33429,-34.06977,746.76 18.33411,-34.07066,754.38 18.33405,-34.07176,762 18.33428,-34.07286,769.62 18.33478,-34.07378,769.62 18.33555,-34.07442,777.24 18.33669,-34.07497,777.24 18.33773,-34.07512,769.62 18.33898,-34.0751,769.62 18.3407,-34.07484,762 18.34212,-34.0746,762 18.34375,-34.07442,762 18.34509,-34.07442,762 18.34665,-34.07456,754.38 18.34791,-34.07475,754.38 18.34946,-34.07503,746.76 18.35098,-34.07538,746.76 18.35221,-34.07565,746.76 18.35335,-34.076,739.14 18.35479,-34.07648,739.14 18.35625,-34.07707,739.14 18.35752,-34.07763,731.52 18.35901,-34.07838,723.9000000000001 18.36012,-34.07899,723.9000000000001 18.36124,-34.07959,716.2800000000001 18.36247,-34.08032,716.2800000000001 18.36348,-34.08089,716.2800000000001 18.36488,-34.08179,708.6600000000001 18.36611,-34.08257,701.0400000000001 18.36708,-34.08322,701.0400000000001 18.36805,-34.08387,701.0400000000001 18.36931,-34.08476,693.4200000000001 18.37046,-34.08555,693.4200000000001 18.37137,-34.08625,693.4200000000001 18.37252,-34.08704,693.4200000000001 18.37349,-34.08778,693.4200000000001 18.37452,-34.08856,693.4200000000001 18.37549,-34.08932,693.4200000000001 18.37641,-34.08997,693.4200000000001 18.37744,-34.09076,693.4200000000001 18.37861,-34.09158,685.8000000000001 18.37957,-34.09232,678.1800000000001 18.38063,-34.09309,662.94 18.38161,-34.09388,647.7 18.38276,-34.09481,647.7 18.38366,-34.09557,640.08 18.38478,-34.09648,640.08 18.38579,-34.09726,632.46 18.38708,-34.09822,632.46 18.38831,-34.09909,624.84 18.3894,-34.09989,617.22 18.39037,-34.10063,617.22 18.39134,-34.10133,609.6 18.39268,-34.10225,609.6 18.39363,-34.10296,609.6 18.39481,-34.10376,601.98 18.39603,-34.10459,594.36 18.39722,-34.10536,594.36 18.39829,-34.10605,594.36 18.39958,-34.10687,586.74 18.40081,-34.1077,586.74 18.40193,-34.10841,579.12 18.40322,-34.10925,586.74 18.40429,-34.10989,579.12 18.40529,-34.11058,579.12 18.40673,-34.11153,579.12 18.40776,-34.11223,579.12 18.40894,-34.11296,579.12 18.40988,-34.11362,579.12 18.4109,-34.11424,579.12 18.41219,-34.11507,579.12 18.4132,-34.11567,579.12 18.41434,-34.11637,579.12 18.41549,-34.11707,579.12 18.4164,-34.11762,579.12 18.41774,-34.11836,579.12 18.41903,-34.11909,579.12 18.42009,-34.11969,586.74 18.42149,-34.12042,586.74 18.42276,-34.12107,586.74 18.42407,-34.12167,586.74 18.4251,-34.12214,586.74 18.42659,-34.1228,594.36 18.42777,-34.12326,594.36 18.42929,-34.12386,594.36 18.43063,-34.12431,594.36 18.43191,-34.12474,594.36 18.43317,-34.12516,594.36 18.43466,-34.12558,586.74 18.43562,-34.12582,586.74 18.43735,-34.12624,586.74 18.43853,-34.12646,586.74 18.4401,-34.12674,579.12 18.44151,-34.12692,579.12 18.44285,-34.12711,579.12 18.44442,-34.12733,579.12 18.44542,-34.12745,579.12 18.44711,-34.12761,579.12 18.44851,-34.12768,571.5 18.45028,-34.12772,571.5 18.45177,-34.12759,571.5 18.45378,-34.1272,571.5 18.45514,-34.12679,563.88 18.45675,-34.12624,556.26 18.45793,-34.12569,556.26 18.45921,-34.12512,556.26 18.46028,-34.12454,556.26 18.46172,-34.12377,548.64 18.4628,-34.12317,541.02 18.46432,-34.12234,541.02 18.46539,-34.12172,541.02 18.46667,-34.12093,533.4 18.46774,-34.12015,533.4 18.46886,-34.11932,533.4 18.47013,-34.11832,533.4 18.47104,-34.11754,525.78 18.47211,-34.11653,525.78 18.473,-34.11572,525.78 18.47385,-34.11479,525.78 18.47486,-34.11369,525.78 18.47563,-34.11269,525.78 18.47637,-34.11168,518.1600000000001 18.477,-34.11073,510.54 18.47777,-34.10939,510.54 18.47839,-34.10825,502.92 18.47884,-34.10728,502.92 18.4794,-34.10596,502.92 18.47986,-34.10445,502.92 18.48013,-34.10312,502.92 18.48026,-34.10203,502.92 18.48041,-34.10083,502.92 18.48046,-34.09937,502.92 18.48049,-34.09816,502.92 18.48041,-34.09676,495.3 18.48032,-34.09537,495.3 18.48032,-34.09435,495.3 18.48024,-34.09296,495.3 18.48015,-34.09174,495.3 18.48009,-34.09039,495.3 18.48003,-34.0895,495.3 18.47996,-34.0881,502.92 18.47985,-34.08678,502.92 18.47979,-34.08568,502.92 18.47969,-34.08429,502.92 18.47968,-34.08334,502.92 18.47969,-34.08196,502.92 18.47969,-34.08075,502.92 18.47975,-34.07912,502.92 18.4798,-34.07805,510.54 18.47992,-34.07717,510.54 18.48013,-34.07593,518.1600000000001 18.48043,-34.07456,518.1600000000001 18.48078,-34.07349,518.1600000000001 18.48119,-34.07213,518.1600000000001 18.48158,-34.07098,518.1600000000001 18.48198,-34.06984,525.78 18.48242,-34.06865,525.78 18.48289,-34.06725,525.78 18.48321,-34.06622,525.78 18.48364,-34.06483,518.1600000000001 18.48398,-34.06376,525.78 18.48433,-34.06255,525.78 18.48466,-34.06137,525.78 18.485,-34.06004,525.78 18.4853,-34.05864,525.78 18.48558,-34.05729,525.78 18.48576,-34.05618,533.4 18.48598,-34.05506,533.4 18.48623,-34.05377,533.4 18.48652,-34.05208,533.4 18.48674,-34.05107,541.02 18.48702,-34.04965,541.02 18.48719,-34.04845,533.4 18.48747,-34.047,533.4 18.48764,-34.04604,541.02 18.48833,-34.04216,541.02 18.48913,-34.0369,548.64 18.48949,-34.03308,548.64 18.48959,-34.03183,556.26 18.48965,-34.03043,556.26 18.48965,-34.02933,556.26 18.48959,-34.02782,556.26 18.48959,-34.02652,563.88 18.48948,-34.02494,563.88 18.48943,-34.02402,563.88 18.4893,-34.02252,563.88 18.48921,-34.02122,563.88 18.48907,-34.01995,563.88 18.48898,-34.0188,563.88 18.48881,-34.01733,571.5 18.48867,-34.01586,571.5 18.48862,-34.01488,571.5 18.48842,-34.01317,571.5 18.48831,-34.01212,571.5 18.48792,-34.00676,548.64 18.48786,-34.0058,541.02 18.48787,-34.00436,533.4 18.48793,-34.00157,518.1600000000001 18.48797,-34.0004,518.1600000000001 18.48808,-33.99907,510.54 18.4882,-33.99756,502.92 18.48837,-33.99637,495.3 18.48856,-33.99496,495.3 18.48873,-33.99366,487.68 18.48893,-33.99248,487.68 18.48913,-33.99123,480.06 18.4893,-33.98984,480.06 18.48948,-33.98877,472.44 18.4897,-33.98746,472.44 18.48993,-33.98607,464.82000000000005 18.4901,-33.98486,457.20000000000005 18.49027,-33.9836,449.58000000000004 18.49045,-33.98253,449.58000000000004 18.49111,-33.97829,434.34000000000003 18.49119,-33.97704,434.34000000000003 18.49125,-33.97592,434.34000000000003 18.49119,-33.97475,426.72 18.49111,-33.9733,419.1 18.491,-33.97215,419.1 18.49085,-33.9707,411.48 18.49072,-33.96964,411.48 18.49049,-33.96826,411.48 18.49033,-33.96721,411.48 18.4901,-33.96565,403.86 18.48988,-33.96461,396.24 18.48965,-33.96326,396.24 18.48943,-33.96222,396.24 18.48913,-33.96074,396.24 18.48885,-33.95963,396.24 18.4885,-33.95832,388.62 18.48816,-33.95725,388.62 18.48775,-33.95613,381 18.48736,-33.95494,381 18.48679,-33.95353,381 18.4864,-33.95251,373.38 18.48584,-33.95123,373.38 18.48536,-33.95008,373.38 18.48455,-33.94849,373.38 18.48398,-33.94738,373.38 18.48343,-33.94629,373.38 18.48293,-33.94533,373.38 18.48225,-33.94395,373.38 18.4817,-33.94286,373.38 18.48101,-33.94133,373.38 18.48043,-33.94017,373.38 18.4799,-33.93906,373.38 18.4794,-33.93807,381 18.47889,-33.93705,381 18.47816,-33.93581,373.38 18.47752,-33.93476,365.76 18.47689,-33.93374,365.76 18.47614,-33.9326,358.14000000000004 18.4753,-33.93146,358.14000000000004 18.4746,-33.93039,358.14000000000004 18.47396,-33.92949,358.14000000000004 18.47322,-33.92844,350.52000000000004 18.4725,-33.92743,350.52000000000004 18.47157,-33.9262,350.52000000000004 18.47088,-33.92528,342.90000000000003 18.46985,-33.92397,342.90000000000003 18.46899,-33.92276,335.28000000000003 18.46819,-33.92178,327.66 18.46716,-33.92048,320.04 18.46613,-33.91927,320.04 18.46544,-33.91841,320.04 18.46454,-33.91745,312.42 18.46331,-33.91608,304.8 18.46252,-33.91517,304.8 18.46138,-33.91391,297.18 18.46006,-33.91247,297.18 18.45938,-33.91172,289.56 18.45832,-33.91054,289.56 18.45737,-33.90944,289.56 18.45658,-33.90852,289.56 18.45577,-33.90758,297.18 18.4549,-33.90651,297.18 18.454,-33.90541,297.18 18.45311,-33.90431,297.18 18.45227,-33.9034,297.18 18.45148,-33.90253,297.18 18.45075,-33.90166,289.56 18.44991,-33.90088,289.56 18.44896,-33.90004,289.56 18.44778,-33.89923,281.94 18.44679,-33.89864,274.32 18.44588,-33.89827,266.7 18.44459,-33.89795,266.7 18.44364,-33.8978,259.08000000000004 18.4425,-33.8978,243.84 18.4417,-33.8978,236.22 18.44027,-33.89794,213.36 18.43952,-33.89799,205.74 18.43861,-33.89813,190.5 18.43758,-33.89822,175.26000000000002 18.43668,-33.89836,160.02 18.43607,-33.89845,152.4 18.43511,-33.89859,144.78 18.43433,-33.89868,129.54000000000002 18.43366,-33.89877,114.30000000000001 18.43304,-33.89891,106.68 18.43226,-33.89905,91.44 18.43163,-33.89915,76.2 18.43091,-33.89932,60.96 18.43024,-33.89951,53.34 18.42979,-33.89964,45.72 18.42957,-33.89973,38.1 18.42922,-33.89981,30.48 18.42889,-33.89992,15.24 18.42856,-33.90005,15.24 18.42802,-33.90036,0 18.42773,-33.9006,0 18.42751,-33.90074,0</coordinates>
      </LineString>
    </Placemark>
  </Document>
</kml>
